{
  "type": "Feature",
  "id": "AR-AC-25",
  "properties": {
    "stateName": "ARUNACHAL PRADESH",
    "stateCode": "AR",
    "districtName": "LOHIT",
    "acNo": 25,
    "acName": "LEKANG",
    "seatType": null,
    "pcNo": 2,
    "pcName": "ARUNACHAL EAST",
    "quality": "unverified",
    "sources": [
      "TBD"
    ]
  },
  "geometry": {
    "type": "Polygon",
    "coordinates": [
      [
        [96.09649, 27.61357],
        [96.06144, 27.60644],
        [96.05336, 27.593],
        [96.00182, 27.55676],
        [95.9986, 27.55967],
        [95.87407, 27.54688],
        [95.86, 27.54361],
        [95.84144, 27.56209],
        [95.83328, 27.56016],
        [95.82351, 27.57428],
        [95.81455, 27.57407],
        [95.81226, 27.58359],
        [95.81811, 27.59684],
        [95.80562, 27.60111],
        [95.79254, 27.59784],
        [95.7904, 27.61187],
        [95.77856, 27.61875],
        [95.77911, 27.62488],
        [95.78941, 27.62591],
        [95.78837, 27.63374],
        [95.83462, 27.63647],
        [95.91165, 27.66087],
        [95.93578, 27.66083],
        [95.97394, 27.65901],
        [96.02783, 27.64529],
        [96.05697, 27.63592],
        [96.087, 27.61953],
        [96.09649, 27.61357]
      ]
    ]
  }
}
