{
  "type": "Feature",
  "id": "AR-AC-33",
  "properties": {
    "stateName": "ARUNACHAL PRADESH",
    "stateCode": "AR",
    "districtName": "CHANGLANG",
    "acNo": 33,
    "acName": "MIAO",
    "seatType": null,
    "pcNo": 2,
    "pcName": "ARUNACHAL EAST",
    "quality": "unverified",
    "sources": [
      "TBD"
    ]
  },
  "geometry": {
    "type": "Polygon",
    "coordinates": [
      [
        [96.72877, 27.64545],
        [96.7564, 27.62137],
        [96.76828, 27.61623],
        [96.7826, 27.64256],
        [96.80231, 27.6326],
        [96.82585, 27.63281],
        [96.84877, 27.62409],
        [96.86125, 27.63101],
        [96.89651, 27.616],
        [96.89288, 27.61591],
        [96.88953, 27.60451],
        [96.89021, 27.57938],
        [96.90837, 27.57938],
        [96.90669, 27.54432],
        [96.91957, 27.53668],
        [96.92652, 27.52703],
        [96.9277, 27.51214],
        [96.93534, 27.50831],
        [96.92602, 27.50797],
        [96.91047, 27.48668],
        [96.90338, 27.45278],
        [96.93235, 27.43135],
        [96.93474, 27.41533],
        [96.96238, 27.40162],
        [96.96039, 27.39456],
        [96.96762, 27.38118],
        [96.9621, 27.37293],
        [96.97862, 27.35636],
        [96.981, 27.34583],
        [96.99024, 27.34406],
        [96.99841, 27.31879],
        [97.00871, 27.3105],
        [97.01492, 27.31302],
        [97.02428, 27.30624],
        [97.02809, 27.30848],
        [97.04055, 27.28221],
        [97.05472, 27.27519],
        [97.0549, 27.26537],
        [97.08822, 27.23884],
        [97.0905, 27.21356],
        [97.12188, 27.19038],
        [97.12455, 27.1747],
        [97.1363, 27.16546],
        [97.14696, 27.16532],
        [97.15102, 27.14934],
        [97.16357, 27.14218],
        [97.16159, 27.12323],
        [97.14955, 27.11762],
        [97.13821, 27.09149],
        [97.125, 27.09576],
        [97.11914, 27.10433],
        [97.10543, 27.10465],
        [97.10043, 27.10897],
        [97.09477, 27.10401],
        [97.09681, 27.09676],
        [97.07659, 27.0992],
        [97.0709, 27.08983],
        [97.06344, 27.09177],
        [97.06197, 27.09919],
        [97.03386, 27.1185],
        [97.03622, 27.12416],
        [97.03056, 27.13137],
        [97.02717, 27.12947],
        [97.00867, 27.14019],
        [96.99287, 27.14023],
        [96.98416, 27.15437],
        [96.95588, 27.16423],
        [96.93126, 27.16163],
        [96.90134, 27.16856],
        [96.85989, 27.18985],
        [96.85468, 27.21078],
        [96.88561, 27.22693],
        [96.88781, 27.23552],
        [96.88149, 27.23985],
        [96.8879, 27.24776],
        [96.88497, 27.25929],
        [96.85817, 27.26205],
        [96.84688, 27.27164],
        [96.84807, 27.29038],
        [96.82216, 27.30913],
        [96.79846, 27.34405],
        [96.76682, 27.35735],
        [96.75132, 27.35264],
        [96.74521, 27.35842],
        [96.72947, 27.35941],
        [96.70368, 27.37231],
        [96.70232, 27.36004],
        [96.69769, 27.3577],
        [96.6756, 27.36141],
        [96.67248, 27.3577],
        [96.66035, 27.36441],
        [96.647, 27.35936],
        [96.62569, 27.36644],
        [96.60565, 27.36583],
        [96.59116, 27.34797],
        [96.59615, 27.33357],
        [96.58852, 27.33574],
        [96.56435, 27.31859],
        [96.5509, 27.3183],
        [96.55111, 27.3136],
        [96.54247, 27.30893],
        [96.54125, 27.3002],
        [96.53154, 27.29635],
        [96.52389, 27.28638],
        [96.51763, 27.28554],
        [96.50758, 27.29901],
        [96.49022, 27.30252],
        [96.48818, 27.29616],
        [96.4577, 27.30664],
        [96.45091, 27.3012],
        [96.44065, 27.30633],
        [96.42139, 27.30144],
        [96.40771, 27.28775],
        [96.40255, 27.29324],
        [96.39869, 27.29014],
        [96.40037, 27.30748],
        [96.41137, 27.32362],
        [96.42121, 27.36501],
        [96.41443, 27.39851],
        [96.39555, 27.4174],
        [96.37182, 27.42525],
        [96.26396, 27.42876],
        [96.17867, 27.41546],
        [96.15338, 27.46439],
        [96.14385, 27.527],
        [96.29387, 27.53353],
        [96.33731, 27.52889],
        [96.39618, 27.51491],
        [96.4763, 27.50678],
        [96.57941, 27.46948],
        [96.60543, 27.46483],
        [96.60453, 27.49152],
        [96.61805, 27.52041],
        [96.72877, 27.64545]
      ]
    ]
  }
}
