{
  "type": "Feature",
  "id": "AR-AC-5",
  "properties": {
    "stateName": "ARUNACHAL PRADESH",
    "stateCode": "AR",
    "districtName": "WEST SIANG",
    "acNo": 5,
    "acName": "BASAR",
    "seatType": null,
    "pcNo": 1,
    "pcName": "ARUNACHAL WEST",
    "quality": "unverified",
    "sources": [
      "TBD"
    ]
  },
  "geometry": {
    "type": "Polygon",
    "coordinates": [
      [
        [94.91744, 28.06075],
        [94.93038, 28.04793],
        [94.90951, 28.03505],
        [94.90172, 28.02038],
        [94.88642, 28.01233],
        [94.88031, 28.00036],
        [94.90014, 27.99582],
        [94.92153, 27.99749],
        [94.95696, 27.9809],
        [94.95655, 27.97425],
        [94.95341, 27.95573],
        [94.94612, 27.94927],
        [94.94676, 27.93733],
        [94.92677, 27.90596],
        [94.92423, 27.88948],
        [94.90551, 27.88044],
        [94.90906, 27.8599],
        [94.9289, 27.85706],
        [94.90512, 27.84245],
        [94.90889, 27.83386],
        [94.90084, 27.82906],
        [94.89067, 27.81],
        [94.89488, 27.80828],
        [94.80964, 27.80798],
        [94.73527, 27.82183],
        [94.70957, 27.83223],
        [94.68238, 27.851],
        [94.67046, 27.86089],
        [94.6581, 27.88401],
        [94.59287, 27.89005],
        [94.55799, 27.9025],
        [94.5425, 27.9255],
        [94.52272, 27.96649],
        [94.53201, 27.98603],
        [94.51293, 28.0155],
        [94.48417, 28.02181],
        [94.46702, 28.04883],
        [94.45435, 28.05437],
        [94.51938, 28.05619],
        [94.56152, 28.07143],
        [94.63041, 28.10824],
        [94.67744, 28.1205],
        [94.68147, 28.09495],
        [94.69756, 28.06464],
        [94.70607, 28.05835],
        [94.72887, 28.04812],
        [94.77653, 28.05081],
        [94.87138, 28.04309],
        [94.90305, 28.05222],
        [94.91744, 28.06075]
      ]
    ]
  }
}
