{
  "type": "Feature",
  "id": "AR-AC-56",
  "properties": {
    "stateName": "ARUNACHAL PRADESH",
    "stateCode": "AR",
    "districtName": "LOHIT",
    "acNo": 56,
    "acName": "TEZU",
    "seatType": null,
    "pcNo": 2,
    "pcName": "ARUNACHAL EAST",
    "quality": "unverified",
    "sources": [
      "TBD"
    ]
  },
  "geometry": {
    "type": "Polygon",
    "coordinates": [
      [
        [96.02612, 28.13564],
        [96.03273, 28.1471],
        [96.03019, 28.16022],
        [96.04663, 28.17161],
        [96.05166, 28.19732],
        [96.08269, 28.18941],
        [96.1045, 28.18972],
        [96.1176, 28.17795],
        [96.14193, 28.17001],
        [96.1438, 28.17532],
        [96.16837, 28.18715],
        [96.21544, 28.23099],
        [96.23014, 28.23878],
        [96.2678, 28.23903],
        [96.23817, 28.29962],
        [96.25519, 28.30921],
        [96.26672, 28.33039],
        [96.29038, 28.34465],
        [96.29646, 28.36674],
        [96.304, 28.37402],
        [96.32852, 28.35442],
        [96.33708, 28.33958],
        [96.33439, 28.32797],
        [96.30171, 28.28377],
        [96.29495, 28.26792],
        [96.29542, 28.24926],
        [96.29785, 28.23659],
        [96.33546, 28.18515],
        [96.33551, 28.17221],
        [96.32589, 28.14787],
        [96.3272, 28.13118],
        [96.30229, 28.10583],
        [96.27297, 28.09126],
        [96.27329, 28.08037],
        [96.28778, 28.06181],
        [96.3709, 27.99788],
        [96.39179, 27.97502],
        [96.39646, 27.95746],
        [96.41643, 27.92332],
        [96.43093, 27.91405],
        [96.52876, 27.90073],
        [96.58594, 27.85334],
        [96.60834, 27.85978],
        [96.61387, 27.85764],
        [96.62018, 27.84818],
        [96.61912, 27.83587],
        [96.63022, 27.82746],
        [96.6344, 27.81512],
        [96.63462, 27.80371],
        [96.62853, 27.79546],
        [96.5348, 27.78594],
        [96.47653, 27.79283],
        [96.42503, 27.80541],
        [96.3195, 27.81443],
        [96.29682, 27.82242],
        [96.26159, 27.84502],
        [96.19651, 27.86059],
        [96.16731, 27.86223],
        [96.0716, 27.84725],
        [96.04436, 27.85048],
        [95.99475, 27.84454],
        [95.96089, 27.83852],
        [95.91855, 27.84999],
        [95.88701, 27.85321],
        [95.89009, 27.86005],
        [95.89507, 27.85744],
        [95.89501, 27.86221],
        [95.90457, 27.862],
        [95.901, 27.86777],
        [95.90635, 27.86603],
        [95.91056, 27.87035],
        [95.91527, 27.88364],
        [95.92493, 27.88188],
        [95.91527, 27.8892],
        [95.92322, 27.88793],
        [95.91904, 27.89496],
        [95.92601, 27.89876],
        [95.92832, 27.89522],
        [95.93742, 27.89839],
        [95.92966, 27.9031],
        [95.94069, 27.90568],
        [95.93506, 27.90918],
        [95.95251, 27.92041],
        [95.9482, 27.92404],
        [95.95438, 27.93152],
        [95.94842, 27.93182],
        [95.94783, 27.93708],
        [95.97101, 27.9613],
        [95.99119, 27.97476],
        [95.98742, 28.0005],
        [95.99332, 28.05243],
        [95.97986, 28.07218],
        [96.00162, 28.09559],
        [96.00497, 28.11113],
        [96.02535, 28.13004],
        [96.02612, 28.13564]
      ]
    ]
  }
}
