{
  "type": "Feature",
  "id": "JH-AC-14",
  "properties": {
    "stateName": "JHARKHAND",
    "stateCode": "JH",
    "districtName": "JAMTARA",
    "acNo": 14,
    "acName": "SARATH",
    "seatType": null,
    "pcNo": null,
    "pcName": null,
    "quality": "unverified",
    "sources": [
      "TBD"
    ]
  },
  "geometry": {
    "type": "Polygon",
    "coordinates": [
      [
        [86.69759, 24.11974],
        [86.69765, 24.11826],
        [86.69755, 24.11618],
        [86.69775, 24.11402],
        [86.69847, 24.11253],
        [86.69894, 24.1122],
        [86.7039, 24.10945],
        [86.70624, 24.10793],
        [86.7075, 24.10745],
        [86.70829, 24.1065],
        [86.70899, 24.1059],
        [86.70981, 24.10574],
        [86.7109, 24.10613],
        [86.71127, 24.1064],
        [86.71157, 24.10686],
        [86.71169, 24.10739],
        [86.71236, 24.10696],
        [86.71321, 24.10686],
        [86.71391, 24.10703],
        [86.7153, 24.10683],
        [86.71622, 24.10653],
        [86.71708, 24.10637],
        [86.71748, 24.1067],
        [86.718, 24.10696],
        [86.71837, 24.10686],
        [86.7187, 24.10676],
        [86.71932, 24.1063],
        [86.72038, 24.106],
        [86.72154, 24.10531],
        [86.72227, 24.10475],
        [86.72256, 24.10442],
        [86.72296, 24.10425],
        [86.72313, 24.10359],
        [86.72395, 24.10326],
        [86.72501, 24.1027],
        [86.72629, 24.1026],
        [86.72723, 24.10207],
        [86.72762, 24.10184],
        [86.72838, 24.10227],
        [86.72907, 24.1026],
        [86.73019, 24.10134],
        [86.73076, 24.10045],
        [86.73254, 24.09972],
        [86.73396, 24.09877],
        [86.73565, 24.09862],
        [86.73694, 24.09881],
        [86.73756, 24.09871],
        [86.73843, 24.09786],
        [86.73892, 24.09696],
        [86.73925, 24.0962],
        [86.73994, 24.09637],
        [86.74123, 24.09733],
        [86.74209, 24.09683],
        [86.74344, 24.09548],
        [86.74428, 24.09544],
        [86.74543, 24.09653],
        [86.74612, 24.09614],
        [86.74679, 24.09508],
        [86.74721, 24.09475],
        [86.74785, 24.09476],
        [86.74828, 24.09468],
        [86.74962, 24.09402],
        [86.75098, 24.09369],
        [86.75201, 24.09335],
        [86.75247, 24.09344],
        [86.753, 24.09355],
        [86.75353, 24.09359],
        [86.75358, 24.09359],
        [86.75477, 24.09333],
        [86.75549, 24.09295],
        [86.75622, 24.09232],
        [86.75676, 24.09218],
        [86.75804, 24.09227],
        [86.75957, 24.09265],
        [86.76053, 24.09277],
        [86.7612, 24.0929],
        [86.76172, 24.09242],
        [86.76212, 24.09191],
        [86.76256, 24.09147],
        [86.76373, 24.09079],
        [86.76458, 24.09016],
        [86.76491, 24.08932],
        [86.76568, 24.0884],
        [86.76615, 24.08795],
        [86.7664, 24.08757],
        [86.76671, 24.08693],
        [86.76727, 24.08582],
        [86.76725, 24.08558],
        [86.76638, 24.08533],
        [86.76507, 24.08488],
        [86.76453, 24.08429],
        [86.76411, 24.08349],
        [86.76367, 24.08317],
        [86.76324, 24.08283],
        [86.76224, 24.08276],
        [86.76144, 24.08297],
        [86.76118, 24.08307],
        [86.76093, 24.0829],
        [86.76084, 24.08267],
        [86.76102, 24.0822],
        [86.7612, 24.08182],
        [86.76099, 24.08126],
        [86.76079, 24.08114],
        [86.76022, 24.08116],
        [86.75982, 24.08159],
        [86.75907, 24.08251],
        [86.75871, 24.08297],
        [86.75858, 24.08307],
        [86.75792, 24.08149],
        [86.75758, 24.08062],
        [86.75739, 24.07965],
        [86.75823, 24.07946],
        [86.7591, 24.07931],
        [86.76058, 24.07821],
        [86.7621, 24.07738],
        [86.76343, 24.07709],
        [86.76392, 24.07689],
        [86.76458, 24.07625],
        [86.76507, 24.07549],
        [86.76544, 24.07518],
        [86.76579, 24.07513],
        [86.76618, 24.07511],
        [86.76655, 24.07478],
        [86.76638, 24.07461],
        [86.76636, 24.07433],
        [86.76685, 24.07417],
        [86.76724, 24.07346],
        [86.7675, 24.07282],
        [86.76776, 24.07188],
        [86.76785, 24.07159],
        [86.76837, 24.07149],
        [86.769, 24.07125],
        [86.76945, 24.0709],
        [86.77001, 24.0702],
        [86.77045, 24.06996],
        [86.77076, 24.06989],
        [86.77097, 24.06937],
        [86.77123, 24.06862],
        [86.77144, 24.0684],
        [86.77153, 24.0684],
        [86.7716, 24.06834],
        [86.77185, 24.06733],
        [86.77245, 24.06668],
        [86.77235, 24.06651],
        [86.77403, 24.06665],
        [86.7748, 24.06688],
        [86.77526, 24.06691],
        [86.77583, 24.06759],
        [86.77599, 24.06778],
        [86.77628, 24.06769],
        [86.77713, 24.06721],
        [86.77755, 24.06705],
        [86.77797, 24.06724],
        [86.77866, 24.06736],
        [86.77991, 24.06726],
        [86.78088, 24.06688],
        [86.78207, 24.06635],
        [86.78313, 24.06577],
        [86.78359, 24.06535],
        [86.7846, 24.06491],
        [86.78563, 24.0649],
        [86.78619, 24.06484],
        [86.78683, 24.06469],
        [86.7874, 24.06456],
        [86.78809, 24.06414],
        [86.78853, 24.06367],
        [86.78886, 24.06336],
        [86.78937, 24.06303],
        [86.78966, 24.06322],
        [86.79034, 24.06377],
        [86.79141, 24.06459],
        [86.79159, 24.0648],
        [86.79167, 24.06479],
        [86.79285, 24.06612],
        [86.79351, 24.06705],
        [86.79331, 24.06809],
        [86.79293, 24.06924],
        [86.79277, 24.06943],
        [86.79237, 24.0699],
        [86.79237, 24.0706],
        [86.79274, 24.07214],
        [86.7929, 24.07347],
        [86.79289, 24.0738],
        [86.79288, 24.07417],
        [86.79287, 24.07458],
        [86.79288, 24.07638],
        [86.79281, 24.07798],
        [86.79294, 24.07877],
        [86.79404, 24.07863],
        [86.79574, 24.07802],
        [86.79842, 24.07758],
        [86.79924, 24.07766],
        [86.7998, 24.07837],
        [86.80086, 24.07948],
        [86.80153, 24.08023],
        [86.80191, 24.08108],
        [86.80182, 24.08193],
        [86.80182, 24.08279],
        [86.80259, 24.08312],
        [86.80346, 24.08317],
        [86.80534, 24.08291],
        [86.80568, 24.08206],
        [86.80493, 24.08086],
        [86.80496, 24.08033],
        [86.8057, 24.07957],
        [86.8067, 24.07989],
        [86.80791, 24.08083],
        [86.80877, 24.08094],
        [86.80915, 24.08076],
        [86.80956, 24.07954],
        [86.8102, 24.07921],
        [86.81136, 24.08041],
        [86.81172, 24.08119],
        [86.81177, 24.08245],
        [86.81262, 24.0832],
        [86.81413, 24.08333],
        [86.81476, 24.08288],
        [86.81483, 24.08248],
        [86.81453, 24.08171],
        [86.81427, 24.08004],
        [86.81442, 24.0778],
        [86.81475, 24.07629],
        [86.8153, 24.0746],
        [86.81607, 24.07351],
        [86.81725, 24.07246],
        [86.81791, 24.07208],
        [86.81897, 24.07193],
        [86.81905, 24.07155],
        [86.81862, 24.06945],
        [86.81829, 24.067],
        [86.81817, 24.06628],
        [86.81794, 24.06619],
        [86.81845, 24.06561],
        [86.81882, 24.06497],
        [86.82038, 24.06472],
        [86.81983, 24.06413],
        [86.8197, 24.06339],
        [86.82082, 24.06345],
        [86.82142, 24.06317],
        [86.82199, 24.06214],
        [86.82273, 24.06156],
        [86.82376, 24.06156],
        [86.82518, 24.0624],
        [86.82543, 24.06304],
        [86.82622, 24.06304],
        [86.82688, 24.06277],
        [86.82794, 24.06272],
        [86.82825, 24.06246],
        [86.82974, 24.06276],
        [86.83002, 24.06255],
        [86.83117, 24.06143],
        [86.83279, 24.05949],
        [86.83339, 24.05757],
        [86.83396, 24.0556],
        [86.83468, 24.05412],
        [86.83674, 24.05182],
        [86.83795, 24.05021],
        [86.83872, 24.05033],
        [86.83997, 24.0507],
        [86.8417, 24.05087],
        [86.84285, 24.05143],
        [86.84383, 24.05137],
        [86.84467, 24.05171],
        [86.84674, 24.05186],
        [86.84682, 24.05187],
        [86.84747, 24.04785],
        [86.84787, 24.04503],
        [86.84983, 24.0431],
        [86.85029, 24.04169],
        [86.84966, 24.03844],
        [86.84857, 24.03661],
        [86.84698, 24.03367],
        [86.84668, 24.0342],
        [86.83751, 24.02874],
        [86.82933, 24.02509],
        [86.82118, 24.02522],
        [86.81313, 24.02598],
        [86.80665, 24.02718],
        [86.79988, 24.02712],
        [86.79378, 24.0277],
        [86.78729, 24.02574],
        [86.78214, 24.02098],
        [86.77897, 24.01549],
        [86.77276, 24.01434],
        [86.766, 24.01491],
        [86.76169, 24.01701],
        [86.75571, 24.01848],
        [86.7454, 24.02006],
        [86.73981, 24.02108],
        [86.7343, 24.01948],
        [86.7274, 24.01643],
        [86.72248, 24.01556],
        [86.71829, 24.01927],
        [86.71399, 24.02398],
        [86.70822, 24.02906],
        [86.70579, 24.03232],
        [86.71016, 24.03861],
        [86.71059, 24.04385],
        [86.711, 24.0471],
        [86.70917, 24.05297],
        [86.70438, 24.05759],
        [86.70078, 24.06239],
        [86.69668, 24.06773],
        [86.6921, 24.07334],
        [86.68957, 24.07814],
        [86.68716, 24.08446],
        [86.68691, 24.0905],
        [86.68842, 24.09853],
        [86.69074, 24.10782],
        [86.69592, 24.11762],
        [86.69759, 24.11974]
      ]
    ]
  }
}
