{
  "type": "Feature",
  "id": "JH-AC-33",
  "properties": {
    "stateName": "JHARKHAND",
    "stateCode": "JH",
    "districtName": "GIRIDIH",
    "acNo": 33,
    "acName": "DUMRI",
    "seatType": null,
    "pcNo": null,
    "pcName": null,
    "quality": "unverified",
    "sources": [
      "TBD"
    ]
  },
  "geometry": {
    "type": "Polygon",
    "coordinates": [
      [
        [86.08222, 24.18616],
        [86.0865, 24.18505],
        [86.09033, 24.18278],
        [86.09209, 24.17936],
        [86.09475, 24.17503],
        [86.10094, 24.17475],
        [86.10516, 24.17304],
        [86.10822, 24.1734],
        [86.11343, 24.17502],
        [86.11726, 24.17754],
        [86.12032, 24.17826],
        [86.12395, 24.17654],
        [86.12709, 24.17203],
        [86.12826, 24.16653],
        [86.12943, 24.16364],
        [86.13327, 24.16129],
        [86.13847, 24.15993],
        [86.14367, 24.15741],
        [86.14839, 24.15532],
        [86.15202, 24.15388],
        [86.15674, 24.15081],
        [86.16104, 24.14665],
        [86.1697, 24.14511],
        [86.17511, 24.14474],
        [86.17884, 24.14095],
        [86.18274, 24.13563],
        [86.18656, 24.12705],
        [86.18763, 24.11856],
        [86.18641, 24.10927],
        [86.18375, 24.10476],
        [86.18078, 24.10125],
        [86.17637, 24.09791],
        [86.17192, 24.09322],
        [86.16848, 24.0898],
        [86.16494, 24.08719],
        [86.16031, 24.08467],
        [86.15609, 24.08358],
        [86.15077, 24.08322],
        [86.14351, 24.08513],
        [86.13811, 24.08793],
        [86.13368, 24.09117],
        [86.12948, 24.0947],
        [86.12672, 24.09651],
        [86.12506, 24.09741],
        [86.12035, 24.09967],
        [86.11583, 24.10013],
        [86.1111, 24.09886],
        [86.10934, 24.09643],
        [86.10715, 24.08948],
        [86.10793, 24.08343],
        [86.10947, 24.07549],
        [86.1127, 24.069],
        [86.1182, 24.06177],
        [86.12654, 24.05662],
        [86.13243, 24.05166],
        [86.13634, 24.04795],
        [86.13967, 24.04199],
        [86.14073, 24.0364],
        [86.13865, 24.02783],
        [86.1357, 24.02214],
        [86.1301, 24.01926],
        [86.12027, 24.01765],
        [86.10993, 24.01313],
        [86.10669, 24.00899],
        [86.10205, 23.99681],
        [86.09998, 23.98751],
        [86.09563, 23.97921],
        [86.09543, 23.9765],
        [86.09335, 23.97037],
        [86.09394, 23.96432],
        [86.09362, 23.95503],
        [86.09625, 23.94844],
        [86.10194, 23.94357],
        [86.1092, 23.94077],
        [86.1195, 23.93778],
        [86.12706, 23.93462],
        [86.133, 23.93183],
        [86.13227, 23.93076],
        [86.1309, 23.92611],
        [86.12954, 23.922],
        [86.12759, 23.91863],
        [86.12599, 23.91705],
        [86.12703, 23.91504],
        [86.12831, 23.91249],
        [86.12874, 23.91062],
        [86.12697, 23.90985],
        [86.12602, 23.9089],
        [86.12568, 23.90768],
        [86.12583, 23.90501],
        [86.12554, 23.90231],
        [86.12363, 23.90108],
        [86.12177, 23.89896],
        [86.11967, 23.89651],
        [86.11673, 23.89474],
        [86.11607, 23.89439],
        [86.11098, 23.89322],
        [86.11009, 23.89132],
        [86.09247, 23.88981],
        [86.06901, 23.89603],
        [86.06022, 23.89893],
        [86.05437, 23.90248],
        [86.05107, 23.90354],
        [86.04914, 23.90416],
        [86.04094, 23.90236],
        [86.03359, 23.8997],
        [86.02977, 23.8993],
        [86.02642, 23.90054],
        [86.02439, 23.90237],
        [86.02286, 23.90611],
        [86.01983, 23.90992],
        [86.01572, 23.91193],
        [86.00759, 23.91169],
        [86.00371, 23.91028],
        [85.99776, 23.91183],
        [85.99689, 23.91187],
        [85.99488, 23.91176],
        [85.9931, 23.91116],
        [85.99035, 23.91015],
        [85.99022, 23.90705],
        [85.98899, 23.907],
        [85.98835, 23.90714],
        [85.98773, 23.90708],
        [85.9871, 23.90773],
        [85.98634, 23.90787],
        [85.98637, 23.90745],
        [85.98639, 23.90616],
        [85.98555, 23.90549],
        [85.9849, 23.90552],
        [85.98397, 23.90532],
        [85.98351, 23.90473],
        [85.98278, 23.90442],
        [85.98247, 23.904],
        [85.98119, 23.90397],
        [85.97941, 23.90305],
        [85.97885, 23.90234],
        [85.97837, 23.90212],
        [85.97721, 23.90195],
        [85.97633, 23.9017],
        [85.97594, 23.90077],
        [85.97565, 23.90049],
        [85.9743, 23.90029],
        [85.97423, 23.89977],
        [85.97387, 23.89921],
        [85.97342, 23.89837],
        [85.97345, 23.89696],
        [85.97279, 23.89665],
        [85.97251, 23.89581],
        [85.97251, 23.8946],
        [85.97203, 23.89387],
        [85.97135, 23.89336],
        [85.96946, 23.89353],
        [85.96767, 23.8945],
        [85.96661, 23.89548],
        [85.96635, 23.89647],
        [85.96621, 23.89841],
        [85.96663, 23.89962],
        [85.96646, 23.90133],
        [85.96581, 23.90198],
        [85.96527, 23.90243],
        [85.96459, 23.90226],
        [85.9633, 23.90141],
        [85.96191, 23.90063],
        [85.96063, 23.90021],
        [85.96053, 23.90075],
        [85.96018, 23.90224],
        [85.95999, 23.90396],
        [85.9599, 23.90634],
        [85.9599, 23.90788],
        [85.96018, 23.91036],
        [85.96123, 23.91222],
        [85.96225, 23.91326],
        [85.96225, 23.91371],
        [85.96035, 23.91456],
        [85.95846, 23.91543],
        [85.95735, 23.91695],
        [85.95586, 23.91828],
        [85.95555, 23.91975],
        [85.95555, 23.92115],
        [85.95475, 23.92168],
        [85.95393, 23.92205],
        [85.95345, 23.92199],
        [85.95274, 23.9218],
        [85.95215, 23.92194],
        [85.95167, 23.92284],
        [85.95062, 23.92309],
        [85.94876, 23.92284],
        [85.94746, 23.92343],
        [85.94599, 23.92396],
        [85.94565, 23.92482],
        [85.94454, 23.92642],
        [85.9437, 23.92785],
        [85.94316, 23.92937],
        [85.9431, 23.93096],
        [85.94375, 23.932],
        [85.94486, 23.93467],
        [85.94573, 23.93684],
        [85.94593, 23.93816],
        [85.94573, 23.93866],
        [85.9446, 23.93855],
        [85.94364, 23.93762],
        [85.94061, 23.9353],
        [85.93869, 23.93201],
        [85.93747, 23.93109],
        [85.93601, 23.93061],
        [85.93467, 23.92996],
        [85.9336, 23.92861],
        [85.93349, 23.92802],
        [85.93216, 23.92625],
        [85.93114, 23.92552],
        [85.93041, 23.92575],
        [85.92967, 23.92662],
        [85.92871, 23.92816],
        [85.92829, 23.9304],
        [85.92817, 23.93147],
        [85.92794, 23.93341],
        [85.92752, 23.93682],
        [85.92735, 23.93798],
        [85.92741, 23.93938],
        [85.92755, 23.94209],
        [85.92746, 23.94297],
        [85.92698, 23.94488],
        [85.92574, 23.94631],
        [85.92501, 23.94679],
        [85.92376, 23.94749],
        [85.92232, 23.94774],
        [85.92107, 23.94788],
        [85.91946, 23.94766],
        [85.91817, 23.94707],
        [85.91681, 23.94631],
        [85.91644, 23.94533],
        [85.91605, 23.9453],
        [85.91505, 23.94614],
        [85.91132, 23.94821],
        [85.91167, 23.94978],
        [85.91197, 23.95221],
        [85.91208, 23.95561],
        [85.9144, 23.95597],
        [85.91475, 23.9562],
        [85.91526, 23.95623],
        [85.91567, 23.95705],
        [85.91665, 23.95788],
        [85.91771, 23.95814],
        [85.91917, 23.95806],
        [85.92029, 23.95826],
        [85.92065, 23.95844],
        [85.92162, 23.95844],
        [85.92283, 23.95826],
        [85.92452, 23.95743],
        [85.92597, 23.95666],
        [85.92719, 23.95625],
        [85.92751, 23.95643],
        [85.9282, 23.95782],
        [85.92875, 23.95823],
        [85.92958, 23.95853],
        [85.92988, 23.95924],
        [85.92949, 23.9601],
        [85.92941, 23.96024],
        [85.92985, 23.9614],
        [85.93006, 23.9622],
        [85.92949, 23.96329],
        [85.92976, 23.96535],
        [85.93012, 23.96594],
        [85.9316, 23.96624],
        [85.93157, 23.96695],
        [85.93023, 23.96876],
        [85.93029, 23.96964],
        [85.93035, 23.9712],
        [85.92993, 23.9723],
        [85.92994, 23.9731],
        [85.93006, 23.97386],
        [85.9308, 23.97425],
        [85.93113, 23.97505],
        [85.9305, 23.97665],
        [85.93029, 23.97859],
        [85.9302, 23.97989],
        [85.93004, 23.97998],
        [85.93203, 23.98472],
        [85.93656, 23.98797],
        [85.93911, 23.98996],
        [85.94195, 23.99231],
        [85.94372, 23.99086],
        [85.94734, 23.98969],
        [85.94952, 23.99203],
        [85.95031, 23.99538],
        [85.95336, 23.99953],
        [85.95846, 23.99944],
        [85.96868, 23.99727],
        [85.97564, 23.99845],
        [85.98086, 24.0026],
        [85.98843, 24.00929],
        [85.99521, 24.01804],
        [85.99956, 24.02552],
        [86.00299, 24.03375],
        [86.0041, 24.04231],
        [86.00586, 24.04656],
        [86.01079, 24.05026],
        [86.01541, 24.05215],
        [86.01738, 24.05855],
        [86.01759, 24.06298],
        [86.0164, 24.06686],
        [86.01396, 24.07092],
        [86.01406, 24.07372],
        [86.01387, 24.07787],
        [86.01436, 24.08057],
        [86.01555, 24.08409],
        [86.01565, 24.08852],
        [86.01773, 24.09284],
        [86.01901, 24.09763],
        [86.01971, 24.10052],
        [86.01872, 24.10412],
        [86.01568, 24.10674],
        [86.01411, 24.10836],
        [86.01214, 24.11107],
        [86.01206, 24.11522],
        [86.01334, 24.11883],
        [86.01688, 24.12271],
        [86.01984, 24.12425],
        [86.0278, 24.12542],
        [86.03006, 24.12578],
        [86.03164, 24.12794],
        [86.03271, 24.13047],
        [86.03302, 24.13417],
        [86.03283, 24.13787],
        [86.03274, 24.14103],
        [86.03716, 24.14184],
        [86.04091, 24.145],
        [86.04376, 24.14834],
        [86.04534, 24.15113],
        [86.04888, 24.15474],
        [86.04938, 24.15754],
        [86.04969, 24.16088],
        [86.05008, 24.1662],
        [86.05156, 24.16674],
        [86.05519, 24.16836],
        [86.05934, 24.17098],
        [86.06318, 24.17387],
        [86.06791, 24.17738],
        [86.07105, 24.1791],
        [86.07538, 24.18162],
        [86.07844, 24.18406],
        [86.08222, 24.18616]
      ]
    ]
  }
}
