{
  "type": "Feature",
  "id": "JH-AC-4",
  "properties": {
    "stateName": "JHARKHAND",
    "stateCode": "JH",
    "districtName": "PAKUR",
    "acNo": 4,
    "acName": "LITIPARA",
    "seatType": null,
    "pcNo": null,
    "pcName": null,
    "quality": "unverified",
    "sources": [
      "TBD"
    ]
  },
  "geometry": {
    "type": "Polygon",
    "coordinates": [
      [
        [87.5496, 24.82959],
        [87.54994, 24.82953],
        [87.55054, 24.82961],
        [87.551, 24.82967],
        [87.55117, 24.82963],
        [87.55136, 24.82949],
        [87.5519, 24.82913],
        [87.55263, 24.82877],
        [87.55289, 24.82877],
        [87.55353, 24.82892],
        [87.55404, 24.82903],
        [87.55435, 24.82911],
        [87.55462, 24.82898],
        [87.55471, 24.82878],
        [87.55456, 24.82832],
        [87.55408, 24.82821],
        [87.55389, 24.82794],
        [87.55387, 24.82773],
        [87.55397, 24.8275],
        [87.55431, 24.82708],
        [87.55481, 24.82666],
        [87.55523, 24.82629],
        [87.55529, 24.82616],
        [87.55531, 24.8261],
        [87.55533, 24.82539],
        [87.55519, 24.82516],
        [87.55487, 24.82459],
        [87.55475, 24.82415],
        [87.5547, 24.82395],
        [87.55473, 24.82369],
        [87.55483, 24.82353],
        [87.55506, 24.82336],
        [87.55523, 24.82322],
        [87.55611, 24.82298],
        [87.55644, 24.82282],
        [87.55715, 24.8224],
        [87.55736, 24.82224],
        [87.55743, 24.82199],
        [87.55763, 24.82138],
        [87.55793, 24.82079],
        [87.55851, 24.81973],
        [87.55939, 24.81902],
        [87.55975, 24.81885],
        [87.56063, 24.81764],
        [87.56077, 24.81728],
        [87.56123, 24.81695],
        [87.56182, 24.81707],
        [87.56317, 24.81705],
        [87.56365, 24.81694],
        [87.56446, 24.81648],
        [87.56624, 24.81525],
        [87.56752, 24.81441],
        [87.56827, 24.81376],
        [87.56846, 24.81353],
        [87.56857, 24.81312],
        [87.56861, 24.8126],
        [87.56867, 24.81244],
        [87.56877, 24.81218],
        [87.5689, 24.81185],
        [87.5689, 24.81177],
        [87.56886, 24.81026],
        [87.56888, 24.80997],
        [87.56901, 24.80972],
        [87.56932, 24.80936],
        [87.56999, 24.80882],
        [87.57081, 24.80859],
        [87.57129, 24.80865],
        [87.57171, 24.80882],
        [87.57211, 24.80907],
        [87.57249, 24.80917],
        [87.57295, 24.80917],
        [87.57322, 24.80909],
        [87.57345, 24.80892],
        [87.57397, 24.80838],
        [87.57456, 24.80809],
        [87.57481, 24.80807],
        [87.5751, 24.80815],
        [87.57519, 24.80827],
        [87.57523, 24.8085],
        [87.57565, 24.80899],
        [87.57579, 24.80915],
        [87.57609, 24.80928],
        [87.57634, 24.80936],
        [87.57732, 24.8099],
        [87.57778, 24.81013],
        [87.57824, 24.81043],
        [87.5789, 24.81066],
        [87.58011, 24.81072],
        [87.5813, 24.8102],
        [87.58275, 24.80939],
        [87.58369, 24.80893],
        [87.58425, 24.80901],
        [87.58528, 24.80932],
        [87.58622, 24.80951],
        [87.58704, 24.8101],
        [87.588, 24.81052],
        [87.58858, 24.81043],
        [87.58967, 24.81037],
        [87.59012, 24.81048],
        [87.59077, 24.81088],
        [87.59121, 24.81127],
        [87.59194, 24.81161],
        [87.59267, 24.81163],
        [87.59353, 24.81159],
        [87.59512, 24.81079],
        [87.59614, 24.80979],
        [87.59675, 24.80912],
        [87.59797, 24.80842],
        [87.59879, 24.80802],
        [87.59973, 24.80771],
        [87.60044, 24.80771],
        [87.60218, 24.80829],
        [87.60339, 24.80886],
        [87.60412, 24.8089],
        [87.60602, 24.80873],
        [87.60662, 24.80848],
        [87.60713, 24.80779],
        [87.60781, 24.80677],
        [87.60893, 24.80579],
        [87.60947, 24.80521],
        [87.60979, 24.80503],
        [87.60974, 24.80469],
        [87.60968, 24.80419],
        [87.60983, 24.80389],
        [87.61052, 24.80346],
        [87.61167, 24.8031],
        [87.61198, 24.80293],
        [87.61242, 24.80224],
        [87.61286, 24.8016],
        [87.61359, 24.80114],
        [87.61433, 24.80042],
        [87.61496, 24.79958],
        [87.61548, 24.79856],
        [87.61615, 24.7981],
        [87.61723, 24.79788],
        [87.61768, 24.79772],
        [87.61839, 24.79734],
        [87.61902, 24.7969],
        [87.62097, 24.79661],
        [87.62106, 24.79642],
        [87.6214, 24.79551],
        [87.62179, 24.79403],
        [87.6204, 24.79451],
        [87.61783, 24.79499],
        [87.61653, 24.79529],
        [87.61557, 24.79569],
        [87.61495, 24.79609],
        [87.61448, 24.79681],
        [87.61395, 24.79755],
        [87.61313, 24.79824],
        [87.61142, 24.79869],
        [87.61056, 24.79865],
        [87.60969, 24.7985],
        [87.60895, 24.79857],
        [87.6085, 24.79884],
        [87.60809, 24.79922],
        [87.60804, 24.79981],
        [87.60797, 24.80001],
        [87.60792, 24.80008],
        [87.60772, 24.80059],
        [87.6058, 24.80136],
        [87.60308, 24.80235],
        [87.60111, 24.80287],
        [87.60093, 24.80521],
        [87.59832, 24.80555],
        [87.59711, 24.80549],
        [87.59317, 24.80454],
        [87.59073, 24.80339],
        [87.59089, 24.8009],
        [87.59119, 24.79958],
        [87.59352, 24.79752],
        [87.59414, 24.79676],
        [87.59375, 24.79479],
        [87.5903, 24.79385],
        [87.58791, 24.79333],
        [87.58619, 24.79311],
        [87.58502, 24.79303],
        [87.58441, 24.79109],
        [87.58921, 24.7909],
        [87.59127, 24.79043],
        [87.59331, 24.79092],
        [87.59487, 24.79186],
        [87.59698, 24.79318],
        [87.59789, 24.79339],
        [87.5982, 24.79323],
        [87.59838, 24.79278],
        [87.59825, 24.79239],
        [87.5974, 24.79048],
        [87.59712, 24.78956],
        [87.59707, 24.78902],
        [87.59708, 24.78892],
        [87.59733, 24.78823],
        [87.5981, 24.78777],
        [87.59865, 24.78765],
        [87.59992, 24.78842],
        [87.60134, 24.78927],
        [87.60172, 24.78932],
        [87.60218, 24.78935],
        [87.60363, 24.78907],
        [87.60606, 24.78849],
        [87.60684, 24.78816],
        [87.60733, 24.78768],
        [87.60821, 24.78557],
        [87.60882, 24.78446],
        [87.60931, 24.78381],
        [87.60854, 24.78181],
        [87.60847, 24.78126],
        [87.60854, 24.7811],
        [87.60879, 24.78086],
        [87.60946, 24.7806],
        [87.60974, 24.78045],
        [87.61033, 24.77973],
        [87.61052, 24.7789],
        [87.6107, 24.77881],
        [87.61111, 24.77859],
        [87.61159, 24.77842],
        [87.61222, 24.77849],
        [87.61314, 24.7791],
        [87.61393, 24.77994],
        [87.61441, 24.78074],
        [87.61451, 24.78089],
        [87.61512, 24.78101],
        [87.61611, 24.78091],
        [87.61748, 24.78013],
        [87.61769, 24.77979],
        [87.61785, 24.7788],
        [87.61831, 24.77735],
        [87.61847, 24.777],
        [87.61897, 24.77689],
        [87.6194, 24.7771],
        [87.62062, 24.77811],
        [87.62088, 24.77821],
        [87.62212, 24.77712],
        [87.62251, 24.77686],
        [87.62748, 24.77646],
        [87.62911, 24.77621],
        [87.62972, 24.77466],
        [87.63062, 24.77303],
        [87.63454, 24.77151],
        [87.639, 24.7696],
        [87.64266, 24.77039],
        [87.64314, 24.76885],
        [87.64451, 24.76945],
        [87.64555, 24.76907],
        [87.64607, 24.76876],
        [87.64799, 24.76856],
        [87.64859, 24.76816],
        [87.64922, 24.76796],
        [87.64983, 24.76861],
        [87.65118, 24.76928],
        [87.65185, 24.76926],
        [87.65393, 24.76839],
        [87.65502, 24.7681],
        [87.65484, 24.76999],
        [87.65502, 24.77019],
        [87.65575, 24.76991],
        [87.65644, 24.76926],
        [87.65647, 24.7673],
        [87.65657, 24.76651],
        [87.65707, 24.76564],
        [87.65816, 24.76529],
        [87.65997, 24.76494],
        [87.66116, 24.76402],
        [87.66207, 24.76313],
        [87.66268, 24.76219],
        [87.66364, 24.76036],
        [87.66387, 24.76042],
        [87.66466, 24.76134],
        [87.6659, 24.76227],
        [87.6667, 24.76286],
        [87.66826, 24.7629],
        [87.66897, 24.764],
        [87.66973, 24.76477],
        [87.67037, 24.76517],
        [87.67124, 24.76542],
        [87.67254, 24.7644],
        [87.67459, 24.76324],
        [87.67558, 24.76248],
        [87.67707, 24.76204],
        [87.67818, 24.76184],
        [87.679, 24.76156],
        [87.67839, 24.75929],
        [87.67784, 24.75707],
        [87.68363, 24.75364],
        [87.68261, 24.75055],
        [87.68594, 24.74376],
        [87.68995, 24.74145],
        [87.70068, 24.73662],
        [87.70906, 24.73492],
        [87.71305, 24.73582],
        [87.71746, 24.7404],
        [87.71874, 24.74485],
        [87.71991, 24.76443],
        [87.72319, 24.77183],
        [87.7285, 24.77451],
        [87.73288, 24.77521],
        [87.74153, 24.77118],
        [87.74188, 24.77053],
        [87.74935, 24.75696],
        [87.75502, 24.75216],
        [87.75974, 24.75007],
        [87.76502, 24.74889],
        [87.77165, 24.75003],
        [87.77263, 24.75051],
        [87.77592, 24.75212],
        [87.77974, 24.75192],
        [87.78193, 24.74803],
        [87.78312, 24.73267],
        [87.7846, 24.72657],
        [87.78538, 24.72333],
        [87.78858, 24.71939],
        [87.79447, 24.71836],
        [87.79691, 24.7186],
        [87.79741, 24.71881],
        [87.79763, 24.71667],
        [87.79544, 24.70912],
        [87.79197, 24.70086],
        [87.78807, 24.69081],
        [87.7854, 24.68361],
        [87.78133, 24.67446],
        [87.77865, 24.66673],
        [87.7754, 24.65964],
        [87.77048, 24.65356],
        [87.76957, 24.64526],
        [87.76508, 24.63476],
        [87.76115, 24.62768],
        [87.75978, 24.61452],
        [87.75557, 24.60293],
        [87.75203, 24.58854],
        [87.75094, 24.58891],
        [87.74719, 24.58904],
        [87.73476, 24.58854],
        [87.72135, 24.58894],
        [87.70756, 24.59034],
        [87.68714, 24.59036],
        [87.66827, 24.58704],
        [87.65537, 24.58193],
        [87.64513, 24.57553],
        [87.63336, 24.56536],
        [87.6245, 24.55905],
        [87.61308, 24.55176],
        [87.60046, 24.54403],
        [87.58964, 24.53854],
        [87.57526, 24.53236],
        [87.56497, 24.52966],
        [87.56568, 24.51663],
        [87.56228, 24.52135],
        [87.55468, 24.52074],
        [87.54511, 24.51831],
        [87.54064, 24.51347],
        [87.53672, 24.50823],
        [87.53476, 24.50763],
        [87.5311, 24.50977],
        [87.52609, 24.51331],
        [87.51783, 24.51443],
        [87.50993, 24.51797],
        [87.50311, 24.52252],
        [87.4976, 24.52888],
        [87.49691, 24.52917],
        [87.49607, 24.52934],
        [87.49549, 24.52937],
        [87.49526, 24.52931],
        [87.49474, 24.52877],
        [87.49408, 24.52816],
        [87.4935, 24.52799],
        [87.4922, 24.52808],
        [87.49036, 24.52891],
        [87.48938, 24.5292],
        [87.48814, 24.52926],
        [87.48511, 24.52905],
        [87.48258, 24.52909],
        [87.4814, 24.5292],
        [87.48019, 24.52929],
        [87.47973, 24.52929],
        [87.47947, 24.52926],
        [87.47912, 24.52885],
        [87.47884, 24.52793],
        [87.47866, 24.5269],
        [87.47835, 24.52577],
        [87.47786, 24.52459],
        [87.47742, 24.52395],
        [87.47693, 24.52369],
        [87.47517, 24.52326],
        [87.47448, 24.52305],
        [87.47359, 24.52337],
        [87.47266, 24.52386],
        [87.4716, 24.52424],
        [87.47085, 24.52421],
        [87.46816, 24.52383],
        [87.46545, 24.52366],
        [87.46332, 24.52372],
        [87.46234, 24.52363],
        [87.46153, 24.52349],
        [87.46023, 24.5228],
        [87.45935, 24.52195],
        [87.45875, 24.52115],
        [87.45814, 24.52002],
        [87.45774, 24.51931],
        [87.45702, 24.51896],
        [87.4561, 24.5187],
        [87.4554, 24.51867],
        [87.45488, 24.51896],
        [87.45425, 24.51997],
        [87.45384, 24.52054],
        [87.45289, 24.52072],
        [87.45131, 24.52043],
        [87.45007, 24.52023],
        [87.44894, 24.51988],
        [87.44825, 24.51942],
        [87.44743, 24.51858],
        [87.44665, 24.51768],
        [87.44616, 24.5172],
        [87.44547, 24.51685],
        [87.44423, 24.51668],
        [87.44143, 24.51702],
        [87.43887, 24.51789],
        [87.43773, 24.51858],
        [87.43672, 24.5189],
        [87.43603, 24.51884],
        [87.43499, 24.51818],
        [87.43392, 24.51694],
        [87.43257, 24.51535],
        [87.43139, 24.514],
        [87.43054, 24.51341],
        [87.42985, 24.51333],
        [87.42925, 24.51364],
        [87.42824, 24.5152],
        [87.4276, 24.51618],
        [87.42631, 24.51658],
        [87.42567, 24.51652],
        [87.42458, 24.51598],
        [87.42362, 24.51554],
        [87.42191, 24.51687],
        [87.42123, 24.51741],
        [87.42078, 24.51702],
        [87.42039, 24.51658],
        [87.42021, 24.51631],
        [87.41968, 24.51509],
        [87.41959, 24.51485],
        [87.4189, 24.51345],
        [87.41864, 24.51273],
        [87.41601, 24.51098],
        [87.41393, 24.51074],
        [87.41128, 24.51098],
        [87.41062, 24.51122],
        [87.40994, 24.51116],
        [87.40806, 24.51017],
        [87.40684, 24.50907],
        [87.40601, 24.50886],
        [87.40433, 24.50883],
        [87.39855, 24.50874],
        [87.39795, 24.50949],
        [87.39614, 24.51121],
        [87.39289, 24.51098],
        [87.39262, 24.51106],
        [87.39241, 24.51184],
        [87.39136, 24.51436],
        [87.39067, 24.51617],
        [87.38984, 24.51692],
        [87.38919, 24.51727],
        [87.38898, 24.51766],
        [87.38889, 24.51858],
        [87.38916, 24.52147],
        [87.38876, 24.52241],
        [87.38766, 24.52336],
        [87.38593, 24.52503],
        [87.38667, 24.52669],
        [87.38793, 24.53061],
        [87.38894, 24.53439],
        [87.39016, 24.53805],
        [87.38915, 24.54037],
        [87.38889, 24.5417],
        [87.38936, 24.54319],
        [87.39014, 24.54551],
        [87.39094, 24.54822],
        [87.39118, 24.54825],
        [87.39211, 24.54801],
        [87.39258, 24.54801],
        [87.39407, 24.54786],
        [87.39622, 24.54765],
        [87.3972, 24.54738],
        [87.39818, 24.5464],
        [87.39952, 24.54503],
        [87.40078, 24.54266],
        [87.40153, 24.54139],
        [87.40299, 24.53883],
        [87.40498, 24.53585],
        [87.40525, 24.53665],
        [87.40528, 24.53695],
        [87.40612, 24.5406],
        [87.40627, 24.54155],
        [87.40651, 24.54152],
        [87.40824, 24.5411],
        [87.41062, 24.54021],
        [87.41333, 24.53991],
        [87.41372, 24.54003],
        [87.41381, 24.54021],
        [87.41378, 24.54078],
        [87.41363, 24.54116],
        [87.4125, 24.54304],
        [87.41211, 24.54369],
        [87.4122, 24.54414],
        [87.41226, 24.54441],
        [87.41256, 24.54494],
        [87.41285, 24.54518],
        [87.41345, 24.54548],
        [87.41419, 24.54569],
        [87.41518, 24.54631],
        [87.41595, 24.54694],
        [87.41659, 24.54874],
        [87.41718, 24.55011],
        [87.41844, 24.55118],
        [87.4193, 24.55199],
        [87.41954, 24.55267],
        [87.41948, 24.55413],
        [87.41933, 24.55458],
        [87.42034, 24.55472],
        [87.42061, 24.55475],
        [87.42091, 24.55481],
        [87.4212, 24.55487],
        [87.42174, 24.55496],
        [87.42216, 24.55508],
        [87.4227, 24.55553],
        [87.42287, 24.55553],
        [87.42386, 24.55541],
        [87.42761, 24.55553],
        [87.42812, 24.55586],
        [87.42881, 24.55678],
        [87.43006, 24.55797],
        [87.43075, 24.5589],
        [87.43093, 24.5589],
        [87.43116, 24.55884],
        [87.4314, 24.55881],
        [87.43164, 24.55878],
        [87.43194, 24.55872],
        [87.43304, 24.55842],
        [87.43551, 24.55791],
        [87.43626, 24.55783],
        [87.43656, 24.55788],
        [87.43667, 24.55794],
        [87.43673, 24.55809],
        [87.43679, 24.55827],
        [87.43682, 24.55857],
        [87.43682, 24.56113],
        [87.43679, 24.56143],
        [87.43697, 24.56208],
        [87.43709, 24.56247],
        [87.43715, 24.56291],
        [87.43716, 24.56441],
        [87.43758, 24.56611],
        [87.43829, 24.56745],
        [87.43928, 24.56903],
        [87.4394, 24.56908],
        [87.44014, 24.56828],
        [87.44038, 24.56801],
        [87.4408, 24.56778],
        [87.44175, 24.56739],
        [87.44235, 24.56709],
        [87.44327, 24.5665],
        [87.44357, 24.56617],
        [87.44422, 24.56462],
        [87.44461, 24.56432],
        [87.44544, 24.56417],
        [87.44714, 24.5631],
        [87.4489, 24.56254],
        [87.4492, 24.56254],
        [87.44943, 24.56263],
        [87.44964, 24.56269],
        [87.44997, 24.56275],
        [87.45036, 24.56292],
        [87.4506, 24.56307],
        [87.45152, 24.56406],
        [87.4539, 24.5666],
        [87.45518, 24.56787],
        [87.45714, 24.56933],
        [87.45741, 24.56927],
        [87.45887, 24.56862],
        [87.46271, 24.56707],
        [87.46325, 24.56704],
        [87.46391, 24.56725],
        [87.46438, 24.56755],
        [87.46584, 24.56892],
        [87.46623, 24.56936],
        [87.46653, 24.56984],
        [87.46674, 24.57032],
        [87.46685, 24.57111],
        [87.46658, 24.57325],
        [87.46676, 24.57486],
        [87.46655, 24.57635],
        [87.46601, 24.57981],
        [87.4656, 24.58154],
        [87.46351, 24.58157],
        [87.46289, 24.58211],
        [87.46029, 24.58401],
        [87.45991, 24.58475],
        [87.45967, 24.58529],
        [87.45919, 24.58529],
        [87.45857, 24.5855],
        [87.45663, 24.58588],
        [87.45624, 24.58603],
        [87.45583, 24.58633],
        [87.45525, 24.58736],
        [87.45499, 24.58861],
        [87.4549, 24.58935],
        [87.45496, 24.58971],
        [87.45508, 24.59081],
        [87.45519, 24.59135],
        [87.45537, 24.59167],
        [87.45552, 24.59206],
        [87.45561, 24.59295],
        [87.45561, 24.59388],
        [87.45543, 24.59522],
        [87.45534, 24.59763],
        [87.45546, 24.59947],
        [87.45583, 24.5997],
        [87.45988, 24.60199],
        [87.46333, 24.60429],
        [87.46348, 24.60458],
        [87.46336, 24.60589],
        [87.46235, 24.6092],
        [87.46247, 24.60949],
        [87.46304, 24.61006],
        [87.46313, 24.61049],
        [87.46289, 24.61082],
        [87.46268, 24.61112],
        [87.46131, 24.61451],
        [87.4606, 24.61713],
        [87.45966, 24.61702],
        [87.45841, 24.61693],
        [87.45409, 24.61649],
        [87.45349, 24.61675],
        [87.45286, 24.61708],
        [87.45203, 24.61741],
        [87.45117, 24.61756],
        [87.45066, 24.61753],
        [87.44825, 24.61699],
        [87.44533, 24.6178],
        [87.445, 24.61869],
        [87.44482, 24.61905],
        [87.44473, 24.61931],
        [87.44473, 24.61976],
        [87.44485, 24.6203],
        [87.44521, 24.62101],
        [87.44619, 24.62262],
        [87.44631, 24.62427],
        [87.44607, 24.6265],
        [87.4458, 24.62716],
        [87.44586, 24.62787],
        [87.44601, 24.62814],
        [87.44708, 24.62921],
        [87.44711, 24.62942],
        [87.44705, 24.62963],
        [87.44693, 24.63008],
        [87.44687, 24.63046],
        [87.44684, 24.63073],
        [87.44675, 24.63145],
        [87.44669, 24.63171],
        [87.44693, 24.63195],
        [87.44811, 24.63283],
        [87.45154, 24.63456],
        [87.45329, 24.63542],
        [87.45371, 24.63569],
        [87.45416, 24.63602],
        [87.45541, 24.63748],
        [87.45654, 24.63929],
        [87.45696, 24.63944],
        [87.45723, 24.6395],
        [87.45782, 24.6395],
        [87.45928, 24.6395],
        [87.46172, 24.63986],
        [87.46181, 24.63998],
        [87.46205, 24.6403],
        [87.46268, 24.64099],
        [87.46366, 24.64203],
        [87.46487, 24.64332],
        [87.46573, 24.64496],
        [87.46728, 24.64419],
        [87.46838, 24.64359],
        [87.46877, 24.64377],
        [87.46975, 24.64466],
        [87.47023, 24.64493],
        [87.47052, 24.64514],
        [87.47136, 24.64535],
        [87.47181, 24.64567],
        [87.47327, 24.64737],
        [87.47347, 24.64817],
        [87.47338, 24.64838],
        [87.47312, 24.64877],
        [87.47243, 24.65004],
        [87.47124, 24.65194],
        [87.47121, 24.65215],
        [87.47162, 24.65388],
        [87.47198, 24.65638],
        [87.47186, 24.65785],
        [87.47159, 24.65886],
        [87.47153, 24.6591],
        [87.47144, 24.65934],
        [87.47121, 24.65985],
        [87.47106, 24.6602],
        [87.47096, 24.6605],
        [87.47091, 24.66065],
        [87.47064, 24.6622],
        [87.47034, 24.66395],
        [87.4693, 24.66642],
        [87.46909, 24.6677],
        [87.46903, 24.66782],
        [87.46933, 24.66791],
        [87.46972, 24.66797],
        [87.4701, 24.668],
        [87.47061, 24.66815],
        [87.47103, 24.66839],
        [87.47079, 24.66897],
        [87.46986, 24.67099],
        [87.46876, 24.67326],
        [87.46805, 24.67457],
        [87.46787, 24.67535],
        [87.46778, 24.67654],
        [87.46739, 24.67973],
        [87.46724, 24.68291],
        [87.46733, 24.68297],
        [87.46748, 24.68306],
        [87.4676, 24.68312],
        [87.46781, 24.6833],
        [87.46802, 24.68345],
        [87.46816, 24.68354],
        [87.46834, 24.6836],
        [87.46882, 24.68372],
        [87.46906, 24.68381],
        [87.46972, 24.68379],
        [87.46939, 24.68563],
        [87.46942, 24.68578],
        [87.46977, 24.68608],
        [87.47019, 24.68674],
        [87.47046, 24.68712],
        [87.47264, 24.68906],
        [87.47255, 24.6893],
        [87.47228, 24.68965],
        [87.47216, 24.6901],
        [87.47046, 24.69242],
        [87.47016, 24.69293],
        [87.46992, 24.69326],
        [87.46947, 24.69545],
        [87.46921, 24.69685],
        [87.46909, 24.69985],
        [87.46903, 24.70003],
        [87.46882, 24.70027],
        [87.46858, 24.70057],
        [87.46778, 24.70096],
        [87.46423, 24.70262],
        [87.46405, 24.70283],
        [87.46331, 24.70541],
        [87.46265, 24.70726],
        [87.46283, 24.70759],
        [87.46292, 24.70797],
        [87.46289, 24.70827],
        [87.46283, 24.70848],
        [87.46268, 24.70866],
        [87.46268, 24.70889],
        [87.46271, 24.7091],
        [87.4628, 24.70934],
        [87.46301, 24.70979],
        [87.46307, 24.71003],
        [87.46304, 24.71029],
        [87.46298, 24.71065],
        [87.46283, 24.71128],
        [87.46283, 24.71175],
        [87.46304, 24.71238],
        [87.46316, 24.71267],
        [87.46334, 24.71285],
        [87.46369, 24.71324],
        [87.46387, 24.71348],
        [87.46408, 24.71378],
        [87.46408, 24.71401],
        [87.46405, 24.71431],
        [87.46396, 24.71464],
        [87.46387, 24.71491],
        [87.46369, 24.71538],
        [87.46306, 24.71689],
        [87.46292, 24.71721],
        [87.46295, 24.71754],
        [87.46303, 24.71784],
        [87.46321, 24.71802],
        [87.46351, 24.71826],
        [87.46381, 24.71858],
        [87.46393, 24.71879],
        [87.46396, 24.71903],
        [87.46393, 24.71933],
        [87.46387, 24.71954],
        [87.46378, 24.71983],
        [87.46375, 24.72016],
        [87.46381, 24.7204],
        [87.4639, 24.72058],
        [87.46384, 24.72096],
        [87.46375, 24.72114],
        [87.4636, 24.72126],
        [87.46333, 24.72135],
        [87.46303, 24.72141],
        [87.4628, 24.72144],
        [87.46256, 24.72162],
        [87.46229, 24.72189],
        [87.46184, 24.72257],
        [87.46166, 24.72266],
        [87.4614, 24.72266],
        [87.46101, 24.72266],
        [87.46062, 24.72272],
        [87.46038, 24.72278],
        [87.46035, 24.7229],
        [87.46041, 24.72302],
        [87.4605, 24.72317],
        [87.46062, 24.72331],
        [87.46074, 24.72346],
        [87.46086, 24.72373],
        [87.46092, 24.724],
        [87.46089, 24.72433],
        [87.4608, 24.72495],
        [87.46077, 24.72513],
        [87.46074, 24.72534],
        [87.46056, 24.72564],
        [87.46029, 24.72593],
        [87.45973, 24.72613],
        [87.45946, 24.72619],
        [87.45922, 24.72616],
        [87.45901, 24.72598],
        [87.45869, 24.72578],
        [87.45836, 24.72569],
        [87.458, 24.72572],
        [87.4577, 24.72586],
        [87.45755, 24.72598],
        [87.4572, 24.72604],
        [87.45693, 24.72604],
        [87.45672, 24.7261],
        [87.45657, 24.72625],
        [87.45627, 24.72676],
        [87.45612, 24.72723],
        [87.45618, 24.72759],
        [87.45627, 24.72792],
        [87.45633, 24.72846],
        [87.45633, 24.72887],
        [87.4563, 24.72956],
        [87.45642, 24.72991],
        [87.45651, 24.73009],
        [87.45678, 24.73021],
        [87.45705, 24.73012],
        [87.45761, 24.7297],
        [87.45779, 24.72971],
        [87.45803, 24.72988],
        [87.45821, 24.73003],
        [87.45839, 24.73036],
        [87.45848, 24.73063],
        [87.45863, 24.73092],
        [87.45886, 24.73128],
        [87.45904, 24.73155],
        [87.45907, 24.73179],
        [87.45907, 24.73197],
        [87.45895, 24.73215],
        [87.4588, 24.73241],
        [87.45865, 24.73271],
        [87.45845, 24.73289],
        [87.45827, 24.73307],
        [87.45812, 24.73325],
        [87.45806, 24.73351],
        [87.458, 24.73378],
        [87.45788, 24.73393],
        [87.45764, 24.73405],
        [87.45743, 24.73426],
        [87.45737, 24.73453],
        [87.45731, 24.73482],
        [87.45725, 24.73509],
        [87.45714, 24.73524],
        [87.45693, 24.7353],
        [87.45588, 24.73546],
        [87.45558, 24.73549],
        [87.45537, 24.73552],
        [87.45522, 24.73558],
        [87.45496, 24.73573],
        [87.45469, 24.73591],
        [87.45454, 24.73594],
        [87.45433, 24.73594],
        [87.45364, 24.736],
        [87.45353, 24.73608],
        [87.4535, 24.73635],
        [87.45344, 24.73665],
        [87.45329, 24.73686],
        [87.45299, 24.73716],
        [87.45269, 24.73742],
        [87.4523, 24.73772],
        [87.45233, 24.73787],
        [87.45248, 24.73787],
        [87.45281, 24.73784],
        [87.45311, 24.73775],
        [87.45341, 24.73769],
        [87.45377, 24.73784],
        [87.45379, 24.73796],
        [87.45362, 24.73811],
        [87.45341, 24.73826],
        [87.45311, 24.73843],
        [87.45296, 24.73856],
        [87.45284, 24.73882],
        [87.4526, 24.73912],
        [87.45231, 24.73933],
        [87.45177, 24.73948],
        [87.45162, 24.73969],
        [87.4515, 24.73992],
        [87.4515, 24.74004],
        [87.45162, 24.74016],
        [87.45171, 24.74043],
        [87.45171, 24.74067],
        [87.45162, 24.74088],
        [87.45135, 24.74108],
        [87.45052, 24.74138],
        [87.45034, 24.7415],
        [87.45019, 24.74165],
        [87.45007, 24.74192],
        [87.44992, 24.74222],
        [87.44968, 24.74236],
        [87.44893, 24.74313],
        [87.44884, 24.74322],
        [87.4486, 24.74327],
        [87.44843, 24.74336],
        [87.44828, 24.74345],
        [87.44816, 24.74354],
        [87.44804, 24.74363],
        [87.44798, 24.74378],
        [87.44792, 24.74396],
        [87.4478, 24.74426],
        [87.44771, 24.74458],
        [87.44762, 24.74476],
        [87.44744, 24.74494],
        [87.44732, 24.74506],
        [87.44732, 24.74521],
        [87.44732, 24.7453],
        [87.44744, 24.7456],
        [87.44753, 24.74586],
        [87.4475, 24.74601],
        [87.44726, 24.74613],
        [87.44717, 24.74616],
        [87.44709, 24.74625],
        [87.44694, 24.7464],
        [87.44661, 24.74655],
        [87.44622, 24.74661],
        [87.44595, 24.74664],
        [87.44577, 24.74667],
        [87.44565, 24.74676],
        [87.4456, 24.74688],
        [87.44559, 24.74714],
        [87.44562, 24.74735],
        [87.44566, 24.74762],
        [87.44562, 24.74789],
        [87.44551, 24.7481],
        [87.44533, 24.74831],
        [87.44512, 24.74851],
        [87.44497, 24.74872],
        [87.44476, 24.74893],
        [87.44455, 24.74914],
        [87.44434, 24.74932],
        [87.44425, 24.74944],
        [87.44416, 24.74965],
        [87.44411, 24.74994],
        [87.44402, 24.75],
        [87.44369, 24.75],
        [87.44354, 24.75003],
        [87.44327, 24.75003],
        [87.44309, 24.75006],
        [87.44297, 24.75015],
        [87.443, 24.75061],
        [87.43871, 24.75131],
        [87.43814, 24.75162],
        [87.43777, 24.75203],
        [87.43722, 24.75275],
        [87.43713, 24.75325],
        [87.43696, 24.75376],
        [87.43637, 24.755],
        [87.43589, 24.75544],
        [87.43545, 24.75587],
        [87.43527, 24.75624],
        [87.43508, 24.75708],
        [87.43506, 24.75762],
        [87.43519, 24.7586],
        [87.43545, 24.75913],
        [87.43578, 24.75961],
        [87.4368, 24.76068],
        [87.43715, 24.76119],
        [87.43746, 24.76194],
        [87.43748, 24.7625],
        [87.43763, 24.763],
        [87.4379, 24.76342],
        [87.43831, 24.76381],
        [87.43938, 24.76447],
        [87.44056, 24.76534],
        [87.44148, 24.76606],
        [87.44205, 24.76663],
        [87.44227, 24.76695],
        [87.44234, 24.76734],
        [87.44245, 24.76837],
        [87.44251, 24.76898],
        [87.4428, 24.76929],
        [87.44339, 24.76957],
        [87.44402, 24.76986],
        [87.44505, 24.76988],
        [87.44623, 24.7699],
        [87.44736, 24.77005],
        [87.44806, 24.77029],
        [87.4485, 24.77077],
        [87.44885, 24.77156],
        [87.44905, 24.77232],
        [87.4491, 24.7733],
        [87.44908, 24.77417],
        [87.4491, 24.7752],
        [87.44925, 24.77594],
        [87.44956, 24.77648],
        [87.44978, 24.77688],
        [87.44999, 24.77731],
        [87.45026, 24.77766],
        [87.45071, 24.77795],
        [87.45146, 24.77816],
        [87.45216, 24.77822],
        [87.45336, 24.7784],
        [87.45404, 24.77853],
        [87.45446, 24.77886],
        [87.45515, 24.77944],
        [87.45564, 24.78051],
        [87.45579, 24.78128],
        [87.45579, 24.78183],
        [87.45546, 24.78281],
        [87.4547, 24.78363],
        [87.45409, 24.78419],
        [87.45315, 24.78472],
        [87.45284, 24.78513],
        [87.45269, 24.78594],
        [87.45277, 24.78629],
        [87.45301, 24.78649],
        [87.45343, 24.7866],
        [87.45498, 24.78649],
        [87.45704, 24.78616],
        [87.45798, 24.78596],
        [87.4585, 24.78616],
        [87.45892, 24.78662],
        [87.45935, 24.78721],
        [87.45942, 24.78756],
        [87.45933, 24.78793],
        [87.459, 24.78863],
        [87.45831, 24.78972],
        [87.4577, 24.79052],
        [87.45757, 24.79089],
        [87.45763, 24.7913],
        [87.45818, 24.79204],
        [87.45907, 24.79275],
        [87.46025, 24.79347],
        [87.46139, 24.79366],
        [87.46403, 24.79427],
        [87.46499, 24.79439],
        [87.46606, 24.79415],
        [87.46658, 24.79386],
        [87.46741, 24.79318],
        [87.46846, 24.79174],
        [87.46901, 24.79089],
        [87.46964, 24.79026],
        [87.4703, 24.78989],
        [87.47137, 24.78951],
        [87.47258, 24.78924],
        [87.4736, 24.78911],
        [87.47411, 24.78903],
        [87.47535, 24.78864],
        [87.47638, 24.78831],
        [87.47765, 24.78765],
        [87.4785, 24.78743],
        [87.47913, 24.78726],
        [87.48038, 24.78732],
        [87.48127, 24.78759],
        [87.48272, 24.78835],
        [87.48467, 24.78929],
        [87.4854, 24.78973],
        [87.48601, 24.78993],
        [87.48649, 24.78995],
        [87.48693, 24.7896],
        [87.48706, 24.78903],
        [87.48704, 24.78772],
        [87.48682, 24.7868],
        [87.48673, 24.78636],
        [87.48693, 24.78614],
        [87.48754, 24.78583],
        [87.48795, 24.78579],
        [87.48865, 24.78586],
        [87.48966, 24.7857],
        [87.49034, 24.78553],
        [87.49119, 24.78533],
        [87.49198, 24.785],
        [87.49307, 24.7847],
        [87.49368, 24.7845],
        [87.49405, 24.78407],
        [87.49529, 24.78329],
        [87.4962, 24.78294],
        [87.49701, 24.78281],
        [87.49754, 24.78284],
        [87.49699, 24.78571],
        [87.49588, 24.78684],
        [87.49539, 24.78784],
        [87.49531, 24.78839],
        [87.49526, 24.78937],
        [87.49542, 24.79012],
        [87.49586, 24.79101],
        [87.4966, 24.79195],
        [87.49758, 24.79272],
        [87.49881, 24.79311],
        [87.49929, 24.79338],
        [87.49946, 24.79343],
        [87.49973, 24.79355],
        [87.50047, 24.79363],
        [87.50191, 24.79359],
        [87.50298, 24.79361],
        [87.50364, 24.79368],
        [87.50434, 24.79403],
        [87.50505, 24.79479],
        [87.50586, 24.7956],
        [87.50624, 24.796],
        [87.50645, 24.79633],
        [87.50693, 24.79656],
        [87.50821, 24.79718],
        [87.50871, 24.79758],
        [87.50917, 24.79801],
        [87.50941, 24.79856],
        [87.50972, 24.79977],
        [87.50985, 24.80006],
        [87.51014, 24.80027],
        [87.51039, 24.80031],
        [87.51047, 24.80027],
        [87.51123, 24.80006],
        [87.51204, 24.79962],
        [87.51276, 24.79908],
        [87.51412, 24.79833],
        [87.51517, 24.79774],
        [87.51617, 24.79747],
        [87.51659, 24.79751],
        [87.5169, 24.79759],
        [87.51709, 24.79789],
        [87.51713, 24.79835],
        [87.51703, 24.80002],
        [87.51697, 24.80077],
        [87.51701, 24.80111],
        [87.51707, 24.80129],
        [87.51726, 24.80148],
        [87.51753, 24.80161],
        [87.51778, 24.80163],
        [87.51799, 24.80163],
        [87.51942, 24.80104],
        [87.51987, 24.80096],
        [87.52052, 24.8009],
        [87.52197, 24.80146],
        [87.52301, 24.80165],
        [87.52395, 24.8015],
        [87.52539, 24.80073],
        [87.52648, 24.8001],
        [87.52773, 24.79979],
        [87.52851, 24.79983],
        [87.52897, 24.80006],
        [87.53022, 24.80035],
        [87.53165, 24.80033],
        [87.53334, 24.80029],
        [87.53368, 24.80044],
        [87.53464, 24.80088],
        [87.53523, 24.80117],
        [87.53546, 24.80138],
        [87.53577, 24.80159],
        [87.53634, 24.80182],
        [87.53718, 24.8019],
        [87.53818, 24.80193],
        [87.53898, 24.80209],
        [87.53925, 24.80226],
        [87.5395, 24.80266],
        [87.53956, 24.80278],
        [87.53964, 24.80397],
        [87.5396, 24.80427],
        [87.53952, 24.8046],
        [87.53927, 24.80556],
        [87.53739, 24.80836],
        [87.53671, 24.81012],
        [87.53598, 24.812],
        [87.53575, 24.813],
        [87.53573, 24.81413],
        [87.53581, 24.81569],
        [87.53634, 24.81755],
        [87.53663, 24.81958],
        [87.53657, 24.82052],
        [87.53611, 24.82177],
        [87.53531, 24.82302],
        [87.53531, 24.82348],
        [87.53552, 24.82382],
        [87.53598, 24.82428],
        [87.53638, 24.8244],
        [87.53762, 24.82427],
        [87.53824, 24.824],
        [87.53885, 24.82363],
        [87.53946, 24.8234],
        [87.5398, 24.8235],
        [87.54118, 24.82425],
        [87.54294, 24.82488],
        [87.54442, 24.82549],
        [87.54685, 24.82681],
        [87.54771, 24.82762],
        [87.54798, 24.82782],
        [87.54857, 24.82861],
        [87.54874, 24.82921],
        [87.54882, 24.82984],
        [87.54893, 24.83005],
        [87.54922, 24.82993],
        [87.54941, 24.82966],
        [87.5496, 24.82959]
      ]
    ]
  }
}
