{
  "type": "Feature",
  "id": "JH-AC-41",
  "properties": {
    "stateName": "JHARKHAND",
    "stateCode": "JH",
    "districtName": "DHANBAD",
    "acNo": 41,
    "acName": "JHARIA",
    "seatType": null,
    "pcNo": null,
    "pcName": null,
    "quality": "unverified",
    "sources": [
      "TBD"
    ]
  },
  "geometry": {
    "type": "Polygon",
    "coordinates": [
      [
        [86.36868, 23.70256],
        [86.36457, 23.70249],
        [86.36903, 23.70658],
        [86.37261, 23.71813],
        [86.37628, 23.73138],
        [86.37637, 23.75115],
        [86.3764, 23.75945],
        [86.39071, 23.7578],
        [86.40332, 23.74946],
        [86.41758, 23.73626],
        [86.43255, 23.73152],
        [86.43328, 23.71671],
        [86.43467, 23.70182],
        [86.43951, 23.68782],
        [86.4434, 23.67761],
        [86.45029, 23.6645],
        [86.45544, 23.65447],
        [86.46266, 23.64687],
        [86.46969, 23.64189],
        [86.47619, 23.63383],
        [86.47557, 23.63347],
        [86.47431, 23.63263],
        [86.47273, 23.63171],
        [86.47155, 23.63108],
        [86.47002, 23.63063],
        [86.46859, 23.63043],
        [86.46741, 23.63045],
        [86.46614, 23.63043],
        [86.46437, 23.63057],
        [86.46243, 23.63031],
        [86.46162, 23.63004],
        [86.46138, 23.62979],
        [86.46112, 23.62934],
        [86.46081, 23.62889],
        [86.46044, 23.62844],
        [86.45974, 23.62773],
        [86.45905, 23.62726],
        [86.4581, 23.62663],
        [86.45765, 23.62629],
        [86.45688, 23.62561],
        [86.45643, 23.62513],
        [86.45617, 23.6247],
        [86.4561, 23.62413],
        [86.45609, 23.62347],
        [86.45599, 23.62258],
        [86.45596, 23.62204],
        [86.45592, 23.6215],
        [86.45581, 23.62104],
        [86.45556, 23.62044],
        [86.4552, 23.61995],
        [86.45467, 23.61948],
        [86.45404, 23.61914],
        [86.45352, 23.61905],
        [86.45291, 23.61907],
        [86.45232, 23.61918],
        [86.45198, 23.61931],
        [86.45152, 23.61973],
        [86.45094, 23.6203],
        [86.45051, 23.62045],
        [86.45023, 23.6205],
        [86.44979, 23.62049],
        [86.44944, 23.62041],
        [86.44871, 23.62012],
        [86.4481, 23.61976],
        [86.44756, 23.61942],
        [86.44744, 23.61932],
        [86.43852, 23.62429],
        [86.43175, 23.63141],
        [86.42436, 23.64092],
        [86.42027, 23.65934],
        [86.41486, 23.66224],
        [86.41393, 23.66274],
        [86.40763, 23.66485],
        [86.40118, 23.66595],
        [86.3951, 23.66851],
        [86.38913, 23.67223],
        [86.38442, 23.67603],
        [86.38048, 23.68046],
        [86.37748, 23.68493],
        [86.37481, 23.69148],
        [86.36945, 23.70258],
        [86.36868, 23.70256]
      ]
    ]
  }
}
