{
  "type": "Feature",
  "id": "JH-AC-42",
  "properties": {
    "stateName": "JHARKHAND",
    "stateCode": "JH",
    "districtName": "DHANBAD",
    "acNo": 42,
    "acName": "TUNDI",
    "seatType": null,
    "pcNo": null,
    "pcName": null,
    "quality": "unverified",
    "sources": [
      "TBD"
    ]
  },
  "geometry": {
    "type": "Polygon",
    "coordinates": [
      [
        [86.43578, 24.03277],
        [86.43591, 24.03277],
        [86.43718, 24.0327],
        [86.43797, 24.03262],
        [86.43892, 24.03249],
        [86.43995, 24.03229],
        [86.44057, 24.03217],
        [86.44118, 24.03196],
        [86.44274, 24.03131],
        [86.44377, 24.03086],
        [86.44561, 24.02984],
        [86.44647, 24.02929],
        [86.44737, 24.02854],
        [86.44822, 24.02781],
        [86.4495, 24.0267],
        [86.45046, 24.02596],
        [86.45178, 24.02495],
        [86.45267, 24.02431],
        [86.45421, 24.02332],
        [86.45497, 24.02293],
        [86.45578, 24.02258],
        [86.45704, 24.02217],
        [86.45745, 24.02207],
        [86.45842, 24.02181],
        [86.45915, 24.0216],
        [86.45979, 24.0215],
        [86.46061, 24.02139],
        [86.4617, 24.02113],
        [86.46281, 24.02077],
        [86.4636, 24.0205],
        [86.46546, 24.01978],
        [86.46565, 24.01971],
        [86.46645, 24.01941],
        [86.46722, 24.01902],
        [86.4682, 24.01842],
        [86.46902, 24.01784],
        [86.46995, 24.01717],
        [86.47068, 24.0166],
        [86.47146, 24.01593],
        [86.47289, 24.01464],
        [86.47432, 24.01339],
        [86.47507, 24.01275],
        [86.47588, 24.01206],
        [86.47657, 24.01147],
        [86.47777, 24.01059],
        [86.47844, 24.01014],
        [86.47911, 24.00971],
        [86.48014, 24.00918],
        [86.481, 24.00879],
        [86.48172, 24.00844],
        [86.48284, 24.00803],
        [86.48367, 24.00776],
        [86.48458, 24.00744],
        [86.48511, 24.00722],
        [86.48562, 24.00696],
        [86.48598, 24.00673],
        [86.48687, 24.00602],
        [86.48807, 24.00508],
        [86.48872, 24.0046],
        [86.48917, 24.00427],
        [86.49008, 24.00378],
        [86.49098, 24.00339],
        [86.49181, 24.00299],
        [86.49292, 24.00246],
        [86.49561, 24.00077],
        [86.49875, 23.99979],
        [86.49929, 23.99965],
        [86.49995, 23.99936],
        [86.50046, 23.99915],
        [86.50256, 23.99813],
        [86.50341, 23.99764],
        [86.50387, 23.99735],
        [86.50651, 23.99594],
        [86.50731, 23.99547],
        [86.5079, 23.99505],
        [86.50886, 23.99438],
        [86.51058, 23.99346],
        [86.51136, 23.99299],
        [86.5127, 23.99213],
        [86.51312, 23.99177],
        [86.51344, 23.99154],
        [86.5146, 23.99105],
        [86.51623, 23.99053],
        [86.51671, 23.99043],
        [86.51753, 23.98999],
        [86.51902, 23.98912],
        [86.52023, 23.98842],
        [86.52132, 23.98792],
        [86.52209, 23.98766],
        [86.523, 23.98734],
        [86.52363, 23.9872],
        [86.52447, 23.98712],
        [86.52501, 23.98707],
        [86.5255, 23.98703],
        [86.52697, 23.98732],
        [86.52825, 23.98754],
        [86.5291, 23.98774],
        [86.53133, 23.98842],
        [86.53258, 23.98874],
        [86.53321, 23.98896],
        [86.53401, 23.98915],
        [86.53532, 23.98942],
        [86.53605, 23.98955],
        [86.53665, 23.98965],
        [86.53743, 23.98976],
        [86.53943, 23.98994],
        [86.54036, 23.98999],
        [86.54178, 23.99001],
        [86.54314, 23.98992],
        [86.54422, 23.98987],
        [86.54725, 23.98972],
        [86.54872, 23.98969],
        [86.55015, 23.98959],
        [86.55081, 23.98953],
        [86.55221, 23.98922],
        [86.55277, 23.98905],
        [86.5533, 23.98882],
        [86.55391, 23.98864],
        [86.5559, 23.98809],
        [86.55742, 23.9878],
        [86.55818, 23.98768],
        [86.55902, 23.98756],
        [86.56032, 23.98736],
        [86.56117, 23.98716],
        [86.56207, 23.98706],
        [86.56288, 23.98693],
        [86.56369, 23.9869],
        [86.56451, 23.98676],
        [86.56536, 23.9867],
        [86.56619, 23.98648],
        [86.567, 23.98622],
        [86.56788, 23.9861],
        [86.56871, 23.98619],
        [86.56935, 23.98609],
        [86.57016, 23.98593],
        [86.57098, 23.98571],
        [86.57171, 23.98551],
        [86.57286, 23.98512],
        [86.57354, 23.985],
        [86.57407, 23.98503],
        [86.57528, 23.98495],
        [86.57655, 23.98497],
        [86.57721, 23.9849],
        [86.57824, 23.98475],
        [86.58046, 23.98424],
        [86.58218, 23.98371],
        [86.58314, 23.98325],
        [86.58376, 23.98284],
        [86.58539, 23.98151],
        [86.58635, 23.98071],
        [86.58675, 23.9803],
        [86.58713, 23.97969],
        [86.58767, 23.97854],
        [86.58789, 23.97804],
        [86.58818, 23.97763],
        [86.58866, 23.97693],
        [86.58957, 23.97592],
        [86.59028, 23.97508],
        [86.59098, 23.97418],
        [86.59134, 23.9737],
        [86.59162, 23.97345],
        [86.59259, 23.97295],
        [86.59343, 23.97235],
        [86.59383, 23.97209],
        [86.59584, 23.97058],
        [86.59652, 23.96995],
        [86.59879, 23.96797],
        [86.59983, 23.96708],
        [86.60067, 23.96623],
        [86.60086, 23.9659],
        [86.60147, 23.96508],
        [86.60187, 23.96429],
        [86.60231, 23.96349],
        [86.60246, 23.96308],
        [86.60272, 23.96204],
        [86.60318, 23.961],
        [86.60329, 23.96058],
        [86.60352, 23.96002],
        [86.60384, 23.95947],
        [86.60441, 23.9589],
        [86.60474, 23.95845],
        [86.60528, 23.9581],
        [86.60596, 23.95757],
        [86.60659, 23.95722],
        [86.60705, 23.95709],
        [86.6078, 23.95685],
        [86.60877, 23.9565],
        [86.60967, 23.95616],
        [86.6104, 23.95572],
        [86.61241, 23.95496],
        [86.61318, 23.95466],
        [86.61402, 23.95423],
        [86.61457, 23.95389],
        [86.61509, 23.9535],
        [86.61638, 23.95284],
        [86.61678, 23.95272],
        [86.61723, 23.95238],
        [86.61806, 23.9519],
        [86.62006, 23.95042],
        [86.62054, 23.95006],
        [86.62135, 23.94932],
        [86.62245, 23.94839],
        [86.62339, 23.94776],
        [86.62435, 23.94738],
        [86.62711, 23.94597],
        [86.62752, 23.94577],
        [86.62828, 23.94533],
        [86.63065, 23.94356],
        [86.63215, 23.9423],
        [86.63467, 23.94042],
        [86.63602, 23.9393],
        [86.63664, 23.93872],
        [86.63696, 23.93853],
        [86.63859, 23.93797],
        [86.6398, 23.93744],
        [86.6414, 23.93674],
        [86.64248, 23.93619],
        [86.64378, 23.93562],
        [86.64443, 23.93526],
        [86.65644, 23.92855],
        [86.66851, 23.92181],
        [86.66883, 23.92178],
        [86.66986, 23.9216],
        [86.67014, 23.92153],
        [86.66088, 23.91671],
        [86.65201, 23.90836],
        [86.63899, 23.89704],
        [86.6299, 23.88687],
        [86.62289, 23.87922],
        [86.61194, 23.87006],
        [86.60475, 23.8626],
        [86.59537, 23.85585],
        [86.58185, 23.85852],
        [86.56817, 23.86751],
        [86.55269, 23.87423],
        [86.53871, 23.88275],
        [86.52913, 23.89064],
        [86.51905, 23.895],
        [86.50464, 23.89829],
        [86.48834, 23.90014],
        [86.47784, 23.89828],
        [86.46732, 23.89316],
        [86.45835, 23.88542],
        [86.45001, 23.88329],
        [86.43972, 23.88647],
        [86.43169, 23.892],
        [86.42524, 23.89905],
        [86.41939, 23.9098],
        [86.41659, 23.91703],
        [86.41337, 23.9248],
        [86.41046, 23.93121],
        [86.40626, 23.93672],
        [86.40136, 23.94026],
        [86.38939, 23.942],
        [86.38233, 23.94156],
        [86.3728, 23.9404],
        [86.36377, 23.93971],
        [86.35924, 23.93945],
        [86.34824, 23.9391],
        [86.33772, 23.93416],
        [86.33162, 23.92714],
        [86.32914, 23.92389],
        [86.32736, 23.91902],
        [86.33048, 23.91297],
        [86.33156, 23.91306],
        [86.33635, 23.90827],
        [86.34035, 23.8996],
        [86.34728, 23.89047],
        [86.35696, 23.88305],
        [86.36372, 23.87825],
        [86.37028, 23.87345],
        [86.37575, 23.86974],
        [86.37947, 23.86369],
        [86.38247, 23.8552],
        [86.38438, 23.84509],
        [86.38612, 23.83551],
        [86.38913, 23.82865],
        [86.38684, 23.82143],
        [86.38174, 23.81829],
        [86.37915, 23.81197],
        [86.37923, 23.80386],
        [86.37967, 23.79618],
        [86.37682, 23.79275],
        [86.3677, 23.79242],
        [86.3563, 23.78747],
        [86.35179, 23.78657],
        [86.34082, 23.79084],
        [86.33291, 23.7997],
        [86.32413, 23.81263],
        [86.31543, 23.82329],
        [86.30724, 23.83341],
        [86.29991, 23.84101],
        [86.29412, 23.8421],
        [86.2843, 23.83986],
        [86.27105, 23.8369],
        [86.25829, 23.83521],
        [86.242, 23.83478],
        [86.23239, 23.83461],
        [86.21571, 23.83246],
        [86.20256, 23.8332],
        [86.18793, 23.83132],
        [86.17351, 23.8299],
        [86.1638, 23.82584],
        [86.16164, 23.82473],
        [86.16188, 23.82662],
        [86.162, 23.82795],
        [86.16143, 23.82967],
        [86.15974, 23.82948],
        [86.15876, 23.82934],
        [86.15739, 23.82909],
        [86.1564, 23.82913],
        [86.15532, 23.82945],
        [86.15429, 23.83026],
        [86.15257, 23.83217],
        [86.15068, 23.83296],
        [86.15004, 23.83294],
        [86.14896, 23.83255],
        [86.1482, 23.83205],
        [86.14702, 23.83115],
        [86.14612, 23.83033],
        [86.1444, 23.83017],
        [86.14337, 23.83075],
        [86.14246, 23.83296],
        [86.14264, 23.83545],
        [86.14048, 23.83817],
        [86.13885, 23.84007],
        [86.13666, 23.84141],
        [86.13605, 23.84199],
        [86.13514, 23.84326],
        [86.13521, 23.84416],
        [86.13577, 23.84499],
        [86.13646, 23.84557],
        [86.13724, 23.84563],
        [86.14067, 23.84679],
        [86.14151, 23.84799],
        [86.14123, 23.84946],
        [86.13998, 23.85092],
        [86.13769, 23.85238],
        [86.13678, 23.85371],
        [86.137, 23.85491],
        [86.13778, 23.85617],
        [86.13927, 23.85839],
        [86.13951, 23.86008],
        [86.13892, 23.86155],
        [86.13651, 23.86249],
        [86.13413, 23.86314],
        [86.13201, 23.86374],
        [86.1297, 23.86392],
        [86.12764, 23.86473],
        [86.12683, 23.86585],
        [86.12636, 23.8675],
        [86.12567, 23.86849],
        [86.12476, 23.86901],
        [86.12326, 23.869],
        [86.12262, 23.86875],
        [86.12142, 23.86819],
        [86.12005, 23.86816],
        [86.11833, 23.86879],
        [86.11788, 23.87048],
        [86.11866, 23.87269],
        [86.11976, 23.875],
        [86.11975, 23.87769],
        [86.11883, 23.8792],
        [86.11613, 23.88163],
        [86.11654, 23.88314],
        [86.11906, 23.88473],
        [86.11997, 23.88529],
        [86.12046, 23.88636],
        [86.12083, 23.88697],
        [86.12058, 23.88798],
        [86.12018, 23.88854],
        [86.11952, 23.88884],
        [86.11859, 23.88863],
        [86.1164, 23.88779],
        [86.11525, 23.88736],
        [86.11405, 23.88711],
        [86.11287, 23.88704],
        [86.11204, 23.88719],
        [86.11105, 23.88748],
        [86.11134, 23.88958],
        [86.1117, 23.89186],
        [86.11379, 23.89318],
        [86.11607, 23.89439],
        [86.11673, 23.89474],
        [86.11967, 23.89651],
        [86.12177, 23.89896],
        [86.12363, 23.90108],
        [86.12554, 23.90231],
        [86.12583, 23.90501],
        [86.12568, 23.90768],
        [86.12602, 23.9089],
        [86.12697, 23.90985],
        [86.12874, 23.91062],
        [86.12831, 23.91249],
        [86.12703, 23.91504],
        [86.12599, 23.91705],
        [86.12759, 23.91863],
        [86.12954, 23.922],
        [86.1309, 23.92611],
        [86.13227, 23.93076],
        [86.133, 23.93183],
        [86.134, 23.9333],
        [86.13631, 23.93468],
        [86.13778, 23.93382],
        [86.13975, 23.93331],
        [86.14425, 23.93203],
        [86.14884, 23.93173],
        [86.15149, 23.93237],
        [86.15402, 23.93352],
        [86.15782, 23.93396],
        [86.16173, 23.93417],
        [86.16313, 23.93438],
        [86.16518, 23.93596],
        [86.16667, 23.93703],
        [86.16899, 23.93807],
        [86.17047, 23.9404],
        [86.17116, 23.94051],
        [86.17344, 23.94061],
        [86.17597, 23.94061],
        [86.18093, 23.9406],
        [86.1859, 23.9405],
        [86.18842, 23.94188],
        [86.19152, 23.94241],
        [86.19554, 23.94411],
        [86.20154, 23.94317],
        [86.20488, 23.94148],
        [86.21076, 23.93885],
        [86.21225, 23.93854],
        [86.21407, 23.93929],
        [86.21581, 23.93981],
        [86.21775, 23.93941],
        [86.2196, 23.93919],
        [86.22028, 23.94005],
        [86.22121, 23.94077],
        [86.22318, 23.94057],
        [86.22503, 23.93899],
        [86.22687, 23.93794],
        [86.22894, 23.93658],
        [86.23031, 23.93647],
        [86.23112, 23.93722],
        [86.23158, 23.93826],
        [86.23284, 23.93889],
        [86.23421, 23.93858],
        [86.2363, 23.93755],
        [86.23964, 23.93649],
        [86.24193, 23.93564],
        [86.24435, 23.93429],
        [86.24643, 23.93312],
        [86.24918, 23.93177],
        [86.25058, 23.93028],
        [86.25196, 23.92732],
        [86.25368, 23.92649],
        [86.25574, 23.92566],
        [86.25702, 23.92428],
        [86.25887, 23.92219],
        [86.25943, 23.92144],
        [86.26071, 23.92081],
        [86.26336, 23.92093],
        [86.26646, 23.92051],
        [86.26864, 23.92103],
        [86.27038, 23.92229],
        [86.27301, 23.92347],
        [86.27498, 23.92305],
        [86.27647, 23.92316],
        [86.279, 23.92325],
        [86.28269, 23.92326],
        [86.28488, 23.92094],
        [86.28788, 23.91927],
        [86.28844, 23.91715],
        [86.29122, 23.916],
        [86.29338, 23.91589],
        [86.29341, 23.91589],
        [86.29362, 23.91822],
        [86.29396, 23.9196],
        [86.29457, 23.92341],
        [86.29465, 23.92391],
        [86.29567, 23.92897],
        [86.29682, 23.93118],
        [86.29775, 23.93299],
        [86.29934, 23.93773],
        [86.30221, 23.94141],
        [86.30291, 23.94552],
        [86.30519, 23.94891],
        [86.30566, 23.95228],
        [86.30818, 23.9584],
        [86.31139, 23.96294],
        [86.31126, 23.96558],
        [86.31079, 23.96759],
        [86.31065, 23.97158],
        [86.31203, 23.97632],
        [86.31412, 23.97908],
        [86.31592, 23.98003],
        [86.31639, 23.9815],
        [86.31707, 23.98331],
        [86.31846, 23.98437],
        [86.31995, 23.98509],
        [86.32191, 23.98658],
        [86.32291, 23.98789],
        [86.32443, 23.99027],
        [86.32625, 23.99259],
        [86.32775, 23.99492],
        [86.32924, 23.99774],
        [86.33037, 23.99969],
        [86.33066, 24.00003],
        [86.33074, 24.00061],
        [86.33186, 24.00236],
        [86.33326, 24.00372],
        [86.33508, 24.0053],
        [86.3366, 24.00553],
        [86.33771, 24.00611],
        [86.33903, 24.0077],
        [86.33972, 24.01052],
        [86.33968, 24.01092],
        [86.35501, 24.01228],
        [86.39363, 24.01545],
        [86.42162, 24.01538],
        [86.43578, 24.03277]
      ]
    ]
  }
}
