{
  "type": "Feature",
  "id": "JH-AC-45",
  "properties": {
    "stateName": "JHARKHAND",
    "stateCode": "JH",
    "districtName": "PURBI SINGHBHUM",
    "acNo": 45,
    "acName": "GHATSILA",
    "seatType": null,
    "pcNo": null,
    "pcName": null,
    "quality": "unverified",
    "sources": [
      "TBD"
    ]
  },
  "geometry": {
    "type": "Polygon",
    "coordinates": [
      [
        [86.44881, 22.76178],
        [86.4493, 22.7616],
        [86.44977, 22.76189],
        [86.45065, 22.76248],
        [86.45151, 22.76281],
        [86.45231, 22.7631],
        [86.45344, 22.76318],
        [86.45447, 22.76318],
        [86.45557, 22.76327],
        [86.45707, 22.76325],
        [86.45764, 22.76335],
        [86.45804, 22.76337],
        [86.45879, 22.76318],
        [86.45943, 22.76279],
        [86.45998, 22.76234],
        [86.46052, 22.76197],
        [86.46105, 22.76121],
        [86.46159, 22.7603],
        [86.46226, 22.75951],
        [86.46273, 22.7591],
        [86.46298, 22.75867],
        [86.46347, 22.75825],
        [86.46374, 22.75778],
        [86.46409, 22.75733],
        [86.46431, 22.75687],
        [86.4646, 22.75656],
        [86.46487, 22.75638],
        [86.4654, 22.75632],
        [86.46558, 22.75628],
        [86.46614, 22.75574],
        [86.46743, 22.75454],
        [86.46835, 22.75374],
        [86.46882, 22.75336],
        [86.4693, 22.75289],
        [86.46971, 22.75225],
        [86.46989, 22.75161],
        [86.46989, 22.75087],
        [86.46989, 22.7507],
        [86.47, 22.75054],
        [86.47, 22.75039],
        [86.46998, 22.74987],
        [86.46995, 22.74893],
        [86.47001, 22.74862],
        [86.47049, 22.74821],
        [86.47112, 22.74757],
        [86.47141, 22.74695],
        [86.47149, 22.74645],
        [86.47163, 22.74534],
        [86.47156, 22.74423],
        [86.47188, 22.7435],
        [86.47239, 22.74272],
        [86.47319, 22.74093],
        [86.4736, 22.73969],
        [86.47399, 22.73961],
        [86.47481, 22.73925],
        [86.4751, 22.73888],
        [86.47532, 22.73826],
        [86.47591, 22.73666],
        [86.47645, 22.73525],
        [86.47667, 22.73475],
        [86.47708, 22.73459],
        [86.47821, 22.73409],
        [86.47872, 22.73388],
        [86.47905, 22.7336],
        [86.48002, 22.7317],
        [86.48046, 22.73083],
        [86.48144, 22.7305],
        [86.48176, 22.73013],
        [86.48175, 22.72951],
        [86.48158, 22.72794],
        [86.48176, 22.72775],
        [86.48298, 22.72723],
        [86.48441, 22.72672],
        [86.48469, 22.72692],
        [86.48539, 22.72819],
        [86.48563, 22.72825],
        [86.48661, 22.72819],
        [86.48822, 22.72793],
        [86.48973, 22.72768],
        [86.49147, 22.72716],
        [86.49273, 22.72675],
        [86.49359, 22.72615],
        [86.49378, 22.72582],
        [86.49382, 22.7252],
        [86.49429, 22.72497],
        [86.4946, 22.72466],
        [86.49456, 22.72367],
        [86.49491, 22.72331],
        [86.49566, 22.72311],
        [86.49768, 22.72266],
        [86.49838, 22.72152],
        [86.49919, 22.72107],
        [86.50093, 22.71902],
        [86.50289, 22.71714],
        [86.50367, 22.71542],
        [86.50491, 22.71309],
        [86.50569, 22.71101],
        [86.50628, 22.70991],
        [86.50725, 22.70857],
        [86.50797, 22.70765],
        [86.50943, 22.70603],
        [86.51015, 22.70512],
        [86.51074, 22.70434],
        [86.51138, 22.70466],
        [86.51218, 22.70546],
        [86.51282, 22.70614],
        [86.51302, 22.70699],
        [86.51288, 22.70807],
        [86.51241, 22.70893],
        [86.51154, 22.71002],
        [86.51125, 22.71076],
        [86.51119, 22.71161],
        [86.51117, 22.71275],
        [86.51138, 22.71312],
        [86.51173, 22.71337],
        [86.51191, 22.71371],
        [86.51203, 22.71472],
        [86.51199, 22.71575],
        [86.51234, 22.71634],
        [86.51276, 22.71687],
        [86.51324, 22.71716],
        [86.51392, 22.7172],
        [86.51506, 22.71698],
        [86.5158, 22.7165],
        [86.51619, 22.71615],
        [86.51654, 22.71613],
        [86.51691, 22.71619],
        [86.51745, 22.71609],
        [86.51804, 22.71591],
        [86.51884, 22.71566],
        [86.5194, 22.71574],
        [86.52002, 22.71601],
        [86.52047, 22.71665],
        [86.52105, 22.71766],
        [86.52162, 22.71852],
        [86.52235, 22.71953],
        [86.5228, 22.7198],
        [86.52324, 22.71994],
        [86.52429, 22.71974],
        [86.52521, 22.71963],
        [86.52692, 22.71961],
        [86.52861, 22.71947],
        [86.53043, 22.71904],
        [86.53193, 22.71839],
        [86.53297, 22.71791],
        [86.53397, 22.71773],
        [86.53455, 22.71771],
        [86.53516, 22.71802],
        [86.53627, 22.71845],
        [86.53744, 22.7188],
        [86.53874, 22.71941],
        [86.54013, 22.72032],
        [86.54114, 22.72123],
        [86.54191, 22.7217],
        [86.54277, 22.72194],
        [86.54331, 22.72194],
        [86.54421, 22.72155],
        [86.54487, 22.72112],
        [86.54576, 22.72055],
        [86.54715, 22.71956],
        [86.54875, 22.71822],
        [86.55027, 22.7169],
        [86.552, 22.71556],
        [86.55344, 22.71424],
        [86.5559, 22.71221],
        [86.55703, 22.71152],
        [86.55824, 22.71094],
        [86.55838, 22.71088],
        [86.55927, 22.71051],
        [86.56033, 22.70979],
        [86.56147, 22.7085],
        [86.56166, 22.70791],
        [86.56163, 22.70722],
        [86.56192, 22.70675],
        [86.56351, 22.70587],
        [86.56511, 22.70473],
        [86.56594, 22.70385],
        [86.56697, 22.70336],
        [86.56774, 22.7031],
        [86.56861, 22.70271],
        [86.56918, 22.7023],
        [86.56979, 22.70162],
        [86.57029, 22.70077],
        [86.57076, 22.69997],
        [86.57167, 22.69938],
        [86.57295, 22.69874],
        [86.575, 22.69786],
        [86.57648, 22.6971],
        [86.57769, 22.69624],
        [86.57866, 22.69533],
        [86.57993, 22.69432],
        [86.58156, 22.69314],
        [86.58265, 22.6924],
        [86.58331, 22.69197],
        [86.58439, 22.69132],
        [86.58589, 22.69081],
        [86.5877, 22.69042],
        [86.58964, 22.69011],
        [86.59109, 22.6899],
        [86.59324, 22.69007],
        [86.59415, 22.69],
        [86.59488, 22.6899],
        [86.59549, 22.68949],
        [86.59586, 22.68912],
        [86.59627, 22.68856],
        [86.59646, 22.68817],
        [86.59685, 22.6884],
        [86.59716, 22.68865],
        [86.59769, 22.68865],
        [86.59825, 22.68854],
        [86.59946, 22.68815],
        [86.60042, 22.68796],
        [86.60093, 22.68781],
        [86.60145, 22.68753],
        [86.60244, 22.68691],
        [86.60357, 22.68625],
        [86.60429, 22.68588],
        [86.6047, 22.68551],
        [86.60491, 22.68502],
        [86.60512, 22.68479],
        [86.60547, 22.68475],
        [86.60598, 22.68481],
        [86.60647, 22.68489],
        [86.60703, 22.68475],
        [86.6074, 22.68436],
        [86.60801, 22.68372],
        [86.60912, 22.68194],
        [86.60988, 22.68081],
        [86.61081, 22.68013],
        [86.61206, 22.67986],
        [86.61375, 22.6797],
        [86.61506, 22.67941],
        [86.61627, 22.67895],
        [86.61687, 22.67874],
        [86.61761, 22.67855],
        [86.61837, 22.67841],
        [86.61907, 22.67835],
        [86.61938, 22.67829],
        [86.61987, 22.67773],
        [86.6201, 22.67738],
        [86.62074, 22.67701],
        [86.62166, 22.67668],
        [86.62277, 22.67588],
        [86.62327, 22.67522],
        [86.62442, 22.67381],
        [86.62546, 22.67256],
        [86.62604, 22.67138],
        [86.62672, 22.67013],
        [86.62696, 22.66931],
        [86.62702, 22.6685],
        [86.6276, 22.66777],
        [86.6285, 22.66697],
        [86.62974, 22.66621],
        [86.63083, 22.66588],
        [86.6328, 22.66568],
        [86.63406, 22.66568],
        [86.63449, 22.66567],
        [86.63481, 22.66546],
        [86.63525, 22.66517],
        [86.63609, 22.66421],
        [86.63722, 22.66301],
        [86.63841, 22.66176],
        [86.63936, 22.66075],
        [86.64009, 22.66],
        [86.64038, 22.65983],
        [86.64056, 22.65961],
        [86.6409, 22.65897],
        [86.64112, 22.65862],
        [86.64137, 22.658],
        [86.64125, 22.65693],
        [86.64088, 22.65553],
        [86.63987, 22.65396],
        [86.6388, 22.65283],
        [86.63775, 22.65167],
        [86.63752, 22.65106],
        [86.63771, 22.65012],
        [86.63793, 22.64897],
        [86.63814, 22.64724],
        [86.63824, 22.64615],
        [86.63847, 22.6441],
        [86.6386, 22.64278],
        [86.63867, 22.63944],
        [86.63872, 22.63751],
        [86.63886, 22.63501],
        [86.63872, 22.63359],
        [86.63831, 22.63035],
        [86.6381, 22.62895],
        [86.63802, 22.62612],
        [86.63804, 22.62577],
        [86.63731, 22.62474],
        [86.63601, 22.62286],
        [86.63539, 22.62169],
        [86.6349, 22.62025],
        [86.63434, 22.61867],
        [86.63401, 22.6167],
        [86.63383, 22.61579],
        [86.63358, 22.6138],
        [86.63342, 22.61222],
        [86.63329, 22.61192],
        [86.63309, 22.6114],
        [86.63307, 22.61112],
        [86.63385, 22.61079],
        [86.6357, 22.61042],
        [86.63728, 22.61015],
        [86.63755, 22.61009],
        [86.63767, 22.60931],
        [86.63761, 22.60725],
        [86.63728, 22.60418],
        [86.63718, 22.60276],
        [86.63708, 22.60198],
        [86.63764, 22.60034],
        [86.63792, 22.59944],
        [86.63806, 22.59882],
        [86.6385, 22.59834],
        [86.64028, 22.59714],
        [86.6415, 22.59636],
        [86.64273, 22.59554],
        [86.64384, 22.595],
        [86.64563, 22.59459],
        [86.6474, 22.59414],
        [86.64963, 22.59367],
        [86.65076, 22.59334],
        [86.65135, 22.59314],
        [86.65135, 22.59314],
        [86.64976, 22.59037],
        [86.64722, 22.5884],
        [86.64585, 22.58741],
        [86.644, 22.58642],
        [86.64195, 22.58553],
        [86.64069, 22.58499],
        [86.63951, 22.58445],
        [86.63806, 22.58383],
        [86.6364, 22.58311],
        [86.63493, 22.58284],
        [86.63181, 22.5815],
        [86.63094, 22.58105],
        [86.62898, 22.58034],
        [86.62723, 22.57953],
        [86.62539, 22.5789],
        [86.62402, 22.57837],
        [86.62177, 22.57748],
        [86.62032, 22.57684],
        [86.61944, 22.57631],
        [86.61748, 22.57515],
        [86.61504, 22.5737],
        [86.61319, 22.57263],
        [86.61222, 22.57199],
        [86.61007, 22.57065],
        [86.6092, 22.57002],
        [86.60744, 22.56913],
        [86.6053, 22.56878],
        [86.60383, 22.56806],
        [86.60256, 22.56734],
        [86.60109, 22.56652],
        [86.59905, 22.56518],
        [86.59788, 22.56446],
        [86.59623, 22.56329],
        [86.59398, 22.56158],
        [86.59241, 22.5605],
        [86.59085, 22.55934],
        [86.58949, 22.55826],
        [86.58832, 22.55718],
        [86.58646, 22.55511],
        [86.58547, 22.55393],
        [86.58479, 22.55304],
        [86.58323, 22.55096],
        [86.58244, 22.54998],
        [86.58107, 22.54736],
        [86.58008, 22.54357],
        [86.5786, 22.54024],
        [86.57772, 22.5387],
        [86.57625, 22.53545],
        [86.57456, 22.53176],
        [86.57387, 22.52915],
        [86.57338, 22.52671],
        [86.57239, 22.52346],
        [86.5716, 22.52075],
        [86.5705, 22.51597],
        [86.57, 22.5139],
        [86.5693, 22.51028],
        [86.56939, 22.50829],
        [86.56947, 22.50559],
        [86.56964, 22.50198],
        [86.56983, 22.50108],
        [86.57049, 22.49664],
        [86.57087, 22.49493],
        [86.57086, 22.49258],
        [86.57105, 22.49078],
        [86.57162, 22.48824],
        [86.57239, 22.4867],
        [86.57335, 22.48525],
        [86.5748, 22.48308],
        [86.57576, 22.48164],
        [86.57654, 22.48064],
        [86.57758, 22.47756],
        [86.57817, 22.47648],
        [86.57903, 22.47476],
        [86.5796, 22.47322],
        [86.58066, 22.47015],
        [86.58114, 22.46861],
        [86.58199, 22.46599],
        [86.58334, 22.46301],
        [86.58392, 22.46111],
        [86.58497, 22.45858],
        [86.58592, 22.4555],
        [86.5866, 22.45288],
        [86.58697, 22.45071],
        [86.5882, 22.44665],
        [86.58839, 22.44556],
        [86.58887, 22.44367],
        [86.58934, 22.44095],
        [86.58953, 22.43986],
        [86.59, 22.43761],
        [86.59, 22.43598],
        [86.58998, 22.43417],
        [86.59016, 22.43147],
        [86.59016, 22.42966],
        [86.59034, 22.42803],
        [86.59063, 22.42649],
        [86.591, 22.4246],
        [86.59119, 22.42351],
        [86.59157, 22.42135],
        [86.59156, 22.42017],
        [86.59155, 22.41899],
        [86.59106, 22.41665],
        [86.59085, 22.41557],
        [86.59056, 22.41395],
        [86.58996, 22.41214],
        [86.58918, 22.41043],
        [86.58751, 22.40709],
        [86.58671, 22.40411],
        [86.58543, 22.4005],
        [86.58484, 22.39807],
        [86.58318, 22.39681],
        [86.58269, 22.39437],
        [86.58249, 22.39265],
        [86.58238, 22.39121],
        [86.58216, 22.38887],
        [86.58225, 22.38625],
        [86.58263, 22.38408],
        [86.58282, 22.38227],
        [86.58329, 22.38055],
        [86.58396, 22.37839],
        [86.58502, 22.3764],
        [86.58559, 22.37531],
        [86.58675, 22.37341],
        [86.58752, 22.3726],
        [86.58859, 22.37195],
        [86.59139, 22.37077],
        [86.59207, 22.36978],
        [86.59342, 22.36833],
        [86.59525, 22.36606],
        [86.59642, 22.36489],
        [86.59853, 22.36235],
        [86.59931, 22.36154],
        [86.60047, 22.36017],
        [86.60191, 22.35818],
        [86.60229, 22.35719],
        [86.60285, 22.35439],
        [86.60226, 22.35186],
        [86.60129, 22.3506],
        [86.59983, 22.34952],
        [86.59807, 22.34853],
        [86.59545, 22.34764],
        [86.59273, 22.34683],
        [86.59028, 22.3463],
        [86.58902, 22.34576],
        [86.58533, 22.34424],
        [86.58299, 22.34317],
        [86.57999, 22.3429],
        [86.57716, 22.34202],
        [86.57376, 22.34112],
        [86.57172, 22.34014],
        [86.56958, 22.33932],
        [86.56704, 22.33798],
        [86.56394, 22.33583],
        [86.56101, 22.3343],
        [86.55809, 22.33223],
        [86.55526, 22.32953],
        [86.5535, 22.32773],
        [86.55232, 22.32602],
        [86.55087, 22.32412],
        [86.54969, 22.32295],
        [86.54803, 22.32106],
        [86.54657, 22.31953],
        [86.54549, 22.318],
        [86.54132, 22.30819],
        [86.541, 22.30827],
        [86.53998, 22.30811],
        [86.53962, 22.30768],
        [86.53944, 22.3068],
        [86.5398, 22.30609],
        [86.53962, 22.30545],
        [86.53892, 22.3045],
        [86.53719, 22.30315],
        [86.53539, 22.30198],
        [86.53408, 22.30095],
        [86.5331, 22.30067],
        [86.53225, 22.30127],
        [86.53147, 22.3029],
        [86.52996, 22.30396],
        [86.52794, 22.30588],
        [86.52649, 22.30673],
        [86.52522, 22.30779],
        [86.52533, 22.3097],
        [86.52575, 22.31069],
        [86.52431, 22.31317],
        [86.52325, 22.31408],
        [86.523, 22.31496],
        [86.52297, 22.31567],
        [86.52339, 22.31577],
        [86.52406, 22.31563],
        [86.52671, 22.31485],
        [86.52716, 22.31489],
        [86.52794, 22.31592],
        [86.52791, 22.31985],
        [86.52706, 22.32107],
        [86.52688, 22.32188],
        [86.52681, 22.32319],
        [86.52674, 22.32348],
        [86.5266, 22.32362],
        [86.52646, 22.32366],
        [86.52494, 22.32383],
        [86.52328, 22.32359],
        [86.52208, 22.32327],
        [86.52121, 22.32337],
        [86.52032, 22.3239],
        [86.5188, 22.32419],
        [86.51728, 22.32443],
        [86.51591, 22.32479],
        [86.51418, 22.32543],
        [86.51308, 22.3261],
        [86.51199, 22.32677],
        [86.51164, 22.32695],
        [86.50984, 22.32716],
        [86.50818, 22.32766],
        [86.50726, 22.32867],
        [86.50712, 22.32959],
        [86.50741, 22.331],
        [86.50684, 22.33199],
        [86.50751, 22.33384],
        [86.5073, 22.33474],
        [86.50663, 22.33541],
        [86.50581, 22.33556],
        [86.50461, 22.3357],
        [86.50377, 22.33623],
        [86.50342, 22.33651],
        [86.5032, 22.33757],
        [86.50352, 22.3391],
        [86.50361, 22.34018],
        [86.50267, 22.34103],
        [86.50231, 22.34145],
        [86.50217, 22.3423],
        [86.50217, 22.34319],
        [86.50217, 22.34336],
        [86.50207, 22.34365],
        [86.50133, 22.34386],
        [86.50068, 22.34382],
        [86.50005, 22.34414],
        [86.49935, 22.3446],
        [86.49822, 22.3451],
        [86.49797, 22.34549],
        [86.49786, 22.3457],
        [86.49754, 22.34625],
        [86.4974, 22.34644],
        [86.49737, 22.34649],
        [86.49736, 22.34659],
        [86.49734, 22.34671],
        [86.49727, 22.34698],
        [86.49725, 22.34706],
        [86.49708, 22.3472],
        [86.497, 22.34719],
        [86.4969, 22.34718],
        [86.4968, 22.34712],
        [86.49668, 22.34705],
        [86.4966, 22.34696],
        [86.49626, 22.34654],
        [86.49614, 22.34647],
        [86.49599, 22.34634],
        [86.49592, 22.34627],
        [86.49567, 22.34615],
        [86.49553, 22.3461],
        [86.49537, 22.34607],
        [86.49523, 22.34604],
        [86.49513, 22.34602],
        [86.49509, 22.34599],
        [86.49479, 22.3458],
        [86.49459, 22.3458],
        [86.4945, 22.3458],
        [86.49432, 22.3458],
        [86.49418, 22.3458],
        [86.49386, 22.346],
        [86.49371, 22.34605],
        [86.49354, 22.34627],
        [86.49346, 22.34639],
        [86.49338, 22.34657],
        [86.49334, 22.34666],
        [86.49317, 22.34691],
        [86.493, 22.3471],
        [86.49292, 22.34723],
        [86.49275, 22.3473],
        [86.49255, 22.34723],
        [86.49241, 22.3472],
        [86.49213, 22.34715],
        [86.49189, 22.3471],
        [86.49172, 22.34711],
        [86.4915, 22.34715],
        [86.4913, 22.3473],
        [86.49113, 22.34745],
        [86.49088, 22.3476],
        [86.49054, 22.34774],
        [86.49022, 22.34789],
        [86.4898, 22.34801],
        [86.48961, 22.34804],
        [86.48931, 22.34801],
        [86.48914, 22.34794],
        [86.48899, 22.34787],
        [86.48867, 22.34779],
        [86.48857, 22.34777],
        [86.48838, 22.34772],
        [86.4883, 22.34771],
        [86.48808, 22.34769],
        [86.48768, 22.34777],
        [86.4876, 22.34776],
        [86.4875, 22.34774],
        [86.48737, 22.34772],
        [86.48729, 22.34767],
        [86.48623, 22.34988],
        [86.4845, 22.35069],
        [86.48267, 22.35485],
        [86.48161, 22.35721],
        [86.48075, 22.35974],
        [86.47941, 22.36389],
        [86.47835, 22.36615],
        [86.477, 22.36823],
        [86.47595, 22.37014],
        [86.4742, 22.37258],
        [86.47238, 22.37665],
        [86.4719, 22.37783],
        [86.47152, 22.38008],
        [86.47173, 22.38297],
        [86.47203, 22.38595],
        [86.47204, 22.38812],
        [86.47215, 22.39019],
        [86.47305, 22.3938],
        [86.47354, 22.39633],
        [86.47491, 22.39931],
        [86.47648, 22.40427],
        [86.47571, 22.40608],
        [86.47583, 22.40842],
        [86.47681, 22.41195],
        [86.4774, 22.41438],
        [86.47771, 22.41682],
        [86.47772, 22.41908],
        [86.47773, 22.42079],
        [86.47773, 22.42305],
        [86.47755, 22.42531],
        [86.47727, 22.42847],
        [86.47265, 22.43544],
        [86.47032, 22.43798],
        [86.46743, 22.44042],
        [86.46249, 22.44522],
        [86.46065, 22.44612],
        [86.45949, 22.44658],
        [86.4526, 22.44976],
        [86.44793, 22.45004],
        [86.44502, 22.45149],
        [86.44037, 22.45331],
        [86.43552, 22.4555],
        [86.42941, 22.45714],
        [86.42728, 22.45768],
        [86.4235, 22.4594],
        [86.41739, 22.46104],
        [86.4139, 22.46205],
        [86.41021, 22.46359],
        [86.40622, 22.4655],
        [86.40138, 22.46794],
        [86.39623, 22.46949],
        [86.39176, 22.47059],
        [86.38751, 22.47267],
        [86.38382, 22.4744],
        [86.37926, 22.47604],
        [86.37364, 22.47902],
        [86.36859, 22.48166],
        [86.36442, 22.48447],
        [86.35929, 22.48862],
        [86.35561, 22.49179],
        [86.35126, 22.49956],
        [86.34894, 22.50291],
        [86.34749, 22.50527],
        [86.34605, 22.50816],
        [86.3445, 22.51358],
        [86.34347, 22.51882],
        [86.34241, 22.52506],
        [86.34107, 22.5312],
        [86.34041, 22.5359],
        [86.33984, 22.54059],
        [86.33947, 22.54448],
        [86.3391, 22.54963],
        [86.33884, 22.55829],
        [86.33817, 22.56407],
        [86.33713, 22.5676],
        [86.33597, 22.57185],
        [86.33511, 22.57411],
        [86.33337, 22.57826],
        [86.33106, 22.58513],
        [86.3299, 22.58756],
        [86.32856, 22.59182],
        [86.3277, 22.59479],
        [86.32702, 22.59589],
        [86.32576, 22.59896],
        [86.32412, 22.60203],
        [86.32267, 22.60466],
        [86.32093, 22.60791],
        [86.31947, 22.61143],
        [86.31823, 22.61531],
        [86.31718, 22.61848],
        [86.31613, 22.62444],
        [86.31565, 22.62832],
        [86.31576, 22.63059],
        [86.31586, 22.63193],
        [86.31656, 22.6369],
        [86.31774, 22.63952],
        [86.319, 22.64205],
        [86.32184, 22.64501],
        [86.32905, 22.64717],
        [86.33042, 22.64916],
        [86.33294, 22.64807],
        [86.33683, 22.64915],
        [86.33869, 22.64906],
        [86.3415, 22.64986],
        [86.34442, 22.65076],
        [86.34793, 22.65129],
        [86.34958, 22.65129],
        [86.35153, 22.65137],
        [86.35406, 22.64984],
        [86.3562, 22.65082],
        [86.35737, 22.65127],
        [86.35843, 22.65109],
        [86.3601, 22.65334],
        [86.36137, 22.6565],
        [86.36159, 22.65966],
        [86.36139, 22.66137],
        [86.35965, 22.66238],
        [86.35771, 22.66437],
        [86.35665, 22.66698],
        [86.35559, 22.67015],
        [86.35473, 22.6744],
        [86.35377, 22.67612],
        [86.35281, 22.68171],
        [86.35195, 22.68478],
        [86.35118, 22.68885],
        [86.3512, 22.69147],
        [86.35101, 22.69418],
        [86.35121, 22.69707],
        [86.35103, 22.6996],
        [86.35104, 22.70068],
        [86.35056, 22.70285],
        [86.34988, 22.7062],
        [86.3496, 22.70773],
        [86.34873, 22.7108],
        [86.34767, 22.71342],
        [86.3471, 22.71531],
        [86.34661, 22.71703],
        [86.34575, 22.72092],
        [86.34848, 22.72065],
        [86.351, 22.72073],
        [86.35315, 22.72045],
        [86.35452, 22.72018],
        [86.35871, 22.72035],
        [86.36211, 22.72079],
        [86.36628, 22.72079],
        [86.37038, 22.72042],
        [86.37242, 22.72023],
        [86.37544, 22.7205],
        [86.37864, 22.72058],
        [86.38342, 22.72102],
        [86.388, 22.72246],
        [86.39161, 22.72182],
        [86.39647, 22.72299],
        [86.40105, 22.72451],
        [86.40397, 22.7245],
        [86.40563, 22.72521],
        [86.40729, 22.72575],
        [86.40924, 22.72647],
        [86.41051, 22.72692],
        [86.41267, 22.72882],
        [86.41599, 22.73214],
        [86.41764, 22.73386],
        [86.41872, 22.73558],
        [86.42038, 22.73783],
        [86.42274, 22.74153],
        [86.4247, 22.74477],
        [86.42577, 22.74667],
        [86.42734, 22.74891],
        [86.43028, 22.75251],
        [86.43263, 22.75531],
        [86.43439, 22.75702],
        [86.43703, 22.75945],
        [86.43986, 22.76143],
        [86.44133, 22.7626],
        [86.44642, 22.7647],
        [86.44642, 22.7647],
        [86.44716, 22.76405],
        [86.44757, 22.7636],
        [86.44789, 22.76296],
        [86.44835, 22.76224],
        [86.44881, 22.76178]
      ]
    ]
  }
}
