{
  "type": "Feature",
  "id": "AP-AC-1",
  "properties": {
    "stateName": "ANDHRA PRADESH",
    "stateCode": "AP",
    "districtName": "SRIKAKULAM",
    "acNo": 1,
    "acName": "ICHCHAPURAM",
    "seatType": null,
    "pcNo": null,
    "pcName": null,
    "quality": "unverified",
    "sources": [
      "TBD"
    ]
  },
  "geometry": {
    "type": "Polygon",
    "coordinates": [
      [
        [84.53719, 18.87857],
        [84.53281, 18.88309],
        [84.52248, 18.88332],
        [84.51673, 18.89137],
        [84.50578, 18.8914],
        [84.4957, 18.89749],
        [84.49898, 18.90225],
        [84.49514, 18.90751],
        [84.49749, 18.91053],
        [84.48532, 18.92538],
        [84.48933, 18.93678],
        [84.48021, 18.94151],
        [84.47713, 18.95036],
        [84.47956, 18.9544],
        [84.47442, 18.99069],
        [84.47715, 18.99105],
        [84.4783, 18.9912],
        [84.4833, 19.0051],
        [84.483, 19.0163],
        [84.4973, 19.0314],
        [84.5067, 19.0351],
        [84.5164, 19.0484],
        [84.5261, 19.046],
        [84.5433, 19.055],
        [84.5566, 19.0566],
        [84.56553, 19.06596],
        [84.5729, 19.0737],
        [84.5716, 19.0696],
        [84.5747, 19.0676],
        [84.58014, 19.07127],
        [84.58078, 19.0717],
        [84.583, 19.0732],
        [84.5805, 19.06],
        [84.5831, 19.0492],
        [84.5773, 19.0405],
        [84.5833, 19.0425],
        [84.5817, 19.0301],
        [84.5942, 19.0223],
        [84.5957, 19.0255],
        [84.6013, 19.0253],
        [84.6059, 19.0417],
        [84.6143, 19.0519],
        [84.6134, 19.0566],
        [84.6207, 19.0561],
        [84.6224, 19.0601],
        [84.6171, 19.0609],
        [84.6183, 19.0659],
        [84.6278, 19.0662],
        [84.631, 19.0604],
        [84.6371, 19.06],
        [84.6416, 19.0673],
        [84.6539, 19.0675],
        [84.6611, 19.063],
        [84.6631, 19.0746],
        [84.6709, 19.0763],
        [84.6635, 19.0824],
        [84.659, 19.0944],
        [84.647, 19.0963],
        [84.6368, 19.0897],
        [84.6368, 19.08671],
        [84.6368, 19.0859],
        [84.6343, 19.0887],
        [84.6312, 19.0821],
        [84.6319, 19.0866],
        [84.6255, 19.0849],
        [84.6227, 19.0939],
        [84.62295, 19.09436],
        [84.6255, 19.0991],
        [84.6196, 19.1044],
        [84.6187, 19.1001],
        [84.6096, 19.1008],
        [84.6113, 19.1068],
        [84.6084, 19.1075],
        [84.6029, 19.1266],
        [84.596, 19.1288],
        [84.5955, 19.1325],
        [84.6298, 19.1267],
        [84.63021, 19.12772],
        [84.631, 19.1297],
        [84.63943, 19.1297],
        [84.6436, 19.1297],
        [84.6441, 19.1337],
        [84.6543, 19.1294],
        [84.6673, 19.1299],
        [84.6717, 19.1482],
        [84.671, 19.1562],
        [84.6679, 19.1542],
        [84.6709, 19.166],
        [84.6778, 19.1668],
        [84.6844, 19.16],
        [84.7034, 19.1612],
        [84.7125, 19.1576],
        [84.7149, 19.1523],
        [84.7105, 19.1465],
        [84.7012, 19.1471],
        [84.7001, 19.1444],
        [84.70241, 19.14309],
        [84.7061, 19.141],
        [84.6978, 19.1264],
        [84.7025, 19.1259],
        [84.7028, 19.1179],
        [84.7651, 19.0772],
        [84.6845, 18.9675],
        [84.6036, 18.8898],
        [84.5845, 18.8635],
        [84.576, 18.8413],
        [84.56489, 18.82696],
        [84.57597, 18.84133],
        [84.56346, 18.84247],
        [84.56074, 18.84704],
        [84.54052, 18.85418],
        [84.5363, 18.84997],
        [84.52862, 18.85317],
        [84.51989, 18.86736],
        [84.53719, 18.87857]
      ]
    ]
  }
}
