{
  "type": "Feature",
  "id": "AP-AC-150",
  "properties": {
    "stateName": "ANDHRA PRADESH",
    "stateCode": "AP",
    "districtName": "ANANTHAPURAMU",
    "acNo": 150,
    "acName": "GUNTAKAL",
    "seatType": null,
    "pcNo": null,
    "pcName": null,
    "quality": "unverified",
    "sources": [
      "TBD"
    ]
  },
  "geometry": {
    "type": "Polygon",
    "coordinates": [
      [
        [77.69102, 15.20782],
        [77.69768, 15.20682],
        [77.69291, 15.18477],
        [77.70126, 15.18078],
        [77.7116, 15.18759],
        [77.71739, 15.17973],
        [77.71654, 15.17304],
        [77.73296, 15.1694],
        [77.73049, 15.15132],
        [77.74643, 15.14163],
        [77.74878, 15.12947],
        [77.77395, 15.12547],
        [77.77095, 15.11503],
        [77.76317, 15.11284],
        [77.76127, 15.10428],
        [77.7458, 15.10933],
        [77.73102, 15.10754],
        [77.72628, 15.09404],
        [77.71742, 15.0901],
        [77.70158, 15.09829],
        [77.68963, 15.08862],
        [77.68101, 15.0941],
        [77.68021, 15.0872],
        [77.67583, 15.08572],
        [77.66758, 15.09225],
        [77.65624, 15.09169],
        [77.64743, 15.09619],
        [77.64343, 15.08639],
        [77.62914, 15.09188],
        [77.6183, 15.07739],
        [77.61337, 15.07807],
        [77.61404, 15.05403],
        [77.62413, 15.05925],
        [77.63084, 15.05507],
        [77.63019, 15.04976],
        [77.64568, 15.04629],
        [77.647, 15.03295],
        [77.62418, 15.0344],
        [77.60556, 15.01524],
        [77.59167, 15.0135],
        [77.60828, 15.01144],
        [77.61026, 15.0073],
        [77.61251, 15.01116],
        [77.64827, 15.01952],
        [77.64796, 15.01046],
        [77.65412, 15.00898],
        [77.64718, 14.96325],
        [77.63356, 14.9646],
        [77.63184, 14.94771],
        [77.6122, 14.94525],
        [77.6083, 14.93505],
        [77.5965, 14.93739],
        [77.5735, 14.93428],
        [77.55575, 14.91395],
        [77.53403, 14.90421],
        [77.49759, 14.90487],
        [77.49323, 14.89725],
        [77.49005, 14.90126],
        [77.48099, 14.90207],
        [77.48192, 14.90563],
        [77.47598, 14.90548],
        [77.45917, 14.88432],
        [77.42818, 14.88439],
        [77.42261, 14.88982],
        [77.42032, 14.89925],
        [77.40942, 14.90979],
        [77.41933, 14.91306],
        [77.42623, 14.944],
        [77.43663, 14.95824],
        [77.43979, 14.97122],
        [77.45105, 14.9817],
        [77.44556, 14.98841],
        [77.4518, 14.98846],
        [77.44612, 15.0094],
        [77.4608, 15.02321],
        [77.45206, 15.03322],
        [77.43642, 15.03856],
        [77.44522, 15.06543],
        [77.42442, 15.07184],
        [77.41411, 15.07885],
        [77.40701, 15.10036],
        [77.41175, 15.10603],
        [77.39234, 15.11368],
        [77.37866, 15.13284],
        [77.3436, 15.14597],
        [77.31684, 15.14823],
        [77.31619, 15.15324],
        [77.30984, 15.15545],
        [77.31625, 15.17808],
        [77.33077, 15.17568],
        [77.35141, 15.17844],
        [77.35385, 15.20009],
        [77.36226, 15.21426],
        [77.3631, 15.22424],
        [77.3946, 15.21854],
        [77.40634, 15.22065],
        [77.40726, 15.22521],
        [77.43324, 15.22213],
        [77.43473, 15.21139],
        [77.45083, 15.20685],
        [77.44671, 15.21542],
        [77.45062, 15.21688],
        [77.45152, 15.2237],
        [77.46794, 15.2191],
        [77.48129, 15.20988],
        [77.50203, 15.22297],
        [77.52747, 15.22531],
        [77.54233, 15.21009],
        [77.5665, 15.20431],
        [77.57336, 15.19869],
        [77.57586, 15.20054],
        [77.57541, 15.19593],
        [77.58262, 15.18913],
        [77.59651, 15.18463],
        [77.61153, 15.18473],
        [77.61051, 15.19694],
        [77.61572, 15.20773],
        [77.63518, 15.20814],
        [77.63723, 15.22247],
        [77.64964, 15.22619],
        [77.65183, 15.23383],
        [77.67149, 15.23287],
        [77.67713, 15.22936],
        [77.67877, 15.21778],
        [77.68888, 15.21435],
        [77.69102, 15.20782]
      ]
    ]
  }
}
