{
  "type": "Feature",
  "id": "AP-AC-153",
  "properties": {
    "stateName": "ANDHRA PRADESH",
    "stateCode": "AP",
    "districtName": "ANANTHAPURAMU",
    "acNo": 153,
    "acName": "ANANTAPUR URBAN",
    "seatType": null,
    "pcNo": null,
    "pcName": null,
    "quality": "unverified",
    "sources": [
      "TBD"
    ]
  },
  "geometry": {
    "type": "Polygon",
    "coordinates": [
      [
        [77.59692, 14.64906],
        [77.5884, 14.64812],
        [77.59239, 14.67241],
        [77.59084, 14.67898],
        [77.58455, 14.68309],
        [77.59247, 14.69073],
        [77.59086, 14.69423],
        [77.57666, 14.69425],
        [77.57399, 14.6914],
        [77.56617, 14.69364],
        [77.57527, 14.72453],
        [77.56316, 14.73479],
        [77.58391, 14.74089],
        [77.59134, 14.73634],
        [77.59364, 14.72908],
        [77.588, 14.72355],
        [77.58744, 14.71592],
        [77.59284, 14.71033],
        [77.60786, 14.72174],
        [77.61177, 14.69581],
        [77.62603, 14.67412],
        [77.62144, 14.64226],
        [77.59692, 14.64906]
      ]
    ]
  }
}
