{
  "type": "Feature",
  "id": "AP-AC-155",
  "properties": {
    "stateName": "ANDHRA PRADESH",
    "stateCode": "AP",
    "districtName": "ANANTHAPURAMU",
    "acNo": 155,
    "acName": "RAPTADU",
    "seatType": null,
    "pcNo": null,
    "pcName": null,
    "quality": "unverified",
    "sources": [
      "TBD"
    ]
  },
  "geometry": {
    "type": "Polygon",
    "coordinates": [
      [
        [77.3623, 14.2761],
        [77.36078, 14.27623],
        [77.35761, 14.27664],
        [77.35743, 14.29509],
        [77.35051, 14.29849],
        [77.34962, 14.30853],
        [77.34233, 14.30253],
        [77.33367, 14.30515],
        [77.33341, 14.30929],
        [77.32026, 14.31183],
        [77.31976, 14.33223],
        [77.31664, 14.33492],
        [77.32835, 14.33776],
        [77.32941, 14.3429],
        [77.32624, 14.34498],
        [77.33276, 14.35303],
        [77.32758, 14.35778],
        [77.32646, 14.36888],
        [77.319, 14.37323],
        [77.32121, 14.37793],
        [77.31767, 14.37777],
        [77.31661, 14.38293],
        [77.3243, 14.43544],
        [77.33479, 14.44596],
        [77.33291, 14.45266],
        [77.36319, 14.46222],
        [77.35908, 14.48391],
        [77.37741, 14.49832],
        [77.35833, 14.52951],
        [77.35328, 14.52878],
        [77.34872, 14.53364],
        [77.34177, 14.56706],
        [77.34676, 14.61713],
        [77.32117, 14.61666],
        [77.31796, 14.62735],
        [77.30001, 14.63677],
        [77.29892, 14.6476],
        [77.2929, 14.6482],
        [77.28917, 14.6476],
        [77.28304, 14.66346],
        [77.27893, 14.66273],
        [77.27536, 14.66834],
        [77.29389, 14.66596],
        [77.29726, 14.68055],
        [77.32804, 14.69267],
        [77.35852, 14.6892],
        [77.3656, 14.69244],
        [77.37322, 14.68954],
        [77.40588, 14.69716],
        [77.42182, 14.69049],
        [77.4221, 14.67497],
        [77.42789, 14.67124],
        [77.43701, 14.68205],
        [77.42983, 14.6773],
        [77.43198, 14.68356],
        [77.43836, 14.68475],
        [77.44548, 14.70361],
        [77.47645, 14.70772],
        [77.4891, 14.70375],
        [77.4971, 14.70888],
        [77.52271, 14.70423],
        [77.52546, 14.71227],
        [77.53508, 14.71795],
        [77.53555, 14.73232],
        [77.54446, 14.74901],
        [77.53979, 14.75375],
        [77.55121, 14.76717],
        [77.55743, 14.76505],
        [77.57587, 14.76896],
        [77.57684, 14.77191],
        [77.59614, 14.76694],
        [77.60119, 14.75013],
        [77.61645, 14.74518],
        [77.61524, 14.73456],
        [77.60786, 14.72174],
        [77.59284, 14.71033],
        [77.58744, 14.71592],
        [77.588, 14.72355],
        [77.59364, 14.72908],
        [77.59134, 14.73634],
        [77.58391, 14.74089],
        [77.56316, 14.73479],
        [77.57527, 14.72453],
        [77.56617, 14.69364],
        [77.57399, 14.6914],
        [77.57666, 14.69425],
        [77.59086, 14.69423],
        [77.59247, 14.69073],
        [77.58455, 14.68309],
        [77.59084, 14.67898],
        [77.59239, 14.67241],
        [77.5884, 14.64812],
        [77.59692, 14.64906],
        [77.62144, 14.64226],
        [77.62603, 14.67412],
        [77.64025, 14.67663],
        [77.65787, 14.66651],
        [77.65931, 14.66096],
        [77.65439, 14.64557],
        [77.65645, 14.63526],
        [77.67993, 14.61932],
        [77.68603, 14.62067],
        [77.69142, 14.64288],
        [77.71027, 14.6347],
        [77.71607, 14.62317],
        [77.73743, 14.62244],
        [77.74407, 14.62615],
        [77.74358, 14.6069],
        [77.73312, 14.60166],
        [77.73885, 14.59251],
        [77.7344, 14.5891],
        [77.7387, 14.58634],
        [77.73637, 14.5767],
        [77.72889, 14.57483],
        [77.721, 14.57984],
        [77.71196, 14.57312],
        [77.70431, 14.54619],
        [77.69372, 14.53748],
        [77.68011, 14.537],
        [77.66811, 14.54134],
        [77.6545, 14.53628],
        [77.64978, 14.51834],
        [77.65882, 14.51793],
        [77.67498, 14.50914],
        [77.67696, 14.49825],
        [77.66756, 14.48743],
        [77.65739, 14.4829],
        [77.65066, 14.48563],
        [77.64813, 14.47803],
        [77.64238, 14.47634],
        [77.64635, 14.46226],
        [77.63952, 14.45869],
        [77.64042, 14.45522],
        [77.63675, 14.45542],
        [77.63417, 14.44778],
        [77.6421, 14.4346],
        [77.6318, 14.4224],
        [77.63264, 14.41482],
        [77.6283, 14.41247],
        [77.63281, 14.41082],
        [77.63229, 14.40786],
        [77.62847, 14.40717],
        [77.62273, 14.39699],
        [77.66229, 14.3936],
        [77.66795, 14.37203],
        [77.68934, 14.37316],
        [77.70246, 14.38282],
        [77.70872, 14.3796],
        [77.71063, 14.37172],
        [77.7163, 14.37032],
        [77.73513, 14.34167],
        [77.73368, 14.33611],
        [77.72426, 14.33535],
        [77.72585, 14.325],
        [77.74741, 14.3267],
        [77.75139, 14.31518],
        [77.75191, 14.32664],
        [77.77622, 14.33009],
        [77.791, 14.33904],
        [77.79993, 14.34013],
        [77.79813, 14.32684],
        [77.80789, 14.31913],
        [77.82399, 14.3069],
        [77.8424, 14.30681],
        [77.8476, 14.30341],
        [77.84998, 14.29964],
        [77.84381, 14.2894],
        [77.84696, 14.27886],
        [77.84285, 14.27152],
        [77.84497, 14.26569],
        [77.82765, 14.25196],
        [77.81694, 14.2704],
        [77.80263, 14.27327],
        [77.78775, 14.27102],
        [77.78098, 14.27286],
        [77.78015, 14.27891],
        [77.77202, 14.27854],
        [77.7619, 14.27376],
        [77.7586, 14.25985],
        [77.7519, 14.25947],
        [77.74924, 14.25336],
        [77.73598, 14.25064],
        [77.73333, 14.25501],
        [77.71134, 14.25207],
        [77.68728, 14.24224],
        [77.66509, 14.2397],
        [77.65351, 14.23169],
        [77.6381, 14.23316],
        [77.63126, 14.22786],
        [77.61045, 14.22996],
        [77.59288, 14.22147],
        [77.5773, 14.22395],
        [77.56658, 14.2212],
        [77.56272, 14.21125],
        [77.56387, 14.19534],
        [77.55653, 14.1935],
        [77.55135, 14.18583],
        [77.51768, 14.18309],
        [77.51685, 14.1839],
        [77.5171, 14.1844],
        [77.5047, 14.194],
        [77.5033, 14.2106],
        [77.4945, 14.2243],
        [77.4959, 14.232],
        [77.4928, 14.231],
        [77.5034, 14.2598],
        [77.4983, 14.2789],
        [77.4871, 14.2818],
        [77.4789, 14.2922],
        [77.4597, 14.2805],
        [77.4503, 14.2807],
        [77.4452, 14.2953],
        [77.4462, 14.3175],
        [77.4313, 14.313],
        [77.4284, 14.3287],
        [77.4109, 14.337],
        [77.3942, 14.3366],
        [77.3784, 14.3201],
        [77.3771, 14.3048],
        [77.3888, 14.2809],
        [77.3872, 14.2712],
        [77.38724, 14.27118],
        [77.38724, 14.27117],
        [77.38865, 14.27034],
        [77.3958, 14.2661],
        [77.4054, 14.2667],
        [77.4088, 14.2599],
        [77.4097, 14.232],
        [77.4177, 14.2259],
        [77.4194, 14.2117],
        [77.4144, 14.2049],
        [77.3871, 14.2001],
        [77.3831, 14.2081],
        [77.3842, 14.221],
        [77.3776, 14.2281],
        [77.3595, 14.234],
        [77.3638, 14.2547],
        [77.3623, 14.2761]
      ]
    ]
  }
}
