{
  "type": "Feature",
  "id": "AP-AC-2",
  "properties": {
    "stateName": "ANDHRA PRADESH",
    "stateCode": "AP",
    "districtName": "SRIKAKULAM",
    "acNo": 2,
    "acName": "PALASA",
    "seatType": null,
    "pcNo": null,
    "pcName": null,
    "quality": "unverified",
    "sources": [
      "TBD"
    ]
  },
  "geometry": {
    "type": "Polygon",
    "coordinates": [
      [
        [84.3731, 18.8608],
        [84.383, 18.8731],
        [84.3633, 18.8858],
        [84.3622, 18.8915],
        [84.3807, 18.8817],
        [84.3866, 18.8848],
        [84.39088, 18.88159],
        [84.3946, 18.8788],
        [84.3995, 18.8846],
        [84.396, 18.8918],
        [84.3849, 18.8952],
        [84.3798, 18.9023],
        [84.3848, 18.9001],
        [84.393, 18.904],
        [84.4002, 18.895],
        [84.4182, 18.8972],
        [84.4221, 18.9041],
        [84.4179, 18.9166],
        [84.4276, 18.9089],
        [84.4315, 18.917],
        [84.4371, 18.9196],
        [84.4377, 18.9315],
        [84.4283, 18.9314],
        [84.4306, 18.9352],
        [84.4246, 18.9485],
        [84.4322, 18.959],
        [84.4308, 18.9691],
        [84.44307, 18.9691],
        [84.4431, 18.9691],
        [84.452, 18.9776],
        [84.4437, 18.9853],
        [84.4433, 18.9917],
        [84.4319, 18.9948],
        [84.4327, 19.0037],
        [84.4249, 19.0122],
        [84.42665, 19.01217],
        [84.4305, 19.01211],
        [84.4313, 19.0121],
        [84.4422, 19.0016],
        [84.4482, 19.0023],
        [84.4606, 18.9973],
        [84.4614, 18.9933],
        [84.4744, 18.9907],
        [84.4783, 18.9912],
        [84.47715, 18.99105],
        [84.47442, 18.99069],
        [84.47956, 18.9544],
        [84.47713, 18.95036],
        [84.48021, 18.94151],
        [84.48933, 18.93678],
        [84.48532, 18.92538],
        [84.49749, 18.91053],
        [84.49514, 18.90751],
        [84.49898, 18.90225],
        [84.4957, 18.89749],
        [84.50578, 18.8914],
        [84.51673, 18.89137],
        [84.52248, 18.88332],
        [84.53281, 18.88309],
        [84.53719, 18.87857],
        [84.51989, 18.86736],
        [84.52862, 18.85317],
        [84.5363, 18.84997],
        [84.54052, 18.85418],
        [84.56074, 18.84704],
        [84.56346, 18.84247],
        [84.57597, 18.84133],
        [84.56489, 18.82696],
        [84.576, 18.8413],
        [84.5578, 18.8178],
        [84.5515, 18.7905],
        [84.4931, 18.7402],
        [84.4532, 18.693],
        [84.4429, 18.6744],
        [84.4398, 18.6596],
        [84.385, 18.6104],
        [84.36439, 18.58696],
        [84.36388, 18.58638],
        [84.35456, 18.59388],
        [84.34568, 18.59532],
        [84.34147, 18.60359],
        [84.34483, 18.6155],
        [84.36084, 18.61733],
        [84.35915, 18.62816],
        [84.36233, 18.6377],
        [84.35333, 18.63964],
        [84.36462, 18.6535],
        [84.35276, 18.65343],
        [84.35171, 18.65785],
        [84.35793, 18.66583],
        [84.36759, 18.66957],
        [84.37614, 18.66746],
        [84.37957, 18.67215],
        [84.40118, 18.67016],
        [84.40197, 18.67761],
        [84.39066, 18.67576],
        [84.3796, 18.68057],
        [84.38165, 18.6928],
        [84.38907, 18.69697],
        [84.38658, 18.69761],
        [84.38955, 18.70873],
        [84.3782, 18.71648],
        [84.3754, 18.72533],
        [84.34801, 18.73136],
        [84.32841, 18.72989],
        [84.31164, 18.73493],
        [84.32016, 18.74606],
        [84.33165, 18.75315],
        [84.34565, 18.7497],
        [84.35176, 18.76212],
        [84.35543, 18.76044],
        [84.36165, 18.76687],
        [84.35838, 18.79791],
        [84.35198, 18.80323],
        [84.3531, 18.80779],
        [84.36003, 18.81054],
        [84.3622, 18.8343],
        [84.3644, 18.8376],
        [84.3615, 18.8411],
        [84.3464, 18.8478],
        [84.3366, 18.888],
        [84.362, 18.8606],
        [84.3731, 18.8608]
      ]
    ]
  }
}
