{
  "type": "Feature",
  "id": "AP-AC-52",
  "properties": {
    "stateName": "ANDHRA PRADESH",
    "stateCode": "AP",
    "districtName": "KAKINADA",
    "acNo": 52,
    "acName": "JAGGAMPETA",
    "seatType": null,
    "pcNo": null,
    "pcName": null,
    "quality": "unverified",
    "sources": [
      "TBD"
    ]
  },
  "geometry": {
    "type": "Polygon",
    "coordinates": [
      [
        [82.09757, 17.24088],
        [82.1082, 17.23958],
        [82.12167, 17.22697],
        [82.12059, 17.21738],
        [82.13104, 17.21001],
        [82.13137, 17.20477],
        [82.13255, 17.2119],
        [82.13817, 17.21398],
        [82.14568, 17.20987],
        [82.14465, 17.20581],
        [82.15182, 17.20836],
        [82.15366, 17.23449],
        [82.16821, 17.23222],
        [82.17066, 17.2353],
        [82.18329, 17.23586],
        [82.18641, 17.22441],
        [82.18999, 17.22778],
        [82.19062, 17.22282],
        [82.20133, 17.22272],
        [82.19121, 17.20631],
        [82.19879, 17.19915],
        [82.20135, 17.18388],
        [82.18997, 17.18101],
        [82.19066, 17.15578],
        [82.18985, 17.15281],
        [82.18607, 17.154],
        [82.17713, 17.1584],
        [82.16582, 17.15599],
        [82.148, 17.15804],
        [82.14512, 17.17069],
        [82.13395, 17.176],
        [82.11691, 17.17557],
        [82.11121, 17.15697],
        [82.10483, 17.15502],
        [82.10849, 17.14691],
        [82.10158, 17.12915],
        [82.0906, 17.12674],
        [82.08809, 17.11682],
        [82.08242, 17.11526],
        [82.08062, 17.10984],
        [82.07834, 17.1115],
        [82.08711, 17.09893],
        [82.07626, 17.07513],
        [82.0749, 17.07982],
        [82.06973, 17.08002],
        [82.06257, 17.0721],
        [82.05713, 17.07587],
        [82.04744, 17.07325],
        [82.04724, 17.09171],
        [82.02256, 17.10295],
        [81.9992, 17.11974],
        [81.95814, 17.11819],
        [81.951, 17.11],
        [81.94198, 17.10896],
        [81.94017, 17.10438],
        [81.92388, 17.10227],
        [81.91833, 17.11652],
        [81.9194, 17.13421],
        [81.91505, 17.1402],
        [81.91875, 17.16407],
        [81.91274, 17.16654],
        [81.90974, 17.1772],
        [81.90845, 17.17272],
        [81.90312, 17.1835],
        [81.90728, 17.19222],
        [81.92066, 17.19858],
        [81.91738, 17.21246],
        [81.89783, 17.21491],
        [81.89787, 17.22129],
        [81.88335, 17.21813],
        [81.87609, 17.21278],
        [81.8747, 17.2171],
        [81.88002, 17.22002],
        [81.87221, 17.21954],
        [81.8691, 17.21542],
        [81.87342, 17.21357],
        [81.87103, 17.19623],
        [81.84841, 17.19268],
        [81.84027, 17.18669],
        [81.82226, 17.19006],
        [81.81971, 17.18771],
        [81.82103, 17.19897],
        [81.81571, 17.19993],
        [81.81459, 17.19491],
        [81.80225, 17.19824],
        [81.81093, 17.21655],
        [81.79167, 17.22087],
        [81.7811, 17.21705],
        [81.78293, 17.22691],
        [81.77277, 17.23686],
        [81.77538, 17.24712],
        [81.78311, 17.24825],
        [81.7967, 17.24342],
        [81.80643, 17.24618],
        [81.80752, 17.2599],
        [81.82662, 17.25823],
        [81.82692, 17.27674],
        [81.82275, 17.28834],
        [81.82447, 17.30484],
        [81.82883, 17.30946],
        [81.8418, 17.30946],
        [81.84535, 17.30054],
        [81.85646, 17.29719],
        [81.85949, 17.28859],
        [81.8633, 17.29156],
        [81.86708, 17.28784],
        [81.88178, 17.29633],
        [81.8783, 17.30815],
        [81.88067, 17.31365],
        [81.89074, 17.31794],
        [81.91193, 17.30402],
        [81.92421, 17.31338],
        [81.91391, 17.27699],
        [81.92366, 17.27573],
        [81.92409, 17.28027],
        [81.94085, 17.28037],
        [81.94579, 17.28495],
        [81.95127, 17.28454],
        [81.95494, 17.29183],
        [81.96431, 17.292],
        [81.96295, 17.29949],
        [81.97605, 17.30266],
        [81.97393, 17.31484],
        [81.99872, 17.30885],
        [82.00945, 17.31435],
        [82.01097, 17.309],
        [82.02441, 17.31114],
        [82.03562, 17.30562],
        [82.03795, 17.29494],
        [82.05782, 17.29923],
        [82.05911, 17.2944],
        [82.07093, 17.30213],
        [82.09035, 17.29615],
        [82.09981, 17.28316],
        [82.08972, 17.25368],
        [82.09719, 17.24929],
        [82.09757, 17.24088]
      ]
    ]
  }
}
