{
  "type": "Feature",
  "id": "AP-AC-67",
  "properties": {
    "stateName": "ANDHRA PRADESH",
    "stateCode": "AP",
    "districtName": "ELURU",
    "acNo": 67,
    "acName": "POLAVARAM",
    "seatType": null,
    "pcNo": null,
    "pcName": null,
    "quality": "unverified",
    "sources": [
      "TBD"
    ]
  },
  "geometry": {
    "type": "Polygon",
    "coordinates": [
      [
        [81.055, 17.2241],
        [81.0546, 17.225],
        [81.0557, 17.2246],
        [81.0559, 17.2245],
        [81.0561, 17.2245],
        [81.0566, 17.2242],
        [81.0578, 17.2237],
        [81.05787, 17.22366],
        [81.0591, 17.223],
        [81.0594, 17.2228],
        [81.0604, 17.2223],
        [81.0613, 17.2221],
        [81.0618, 17.222],
        [81.062, 17.22195],
        [81.063, 17.2217],
        [81.0643, 17.2212],
        [81.0644, 17.2211],
        [81.0658, 17.2204],
        [81.0664, 17.2201],
        [81.0685, 17.2193],
        [81.0695, 17.2188],
        [81.071, 17.2182],
        [81.0722, 17.2177],
        [81.0723, 17.2176],
        [81.073, 17.2173],
        [81.0755, 17.2162],
        [81.0756, 17.2162],
        [81.0758, 17.2161],
        [81.0764, 17.2158],
        [81.0773, 17.2156],
        [81.07739, 17.21558],
        [81.0782, 17.2154],
        [81.0792, 17.2153],
        [81.0797, 17.2154],
        [81.0807, 17.216],
        [81.081, 17.2162],
        [81.0817, 17.2166],
        [81.0831, 17.2175],
        [81.0841, 17.2176],
        [81.0855, 17.2177],
        [81.0863, 17.2177],
        [81.0875, 17.2182],
        [81.0886, 17.2186],
        [81.0893, 17.2191],
        [81.0897, 17.2193],
        [81.0917, 17.2197],
        [81.0938, 17.2202],
        [81.0961, 17.2208],
        [81.0975, 17.2212],
        [81.0984, 17.2213],
        [81.0997, 17.2218],
        [81.1008, 17.2222],
        [81.1014, 17.2223],
        [81.1037, 17.2224],
        [81.10384, 17.22243],
        [81.1063, 17.223],
        [81.1075, 17.2231],
        [81.1098, 17.2235],
        [81.1116, 17.2237],
        [81.1136, 17.2238],
        [81.1156, 17.2243],
        [81.1171, 17.2244],
        [81.1197, 17.2247],
        [81.1206, 17.2247],
        [81.1222, 17.2247],
        [81.1239, 17.2246],
        [81.1248, 17.2245],
        [81.125, 17.2246],
        [81.1255, 17.2248],
        [81.1258, 17.2247],
        [81.1262, 17.2244],
        [81.1265, 17.2243],
        [81.1267, 17.2242],
        [81.1274, 17.224],
        [81.1277, 17.2242],
        [81.1281, 17.2248],
        [81.1287, 17.225],
        [81.1293, 17.2251],
        [81.1298, 17.2251],
        [81.1303, 17.2251],
        [81.1309, 17.2251],
        [81.1318, 17.2253],
        [81.133, 17.2256],
        [81.13371, 17.22592],
        [81.1341, 17.2261],
        [81.1351, 17.2264],
        [81.1368, 17.2265],
        [81.1385, 17.2268],
        [81.1408, 17.2272],
        [81.1429, 17.2277],
        [81.1439, 17.2282],
        [81.1444, 17.2286],
        [81.1455, 17.2289],
        [81.1472, 17.2292],
        [81.1502, 17.2295],
        [81.1517, 17.2297],
        [81.1519, 17.2297],
        [81.1529, 17.2298],
        [81.1541, 17.2298],
        [81.156, 17.2304],
        [81.158, 17.2306],
        [81.159, 17.2308],
        [81.1599, 17.2309],
        [81.1606, 17.2312],
        [81.1614, 17.2313],
        [81.1615, 17.2313],
        [81.163, 17.2313],
        [81.1644, 17.2313],
        [81.1673, 17.2311],
        [81.17, 17.2311],
        [81.1714, 17.231],
        [81.1723, 17.2309],
        [81.1734, 17.2308],
        [81.1736, 17.2309],
        [81.1741, 17.2322],
        [81.1757, 17.2371],
        [81.1764, 17.239],
        [81.1771, 17.2401],
        [81.1778, 17.2409],
        [81.1785, 17.2413],
        [81.1799, 17.2421],
        [81.1804, 17.2426],
        [81.1807, 17.2432],
        [81.181, 17.244],
        [81.1811, 17.2446],
        [81.1813, 17.2448],
        [81.1819, 17.246],
        [81.1827, 17.2465],
        [81.1827, 17.2466],
        [81.1838, 17.2472],
        [81.1841, 17.2474],
        [81.1859, 17.2481],
        [81.1862, 17.2484],
        [81.1862, 17.249],
        [81.1862, 17.2498],
        [81.1863, 17.2512],
        [81.1867, 17.2523],
        [81.1875, 17.2546],
        [81.1875, 17.25487],
        [81.1875, 17.255],
        [81.1852, 17.2565],
        [81.1843, 17.2576],
        [81.1838, 17.2585],
        [81.1835, 17.2592],
        [81.1829, 17.26],
        [81.1823, 17.2611],
        [81.1823, 17.2612],
        [81.1814, 17.2625],
        [81.1801, 17.2648],
        [81.1792, 17.2661],
        [81.1783, 17.2681],
        [81.1781, 17.269],
        [81.1777, 17.2699],
        [81.1776, 17.2708],
        [81.17787, 17.27188],
        [81.178, 17.2724],
        [81.1781, 17.2733],
        [81.179, 17.2769],
        [81.1793, 17.278],
        [81.1793, 17.2789],
        [81.1791, 17.2801],
        [81.1789, 17.2812],
        [81.1787, 17.2821],
        [81.1786, 17.2824],
        [81.1784, 17.2827],
        [81.1778, 17.2831],
        [81.1772, 17.2835],
        [81.1771, 17.2836],
        [81.1767, 17.284],
        [81.1765, 17.2846],
        [81.1764, 17.2863],
        [81.1765, 17.2879],
        [81.1766, 17.2892],
        [81.177, 17.2916],
        [81.1776, 17.2928],
        [81.1781, 17.2938],
        [81.1787, 17.2954],
        [81.1793, 17.2973],
        [81.1803, 17.3015],
        [81.1813, 17.3043],
        [81.1817, 17.3054],
        [81.1825, 17.3069],
        [81.1831, 17.3087],
        [81.1835, 17.31],
        [81.1836, 17.3103],
        [81.1838, 17.3109],
        [81.1844, 17.3116],
        [81.1854, 17.3127],
        [81.186, 17.3135],
        [81.1867, 17.3144],
        [81.1871, 17.3158],
        [81.1873, 17.3178],
        [81.1877, 17.3195],
        [81.1885, 17.3218],
        [81.189, 17.3231],
        [81.1894, 17.3238],
        [81.1899, 17.3246],
        [81.1906, 17.3247],
        [81.1928, 17.3247],
        [81.1962, 17.3248],
        [81.1979, 17.3249],
        [81.1994, 17.3247],
        [81.2019, 17.3247],
        [81.2038, 17.325],
        [81.2068, 17.3251],
        [81.2084, 17.3254],
        [81.2092, 17.326],
        [81.21, 17.3261],
        [81.2112, 17.3256],
        [81.2136, 17.3245],
        [81.2159, 17.3238],
        [81.2185, 17.3228],
        [81.2196, 17.3223],
        [81.2208, 17.3218],
        [81.2214, 17.3215],
        [81.222, 17.3217],
        [81.2222, 17.3219],
        [81.2236, 17.3219],
        [81.2253, 17.3214],
        [81.2263, 17.321],
        [81.228, 17.3209],
        [81.2292, 17.3209],
        [81.2303, 17.321],
        [81.2324, 17.3206],
        [81.2338, 17.3203],
        [81.234, 17.3203],
        [81.2349, 17.3204],
        [81.2358, 17.3206],
        [81.2366, 17.3208],
        [81.238, 17.3203],
        [81.2388, 17.3205],
        [81.2393, 17.321],
        [81.2394, 17.3222],
        [81.2391, 17.3231],
        [81.2393, 17.3236],
        [81.2406, 17.3236],
        [81.2418, 17.3234],
        [81.2434, 17.3229],
        [81.2444, 17.3229],
        [81.2448, 17.3235],
        [81.2452, 17.3246],
        [81.2455, 17.3252],
        [81.2458, 17.3257],
        [81.24643, 17.32588],
        [81.24671, 17.3258],
        [81.2486, 17.3249],
        [81.2538, 17.3233],
        [81.2559, 17.3228],
        [81.2574, 17.3224],
        [81.2587, 17.3221],
        [81.2598, 17.3221],
        [81.2608, 17.3224],
        [81.2618, 17.322],
        [81.2647, 17.3208],
        [81.2665, 17.3204],
        [81.2695, 17.3194],
        [81.26956, 17.31936],
        [81.2704, 17.3188],
        [81.272, 17.318],
        [81.2735, 17.3177],
        [81.2743, 17.3176],
        [81.275, 17.3178],
        [81.2759, 17.3184],
        [81.2768, 17.3202],
        [81.2775, 17.322],
        [81.2784, 17.3233],
        [81.2794, 17.3242],
        [81.2814, 17.3254],
        [81.28283, 17.32592],
        [81.2836, 17.3262],
        [81.286, 17.3271],
        [81.287, 17.3274],
        [81.2882, 17.3281],
        [81.2892, 17.3289],
        [81.2913, 17.3313],
        [81.2935, 17.3334],
        [81.2948, 17.3352],
        [81.2959, 17.3368],
        [81.2967, 17.338],
        [81.29715, 17.33845],
        [81.29748, 17.33874],
        [81.2986, 17.3393],
        [81.2998, 17.3399],
        [81.3009, 17.341],
        [81.3031, 17.3433],
        [81.3048, 17.3459],
        [81.3061, 17.3491],
        [81.307, 17.3513],
        [81.3079, 17.3532],
        [81.3087, 17.3545],
        [81.3095, 17.3554],
        [81.3104, 17.3568],
        [81.3111, 17.3583],
        [81.3115, 17.3596],
        [81.312, 17.361],
        [81.3123, 17.3616],
        [81.3133, 17.3623],
        [81.3145, 17.3628],
        [81.3155, 17.3638],
        [81.3164, 17.3649],
        [81.3166, 17.3658],
        [81.3166, 17.3667],
        [81.3166, 17.3677],
        [81.3163, 17.3686],
        [81.3148, 17.3707],
        [81.3115, 17.375],
        [81.3078, 17.3792],
        [81.3041, 17.3812],
        [81.2993, 17.3838],
        [81.2947, 17.3842],
        [81.2905, 17.3852],
        [81.2871, 17.3853],
        [81.2829, 17.3875],
        [81.2808, 17.388],
        [81.2776, 17.3885],
        [81.2747, 17.3897],
        [81.2712, 17.3916],
        [81.2673, 17.3929],
        [81.2639, 17.393],
        [81.2638, 17.393],
        [81.2615, 17.3932],
        [81.2584, 17.3957],
        [81.2565, 17.3969],
        [81.2545, 17.3993],
        [81.2512, 17.4005],
        [81.2477, 17.4009],
        [81.2449, 17.403],
        [81.243, 17.4052],
        [81.2394, 17.4097],
        [81.2363, 17.4151],
        [81.2339, 17.4199],
        [81.2318, 17.4282],
        [81.2289, 17.4332],
        [81.227, 17.4381],
        [81.2231, 17.4371],
        [81.2182, 17.4362],
        [81.2149, 17.4348],
        [81.21194, 17.43488],
        [81.2112, 17.4349],
        [81.2085, 17.437],
        [81.2036, 17.4384],
        [81.1984, 17.4403],
        [81.1892, 17.4432],
        [81.1839, 17.4464],
        [81.1773, 17.4522],
        [81.1758, 17.4527],
        [81.1758, 17.4528],
        [81.1738, 17.4551],
        [81.1718, 17.458],
        [81.1695, 17.4613],
        [81.1686, 17.4638],
        [81.1661, 17.4674],
        [81.1646, 17.4691],
        [81.1633, 17.4714],
        [81.1602, 17.476],
        [81.1568, 17.47922],
        [81.15678, 17.47923],
        [81.1565, 17.4795],
        [81.1565, 17.4796],
        [81.15626, 17.47954],
        [81.1537, 17.4789],
        [81.1496, 17.48],
        [81.1448, 17.4827],
        [81.1429, 17.4836],
        [81.1427, 17.4838],
        [81.1416, 17.4844],
        [81.1406, 17.485],
        [81.1397, 17.4861],
        [81.1385, 17.4877],
        [81.1382, 17.4879],
        [81.1379, 17.4883],
        [81.1372, 17.4892],
        [81.1368, 17.4895],
        [81.1357, 17.4904],
        [81.1352, 17.4905],
        [81.1334, 17.4909],
        [81.1325, 17.4912],
        [81.1306, 17.4916],
        [81.1281, 17.4924],
        [81.1278, 17.4925],
        [81.1267, 17.4927],
        [81.1242, 17.4934],
        [81.1214, 17.4942],
        [81.1196, 17.4947],
        [81.1176, 17.4947],
        [81.1159, 17.4948],
        [81.1145, 17.4952],
        [81.1133, 17.4955],
        [81.1119, 17.4939],
        [81.1104, 17.4921],
        [81.1093, 17.4909],
        [81.1081, 17.4895],
        [81.1077, 17.489],
        [81.1074, 17.4888],
        [81.1071, 17.4885],
        [81.106, 17.4872],
        [81.1051, 17.4862],
        [81.105, 17.486],
        [81.1037, 17.4844],
        [81.1022, 17.4826],
        [81.1002, 17.4802],
        [81.0987, 17.4783],
        [81.097, 17.4763],
        [81.095, 17.4739],
        [81.0933, 17.4719],
        [81.0919, 17.4703],
        [81.0907, 17.4688],
        [81.0895, 17.4675],
        [81.088, 17.4656],
        [81.087, 17.4646],
        [81.0858, 17.4632],
        [81.0846, 17.4618],
        [81.084, 17.4601],
        [81.0825, 17.4611],
        [81.0801, 17.4626],
        [81.0798, 17.4629],
        [81.078, 17.4638],
        [81.0756, 17.4652],
        [81.0748, 17.4656],
        [81.074, 17.4664],
        [81.0726, 17.4677],
        [81.0707, 17.4694],
        [81.07, 17.4698],
        [81.069, 17.4699],
        [81.0683, 17.47],
        [81.067, 17.4707],
        [81.0655, 17.4714],
        [81.0651, 17.4716],
        [81.0649, 17.4717],
        [81.0634, 17.4724],
        [81.0609, 17.4737],
        [81.06, 17.4741],
        [81.0597, 17.4743],
        [81.0581, 17.4751],
        [81.0563, 17.4759],
        [81.0551, 17.4764],
        [81.0535, 17.4771],
        [81.0506, 17.4784],
        [81.0481, 17.4795],
        [81.0468, 17.4801],
        [81.0465, 17.4802],
        [81.0452, 17.481],
        [81.0429, 17.4824],
        [81.0427, 17.4826],
        [81.0424, 17.4826],
        [81.0421, 17.4826],
        [81.0314, 17.487],
        [81.0229, 17.4895],
        [81.0168, 17.4911],
        [81.012, 17.4926],
        [81.0118, 17.4927],
        [81.0095, 17.5001],
        [81.0071, 17.5081],
        [81.0029, 17.5199],
        [81.0014, 17.5241],
        [80.9998, 17.5301],
        [80.9994, 17.5303],
        [80.9896, 17.5361],
        [80.9833, 17.5413],
        [80.9792, 17.5455],
        [80.9775, 17.5472],
        [80.9764, 17.5487],
        [80.9685, 17.5577],
        [80.9662, 17.5617],
        [80.9646, 17.5682],
        [80.9608, 17.5797],
        [80.9567, 17.5876],
        [80.9528, 17.5899],
        [80.9476, 17.5904],
        [80.9397, 17.5899],
        [80.9335, 17.5892],
        [80.9262, 17.5888],
        [80.9136, 17.5892],
        [80.9065, 17.5896],
        [80.8955, 17.5896],
        [80.8919, 17.5885],
        [80.8883, 17.5853],
        [80.8859, 17.5813],
        [80.8844, 17.578],
        [80.8817, 17.5741],
        [80.8808, 17.5742],
        [80.8786, 17.5742],
        [80.8766, 17.575],
        [80.8745, 17.5757],
        [80.8735, 17.576],
        [80.8722, 17.5763],
        [80.8696, 17.5767],
        [80.8674, 17.5771],
        [80.8672, 17.5772],
        [80.8677, 17.5775],
        [80.8689, 17.5785],
        [80.8684, 17.5787],
        [80.8683, 17.5788],
        [80.8681, 17.5789],
        [80.8672, 17.58],
        [80.8635, 17.5838],
        [80.8623, 17.5851],
        [80.862, 17.5855],
        [80.861, 17.5867],
        [80.8596, 17.5885],
        [80.8584, 17.5904],
        [80.8568, 17.5917],
        [80.8546, 17.5938],
        [80.8545, 17.5972],
        [80.8545, 17.5977],
        [80.8551, 17.5987],
        [80.8553, 17.5993],
        [80.8556, 17.5998],
        [80.8556, 17.6006],
        [80.8555, 17.6017],
        [80.8554, 17.6025],
        [80.854, 17.6053],
        [80.8535, 17.6066],
        [80.8529, 17.6077],
        [80.8523, 17.6092],
        [80.852, 17.60973],
        [80.8515, 17.6106],
        [80.851, 17.6134],
        [80.8507, 17.6153],
        [80.85076, 17.61656],
        [80.8508, 17.6174],
        [80.8509, 17.6188],
        [80.8508, 17.6219],
        [80.8514, 17.6249],
        [80.8516, 17.6261],
        [80.8522, 17.6271],
        [80.8528, 17.6278],
        [80.8533, 17.6283],
        [80.854, 17.6288],
        [80.8549, 17.6294],
        [80.8558, 17.6299],
        [80.8572, 17.6306],
        [80.858, 17.6311],
        [80.8592, 17.6316],
        [80.8609, 17.6319],
        [80.8617, 17.6321],
        [80.8619, 17.6322],
        [80.8631, 17.6324],
        [80.8654, 17.6325],
        [80.8683, 17.6332],
        [80.8692, 17.6336],
        [80.8695, 17.6337],
        [80.8707, 17.6339],
        [80.8719, 17.6339],
        [80.8734, 17.6339],
        [80.8746, 17.6336],
        [80.8752, 17.6335],
        [80.8756, 17.6334],
        [80.877, 17.6333],
        [80.8774, 17.6333],
        [80.8786, 17.6332],
        [80.881, 17.633],
        [80.882, 17.6329],
        [80.8829, 17.6328],
        [80.8839, 17.6326],
        [80.884, 17.6325],
        [80.8844, 17.6325],
        [80.8853, 17.6321],
        [80.8853, 17.632],
        [80.8855, 17.6319],
        [80.8858, 17.6317],
        [80.8863, 17.6313],
        [80.887, 17.6308],
        [80.8877, 17.6306],
        [80.8882, 17.6305],
        [80.8888, 17.6309],
        [80.8892, 17.6314],
        [80.8896, 17.6319],
        [80.8896, 17.632],
        [80.8898, 17.6328],
        [80.8899, 17.6331],
        [80.89, 17.6336],
        [80.8905, 17.6351],
        [80.891, 17.6359],
        [80.8913, 17.6364],
        [80.8924, 17.6368],
        [80.893, 17.6372],
        [80.8937, 17.6373],
        [80.8948, 17.6374],
        [80.8964, 17.6374],
        [80.8975, 17.6374],
        [80.8982, 17.6379],
        [80.90237, 17.64154],
        [80.90435, 17.64103],
        [80.90965, 17.6399],
        [80.94384, 17.63432],
        [80.96556, 17.64756],
        [80.98662, 17.65271],
        [81.00104, 17.65002],
        [81.00906, 17.63604],
        [81.00601, 17.60975],
        [81.01616, 17.5986],
        [81.04052, 17.60337],
        [81.0744, 17.61756],
        [81.09905, 17.61646],
        [81.11321, 17.60799],
        [81.13493, 17.58659],
        [81.18609, 17.56432],
        [81.22077, 17.56054],
        [81.24982, 17.56364],
        [81.25902, 17.55953],
        [81.2759, 17.53508],
        [81.29231, 17.49218],
        [81.30096, 17.48292],
        [81.32132, 17.48233],
        [81.3461, 17.4874],
        [81.3681, 17.48509],
        [81.40131, 17.45558],
        [81.42386, 17.45154],
        [81.5021, 17.46128],
        [81.49488, 17.47644],
        [81.49801, 17.48094],
        [81.50585, 17.47775],
        [81.51337, 17.47083],
        [81.51813, 17.4547],
        [81.53157, 17.43962],
        [81.54116, 17.43648],
        [81.56351, 17.43983],
        [81.57562, 17.43277],
        [81.57975, 17.41507],
        [81.5858, 17.40568],
        [81.60281, 17.41128],
        [81.6139, 17.40682],
        [81.61586, 17.40025],
        [81.60964, 17.39731],
        [81.60425, 17.37561],
        [81.61414, 17.35242],
        [81.61068, 17.34363],
        [81.61428, 17.33122],
        [81.62683, 17.32468],
        [81.64238, 17.3237],
        [81.67808, 17.30147],
        [81.67856, 17.29024],
        [81.66241, 17.28274],
        [81.65774, 17.27135],
        [81.6539, 17.24796],
        [81.64145, 17.22925],
        [81.64054, 17.20757],
        [81.65745, 17.17134],
        [81.65298, 17.16748],
        [81.6366, 17.18277],
        [81.627, 17.1854],
        [81.62434, 17.19234],
        [81.60648, 17.19186],
        [81.60372, 17.20037],
        [81.59852, 17.2016],
        [81.59847, 17.211],
        [81.60445, 17.2134],
        [81.60187, 17.22101],
        [81.57475, 17.2155],
        [81.54998, 17.22985],
        [81.54312, 17.22522],
        [81.53538, 17.21066],
        [81.53169, 17.21266],
        [81.53184, 17.2067],
        [81.52661, 17.20763],
        [81.51459, 17.20015],
        [81.49995, 17.20267],
        [81.49583, 17.1954],
        [81.47995, 17.1849],
        [81.4772, 17.16454],
        [81.48552, 17.15508],
        [81.47638, 17.1432],
        [81.47812, 17.12665],
        [81.47043, 17.12524],
        [81.46565, 17.11269],
        [81.44663, 17.11215],
        [81.45011, 17.09789],
        [81.45769, 17.09918],
        [81.45996, 17.09492],
        [81.45708, 17.0815],
        [81.45188, 17.07537],
        [81.44355, 17.07834],
        [81.4433, 17.07076],
        [81.43409, 17.07093],
        [81.43187, 17.06632],
        [81.4318, 17.0602],
        [81.43565, 17.06026],
        [81.43804, 17.05414],
        [81.4369, 17.04786],
        [81.4424, 17.04988],
        [81.4431, 17.04644],
        [81.4561, 17.04353],
        [81.45102, 17.03618],
        [81.45818, 17.03047],
        [81.45898, 17.01746],
        [81.45533, 17.0071],
        [81.44325, 17.01056],
        [81.43793, 17.02763],
        [81.43225, 17.03035],
        [81.43421, 17.0409],
        [81.42087, 17.04906],
        [81.41392, 17.04953],
        [81.41235, 17.04366],
        [81.39558, 17.04581],
        [81.3935, 17.04023],
        [81.38807, 17.04161],
        [81.38721, 17.03787],
        [81.38064, 17.0368],
        [81.3808, 17.03249],
        [81.37563, 17.03337],
        [81.36945, 17.02791],
        [81.36003, 17.0286],
        [81.35551, 17.03093],
        [81.35799, 17.03722],
        [81.35383, 17.03914],
        [81.34763, 17.05598],
        [81.3507, 17.06113],
        [81.36217, 17.0582],
        [81.36212, 17.06938],
        [81.37117, 17.07998],
        [81.38554, 17.0796],
        [81.38573, 17.08767],
        [81.39625, 17.0929],
        [81.39828, 17.09807],
        [81.40851, 17.09664],
        [81.4103, 17.11818],
        [81.40652, 17.11962],
        [81.40756, 17.12413],
        [81.40451, 17.12044],
        [81.39074, 17.12367],
        [81.38756, 17.11967],
        [81.37804, 17.12114],
        [81.36225, 17.11349],
        [81.34396, 17.11827],
        [81.33324, 17.10698],
        [81.32322, 17.11055],
        [81.31563, 17.12955],
        [81.33202, 17.14911],
        [81.3088, 17.15581],
        [81.30541, 17.15176],
        [81.30186, 17.15335],
        [81.30243, 17.15926],
        [81.29189, 17.16923],
        [81.29546, 17.18206],
        [81.29082, 17.18167],
        [81.28817, 17.18829],
        [81.29761, 17.20464],
        [81.28916, 17.21],
        [81.28106, 17.20879],
        [81.27508, 17.20325],
        [81.27293, 17.19451],
        [81.28794, 17.18332],
        [81.27813, 17.17676],
        [81.26883, 17.18221],
        [81.26534, 17.17794],
        [81.2596, 17.18044],
        [81.24731, 17.16998],
        [81.23896, 17.17618],
        [81.24055, 17.16669],
        [81.22847, 17.15309],
        [81.22001, 17.16015],
        [81.21553, 17.17741],
        [81.19725, 17.18532],
        [81.18773, 17.18083],
        [81.18097, 17.15216],
        [81.15217, 17.16354],
        [81.14725, 17.16359],
        [81.14493, 17.15743],
        [81.14903, 17.15636],
        [81.15925, 17.14112],
        [81.15706, 17.13498],
        [81.16122, 17.12716],
        [81.17421, 17.12741],
        [81.18233, 17.12106],
        [81.19314, 17.12282],
        [81.20056, 17.12095],
        [81.20198, 17.11554],
        [81.21767, 17.11391],
        [81.21082, 17.10076],
        [81.2173, 17.1029],
        [81.21955, 17.10151],
        [81.21678, 17.09969],
        [81.23, 17.09974],
        [81.23569, 17.09614],
        [81.23858, 17.06452],
        [81.24191, 17.06405],
        [81.23486, 17.04068],
        [81.21906, 17.04215],
        [81.20397, 17.05002],
        [81.18441, 17.03914],
        [81.18057, 17.04336],
        [81.17754, 17.03987],
        [81.16893, 17.04289],
        [81.16625, 17.04769],
        [81.13401, 17.0351],
        [81.12123, 17.03996],
        [81.12286, 17.02209],
        [81.10944, 17.01958],
        [81.10343, 16.98963],
        [81.09092, 16.98633],
        [81.08936, 16.99669],
        [81.08389, 17.00086],
        [81.07818, 17.00067],
        [81.07756, 16.99278],
        [81.06211, 16.99533],
        [81.06681, 16.99878],
        [81.066, 17.00897],
        [81.07652, 17.01135],
        [81.07659, 17.02632],
        [81.07751, 17.02904],
        [81.08199, 17.02792],
        [81.08492, 17.05358],
        [81.05987, 17.06574],
        [81.06009, 17.07217],
        [81.07344, 17.0743],
        [81.06985, 17.08001],
        [81.04874, 17.08632],
        [81.05718, 17.126],
        [81.05605, 17.12976],
        [81.0377, 17.13606],
        [81.04442, 17.14094],
        [81.04628, 17.15698],
        [81.03547, 17.16486],
        [81.04955, 17.1826],
        [81.04281, 17.20157],
        [81.0433, 17.20218],
        [81.0437, 17.2024],
        [81.0444, 17.2032],
        [81.0452, 17.204],
        [81.0467, 17.205],
        [81.0474, 17.2053],
        [81.0479, 17.2061],
        [81.0492, 17.2084],
        [81.0502, 17.2102],
        [81.0517, 17.2129],
        [81.0524, 17.214],
        [81.0532, 17.2152],
        [81.0543, 17.2166],
        [81.05445, 17.21692],
        [81.0549, 17.2179],
        [81.0554, 17.2193],
        [81.0557, 17.2214],
        [81.0553, 17.2233],
        [81.055, 17.2241]
      ]
    ]
  }
}
