{
  "type": "Feature",
  "id": "AP-AC-70",
  "properties": {
    "stateName": "ANDHRA PRADESH",
    "stateCode": "AP",
    "districtName": "ELURU",
    "acNo": 70,
    "acName": "NUZVID",
    "seatType": null,
    "pcNo": null,
    "pcName": null,
    "quality": "unverified",
    "sources": [
      "TBD"
    ]
  },
  "geometry": {
    "type": "Polygon",
    "coordinates": [
      [
        [80.96811, 16.67976],
        [80.97176, 16.66535],
        [80.95574, 16.67077],
        [80.93856, 16.67492],
        [80.94182, 16.68625],
        [80.92518, 16.69544],
        [80.92768, 16.70461],
        [80.92196, 16.70602],
        [80.91601, 16.70028],
        [80.91925, 16.70931],
        [80.91513, 16.70626],
        [80.90456, 16.71024],
        [80.90266, 16.70693],
        [80.90191, 16.71362],
        [80.89977, 16.70857],
        [80.89575, 16.70807],
        [80.89039, 16.71426],
        [80.87541, 16.71056],
        [80.87849, 16.7025],
        [80.87368, 16.69149],
        [80.85647, 16.69779],
        [80.85126, 16.68899],
        [80.85312, 16.67147],
        [80.88709, 16.65407],
        [80.88558, 16.63149],
        [80.88048, 16.61765],
        [80.87348, 16.61663],
        [80.86132, 16.62476],
        [80.84797, 16.61041],
        [80.83654, 16.61367],
        [80.83298, 16.6187],
        [80.83116, 16.63224],
        [80.836, 16.64327],
        [80.82426, 16.6527],
        [80.81945, 16.67584],
        [80.80842, 16.66027],
        [80.81667, 16.65735],
        [80.81774, 16.6513],
        [80.80352, 16.63774],
        [80.79552, 16.63606],
        [80.79268, 16.64278],
        [80.77928, 16.62275],
        [80.75517, 16.62959],
        [80.74333, 16.62728],
        [80.73926, 16.61883],
        [80.71728, 16.6256],
        [80.69708, 16.62652],
        [80.68793, 16.63363],
        [80.68594, 16.65981],
        [80.68989, 16.67329],
        [80.72424, 16.72068],
        [80.76078, 16.78464],
        [80.76578, 16.78727],
        [80.76735, 16.79783],
        [80.77652, 16.80991],
        [80.77444, 16.81462],
        [80.7778, 16.82137],
        [80.77592, 16.83612],
        [80.76895, 16.84575],
        [80.77204, 16.85053],
        [80.79438, 16.85942],
        [80.79761, 16.88207],
        [80.82598, 16.87897],
        [80.84435, 16.88599],
        [80.8535, 16.90853],
        [80.83647, 16.92397],
        [80.8238, 16.92769],
        [80.82943, 16.96676],
        [80.82563, 16.98978],
        [80.79918, 17.00074],
        [80.78918, 17.01496],
        [80.77949, 17.02183],
        [80.79129, 17.03933],
        [80.79927, 17.06068],
        [80.80234, 17.05906],
        [80.8029, 17.0586],
        [80.8036, 17.058],
        [80.8042, 17.0575],
        [80.8046, 17.0573],
        [80.8047, 17.0573],
        [80.8056, 17.0572],
        [80.8062, 17.0569],
        [80.8069, 17.0565],
        [80.8081, 17.056],
        [80.80828, 17.05594],
        [80.8087, 17.0558],
        [80.8095, 17.0555],
        [80.8106, 17.055],
        [80.8116, 17.0547],
        [80.8124, 17.0546],
        [80.8137, 17.0545],
        [80.8153, 17.0545],
        [80.8155, 17.0545],
        [80.8166, 17.0543],
        [80.8182, 17.0542],
        [80.8187, 17.0541],
        [80.8197, 17.0538],
        [80.8218, 17.0538],
        [80.8238, 17.0534],
        [80.826, 17.053],
        [80.828, 17.0524],
        [80.8291, 17.0521],
        [80.831, 17.0514],
        [80.8321, 17.051],
        [80.8336, 17.0506],
        [80.8349, 17.0499],
        [80.8355, 17.0495],
        [80.8369, 17.0489],
        [80.8371, 17.0488],
        [80.8383, 17.048],
        [80.839, 17.0475],
        [80.8409, 17.0464],
        [80.8417, 17.0458],
        [80.8422, 17.0454],
        [80.8426, 17.045],
        [80.8428, 17.0444],
        [80.843, 17.0439],
        [80.8434, 17.0433],
        [80.8435, 17.043],
        [80.8441, 17.0414],
        [80.8443, 17.0412],
        [80.8448, 17.0404],
        [80.8455, 17.0394],
        [80.8462, 17.0396],
        [80.8483, 17.0406],
        [80.8513, 17.0427],
        [80.8527, 17.0435],
        [80.854, 17.0443],
        [80.8563, 17.0459],
        [80.8568, 17.0464],
        [80.857, 17.0468],
        [80.8572, 17.0474],
        [80.8576, 17.0482],
        [80.858, 17.0495],
        [80.8585, 17.0502],
        [80.859, 17.051],
        [80.8599, 17.0518],
        [80.8614, 17.0531],
        [80.8624, 17.0542],
        [80.8629, 17.0549],
        [80.8633, 17.0555],
        [80.8637, 17.0558],
        [80.8643, 17.0561],
        [80.8647, 17.0563],
        [80.8651, 17.0569],
        [80.8659, 17.0589],
        [80.8661, 17.0594],
        [80.8667, 17.0606],
        [80.8677, 17.0625],
        [80.8684, 17.0635],
        [80.8689, 17.0643],
        [80.8692, 17.0647],
        [80.8695, 17.0652],
        [80.8699, 17.0655],
        [80.8702, 17.0657],
        [80.8705, 17.0662],
        [80.8708, 17.0671],
        [80.8712, 17.0676],
        [80.8713, 17.0676],
        [80.8715, 17.0677],
        [80.8719, 17.0677],
        [80.8727, 17.0678],
        [80.8731, 17.068],
        [80.8737, 17.0684],
        [80.8737, 17.0685],
        [80.87394, 17.06882],
        [80.874, 17.0689],
        [80.8741, 17.0694],
        [80.8747, 17.0704],
        [80.8752, 17.0705],
        [80.87616, 17.0705],
        [80.87679, 17.06981],
        [80.88588, 17.07101],
        [80.88761, 17.06749],
        [80.89781, 17.06512],
        [80.90716, 17.07031],
        [80.91747, 17.06456],
        [80.92709, 17.07077],
        [80.94305, 17.06659],
        [80.96072, 17.04598],
        [80.96432, 17.03419],
        [80.95945, 17.00998],
        [80.95143, 16.99681],
        [80.95156, 16.99014],
        [80.93566, 16.98192],
        [80.93811, 16.97306],
        [80.9338, 16.95971],
        [80.95633, 16.93492],
        [80.95768, 16.92433],
        [80.96244, 16.921],
        [80.96059, 16.91234],
        [80.96666, 16.89957],
        [80.97533, 16.89476],
        [80.98467, 16.86572],
        [80.99927, 16.83703],
        [80.99752, 16.82698],
        [81.00947, 16.8203],
        [81.01656, 16.8214],
        [81.02513, 16.80733],
        [81.03285, 16.80517],
        [81.03662, 16.80786],
        [81.04097, 16.79589],
        [81.04179, 16.78408],
        [81.03309, 16.78231],
        [81.02621, 16.77577],
        [81.01682, 16.77677],
        [80.99984, 16.74715],
        [80.98998, 16.72376],
        [80.98128, 16.72414],
        [80.99033, 16.68024],
        [80.98916, 16.67754],
        [80.96811, 16.67976]
      ]
    ]
  }
}
