{
  "type": "Feature",
  "id": "AP-AC-94",
  "properties": {
    "stateName": "ANDHRA PRADESH",
    "stateCode": "AP",
    "districtName": "GUNTUR",
    "acNo": 94,
    "acName": "GUNTUR WEST",
    "seatType": null,
    "pcNo": null,
    "pcName": null,
    "quality": "unverified",
    "sources": [
      "TBD"
    ]
  },
  "geometry": {
    "type": "Polygon",
    "coordinates": [
      [
        [80.48291, 16.2994],
        [80.44184, 16.29108],
        [80.43251, 16.31125],
        [80.41528, 16.3194],
        [80.41348, 16.31626],
        [80.40259, 16.31954],
        [80.40534, 16.32896],
        [80.41802, 16.32822],
        [80.42105, 16.33966],
        [80.45119, 16.32979],
        [80.45983, 16.33034],
        [80.46234, 16.32844],
        [80.45946, 16.31381],
        [80.47376, 16.31096],
        [80.48291, 16.2994]
      ]
    ]
  }
}
