{
  "type": "Feature",
  "id": "MN-AC-21",
  "properties": {
    "stateName": "MANIPUR",
    "stateCode": "MN",
    "districtName": "IMPHAL WEST",
    "acNo": 21,
    "acName": "Naoriya Pakhanglak*",
    "seatType": null,
    "pcNo": 1,
    "pcName": "INNER MANIPUR",
    "quality": "unverified",
    "sources": [
      "TBD"
    ]
  },
  "geometry": {
    "type": "Polygon",
    "coordinates": [
      [
        [93.93394, 24.76972],
        [93.93255, 24.75905],
        [93.93898, 24.71727],
        [93.9283, 24.71337],
        [93.92387, 24.70428],
        [93.92334, 24.70632],
        [93.88863, 24.70897],
        [93.88413, 24.71053],
        [93.87616, 24.71725],
        [93.91101, 24.74148],
        [93.93394, 24.76972]
      ]
    ]
  }
}
