{
  "type": "Feature",
  "id": "MN-AC-26",
  "properties": {
    "stateName": "MANIPUR",
    "stateCode": "MN",
    "districtName": "BISHNUPUR",
    "acNo": 26,
    "acName": "Bishenpur",
    "seatType": null,
    "pcNo": 1,
    "pcName": "INNER MANIPUR",
    "quality": "unverified",
    "sources": [
      "TBD"
    ]
  },
  "geometry": {
    "type": "Polygon",
    "coordinates": [
      [
        [93.73473, 24.62104],
        [93.7413, 24.62444],
        [93.7449, 24.63557],
        [93.77054, 24.63263],
        [93.78654, 24.61416],
        [93.79007, 24.57909],
        [93.77939, 24.54132],
        [93.76159, 24.50912],
        [93.7307, 24.51006],
        [93.73323, 24.54522],
        [93.7285, 24.55593],
        [93.73322, 24.56164],
        [93.72559, 24.57108],
        [93.73536, 24.57994],
        [93.73475, 24.60497],
        [93.73914, 24.60891],
        [93.73489, 24.61752],
        [93.73473, 24.62104]
      ]
    ]
  }
}
