{
  "type": "Feature",
  "id": "MN-AC-29",
  "properties": {
    "stateName": "MANIPUR",
    "stateCode": "MN",
    "districtName": "BISHNUPUR",
    "acNo": 29,
    "acName": "Kumbi",
    "seatType": null,
    "pcNo": 1,
    "pcName": "INNER MANIPUR",
    "quality": "unverified",
    "sources": [
      "TBD"
    ]
  },
  "geometry": {
    "type": "Polygon",
    "coordinates": [
      [
        [93.75042, 24.43721],
        [93.76603, 24.43547],
        [93.78073, 24.45948],
        [93.7881, 24.45514],
        [93.79314, 24.44327],
        [93.82252, 24.4474],
        [93.85172, 24.44046],
        [93.83839, 24.42709],
        [93.84785, 24.41534],
        [93.83935, 24.40961],
        [93.84619, 24.39644],
        [93.84609, 24.38621],
        [93.85198, 24.37982],
        [93.84682, 24.37168],
        [93.85413, 24.36062],
        [93.84983, 24.35338],
        [93.86351, 24.35435],
        [93.85147, 24.34263],
        [93.86452, 24.3336],
        [93.85931, 24.32495],
        [93.85372, 24.32838],
        [93.85713, 24.31592],
        [93.85383, 24.31337],
        [93.86518, 24.31295],
        [93.87134, 24.29722],
        [93.86677, 24.29059],
        [93.87386, 24.28629],
        [93.86412, 24.28745],
        [93.84676, 24.31355],
        [93.83986, 24.35329],
        [93.83133, 24.36085],
        [93.80705, 24.35595],
        [93.79852, 24.36227],
        [93.8058, 24.38986],
        [93.79399, 24.39364],
        [93.75446, 24.39892],
        [93.74878, 24.40522],
        [93.74078, 24.39992],
        [93.73989, 24.40263],
        [93.73696, 24.39695],
        [93.73158, 24.41264],
        [93.72463, 24.41585],
        [93.73202, 24.41604],
        [93.7349, 24.42528],
        [93.72631, 24.42314],
        [93.71635, 24.40315],
        [93.69895, 24.40058],
        [93.7014, 24.40691],
        [93.69616, 24.40865],
        [93.70456, 24.41267],
        [93.70201, 24.42277],
        [93.69766, 24.42448],
        [93.70343, 24.42538],
        [93.70289, 24.43237],
        [93.70847, 24.43304],
        [93.71081, 24.43903],
        [93.72567, 24.4447],
        [93.75042, 24.43721]
      ]
    ]
  }
}
