{
  "type": "Feature",
  "id": "MN-AC-48",
  "properties": {
    "stateName": "MANIPUR",
    "stateCode": "MN",
    "districtName": "SENAPATI",
    "acNo": 48,
    "acName": "Mao",
    "seatType": null,
    "pcNo": 2,
    "pcName": "OUTER MANIPUR",
    "quality": "unverified",
    "sources": [
      "TBD"
    ]
  },
  "geometry": {
    "type": "Polygon",
    "coordinates": [
      [
        [94.42676, 25.58711],
        [94.44519, 25.59159],
        [94.44519, 25.59679],
        [94.46876, 25.61411],
        [94.4871, 25.61423],
        [94.49174, 25.60868],
        [94.48768, 25.59779],
        [94.46741, 25.58198],
        [94.46051, 25.54963],
        [94.44649, 25.53919],
        [94.43817, 25.51458],
        [94.43011, 25.51047],
        [94.43184, 25.50065],
        [94.42408, 25.49733],
        [94.4238, 25.48214],
        [94.41375, 25.47569],
        [94.42152, 25.46625],
        [94.41102, 25.46281],
        [94.40202, 25.44703],
        [94.40341, 25.44007],
        [94.39475, 25.429],
        [94.37553, 25.4363],
        [94.23406, 25.43437],
        [94.18183, 25.41396],
        [94.17493, 25.41454],
        [94.15955, 25.42686],
        [94.15417, 25.47183],
        [94.1357, 25.51841],
        [94.14384, 25.52265],
        [94.15625, 25.55112],
        [94.16491, 25.54128],
        [94.1781, 25.55061],
        [94.19206, 25.54859],
        [94.1866, 25.52402],
        [94.20053, 25.51508],
        [94.20859, 25.50381],
        [94.20842, 25.49604],
        [94.21861, 25.49159],
        [94.24976, 25.49431],
        [94.2552, 25.50064],
        [94.27404, 25.49947],
        [94.28463, 25.50792],
        [94.3009, 25.50635],
        [94.32898, 25.50457],
        [94.36582, 25.51743],
        [94.3853, 25.5325],
        [94.41665, 25.53659],
        [94.42246, 25.55333],
        [94.41906, 25.56995],
        [94.42676, 25.58711]
      ]
    ]
  }
}
