{
  "type": "Feature",
  "id": "MN-AC-51",
  "properties": {
    "stateName": "MANIPUR",
    "stateCode": "MN",
    "districtName": "SENAPATI",
    "acNo": 51,
    "acName": "Saitu",
    "seatType": null,
    "pcNo": 2,
    "pcName": "OUTER MANIPUR",
    "quality": "unverified",
    "sources": [
      "TBD"
    ]
  },
  "geometry": {
    "type": "Polygon",
    "coordinates": [
      [
        [93.93812, 25.04492],
        [93.93423, 25.02418],
        [93.90098, 24.98141],
        [93.89579, 24.97188],
        [93.87348, 24.98037],
        [93.86304, 24.95987],
        [93.84757, 24.95479],
        [93.84328, 24.9386],
        [93.84605, 24.92985],
        [93.83413, 24.92105],
        [93.81798, 24.87424],
        [93.80773, 24.8669],
        [93.80843, 24.8356],
        [93.79119, 24.82355],
        [93.78148, 24.80466],
        [93.79231, 24.76519],
        [93.78841, 24.76789],
        [93.78414, 24.7631],
        [93.7767, 24.74077],
        [93.77139, 24.73739],
        [93.77434, 24.72843],
        [93.76845, 24.6932],
        [93.76325, 24.68451],
        [93.75422, 24.68648],
        [93.74992, 24.68186],
        [93.7504, 24.64423],
        [93.7449, 24.63557],
        [93.7413, 24.62444],
        [93.73473, 24.62104],
        [93.73741, 24.62734],
        [93.72928, 24.62417],
        [93.70796, 24.64491],
        [93.71942, 24.65866],
        [93.73283, 24.66384],
        [93.72381, 24.69188],
        [93.7389, 24.70456],
        [93.72937, 24.71987],
        [93.72674, 24.74702],
        [93.73516, 24.74825],
        [93.75011, 24.78407],
        [93.74897, 24.79129],
        [93.75632, 24.78824],
        [93.75787, 24.79197],
        [93.74967, 24.79599],
        [93.75104, 24.80566],
        [93.74352, 24.80777],
        [93.74955, 24.81406],
        [93.74978, 24.82586],
        [93.76251, 24.83151],
        [93.76201, 24.84372],
        [93.77213, 24.84931],
        [93.76928, 24.8689],
        [93.76136, 24.88238],
        [93.7668, 24.89574],
        [93.75855, 24.90746],
        [93.77723, 24.92455],
        [93.78161, 24.94571],
        [93.79932, 24.95827],
        [93.8004, 24.9734],
        [93.78884, 24.99081],
        [93.79336, 24.99501],
        [93.78748, 25.00705],
        [93.79201, 25.0175],
        [93.81665, 25.02033],
        [93.80907, 25.04203],
        [93.87366, 25.04703],
        [93.93812, 25.04492]
      ]
    ]
  }
}
