{
  "type": "Feature",
  "id": "JK-AC-26",
  "properties": {
    "stateName": "JAMMU & KASHMIR",
    "stateCode": "JK",
    "districtName": "SRINAGAR",
    "acNo": 26,
    "acName": "CENTRAL SHALTENG",
    "seatType": null,
    "pcNo": null,
    "pcName": null,
    "quality": "unverified",
    "sources": [
      "TBD"
    ]
  },
  "geometry": {
    "type": "MultiPolygon",
    "coordinates": [
      [
        [
          [74.78684, 34.09009],
          [74.78677, 34.09007],
          [74.78606, 34.08985],
          [74.78474, 34.08973],
          [74.78505, 34.0894],
          [74.78548, 34.08919],
          [74.78548, 34.08919],
          [74.7862, 34.08835],
          [74.78643, 34.0879],
          [74.78626, 34.08755],
          [74.78609, 34.08711],
          [74.78513, 34.08649],
          [74.78575, 34.08518],
          [74.78667, 34.08453],
          [74.78688, 34.08445],
          [74.78677, 34.08389],
          [74.78677, 34.08389],
          [74.78677, 34.08389],
          [74.78676, 34.08389],
          [74.78676, 34.08386],
          [74.78673, 34.08368],
          [74.78696, 34.08362],
          [74.78746, 34.08351],
          [74.78746, 34.0831],
          [74.78749, 34.08279],
          [74.78761, 34.08255],
          [74.78775, 34.08171],
          [74.78797, 34.08173],
          [74.78839, 34.08172],
          [74.78887, 34.08179],
          [74.79075, 34.08205],
          [74.79155, 34.08204],
          [74.79242, 34.08204],
          [74.79262, 34.0819],
          [74.79321, 34.08166],
          [74.79353, 34.08153],
          [74.79353, 34.08153],
          [74.79362, 34.0815],
          [74.79398, 34.08142],
          [74.79405, 34.0814],
          [74.79482, 34.08093],
          [74.79487, 34.08094],
          [74.79517, 34.08089],
          [74.79537, 34.08037],
          [74.79556, 34.07992],
          [74.79565, 34.07977],
          [74.79573, 34.07962],
          [74.79602, 34.07872],
          [74.79602, 34.07872],
          [74.79609, 34.07857],
          [74.79625, 34.0785],
          [74.79626, 34.07825],
          [74.79619, 34.07803],
          [74.79617, 34.07777],
          [74.79615, 34.07752],
          [74.79616, 34.07725],
          [74.7961, 34.07712],
          [74.79593, 34.07692],
          [74.79584, 34.07657],
          [74.79584, 34.07657],
          [74.79559, 34.07607],
          [74.79552, 34.07579],
          [74.79551, 34.07543],
          [74.7954, 34.07539],
          [74.79538, 34.07533],
          [74.79537, 34.07527],
          [74.79534, 34.07469],
          [74.79533, 34.07448],
          [74.79537, 34.07428],
          [74.7954, 34.07414],
          [74.79546, 34.07407],
          [74.7955, 34.07402],
          [74.79581, 34.07391],
          [74.79618, 34.07344],
          [74.79609, 34.07324],
          [74.79618, 34.07313],
          [74.79608, 34.07279],
          [74.79637, 34.07273],
          [74.79637, 34.07273],
          [74.79648, 34.07257],
          [74.79689, 34.072],
          [74.79746, 34.0712],
          [74.79789, 34.07086],
          [74.79789, 34.07086],
          [74.7976, 34.071],
          [74.7969, 34.07063],
          [74.79648, 34.07112],
          [74.79648, 34.07112],
          [74.79619, 34.07135],
          [74.79619, 34.07135],
          [74.79602, 34.0716],
          [74.79584, 34.07178],
          [74.79561, 34.07188],
          [74.79542, 34.07184],
          [74.79526, 34.072],
          [74.79506, 34.07197],
          [74.79495, 34.07205],
          [74.79483, 34.07214],
          [74.79462, 34.07206],
          [74.79447, 34.07195],
          [74.79425, 34.07194],
          [74.79416, 34.07184],
          [74.79403, 34.0717],
          [74.79347, 34.07078],
          [74.7932, 34.07044],
          [74.7932, 34.07044],
          [74.79297, 34.07018],
          [74.79246, 34.0696],
          [74.79205, 34.06916],
          [74.79196, 34.06889],
          [74.79175, 34.06845],
          [74.79166, 34.06837],
          [74.7917, 34.06834],
          [74.79173, 34.0683],
          [74.79167, 34.06824],
          [74.79173, 34.06815],
          [74.79172, 34.06813],
          [74.79171, 34.0681],
          [74.79303, 34.06634],
          [74.79303, 34.06634],
          [74.79336, 34.06591],
          [74.79389, 34.06521],
          [74.79447, 34.06447],
          [74.79513, 34.06421],
          [74.79534, 34.06415],
          [74.7955, 34.06411],
          [74.79553, 34.06422],
          [74.79575, 34.06441],
          [74.79592, 34.06463],
          [74.79607, 34.06475],
          [74.79628, 34.06485],
          [74.79641, 34.06469],
          [74.79641, 34.06469],
          [74.79648, 34.06461],
          [74.79666, 34.06437],
          [74.79682, 34.06403],
          [74.79682, 34.06403],
          [74.79707, 34.06386],
          [74.79741, 34.06353],
          [74.79759, 34.06335],
          [74.79783, 34.06312],
          [74.79838, 34.06262],
          [74.79823, 34.06124],
          [74.79823, 34.06124],
          [74.79666, 34.06134],
          [74.79663, 34.06134],
          [74.79662, 34.06134],
          [74.79662, 34.06134],
          [74.79658, 34.06135],
          [74.79525, 34.06144],
          [74.79392, 34.06153],
          [74.79203, 34.06165],
          [74.78934, 34.06183],
          [74.78887, 34.06186],
          [74.78871, 34.06175],
          [74.78805, 34.06143],
          [74.78792, 34.06133],
          [74.78782, 34.06126],
          [74.7877, 34.06118],
          [74.78696, 34.06178],
          [74.78664, 34.06191],
          [74.78585, 34.06228],
          [74.78518, 34.0627],
          [74.78463, 34.06202],
          [74.78463, 34.06202],
          [74.78417, 34.06148],
          [74.78343, 34.06061],
          [74.78302, 34.06081],
          [74.7831, 34.05992],
          [74.78289, 34.06053],
          [74.78289, 34.06053],
          [74.78243, 34.05988],
          [74.78233, 34.05975],
          [74.78214, 34.05961],
          [74.78178, 34.05933],
          [74.7817, 34.05924],
          [74.78139, 34.05917],
          [74.78122, 34.05915],
          [74.78102, 34.05916],
          [74.78101, 34.05919],
          [74.78098, 34.05924],
          [74.78097, 34.05925],
          [74.78097, 34.05925],
          [74.78094, 34.05938],
          [74.78077, 34.05953],
          [74.78074, 34.05963],
          [74.78071, 34.05972],
          [74.78063, 34.05979],
          [74.78056, 34.05986],
          [74.7805, 34.05997],
          [74.7805, 34.05997],
          [74.78047, 34.06002],
          [74.78043, 34.06008],
          [74.78033, 34.06014],
          [74.78028, 34.06026],
          [74.78011, 34.06024],
          [74.78011, 34.06024],
          [74.77991, 34.06023],
          [74.77991, 34.06023],
          [74.77964, 34.06025],
          [74.77935, 34.06022],
          [74.77907, 34.06019],
          [74.77872, 34.06018],
          [74.77833, 34.06007],
          [74.77833, 34.06007],
          [74.77811, 34.06008],
          [74.77811, 34.06008],
          [74.77783, 34.06007],
          [74.77678, 34.06008],
          [74.77643, 34.05987],
          [74.77593, 34.05957],
          [74.77511, 34.05944],
          [74.7749, 34.05941],
          [74.7749, 34.05941],
          [74.77437, 34.05929],
          [74.77371, 34.05536],
          [74.7735, 34.0541],
          [74.77266, 34.05163],
          [74.77266, 34.04968],
          [74.77266, 34.04968],
          [74.7761, 34.04825],
          [74.77816, 34.05009],
          [74.77828, 34.04938],
          [74.77828, 34.04938],
          [74.77829, 34.04816],
          [74.77863, 34.04709],
          [74.77863, 34.04709],
          [74.77906, 34.04604],
          [74.77906, 34.04604],
          [74.77909, 34.04595],
          [74.77911, 34.04592],
          [74.77915, 34.04581],
          [74.77915, 34.0458],
          [74.77908, 34.04576],
          [74.77885, 34.04564],
          [74.77877, 34.04561],
          [74.77839, 34.04546],
          [74.7783, 34.0454],
          [74.77831, 34.04534],
          [74.77682, 34.04452],
          [74.77703, 34.04443],
          [74.77662, 34.04325],
          [74.77572, 34.04308],
          [74.77442, 34.04273],
          [74.77441, 34.04271],
          [74.77408, 34.04176],
          [74.77396, 34.04115],
          [74.77387, 34.04067],
          [74.77385, 34.04055],
          [74.77254, 34.04103],
          [74.77338, 34.04248],
          [74.77368, 34.04378],
          [74.77301, 34.04483],
          [74.77145, 34.04752],
          [74.7691, 34.04902],
          [74.76766, 34.04952],
          [74.76753, 34.05228],
          [74.76662, 34.05548],
          [74.76458, 34.05773],
          [74.7626, 34.05882],
          [74.76025, 34.05912],
          [74.75905, 34.05962],
          [74.75887, 34.05999],
          [74.75869, 34.06036],
          [74.75905, 34.06096],
          [74.76031, 34.06197],
          [74.76114, 34.06487],
          [74.76209, 34.06697],
          [74.76197, 34.06777],
          [74.76299, 34.06862],
          [74.76491, 34.06977],
          [74.76491, 34.06977],
          [74.76491, 34.06977],
          [74.76551, 34.06987],
          [74.76647, 34.06903],
          [74.76884, 34.0704],
          [74.7715, 34.07193],
          [74.76582, 34.0741],
          [74.76104, 34.07799],
          [74.75311, 34.08449],
          [74.74356, 34.09093],
          [74.73913, 34.09166],
          [74.7347, 34.09239],
          [74.72894, 34.09363],
          [74.72723, 34.094],
          [74.72043, 34.0953],
          [74.71894, 34.09522],
          [74.71806, 34.09496],
          [74.71775, 34.0947],
          [74.71775, 34.09436],
          [74.71785, 34.09388],
          [74.71783, 34.09375],
          [74.7178, 34.09363],
          [74.71759, 34.09346],
          [74.71759, 34.09346],
          [74.71759, 34.09346],
          [74.71739, 34.0935],
          [74.71702, 34.09388],
          [74.71698, 34.0944],
          [74.71656, 34.09444],
          [74.71604, 34.09436],
          [74.71537, 34.09462],
          [74.71506, 34.09457],
          [74.71475, 34.0941],
          [74.71465, 34.09371],
          [74.71465, 34.09371],
          [74.71465, 34.09371],
          [74.71444, 34.09367],
          [74.71429, 34.0938],
          [74.71424, 34.09423],
          [74.71393, 34.09458],
          [74.71383, 34.09466],
          [74.71248, 34.09479],
          [74.7114, 34.09513],
          [74.71016, 34.09535],
          [74.70928, 34.09595],
          [74.70887, 34.09754],
          [74.70836, 34.09943],
          [74.70836, 34.10046],
          [74.70859, 34.10111],
          [74.70882, 34.10175],
          [74.70901, 34.10229],
          [74.71025, 34.104],
          [74.71159, 34.10534],
          [74.71211, 34.10598],
          [74.71206, 34.10645],
          [74.71175, 34.10688],
          [74.71154, 34.1071],
          [74.70823, 34.10753],
          [74.70627, 34.10838],
          [74.70542, 34.10738],
          [74.70542, 34.10738],
          [74.70542, 34.10738],
          [74.70756, 34.10498],
          [74.70756, 34.10498],
          [74.70756, 34.10498],
          [74.70314, 34.10383],
          [74.70119, 34.10078],
          [74.70119, 34.10078],
          [74.70094, 34.1],
          [74.70094, 34.1],
          [74.70094, 34.1],
          [74.69796, 34.09858],
          [74.69626, 34.09878],
          [74.69243, 34.09729],
          [74.69176, 34.09608],
          [74.69176, 34.09608],
          [74.69176, 34.09608],
          [74.6881, 34.0948],
          [74.68677, 34.0961],
          [74.68545, 34.09741],
          [74.68621, 34.10046],
          [74.68416, 34.09996],
          [74.68293, 34.10031],
          [74.68169, 34.10066],
          [74.68262, 34.10314],
          [74.68262, 34.10315],
          [74.68449, 34.10506],
          [74.68338, 34.10598],
          [74.68167, 34.10584],
          [74.67972, 34.10441],
          [74.67972, 34.10441],
          [74.67614, 34.10582],
          [74.67511, 34.10738],
          [74.67511, 34.10738],
          [74.6771, 34.10912],
          [74.67715, 34.10916],
          [74.67715, 34.10916],
          [74.6814, 34.1103],
          [74.68309, 34.11076],
          [74.68353, 34.11087],
          [74.68565, 34.11145],
          [74.68565, 34.11145],
          [74.6865, 34.11428],
          [74.68605, 34.11903],
          [74.68605, 34.11903],
          [74.68605, 34.11903],
          [74.69174, 34.12379],
          [74.68613, 34.12743],
          [74.68451, 34.12806],
          [74.68212, 34.12898],
          [74.6812, 34.12924],
          [74.67683, 34.13046],
          [74.67471, 34.12868],
          [74.67471, 34.12868],
          [74.67485, 34.12901],
          [74.67499, 34.1296],
          [74.67501, 34.12968],
          [74.67512, 34.13016],
          [74.67522, 34.13065],
          [74.67534, 34.13125],
          [74.67563, 34.13219],
          [74.67563, 34.13219],
          [74.67601, 34.13264],
          [74.67601, 34.13264],
          [74.67679, 34.13345],
          [74.67679, 34.13345],
          [74.67727, 34.13399],
          [74.67727, 34.13399],
          [74.6782, 34.13494],
          [74.67861, 34.13551],
          [74.67895, 34.1361],
          [74.67895, 34.1361],
          [74.67917, 34.1363],
          [74.67917, 34.1363],
          [74.67951, 34.13638],
          [74.68415, 34.14161],
          [74.68415, 34.14161],
          [74.68834, 34.1466],
          [74.68834, 34.1466],
          [74.69275, 34.15251],
          [74.69275, 34.15251],
          [74.69275, 34.15251],
          [74.69417, 34.15317],
          [74.69806, 34.15501],
          [74.70235, 34.15545],
          [74.70234, 34.15555],
          [74.70234, 34.15555],
          [74.70232, 34.15577],
          [74.70275, 34.15569],
          [74.70304, 34.1551],
          [74.70385, 34.15301],
          [74.70421, 34.15248],
          [74.70452, 34.15213],
          [74.70506, 34.15151],
          [74.70529, 34.15125],
          [74.70534, 34.15104],
          [74.70537, 34.1509],
          [74.7064, 34.14979],
          [74.7085, 34.14826],
          [74.70923, 34.14782],
          [74.70956, 34.1476],
          [74.71054, 34.14692],
          [74.71221, 34.14659],
          [74.71377, 34.14602],
          [74.71439, 34.14559],
          [74.71487, 34.14495],
          [74.71517, 34.14408],
          [74.71517, 34.14311],
          [74.71492, 34.14249],
          [74.71411, 34.14152],
          [74.71245, 34.14039],
          [74.70985, 34.13875],
          [74.70896, 34.13803],
          [74.70832, 34.13704],
          [74.70832, 34.137],
          [74.70805, 34.13567],
          [74.70806, 34.13466],
          [74.70848, 34.13382],
          [74.7093, 34.13293],
          [74.71124, 34.1316],
          [74.7135, 34.13043],
          [74.71554, 34.12959],
          [74.71881, 34.12889],
          [74.72119, 34.12878],
          [74.72397, 34.12911],
          [74.72411, 34.12914],
          [74.7242, 34.12916],
          [74.72421, 34.12916],
          [74.72724, 34.12976],
          [74.72994, 34.13042],
          [74.73291, 34.13142],
          [74.73536, 34.13258],
          [74.73611, 34.13277],
          [74.73683, 34.13277],
          [74.73777, 34.13254],
          [74.73854, 34.13213],
          [74.73923, 34.13152],
          [74.73983, 34.13053],
          [74.74021, 34.12944],
          [74.74026, 34.12851],
          [74.74014, 34.12731],
          [74.73963, 34.12554],
          [74.73943, 34.12401],
          [74.73943, 34.12313],
          [74.73963, 34.12249],
          [74.74028, 34.12164],
          [74.74079, 34.12125],
          [74.74103, 34.12107],
          [74.74289, 34.1201],
          [74.74478, 34.11928],
          [74.74564, 34.11889],
          [74.74741, 34.11741],
          [74.74776, 34.11685],
          [74.749, 34.11536],
          [74.74977, 34.11406],
          [74.75075, 34.1124],
          [74.75157, 34.11139],
          [74.75348, 34.10954],
          [74.75495, 34.1082],
          [74.75564, 34.10763],
          [74.75574, 34.10754],
          [74.75624, 34.10725],
          [74.75716, 34.1069],
          [74.75874, 34.10674],
          [74.75988, 34.1068],
          [74.76152, 34.10717],
          [74.76312, 34.10758],
          [74.76442, 34.10792],
          [74.76563, 34.10813],
          [74.76667, 34.10815],
          [74.76742, 34.10805],
          [74.76898, 34.10754],
          [74.77, 34.10704],
          [74.77109, 34.10628],
          [74.7715, 34.10582],
          [74.77241, 34.1048],
          [74.77355, 34.1029],
          [74.77395, 34.10222],
          [74.77426, 34.10167],
          [74.77525, 34.09988],
          [74.77597, 34.09835],
          [74.77605, 34.09817],
          [74.7765, 34.09725],
          [74.77677, 34.0967],
          [74.77707, 34.09609],
          [74.77717, 34.09588],
          [74.77768, 34.09507],
          [74.77775, 34.09495],
          [74.77809, 34.09442],
          [74.77813, 34.09436],
          [74.77884, 34.09339],
          [74.77907, 34.09317],
          [74.77971, 34.09254],
          [74.77973, 34.09252],
          [74.77984, 34.09241],
          [74.78073, 34.09179],
          [74.78143, 34.09132],
          [74.78158, 34.09126],
          [74.78316, 34.0907],
          [74.78408, 34.09048],
          [74.78547, 34.09014],
          [74.78624, 34.0901],
          [74.78676, 34.09009],
          [74.78684, 34.09009]
        ]
      ]
    ]
  }
}
