{
  "type": "Feature",
  "id": "JK-AC-56",
  "properties": {
    "stateName": "JAMMU & KASHMIR",
    "stateCode": "JK",
    "districtName": "REASI",
    "acNo": 56,
    "acName": "GULABGARH (ST)",
    "seatType": null,
    "pcNo": null,
    "pcName": null,
    "quality": "unverified",
    "sources": [
      "TBD"
    ]
  },
  "geometry": {
    "type": "MultiPolygon",
    "coordinates": [
      [
        [
          [74.9632, 33.23106],
          [74.96308, 33.23092],
          [74.96293, 33.23072],
          [74.96262, 33.23009],
          [74.96249, 33.22944],
          [74.96256, 33.2288],
          [74.96271, 33.22847],
          [74.96283, 33.22819],
          [74.96271, 33.22765],
          [74.96271, 33.22765],
          [74.96269, 33.22687],
          [74.96261, 33.2261],
          [74.96261, 33.2261],
          [74.96257, 33.22592],
          [74.96243, 33.22535],
          [74.96234, 33.22509],
          [74.96216, 33.22462],
          [74.9618, 33.2239],
          [74.96137, 33.2232],
          [74.96095, 33.22261],
          [74.96089, 33.22252],
          [74.96089, 33.22252],
          [74.96038, 33.22186],
          [74.96038, 33.22186],
          [74.95987, 33.22122],
          [74.95987, 33.22122],
          [74.95935, 33.2206],
          [74.95883, 33.21999],
          [74.9583, 33.21938],
          [74.9583, 33.21938],
          [74.95776, 33.21876],
          [74.9576, 33.21858],
          [74.95719, 33.2181],
          [74.95658, 33.21741],
          [74.95592, 33.21682],
          [74.95519, 33.21658],
          [74.95491, 33.21664],
          [74.9544, 33.21676],
          [74.95356, 33.21722],
          [74.95271, 33.2178],
          [74.95187, 33.21835],
          [74.95105, 33.21882],
          [74.95024, 33.21922],
          [74.94944, 33.21959],
          [74.94864, 33.21992],
          [74.94784, 33.22024],
          [74.94784, 33.22024],
          [74.94703, 33.22056],
          [74.94622, 33.22089],
          [74.94538, 33.22126],
          [74.94456, 33.22167],
          [74.9438, 33.22213],
          [74.94313, 33.22267],
          [74.94283, 33.22302],
          [74.9426, 33.22329],
          [74.9424, 33.22362],
          [74.9422, 33.22398],
          [74.9418, 33.22468],
          [74.94126, 33.22533],
          [74.94126, 33.22533],
          [74.94055, 33.22588],
          [74.93972, 33.22627],
          [74.93882, 33.22647],
          [74.9379, 33.22646],
          [74.93696, 33.22634],
          [74.93603, 33.22624],
          [74.9351, 33.22619],
          [74.93421, 33.22619],
          [74.93417, 33.22619],
          [74.93411, 33.22619],
          [74.93324, 33.22623],
          [74.93231, 33.22631],
          [74.93139, 33.22641],
          [74.93046, 33.22654],
          [74.92954, 33.22667],
          [74.92861, 33.22681],
          [74.92769, 33.22694],
          [74.92676, 33.22706],
          [74.92583, 33.22716],
          [74.9249, 33.22724],
          [74.92397, 33.2273],
          [74.92304, 33.22735],
          [74.92211, 33.22741],
          [74.92118, 33.22748],
          [74.92026, 33.22756],
          [74.92026, 33.22756],
          [74.91933, 33.22767],
          [74.91933, 33.22767],
          [74.91842, 33.22782],
          [74.91773, 33.22796],
          [74.91751, 33.228],
          [74.91751, 33.228],
          [74.91742, 33.22803],
          [74.91661, 33.22823],
          [74.91571, 33.22849],
          [74.91482, 33.22876],
          [74.91394, 33.22902],
          [74.91394, 33.22902],
          [74.91308, 33.22927],
          [74.91272, 33.22935],
          [74.91222, 33.22948],
          [74.91137, 33.22964],
          [74.91052, 33.22977],
          [74.91052, 33.22977],
          [74.90967, 33.22987],
          [74.90881, 33.22996],
          [74.90794, 33.23004],
          [74.90703, 33.23013],
          [74.9061, 33.23023],
          [74.90512, 33.23037],
          [74.9041, 33.23054],
          [74.90302, 33.23076],
          [74.90193, 33.23105],
          [74.90106, 33.23143],
          [74.90068, 33.23194],
          [74.90092, 33.23259],
          [74.90149, 33.23331],
          [74.9019, 33.23382],
          [74.90205, 33.23401],
          [74.90244, 33.23466],
          [74.90274, 33.23525],
          [74.90279, 33.23535],
          [74.90293, 33.23562],
          [74.90321, 33.23616],
          [74.90358, 33.237],
          [74.90336, 33.23751],
          [74.90239, 33.23759],
          [74.90207, 33.23759],
          [74.90129, 33.23759],
          [74.9005, 33.23765],
          [74.90027, 33.23766],
          [74.89933, 33.23778],
          [74.89844, 33.23795],
          [74.89758, 33.23814],
          [74.89674, 33.23835],
          [74.89674, 33.23835],
          [74.8959, 33.23856],
          [74.8959, 33.23856],
          [74.89503, 33.23875],
          [74.8949, 33.23878],
          [74.89413, 33.23893],
          [74.8932, 33.23906],
          [74.8932, 33.23906],
          [74.89226, 33.23913],
          [74.89218, 33.23913],
          [74.89132, 33.23913],
          [74.89039, 33.23904],
          [74.88948, 33.23888],
          [74.88858, 33.23866],
          [74.8877, 33.23838],
          [74.88685, 33.23805],
          [74.88601, 33.2377],
          [74.88519, 33.23732],
          [74.88438, 33.23694],
          [74.88355, 33.23658],
          [74.88272, 33.23624],
          [74.88186, 33.23595],
          [74.88106, 33.23574],
          [74.88096, 33.23571],
          [74.88086, 33.23569],
          [74.88005, 33.23551],
          [74.87915, 33.2353],
          [74.8783, 33.23502],
          [74.87753, 33.23464],
          [74.87683, 33.23416],
          [74.87683, 33.23416],
          [74.87672, 33.23407],
          [74.87619, 33.23361],
          [74.87579, 33.2332],
          [74.87559, 33.23301],
          [74.87502, 33.23236],
          [74.87502, 33.23236],
          [74.87445, 33.23171],
          [74.87388, 33.23105],
          [74.87388, 33.23105],
          [74.87379, 33.23096],
          [74.87329, 33.23042],
          [74.87268, 33.22982],
          [74.87233, 33.22951],
          [74.87204, 33.22924],
          [74.87139, 33.22869],
          [74.87072, 33.22815],
          [74.87072, 33.22815],
          [74.87004, 33.22763],
          [74.86956, 33.22727],
          [74.86935, 33.22711],
          [74.86899, 33.22685],
          [74.86866, 33.22661],
          [74.86826, 33.22632],
          [74.86796, 33.2261],
          [74.86773, 33.22592],
          [74.86727, 33.22559],
          [74.86659, 33.22508],
          [74.86591, 33.22456],
          [74.86524, 33.22403],
          [74.86524, 33.22403],
          [74.86523, 33.22403],
          [74.86456, 33.22351],
          [74.86389, 33.22297],
          [74.86323, 33.22244],
          [74.86256, 33.2219],
          [74.86202, 33.22146],
          [74.86189, 33.22135],
          [74.86123, 33.2208],
          [74.86056, 33.22025],
          [74.85989, 33.2197],
          [74.85989, 33.2197],
          [74.85983, 33.21964],
          [74.85922, 33.21914],
          [74.85854, 33.21858],
          [74.85786, 33.21803],
          [74.85717, 33.21748],
          [74.85658, 33.21704],
          [74.85646, 33.21695],
          [74.85617, 33.21675],
          [74.85574, 33.21644],
          [74.85501, 33.21596],
          [74.85425, 33.2155],
          [74.85425, 33.2155],
          [74.85347, 33.21509],
          [74.85267, 33.21471],
          [74.85184, 33.21437],
          [74.85098, 33.21409],
          [74.8501, 33.21384],
          [74.84922, 33.21357],
          [74.84837, 33.21326],
          [74.84755, 33.2129],
          [74.84674, 33.21252],
          [74.84593, 33.21212],
          [74.84539, 33.21184],
          [74.84513, 33.21171],
          [74.84486, 33.21158],
          [74.84433, 33.21132],
          [74.84381, 33.21107],
          [74.84352, 33.21094],
          [74.84269, 33.21059],
          [74.84184, 33.21028],
          [74.84184, 33.21028],
          [74.84098, 33.20999],
          [74.8401, 33.20973],
          [74.83922, 33.20949],
          [74.83922, 33.20949],
          [74.83833, 33.20926],
          [74.83743, 33.20905],
          [74.83653, 33.20883],
          [74.83562, 33.20862],
          [74.83472, 33.20839],
          [74.83383, 33.20816],
          [74.83337, 33.20806],
          [74.83293, 33.20796],
          [74.83293, 33.20796],
          [74.83286, 33.20795],
          [74.83201, 33.20786],
          [74.83106, 33.20788],
          [74.8301, 33.20799],
          [74.82914, 33.20813],
          [74.82914, 33.20813],
          [74.8282, 33.20827],
          [74.82728, 33.20836],
          [74.82639, 33.20835],
          [74.82556, 33.20821],
          [74.82474, 33.20794],
          [74.8239, 33.2076],
          [74.8239, 33.2076],
          [74.82295, 33.20723],
          [74.82191, 33.20694],
          [74.82092, 33.20685],
          [74.8202, 33.20713],
          [74.81981, 33.20782],
          [74.81949, 33.2086],
          [74.81912, 33.20933],
          [74.81869, 33.21001],
          [74.81823, 33.21066],
          [74.81776, 33.2113],
          [74.81764, 33.21157],
          [74.8173, 33.21211],
          [74.81685, 33.21261],
          [74.81656, 33.21291],
          [74.81638, 33.21309],
          [74.81605, 33.21344],
          [74.81591, 33.21359],
          [74.81591, 33.21359],
          [74.81551, 33.21414],
          [74.81519, 33.21471],
          [74.81491, 33.21532],
          [74.81466, 33.21593],
          [74.8144, 33.21656],
          [74.81415, 33.21712],
          [74.81384, 33.21769],
          [74.81346, 33.21821],
          [74.813, 33.21867],
          [74.81292, 33.21873],
          [74.81301, 33.21907],
          [74.81301, 33.21907],
          [74.81309, 33.21942],
          [74.81317, 33.21976],
          [74.81317, 33.21976],
          [74.81325, 33.2201],
          [74.81334, 33.22045],
          [74.81342, 33.22079],
          [74.81342, 33.22079],
          [74.81351, 33.22113],
          [74.81361, 33.22147],
          [74.8137, 33.22182],
          [74.8138, 33.22216],
          [74.81391, 33.2225],
          [74.81402, 33.22284],
          [74.81413, 33.22318],
          [74.81423, 33.22346],
          [74.81425, 33.22353],
          [74.81425, 33.22353],
          [74.81438, 33.22387],
          [74.81452, 33.22421],
          [74.81467, 33.22454],
          [74.81485, 33.22485],
          [74.81507, 33.22515],
          [74.81532, 33.22542],
          [74.8156, 33.22568],
          [74.8156, 33.22568],
          [74.81589, 33.22593],
          [74.81589, 33.22593],
          [74.81618, 33.22619],
          [74.81647, 33.22646],
          [74.81674, 33.22675],
          [74.81699, 33.22706],
          [74.81699, 33.22706],
          [74.81723, 33.22738],
          [74.81734, 33.22751],
          [74.81747, 33.22769],
          [74.81766, 33.22791],
          [74.81772, 33.22799],
          [74.81772, 33.22799],
          [74.81799, 33.22826],
          [74.81799, 33.22826],
          [74.81828, 33.2285],
          [74.81861, 33.22869],
          [74.81861, 33.22869],
          [74.81899, 33.22882],
          [74.8194, 33.22891],
          [74.8197, 33.22897],
          [74.81982, 33.229],
          [74.81999, 33.22906],
          [74.82021, 33.22914],
          [74.82055, 33.22934],
          [74.82087, 33.22958],
          [74.82087, 33.22958],
          [74.82116, 33.22984],
          [74.82116, 33.22984],
          [74.82143, 33.2301],
          [74.82169, 33.23038],
          [74.82188, 33.2306],
          [74.82194, 33.23067],
          [74.82194, 33.23067],
          [74.82218, 33.23098],
          [74.82243, 33.23128],
          [74.8226, 33.23144],
          [74.82271, 33.23155],
          [74.82304, 33.23175],
          [74.82342, 33.23187],
          [74.82385, 33.23193],
          [74.82429, 33.23195],
          [74.82472, 33.23195],
          [74.82515, 33.23195],
          [74.8252, 33.23195],
          [74.82558, 33.23193],
          [74.826, 33.2319],
          [74.826, 33.2319],
          [74.82641, 33.23186],
          [74.82683, 33.23181],
          [74.82724, 33.23174],
          [74.82766, 33.23167],
          [74.82807, 33.2316],
          [74.82849, 33.23154],
          [74.82849, 33.23154],
          [74.82892, 33.2315],
          [74.82935, 33.2315],
          [74.82977, 33.23154],
          [74.83018, 33.23164],
          [74.83056, 33.23179],
          [74.83093, 33.23197],
          [74.83126, 33.23218],
          [74.83157, 33.23244],
          [74.83182, 33.23273],
          [74.8319, 33.23289],
          [74.83198, 33.23305],
          [74.83203, 33.23339],
          [74.832, 33.23375],
          [74.832, 33.23375],
          [74.83196, 33.23411],
          [74.83196, 33.23446],
          [74.83204, 33.23479],
          [74.83221, 33.23512],
          [74.83241, 33.23543],
          [74.83263, 33.23575],
          [74.83281, 33.23606],
          [74.83292, 33.23628],
          [74.83297, 33.23639],
          [74.83297, 33.23639],
          [74.83312, 33.23671],
          [74.83326, 33.23704],
          [74.8334, 33.23736],
          [74.83356, 33.23769],
          [74.83374, 33.23802],
          [74.83387, 33.23821],
          [74.83395, 33.23834],
          [74.83419, 33.23866],
          [74.83441, 33.23898],
          [74.83452, 33.2393],
          [74.83447, 33.23964],
          [74.83429, 33.23997],
          [74.83406, 33.24026],
          [74.83377, 33.24049],
          [74.83341, 33.24066],
          [74.83299, 33.24077],
          [74.83251, 33.24084],
          [74.83251, 33.24084],
          [74.83203, 33.24091],
          [74.83169, 33.24106],
          [74.83158, 33.24136],
          [74.83163, 33.24174],
          [74.83166, 33.24185],
          [74.83171, 33.24211],
          [74.83179, 33.24238],
          [74.83181, 33.24245],
          [74.83181, 33.24245],
          [74.83194, 33.24278],
          [74.83202, 33.24294],
          [74.8321, 33.24309],
          [74.83231, 33.24339],
          [74.83231, 33.24339],
          [74.83256, 33.24367],
          [74.8328, 33.24396],
          [74.833, 33.24428],
          [74.83309, 33.24448],
          [74.83315, 33.24462],
          [74.83315, 33.24462],
          [74.83323, 33.24498],
          [74.83325, 33.24534],
          [74.8332, 33.2457],
          [74.8331, 33.24605],
          [74.8331, 33.24605],
          [74.83294, 33.24638],
          [74.83273, 33.24669],
          [74.83252, 33.24699],
          [74.8323, 33.2473],
          [74.83207, 33.24761],
          [74.83182, 33.2479],
          [74.83155, 33.24817],
          [74.83126, 33.24842],
          [74.83093, 33.24862],
          [74.83057, 33.24879],
          [74.83018, 33.24893],
          [74.82978, 33.24905],
          [74.82936, 33.24917],
          [74.82894, 33.24928],
          [74.82851, 33.24939],
          [74.8281, 33.24951],
          [74.8277, 33.24965],
          [74.82731, 33.2498],
          [74.82705, 33.24993],
          [74.82695, 33.24998],
          [74.82681, 33.25006],
          [74.82662, 33.25018],
          [74.82632, 33.25041],
          [74.82605, 33.25068],
          [74.82581, 33.25097],
          [74.82558, 33.25127],
          [74.82536, 33.25157],
          [74.82536, 33.25157],
          [74.82513, 33.25188],
          [74.82489, 33.25217],
          [74.82464, 33.25246],
          [74.82439, 33.25274],
          [74.82412, 33.25301],
          [74.82384, 33.25328],
          [74.82355, 33.25353],
          [74.82325, 33.25377],
          [74.82293, 33.254],
          [74.82261, 33.25422],
          [74.82228, 33.25444],
          [74.82194, 33.25465],
          [74.82159, 33.25486],
          [74.82124, 33.25507],
          [74.82089, 33.25529],
          [74.82054, 33.2555],
          [74.82017, 33.2557],
          [74.81981, 33.25588],
          [74.81943, 33.25605],
          [74.81905, 33.25618],
          [74.81905, 33.25618],
          [74.81865, 33.25628],
          [74.81835, 33.25633],
          [74.81825, 33.25635],
          [74.81783, 33.25637],
          [74.81741, 33.25637],
          [74.8172, 33.25636],
          [74.81699, 33.25635],
          [74.81655, 33.25631],
          [74.81655, 33.25631],
          [74.81612, 33.25627],
          [74.81569, 33.25623],
          [74.81557, 33.25622],
          [74.81526, 33.2562],
          [74.81484, 33.25617],
          [74.81455, 33.25615],
          [74.81441, 33.25614],
          [74.81399, 33.25611],
          [74.81357, 33.25606],
          [74.81316, 33.256],
          [74.81274, 33.25593],
          [74.81233, 33.25586],
          [74.81233, 33.25586],
          [74.8119, 33.25582],
          [74.81148, 33.2558],
          [74.81106, 33.2558],
          [74.81063, 33.25581],
          [74.8102, 33.25584],
          [74.8102, 33.25584],
          [74.80978, 33.25589],
          [74.80935, 33.25594],
          [74.80893, 33.25601],
          [74.80851, 33.25609],
          [74.80809, 33.25618],
          [74.80768, 33.25628],
          [74.80727, 33.25638],
          [74.80686, 33.25648],
          [74.80686, 33.25648],
          [74.80646, 33.25659],
          [74.80605, 33.2567],
          [74.80605, 33.2567],
          [74.80565, 33.25682],
          [74.80535, 33.2569],
          [74.80525, 33.25693],
          [74.80514, 33.25696],
          [74.80485, 33.25703],
          [74.80444, 33.25714],
          [74.80444, 33.25714],
          [74.80404, 33.25724],
          [74.80363, 33.25733],
          [74.80363, 33.25733],
          [74.80322, 33.25741],
          [74.80281, 33.25749],
          [74.80281, 33.25749],
          [74.80239, 33.25755],
          [74.80232, 33.25756],
          [74.80197, 33.2576],
          [74.80166, 33.25764],
          [74.80155, 33.25765],
          [74.80142, 33.25766],
          [74.80113, 33.25768],
          [74.80071, 33.2577],
          [74.80028, 33.25772],
          [74.79998, 33.25772],
          [74.79985, 33.25772],
          [74.79942, 33.25771],
          [74.79942, 33.25771],
          [74.799, 33.25769],
          [74.79857, 33.25767],
          [74.79857, 33.25767],
          [74.79814, 33.25763],
          [74.79771, 33.25759],
          [74.79729, 33.25754],
          [74.79686, 33.25749],
          [74.79644, 33.25744],
          [74.79644, 33.25744],
          [74.79601, 33.2574],
          [74.79601, 33.2574],
          [74.79559, 33.25735],
          [74.79517, 33.25731],
          [74.79517, 33.25731],
          [74.79475, 33.25727],
          [74.79433, 33.25724],
          [74.79392, 33.25722],
          [74.79351, 33.25721],
          [74.7931, 33.25722],
          [74.79269, 33.25723],
          [74.79227, 33.25726],
          [74.79193, 33.25728],
          [74.79185, 33.25728],
          [74.79142, 33.25732],
          [74.79136, 33.25732],
          [74.79097, 33.25735],
          [74.79052, 33.25739],
          [74.79007, 33.25745],
          [74.79007, 33.25745],
          [74.78967, 33.25757],
          [74.78936, 33.25777],
          [74.78914, 33.25807],
          [74.78899, 33.25841],
          [74.78888, 33.25875],
          [74.78888, 33.25875],
          [74.78878, 33.25908],
          [74.78871, 33.25942],
          [74.78864, 33.25977],
          [74.78857, 33.26012],
          [74.78851, 33.26037],
          [74.78849, 33.26048],
          [74.78849, 33.26048],
          [74.78839, 33.26085],
          [74.78828, 33.26121],
          [74.78813, 33.26156],
          [74.78813, 33.26156],
          [74.78796, 33.26189],
          [74.78774, 33.26219],
          [74.78748, 33.26245],
          [74.78716, 33.26265],
          [74.7868, 33.26281],
          [74.78647, 33.26292],
          [74.7864, 33.26294],
          [74.78637, 33.26295],
          [74.78599, 33.26305],
          [74.78557, 33.26316],
          [74.78516, 33.26328],
          [74.78476, 33.26342],
          [74.78437, 33.26355],
          [74.78398, 33.26367],
          [74.78358, 33.26378],
          [74.78317, 33.26385],
          [74.78276, 33.2639],
          [74.78233, 33.26393],
          [74.78191, 33.26394],
          [74.78147, 33.26394],
          [74.78104, 33.26392],
          [74.78061, 33.2639],
          [74.78018, 33.26386],
          [74.77975, 33.26383],
          [74.77933, 33.26379],
          [74.77891, 33.26376],
          [74.7785, 33.26372],
          [74.7785, 33.26372],
          [74.77809, 33.26368],
          [74.77768, 33.26364],
          [74.77726, 33.26359],
          [74.77684, 33.26354],
          [74.77642, 33.26348],
          [74.77599, 33.26341],
          [74.77565, 33.26335],
          [74.77554, 33.26333],
          [74.77535, 33.2633],
          [74.7751, 33.26326],
          [74.77468, 33.26325],
          [74.77432, 33.26335],
          [74.77403, 33.26358],
          [74.77377, 33.26388],
          [74.77373, 33.26394],
          [74.77354, 33.26422],
          [74.77329, 33.26454],
          [74.77304, 33.26484],
          [74.77276, 33.26511],
          [74.77246, 33.26535],
          [74.77215, 33.26557],
          [74.77181, 33.26577],
          [74.77145, 33.26594],
          [74.77119, 33.26604],
          [74.77107, 33.26609],
          [74.77096, 33.26612],
          [74.77068, 33.26622],
          [74.77027, 33.26633],
          [74.76985, 33.26643],
          [74.76943, 33.26653],
          [74.7691, 33.2666],
          [74.76901, 33.26661],
          [74.76881, 33.26665],
          [74.76859, 33.2667],
          [74.76818, 33.26678],
          [74.76776, 33.26686],
          [74.76735, 33.26694],
          [74.76694, 33.26702],
          [74.76653, 33.26711],
          [74.76629, 33.26717],
          [74.76612, 33.26721],
          [74.76572, 33.26731],
          [74.76532, 33.26743],
          [74.76493, 33.26756],
          [74.76453, 33.2677],
          [74.76415, 33.26786],
          [74.76376, 33.26803],
          [74.76338, 33.26819],
          [74.763, 33.26835],
          [74.76263, 33.2685],
          [74.76227, 33.26864],
          [74.7619, 33.26876],
          [74.7615, 33.26889],
          [74.76104, 33.26906],
          [74.7606, 33.26916],
          [74.7606, 33.26916],
          [74.76032, 33.26902],
          [74.76023, 33.26865],
          [74.76023, 33.26826],
          [74.76025, 33.26801],
          [74.76026, 33.2679],
          [74.76027, 33.26779],
          [74.76031, 33.26756],
          [74.76036, 33.26723],
          [74.7604, 33.2669],
          [74.76042, 33.26656],
          [74.76042, 33.26656],
          [74.76042, 33.26647],
          [74.76041, 33.26622],
          [74.76038, 33.26587],
          [74.76034, 33.26552],
          [74.76028, 33.26516],
          [74.76022, 33.26481],
          [74.76016, 33.26445],
          [74.76009, 33.2641],
          [74.76003, 33.26374],
          [74.75997, 33.26339],
          [74.75992, 33.26305],
          [74.75989, 33.26284],
          [74.75986, 33.2627],
          [74.75984, 33.2626],
          [74.7598, 33.26235],
          [74.75975, 33.262],
          [74.7597, 33.26165],
          [74.75966, 33.2613],
          [74.75966, 33.2613],
          [74.75964, 33.26095],
          [74.75965, 33.26059],
          [74.75966, 33.26024],
          [74.75966, 33.26024],
          [74.75967, 33.26013],
          [74.75968, 33.25988],
          [74.75968, 33.25973],
          [74.75968, 33.25953],
          [74.75967, 33.25918],
          [74.75963, 33.25884],
          [74.75963, 33.25884],
          [74.75955, 33.2585],
          [74.75943, 33.25816],
          [74.75943, 33.25816],
          [74.75929, 33.25783],
          [74.75912, 33.25751],
          [74.759, 33.25729],
          [74.75895, 33.25718],
          [74.75888, 33.25706],
          [74.75876, 33.25686],
          [74.75858, 33.25654],
          [74.75841, 33.25622],
          [74.75841, 33.25622],
          [74.75835, 33.2561],
          [74.75824, 33.25589],
          [74.75807, 33.25557],
          [74.7579, 33.25525],
          [74.75773, 33.25493],
          [74.75773, 33.25493],
          [74.75772, 33.25493],
          [74.75772, 33.25493],
          [74.75772, 33.25492],
          [74.75772, 33.25492],
          [74.75772, 33.25492],
          [74.75772, 33.25491],
          [74.75771, 33.25491],
          [74.75771, 33.2549],
          [74.75771, 33.2549],
          [74.75755, 33.25461],
          [74.75755, 33.25461],
          [74.75755, 33.25461],
          [74.75755, 33.25461],
          [74.75748, 33.2548],
          [74.7572, 33.25538],
          [74.75688, 33.25594],
          [74.75687, 33.25595],
          [74.75687, 33.25595],
          [74.75651, 33.25649],
          [74.75649, 33.25652],
          [74.75612, 33.25703],
          [74.75572, 33.25755],
          [74.75533, 33.25808],
          [74.75494, 33.25861],
          [74.75457, 33.25913],
          [74.75456, 33.25914],
          [74.75417, 33.25967],
          [74.75394, 33.26],
          [74.75379, 33.26021],
          [74.75342, 33.26071],
          [74.7534, 33.26074],
          [74.753, 33.26127],
          [74.75267, 33.26171],
          [74.75259, 33.2618],
          [74.75217, 33.26234],
          [74.75209, 33.26244],
          [74.75174, 33.26288],
          [74.75127, 33.26338],
          [74.75077, 33.26385],
          [74.75052, 33.26404],
          [74.75021, 33.26427],
          [74.74964, 33.2646],
          [74.7496, 33.26462],
          [74.74894, 33.26491],
          [74.74852, 33.2651],
          [74.74828, 33.26521],
          [74.74806, 33.26534],
          [74.74767, 33.26559],
          [74.74712, 33.26594],
          [74.74706, 33.26598],
          [74.74644, 33.26633],
          [74.74611, 33.26645],
          [74.74578, 33.26657],
          [74.74517, 33.26665],
          [74.74504, 33.26667],
          [74.74489, 33.26668],
          [74.74427, 33.2667],
          [74.7435, 33.26668],
          [74.74275, 33.26667],
          [74.74267, 33.26667],
          [74.74201, 33.26666],
          [74.74153, 33.26664],
          [74.74127, 33.26663],
          [74.74065, 33.26657],
          [74.7405, 33.26656],
          [74.73972, 33.26642],
          [74.73925, 33.26625],
          [74.73902, 33.26616],
          [74.73855, 33.26574],
          [74.73854, 33.2657],
          [74.73831, 33.26516],
          [74.73821, 33.26479],
          [74.73813, 33.26451],
          [74.73802, 33.26421],
          [74.73791, 33.2639],
          [74.73778, 33.26366],
          [74.7376, 33.26333],
          [74.7373, 33.26276],
          [74.73712, 33.26227],
          [74.73708, 33.26215],
          [74.73708, 33.26215],
          [74.73689, 33.26154],
          [74.73664, 33.26097],
          [74.7364, 33.26068],
          [74.73624, 33.26048],
          [74.73575, 33.26001],
          [74.73525, 33.25949],
          [74.73476, 33.25897],
          [74.73417, 33.25896],
          [74.73348, 33.25937],
          [74.73275, 33.25974],
          [74.73248, 33.25982],
          [74.73203, 33.25996],
          [74.73172, 33.26002],
          [74.73131, 33.26009],
          [74.73075, 33.2602],
          [74.73061, 33.26023],
          [74.72991, 33.26043],
          [74.72962, 33.26056],
          [74.72924, 33.26072],
          [74.72879, 33.26095],
          [74.72859, 33.26105],
          [74.72797, 33.26142],
          [74.72759, 33.26167],
          [74.72738, 33.26182],
          [74.72682, 33.26223],
          [74.72628, 33.26266],
          [74.72575, 33.26311],
          [74.72523, 33.26357],
          [74.7252, 33.2636],
          [74.72475, 33.26404],
          [74.72458, 33.26425],
          [74.72432, 33.26456],
          [74.72411, 33.26492],
          [74.72399, 33.26511],
          [74.72373, 33.2657],
          [74.72357, 33.2661],
          [74.72349, 33.2663],
          [74.72326, 33.26689],
          [74.72298, 33.26746],
          [74.72298, 33.26747],
          [74.72298, 33.26747],
          [74.72262, 33.26802],
          [74.72251, 33.26815],
          [74.72217, 33.26852],
          [74.72167, 33.26899],
          [74.72132, 33.26926],
          [74.72112, 33.26942],
          [74.72056, 33.26983],
          [74.72007, 33.27016],
          [74.71998, 33.27022],
          [74.71987, 33.2703],
          [74.71939, 33.27062],
          [74.71925, 33.27071],
          [74.71881, 33.27102],
          [74.71825, 33.27143],
          [74.71771, 33.27187],
          [74.71719, 33.27232],
          [74.71703, 33.27246],
          [74.71667, 33.27277],
          [74.71616, 33.27323],
          [74.71595, 33.27343],
          [74.71565, 33.27369],
          [74.71513, 33.27414],
          [74.71481, 33.27442],
          [74.71461, 33.27459],
          [74.71407, 33.27501],
          [74.71359, 33.27538],
          [74.71351, 33.27543],
          [74.71331, 33.27558],
          [74.71295, 33.27584],
          [74.71285, 33.27591],
          [74.71236, 33.27624],
          [74.71183, 33.27659],
          [74.71178, 33.27663],
          [74.7117, 33.27668],
          [74.71118, 33.27701],
          [74.7109, 33.27718],
          [74.71056, 33.27739],
          [74.71012, 33.27764],
          [74.70993, 33.27775],
          [74.70928, 33.27806],
          [74.70912, 33.27811],
          [74.70858, 33.27829],
          [74.70785, 33.27842],
          [74.7071, 33.27849],
          [74.70682, 33.2785],
          [74.70633, 33.27853],
          [74.70583, 33.27859],
          [74.70559, 33.27862],
          [74.7051, 33.27872],
          [74.70486, 33.27877],
          [74.70417, 33.27904],
          [74.70357, 33.27942],
          [74.70352, 33.27947],
          [74.7031, 33.27989],
          [74.70274, 33.28044],
          [74.70247, 33.28103],
          [74.70231, 33.28145],
          [74.70224, 33.28164],
          [74.70202, 33.28226],
          [74.7018, 33.28287],
          [74.70158, 33.28347],
          [74.70148, 33.28372],
          [74.70135, 33.28407],
          [74.70113, 33.28466],
          [74.70091, 33.28526],
          [74.70078, 33.28564],
          [74.70071, 33.28585],
          [74.70053, 33.28645],
          [74.70045, 33.28673],
          [74.70037, 33.28705],
          [74.70023, 33.28766],
          [74.70011, 33.28828],
          [74.70001, 33.28889],
          [74.7, 33.28894],
          [74.69992, 33.28952],
          [74.69984, 33.29014],
          [74.69976, 33.29077],
          [74.69967, 33.29139],
          [74.69958, 33.29201],
          [74.69953, 33.29235],
          [74.69949, 33.29262],
          [74.69936, 33.29322],
          [74.69928, 33.29348],
          [74.69917, 33.29382],
          [74.69887, 33.29442],
          [74.6984, 33.29493],
          [74.69827, 33.29507],
          [74.69795, 33.29519],
          [74.69773, 33.29521],
          [74.69758, 33.29522],
          [74.69718, 33.29516],
          [74.69678, 33.29504],
          [74.69658, 33.29498],
          [74.69637, 33.2949],
          [74.69597, 33.29476],
          [74.69557, 33.29462],
          [74.69519, 33.2945],
          [74.69512, 33.29448],
          [74.69482, 33.29439],
          [74.69446, 33.29428],
          [74.6943, 33.29423],
          [74.69409, 33.29417],
          [74.69379, 33.29409],
          [74.69372, 33.29408],
          [74.69339, 33.294],
          [74.69336, 33.29399],
          [74.69298, 33.29391],
          [74.6926, 33.29383],
          [74.69221, 33.29376],
          [74.69189, 33.29371],
          [74.69181, 33.2937],
          [74.69155, 33.29367],
          [74.69141, 33.29366],
          [74.69101, 33.29364],
          [74.69061, 33.29364],
          [74.69022, 33.29368],
          [74.69022, 33.29368],
          [74.68983, 33.29375],
          [74.68945, 33.29385],
          [74.68942, 33.29386],
          [74.68908, 33.29397],
          [74.68871, 33.29409],
          [74.68834, 33.29422],
          [74.68816, 33.29428],
          [74.68797, 33.29435],
          [74.68766, 33.29446],
          [74.68761, 33.29448],
          [74.68759, 33.29449],
          [74.68726, 33.29463],
          [74.68692, 33.29477],
          [74.6869, 33.29478],
          [74.68656, 33.29494],
          [74.68656, 33.29494],
          [74.68622, 33.29513],
          [74.68606, 33.29523],
          [74.68589, 33.29533],
          [74.68557, 33.29553],
          [74.68531, 33.29568],
          [74.68524, 33.29572],
          [74.68491, 33.29591],
          [74.68458, 33.29609],
          [74.68434, 33.2962],
          [74.68423, 33.29625],
          [74.68388, 33.29637],
          [74.68367, 33.29642],
          [74.68351, 33.29646],
          [74.68339, 33.29648],
          [74.68312, 33.29652],
          [74.68287, 33.29653],
          [74.68272, 33.29654],
          [74.68232, 33.29653],
          [74.68211, 33.29651],
          [74.68191, 33.29649],
          [74.68151, 33.29641],
          [74.68148, 33.29641],
          [74.68111, 33.29632],
          [74.68097, 33.29627],
          [74.68072, 33.29619],
          [74.68035, 33.29605],
          [74.67999, 33.29589],
          [74.67994, 33.29587],
          [74.67965, 33.29572],
          [74.6795, 33.29565],
          [74.6793, 33.29556],
          [74.67905, 33.29543],
          [74.67896, 33.29539],
          [74.67862, 33.29523],
          [74.67827, 33.29509],
          [74.67801, 33.29501],
          [74.6779, 33.29498],
          [74.67752, 33.29489],
          [74.67719, 33.29483],
          [74.67714, 33.29482],
          [74.67708, 33.29481],
          [74.67674, 33.29477],
          [74.67652, 33.29475],
          [74.67635, 33.29474],
          [74.67594, 33.29472],
          [74.67571, 33.29471],
          [74.67553, 33.2947],
          [74.67537, 33.2947],
          [74.67513, 33.2947],
          [74.67489, 33.2947],
          [74.67473, 33.29471],
          [74.67462, 33.29471],
          [74.67433, 33.29472],
          [74.67394, 33.29475],
          [74.67357, 33.2948],
          [74.67354, 33.2948],
          [74.67349, 33.29481],
          [74.67316, 33.29487],
          [74.67293, 33.29492],
          [74.67277, 33.29495],
          [74.6724, 33.29506],
          [74.67222, 33.29511],
          [74.67202, 33.29517],
          [74.6718, 33.29524],
          [74.67165, 33.29529],
          [74.67128, 33.29541],
          [74.6709, 33.29551],
          [74.67052, 33.29561],
          [74.67034, 33.29564],
          [74.67014, 33.29567],
          [74.66975, 33.29573],
          [74.66973, 33.29573],
          [74.67006, 33.29915],
          [74.67026, 33.30262],
          [74.67013, 33.30394],
          [74.66884, 33.30524],
          [74.66623, 33.30649],
          [74.66476, 33.30759],
          [74.66433, 33.30844],
          [74.66175, 33.31126],
          [74.65927, 33.31413],
          [74.65855, 33.31503],
          [74.65697, 33.31642],
          [74.65543, 33.31759],
          [74.65311, 33.31981],
          [74.65071, 33.32206],
          [74.64875, 33.32435],
          [74.64821, 33.32547],
          [74.64808, 33.32669],
          [74.64878, 33.32777],
          [74.64897, 33.32806],
          [74.64986, 33.32943],
          [74.64994, 33.32959],
          [74.65125, 33.33209],
          [74.6526, 33.33426],
          [74.65394, 33.33642],
          [74.65357, 33.33706],
          [74.65226, 33.33783],
          [74.64964, 33.33953],
          [74.6483, 33.34046],
          [74.64825, 33.34243],
          [74.64847, 33.34493],
          [74.64869, 33.34743],
          [74.64888, 33.34865],
          [74.64907, 33.34988],
          [74.6491, 33.35022],
          [74.64913, 33.35049],
          [74.64914, 33.35057],
          [74.6492, 33.35126],
          [74.64958, 33.35186],
          [74.64971, 33.35206],
          [74.65076, 33.35251],
          [74.65153, 33.35243],
          [74.65245, 33.35181],
          [74.65387, 33.3519],
          [74.65451, 33.35196],
          [74.65564, 33.35235],
          [74.6565, 33.35235],
          [74.65724, 33.35201],
          [74.65758, 33.35173],
          [74.6581, 33.35168],
          [74.65847, 33.35194],
          [74.65877, 33.35216],
          [74.65982, 33.35291],
          [74.65982, 33.35291],
          [74.65982, 33.35291],
          [74.66053, 33.35322],
          [74.66139, 33.35322],
          [74.6628, 33.35271],
          [74.66349, 33.35261],
          [74.66418, 33.3525],
          [74.66523, 33.35157],
          [74.66618, 33.35044],
          [74.66832, 33.35049],
          [74.66965, 33.35046],
          [74.6705, 33.35047],
          [74.67097, 33.35044],
          [74.67141, 33.35146],
          [74.67172, 33.35217],
          [74.67186, 33.3525],
          [74.67401, 33.35435],
          [74.67519, 33.35485],
          [74.67896, 33.35644],
          [74.6835, 33.35894],
          [74.68353, 33.35895],
          [74.68473, 33.35979],
          [74.68551, 33.36049],
          [74.68577, 33.36073],
          [74.6863, 33.3612],
          [74.6863, 33.36234],
          [74.67924, 33.36641],
          [74.67816, 33.36732],
          [74.67749, 33.36783],
          [74.67681, 33.36835],
          [74.67684, 33.36868],
          [74.67684, 33.36868],
          [74.6774, 33.36881],
          [74.67795, 33.36894],
          [74.67844, 33.36912],
          [74.67878, 33.36957],
          [74.67894, 33.36979],
          [74.67911, 33.37001],
          [74.67887, 33.37118],
          [74.67804, 33.37213],
          [74.67657, 33.37285],
          [74.67525, 33.37386],
          [74.67463, 33.37528],
          [74.67463, 33.37528],
          [74.67463, 33.37528],
          [74.67467, 33.37544],
          [74.67477, 33.37591],
          [74.67495, 33.37706],
          [74.67457, 33.37845],
          [74.67417, 33.37935],
          [74.67365, 33.37971],
          [74.67353, 33.3798],
          [74.67313, 33.38007],
          [74.67172, 33.38108],
          [74.67105, 33.38195],
          [74.67086, 33.38278],
          [74.67086, 33.38278],
          [74.67086, 33.38278],
          [74.6716, 33.38391],
          [74.67168, 33.38413],
          [74.67191, 33.38469],
          [74.67154, 33.38523],
          [74.67153, 33.38524],
          [74.67117, 33.38577],
          [74.67077, 33.38657],
          [74.67077, 33.38657],
          [74.67077, 33.38657],
          [74.67078, 33.38671],
          [74.67086, 33.38768],
          [74.67022, 33.3892],
          [74.67013, 33.38984],
          [74.67013, 33.38984],
          [74.67013, 33.38985],
          [74.67056, 33.39046],
          [74.67149, 33.39091],
          [74.67227, 33.39128],
          [74.67243, 33.39136],
          [74.67372, 33.3926],
          [74.67401, 33.39318],
          [74.67408, 33.39331],
          [74.67431, 33.39376],
          [74.6744, 33.39528],
          [74.67373, 33.39574],
          [74.67225, 33.39543],
          [74.67153, 33.39544],
          [74.66973, 33.39544],
          [74.66851, 33.39476],
          [74.66825, 33.39462],
          [74.66808, 33.39446],
          [74.66784, 33.39424],
          [74.66767, 33.39409],
          [74.66715, 33.39412],
          [74.66691, 33.39438],
          [74.66691, 33.39438],
          [74.66691, 33.39438],
          [74.66698, 33.39472],
          [74.66705, 33.39507],
          [74.66719, 33.39546],
          [74.66734, 33.39588],
          [74.66703, 33.39701],
          [74.66607, 33.39853],
          [74.66547, 33.40049],
          [74.66562, 33.40097],
          [74.66562, 33.40097],
          [74.66577, 33.40145],
          [74.66577, 33.40145],
          [74.66577, 33.40146],
          [74.66588, 33.40157],
          [74.66631, 33.40203],
          [74.66623, 33.40271],
          [74.66614, 33.40338],
          [74.66618, 33.40419],
          [74.66623, 33.405],
          [74.66658, 33.4058],
          [74.66695, 33.4066],
          [74.66695, 33.4066],
          [74.66695, 33.4066],
          [74.66748, 33.40701],
          [74.66801, 33.40743],
          [74.66835, 33.40803],
          [74.66855, 33.4084],
          [74.66855, 33.409],
          [74.66855, 33.40961],
          [74.66877, 33.41027],
          [74.66877, 33.41027],
          [74.66877, 33.41027],
          [74.66961, 33.41133],
          [74.67053, 33.41224],
          [74.67054, 33.41225],
          [74.67147, 33.41318],
          [74.67179, 33.41372],
          [74.67184, 33.41379],
          [74.67212, 33.41425],
          [74.67249, 33.41798],
          [74.67249, 33.41968],
          [74.67098, 33.42158],
          [74.67013, 33.42244],
          [74.66998, 33.42259],
          [74.66978, 33.42284],
          [74.66902, 33.4238],
          [74.66829, 33.42494],
          [74.66842, 33.42584],
          [74.6685, 33.42647],
          [74.66899, 33.42804],
          [74.669, 33.42826],
          [74.66903, 33.42887],
          [74.66879, 33.43043],
          [74.66838, 33.43227],
          [74.66661, 33.43464],
          [74.66539, 33.43525],
          [74.66184, 33.43531],
          [74.65966, 33.43701],
          [74.6574, 33.43945],
          [74.65705, 33.44004],
          [74.65642, 33.44115],
          [74.65501, 33.44115],
          [74.65141, 33.44037],
          [74.64842, 33.43962],
          [74.64656, 33.43868],
          [74.64595, 33.4384],
          [74.64526, 33.43858],
          [74.64288, 33.43983],
          [74.63957, 33.44045],
          [74.63743, 33.44013],
          [74.63627, 33.44002],
          [74.63618, 33.44002],
          [74.63618, 33.44002],
          [74.63618, 33.44002],
          [74.63405, 33.44075],
          [74.63221, 33.4423],
          [74.63007, 33.44273],
          [74.62742, 33.44316],
          [74.62507, 33.44353],
          [74.62331, 33.4431],
          [74.62102, 33.44254],
          [74.61947, 33.44236],
          [74.61878, 33.44317],
          [74.61873, 33.44323],
          [74.6186, 33.4436],
          [74.61785, 33.44569],
          [74.61785, 33.44661],
          [74.61785, 33.44698],
          [74.61785, 33.44699],
          [74.61881, 33.44829],
          [74.6191, 33.44915],
          [74.61843, 33.44964],
          [74.61697, 33.44983],
          [74.6138, 33.45014],
          [74.61284, 33.45013],
          [74.61113, 33.4507],
          [74.6105, 33.45125],
          [74.60949, 33.45182],
          [74.60825, 33.45264],
          [74.60772, 33.45336],
          [74.60712, 33.45463],
          [74.60683, 33.45545],
          [74.60561, 33.45713],
          [74.60411, 33.45866],
          [74.60314, 33.4593],
          [74.60218, 33.45994],
          [74.60193, 33.46041],
          [74.60248, 33.46143],
          [74.60267, 33.46179],
          [74.60276, 33.46198],
          [74.60306, 33.46263],
          [74.6031, 33.46347],
          [74.6031, 33.4636],
          [74.60312, 33.46426],
          [74.60314, 33.46519],
          [74.60314, 33.46581],
          [74.60354, 33.46603],
          [74.60362, 33.46608],
          [74.60532, 33.46617],
          [74.60699, 33.46604],
          [74.61035, 33.46573],
          [74.61446, 33.46526],
          [74.61577, 33.46485],
          [74.61599, 33.46485],
          [74.6164, 33.46485],
          [74.61852, 33.46408],
          [74.61915, 33.46383],
          [74.61963, 33.46383],
          [74.62011, 33.46407],
          [74.62078, 33.46481],
          [74.62113, 33.46567],
          [74.6216, 33.46627],
          [74.62179, 33.46651],
          [74.62208, 33.46688],
          [74.62291, 33.46706],
          [74.62442, 33.46664],
          [74.62669, 33.46616],
          [74.62758, 33.46604],
          [74.62801, 33.46631],
          [74.62812, 33.46638],
          [74.62825, 33.46653],
          [74.62888, 33.46719],
          [74.62957, 33.46786],
          [74.62989, 33.46817],
          [74.63013, 33.46894],
          [74.63028, 33.46943],
          [74.63026, 33.4696],
          [74.63019, 33.47017],
          [74.63009, 33.47092],
          [74.62934, 33.47223],
          [74.62858, 33.47354],
          [74.62862, 33.47418],
          [74.62905, 33.47564],
          [74.62943, 33.47659],
          [74.62967, 33.4772],
          [74.63026, 33.47786],
          [74.63028, 33.47788],
          [74.63028, 33.47788],
          [74.63029, 33.47788],
          [74.63249, 33.47823],
          [74.63319, 33.47835],
          [74.63351, 33.4784],
          [74.63377, 33.47855],
          [74.63428, 33.47883],
          [74.63516, 33.47954],
          [74.63577, 33.48004],
          [74.63578, 33.4814],
          [74.63519, 33.48256],
          [74.63519, 33.48256],
          [74.63519, 33.48256],
          [74.63516, 33.48271],
          [74.63498, 33.48351],
          [74.63551, 33.48548],
          [74.63556, 33.48589],
          [74.63563, 33.48651],
          [74.63497, 33.48718],
          [74.63449, 33.48767],
          [74.63406, 33.48803],
          [74.63386, 33.48821],
          [74.63362, 33.48833],
          [74.63229, 33.48898],
          [74.63073, 33.48974],
          [74.63017, 33.49025],
          [74.63017, 33.49025],
          [74.63017, 33.49025],
          [74.62995, 33.49153],
          [74.62994, 33.49161],
          [74.62951, 33.49338],
          [74.62909, 33.49514],
          [74.62808, 33.49654],
          [74.62708, 33.49796],
          [74.62708, 33.49796],
          [74.62715, 33.49786],
          [74.62782, 33.4978],
          [74.62783, 33.49792],
          [74.62796, 33.49813],
          [74.62861, 33.49873],
          [74.62924, 33.49917],
          [74.62986, 33.49958],
          [74.63048, 33.5],
          [74.63072, 33.50021],
          [74.63087, 33.50061],
          [74.63123, 33.50164],
          [74.63163, 33.50143],
          [74.63223, 33.50112],
          [74.63297, 33.50104],
          [74.63389, 33.5013],
          [74.63467, 33.5015],
          [74.63628, 33.5018],
          [74.6371, 33.50191],
          [74.6384, 33.50193],
          [74.63928, 33.50195],
          [74.63991, 33.50201],
          [74.64081, 33.50247],
          [74.64149, 33.50297],
          [74.64201, 33.50337],
          [74.64207, 33.50373],
          [74.64227, 33.50494],
          [74.64229, 33.50604],
          [74.64229, 33.50666],
          [74.64219, 33.50702],
          [74.64192, 33.5075],
          [74.64208, 33.50826],
          [74.64225, 33.50894],
          [74.64369, 33.50893],
          [74.64476, 33.50931],
          [74.64553, 33.5099],
          [74.64675, 33.51174],
          [74.64715, 33.51251],
          [74.64776, 33.51327],
          [74.64857, 33.51408],
          [74.64941, 33.51469],
          [74.64975, 33.51501],
          [74.65028, 33.5145],
          [74.65094, 33.51379],
          [74.65138, 33.51306],
          [74.65205, 33.51188],
          [74.65244, 33.51105],
          [74.6527, 33.51038],
          [74.65272, 33.50992],
          [74.65251, 33.50942],
          [74.65246, 33.50919],
          [74.65251, 33.509],
          [74.65285, 33.50886],
          [74.65361, 33.50861],
          [74.6545, 33.50821],
          [74.65504, 33.50779],
          [74.65526, 33.50721],
          [74.65553, 33.50634],
          [74.6559, 33.50615],
          [74.65612, 33.50586],
          [74.65632, 33.50563],
          [74.65664, 33.50573],
          [74.65791, 33.50615],
          [74.65891, 33.50638],
          [74.65979, 33.50646],
          [74.66146, 33.50633],
          [74.66364, 33.50633],
          [74.66472, 33.5063],
          [74.66574, 33.50628],
          [74.66626, 33.50605],
          [74.66719, 33.50594],
          [74.66821, 33.50578],
          [74.66946, 33.50595],
          [74.67022, 33.50621],
          [74.6706, 33.50621],
          [74.67119, 33.50599],
          [74.67169, 33.50576],
          [74.67225, 33.50553],
          [74.67266, 33.50536],
          [74.67363, 33.50505],
          [74.67526, 33.50489],
          [74.6759, 33.50489],
          [74.67655, 33.5049],
          [74.67781, 33.50493],
          [74.67889, 33.50491],
          [74.67992, 33.50492],
          [74.68086, 33.50535],
          [74.68133, 33.50626],
          [74.6819, 33.5072],
          [74.68262, 33.50831],
          [74.68275, 33.50923],
          [74.683, 33.51023],
          [74.68346, 33.51105],
          [74.68333, 33.5121],
          [74.6832, 33.51308],
          [74.6835, 33.51406],
          [74.6838, 33.51439],
          [74.68555, 33.51505],
          [74.68724, 33.5155],
          [74.68898, 33.51613],
          [74.69035, 33.5174],
          [74.69147, 33.51862],
          [74.69216, 33.51938],
          [74.69293, 33.52025],
          [74.69374, 33.52098],
          [74.69499, 33.52107],
          [74.69618, 33.52116],
          [74.69813, 33.52209],
          [74.70005, 33.52319],
          [74.70137, 33.52385],
          [74.70207, 33.52415],
          [74.70309, 33.52473],
          [74.70376, 33.52545],
          [74.70415, 33.52576],
          [74.70491, 33.5254],
          [74.70603, 33.5253],
          [74.70752, 33.52552],
          [74.70934, 33.52595],
          [74.70968, 33.52554],
          [74.71074, 33.52477],
          [74.71152, 33.52429],
          [74.71251, 33.52377],
          [74.71346, 33.52317],
          [74.71409, 33.5227],
          [74.71448, 33.52235],
          [74.71518, 33.52123],
          [74.71576, 33.5206],
          [74.71671, 33.51975],
          [74.71766, 33.51898],
          [74.71877, 33.51815],
          [74.71974, 33.51746],
          [74.72034, 33.51721],
          [74.72147, 33.51708],
          [74.72233, 33.51675],
          [74.72274, 33.51662],
          [74.72309, 33.51637],
          [74.72413, 33.51618],
          [74.72495, 33.51584],
          [74.72541, 33.51539],
          [74.72681, 33.51464],
          [74.72801, 33.51414],
          [74.72852, 33.51395],
          [74.73008, 33.5138],
          [74.73033, 33.51374],
          [74.73133, 33.51292],
          [74.73273, 33.51156],
          [74.73262, 33.51107],
          [74.73251, 33.50951],
          [74.73283, 33.50919],
          [74.73331, 33.50873],
          [74.73377, 33.50785],
          [74.73426, 33.50693],
          [74.73463, 33.50648],
          [74.7366, 33.50615],
          [74.73875, 33.50615],
          [74.73939, 33.50613],
          [74.73978, 33.50588],
          [74.74071, 33.50472],
          [74.74204, 33.50352],
          [74.74321, 33.50273],
          [74.74393, 33.50227],
          [74.74472, 33.50174],
          [74.74564, 33.50127],
          [74.74651, 33.5002],
          [74.74656, 33.5],
          [74.74806, 33.49864],
          [74.74913, 33.49722],
          [74.75, 33.49665],
          [74.75075, 33.49615],
          [74.75162, 33.49555],
          [74.75236, 33.49495],
          [74.75317, 33.49445],
          [74.75409, 33.49413],
          [74.75514, 33.4938],
          [74.75573, 33.49362],
          [74.75615, 33.49344],
          [74.75638, 33.49322],
          [74.75678, 33.49268],
          [74.75724, 33.49241],
          [74.75805, 33.4918],
          [74.75843, 33.49141],
          [74.75866, 33.49095],
          [74.75867, 33.49082],
          [74.7587, 33.49077],
          [74.75873, 33.49073],
          [74.75873, 33.49072],
          [74.75902, 33.49069],
          [74.76044, 33.49064],
          [74.76214, 33.49059],
          [74.7629, 33.49044],
          [74.76382, 33.48994],
          [74.76498, 33.48938],
          [74.766, 33.48906],
          [74.76661, 33.48894],
          [74.76704, 33.48882],
          [74.76952, 33.48819],
          [74.77037, 33.48786],
          [74.77114, 33.48769],
          [74.77186, 33.48768],
          [74.77276, 33.48781],
          [74.77453, 33.48826],
          [74.77568, 33.48861],
          [74.77671, 33.48918],
          [74.77816, 33.4899],
          [74.7796, 33.49021],
          [74.78017, 33.49028],
          [74.78068, 33.49021],
          [74.78115, 33.49008],
          [74.78171, 33.48991],
          [74.78248, 33.48977],
          [74.78324, 33.48956],
          [74.78432, 33.48943],
          [74.78555, 33.48939],
          [74.78596, 33.48933],
          [74.78648, 33.48909],
          [74.78745, 33.48853],
          [74.78843, 33.48788],
          [74.78932, 33.48712],
          [74.79008, 33.48652],
          [74.79204, 33.48511],
          [74.79319, 33.48401],
          [74.79417, 33.48282],
          [74.79439, 33.48244],
          [74.79439, 33.48221],
          [74.79449, 33.48186],
          [74.79453, 33.48165],
          [74.79455, 33.48159],
          [74.79467, 33.48147],
          [74.79496, 33.48126],
          [74.79527, 33.48096],
          [74.79543, 33.48065],
          [74.79549, 33.48035],
          [74.79556, 33.48018],
          [74.79556, 33.47998],
          [74.79516, 33.47938],
          [74.79488, 33.47901],
          [74.79478, 33.47876],
          [74.79457, 33.47848],
          [74.79407, 33.47824],
          [74.79274, 33.47786],
          [74.79197, 33.47761],
          [74.79166, 33.47744],
          [74.79132, 33.477],
          [74.79086, 33.47616],
          [74.79003, 33.47506],
          [74.78951, 33.47443],
          [74.78906, 33.47401],
          [74.78893, 33.4738],
          [74.78893, 33.47369],
          [74.789, 33.47362],
          [74.78953, 33.47332],
          [74.79041, 33.47261],
          [74.7913, 33.47198],
          [74.79191, 33.47133],
          [74.79213, 33.47105],
          [74.79307, 33.46998],
          [74.79359, 33.46938],
          [74.79419, 33.46889],
          [74.79446, 33.46868],
          [74.79481, 33.46852],
          [74.79524, 33.46825],
          [74.79571, 33.46797],
          [74.79603, 33.46792],
          [74.79645, 33.4679],
          [74.79724, 33.46801],
          [74.7988, 33.4681],
          [74.79946, 33.46821],
          [74.79977, 33.46821],
          [74.80153, 33.4683],
          [74.80209, 33.46854],
          [74.80285, 33.46906],
          [74.8041, 33.46976],
          [74.80509, 33.47012],
          [74.81055, 33.46981],
          [74.81377, 33.47081],
          [74.81431, 33.47081],
          [74.81924, 33.46905],
          [74.81954, 33.46889],
          [74.82381, 33.46867],
          [74.82567, 33.46792],
          [74.82658, 33.46784],
          [74.8276, 33.46784],
          [74.82904, 33.46785],
          [74.83079, 33.46797],
          [74.83101, 33.468],
          [74.83137, 33.46808],
          [74.83231, 33.46851],
          [74.83265, 33.46883],
          [74.83289, 33.46905],
          [74.83298, 33.46928],
          [74.83317, 33.46995],
          [74.83339, 33.47042],
          [74.83405, 33.47144],
          [74.83454, 33.47215],
          [74.8346, 33.47221],
          [74.83475, 33.47238],
          [74.8353, 33.47275],
          [74.83549, 33.47293],
          [74.83624, 33.47364],
          [74.83681, 33.47425],
          [74.83689, 33.47442],
          [74.83699, 33.4753],
          [74.83712, 33.47547],
          [74.83796, 33.47681],
          [74.83821, 33.47776],
          [74.83826, 33.47805],
          [74.83837, 33.4786],
          [74.83846, 33.47873],
          [74.83848, 33.47875],
          [74.83857, 33.4788],
          [74.83867, 33.4787],
          [74.83899, 33.4784],
          [74.83963, 33.47798],
          [74.84025, 33.4776],
          [74.8413, 33.47704],
          [74.84221, 33.4766],
          [74.84277, 33.47637],
          [74.84313, 33.4763],
          [74.84375, 33.47621],
          [74.8448, 33.47632],
          [74.84541, 33.47656],
          [74.84576, 33.47667],
          [74.8469, 33.47666],
          [74.84791, 33.47652],
          [74.84871, 33.47636],
          [74.84901, 33.47632],
          [74.84967, 33.47642],
          [74.85005, 33.47646],
          [74.85034, 33.47652],
          [74.85078, 33.47648],
          [74.85132, 33.47623],
          [74.85218, 33.47586],
          [74.8527, 33.47568],
          [74.85407, 33.47535],
          [74.8553, 33.47497],
          [74.85611, 33.47463],
          [74.85695, 33.47455],
          [74.85755, 33.47455],
          [74.85837, 33.47457],
          [74.85872, 33.47465],
          [74.85892, 33.47492],
          [74.85909, 33.47552],
          [74.85964, 33.47591],
          [74.86084, 33.47658],
          [74.86184, 33.47709],
          [74.86292, 33.47809],
          [74.86333, 33.47896],
          [74.86374, 33.47964],
          [74.86393, 33.47988],
          [74.86443, 33.48053],
          [74.86469, 33.48135],
          [74.86461, 33.48219],
          [74.86459, 33.48226],
          [74.86438, 33.48347],
          [74.86438, 33.48404],
          [74.86441, 33.48411],
          [74.86453, 33.48421],
          [74.86493, 33.48423],
          [74.86563, 33.48425],
          [74.86651, 33.48428],
          [74.86815, 33.48428],
          [74.86901, 33.48421],
          [74.86937, 33.4842],
          [74.87004, 33.48428],
          [74.87038, 33.48447],
          [74.87083, 33.48475],
          [74.87096, 33.48483],
          [74.87178, 33.48528],
          [74.87246, 33.48562],
          [74.87295, 33.48581],
          [74.87337, 33.48602],
          [74.87354, 33.48604],
          [74.87369, 33.48605],
          [74.87392, 33.48598],
          [74.87425, 33.48582],
          [74.875, 33.4855],
          [74.87603, 33.48533],
          [74.87708, 33.48525],
          [74.87753, 33.48503],
          [74.8785, 33.48436],
          [74.87913, 33.48385],
          [74.87974, 33.48345],
          [74.8807, 33.48322],
          [74.88123, 33.48313],
          [74.88197, 33.48319],
          [74.88269, 33.48335],
          [74.88309, 33.48339],
          [74.88399, 33.48335],
          [74.88443, 33.48336],
          [74.88484, 33.48352],
          [74.88511, 33.48359],
          [74.88543, 33.48358],
          [74.88617, 33.48343],
          [74.88675, 33.4834],
          [74.88723, 33.48333],
          [74.8878, 33.4832],
          [74.88856, 33.48301],
          [74.88888, 33.48286],
          [74.88957, 33.48289],
          [74.89048, 33.48275],
          [74.89112, 33.48255],
          [74.89117, 33.48253],
          [74.89145, 33.48247],
          [74.89243, 33.48269],
          [74.89296, 33.48299],
          [74.89366, 33.48363],
          [74.89398, 33.48405],
          [74.89425, 33.48428],
          [74.89439, 33.48432],
          [74.89457, 33.48432],
          [74.89497, 33.48427],
          [74.8955, 33.4842],
          [74.89608, 33.48416],
          [74.89669, 33.48424],
          [74.89718, 33.4844],
          [74.89809, 33.48517],
          [74.89842, 33.4856],
          [74.89845, 33.48662],
          [74.8984, 33.48726],
          [74.89845, 33.48749],
          [74.89863, 33.48775],
          [74.89901, 33.48802],
          [74.89927, 33.48811],
          [74.89999, 33.48834],
          [74.90111, 33.4885],
          [74.90179, 33.4888],
          [74.90219, 33.48905],
          [74.90266, 33.48966],
          [74.90268, 33.49019],
          [74.90264, 33.4906],
          [74.90268, 33.49103],
          [74.90278, 33.49138],
          [74.90294, 33.49163],
          [74.90355, 33.49212],
          [74.90454, 33.49258],
          [74.90534, 33.49301],
          [74.90555, 33.49309],
          [74.9063, 33.49315],
          [74.9073, 33.49306],
          [74.90778, 33.49303],
          [74.90831, 33.49289],
          [74.9091, 33.4927],
          [74.9104, 33.49217],
          [74.91098, 33.49202],
          [74.91165, 33.4921],
          [74.9125, 33.49268],
          [74.91263, 33.49308],
          [74.91295, 33.49384],
          [74.91296, 33.49479],
          [74.91332, 33.49563],
          [74.91409, 33.49654],
          [74.9146, 33.4972],
          [74.91571, 33.49847],
          [74.91625, 33.49885],
          [74.91684, 33.49902],
          [74.91718, 33.49903],
          [74.91826, 33.49882],
          [74.91922, 33.49875],
          [74.92092, 33.49909],
          [74.9213, 33.49916],
          [74.92153, 33.49916],
          [74.92178, 33.499],
          [74.92229, 33.49873],
          [74.9233, 33.49837],
          [74.92389, 33.49821],
          [74.92435, 33.49815],
          [74.92502, 33.49794],
          [74.9262, 33.49778],
          [74.92743, 33.49755],
          [74.92822, 33.49741],
          [74.92912, 33.49716],
          [74.92984, 33.49696],
          [74.93055, 33.49648],
          [74.93134, 33.49587],
          [74.93215, 33.49555],
          [74.93289, 33.49498],
          [74.93362, 33.49471],
          [74.93393, 33.49462],
          [74.93501, 33.49437],
          [74.93607, 33.49415],
          [74.93715, 33.49396],
          [74.93879, 33.4931],
          [74.9391, 33.493],
          [74.93994, 33.493],
          [74.94059, 33.49316],
          [74.94154, 33.49369],
          [74.94202, 33.49402],
          [74.94302, 33.49458],
          [74.94366, 33.49484],
          [74.94462, 33.49517],
          [74.9448, 33.49528],
          [74.94508, 33.49554],
          [74.94552, 33.49595],
          [74.94669, 33.49658],
          [74.94802, 33.49706],
          [74.94831, 33.49731],
          [74.94876, 33.49771],
          [74.94914, 33.49799],
          [74.94966, 33.49808],
          [74.95056, 33.49808],
          [74.95158, 33.49789],
          [74.9525, 33.49787],
          [74.95252, 33.50629],
          [74.95266, 33.50976],
          [74.95418, 33.51173],
          [74.95421, 33.51187],
          [74.95459, 33.51335],
          [74.95597, 33.51335],
          [74.95818, 33.51405],
          [74.96136, 33.51405],
          [74.96384, 33.51359],
          [74.96591, 33.51498],
          [74.96771, 33.51509],
          [74.97489, 33.51451],
          [74.98028, 33.5144],
          [74.98414, 33.51452],
          [74.9876, 33.51359],
          [74.99243, 33.51347],
          [74.99367, 33.50896],
          [74.99643, 33.5085],
          [74.99906, 33.50688],
          [75.00458, 33.50549],
          [75.00582, 33.50641],
          [75.00831, 33.51058],
          [75.01121, 33.51151],
          [75.01328, 33.51116],
          [75.01439, 33.5122],
          [75.02184, 33.50525],
          [75.02386, 33.50403],
          [75.02386, 33.50403],
          [75.02364, 33.50389],
          [75.02364, 33.50389],
          [75.02359, 33.50386],
          [75.0213, 33.50242],
          [75.0179, 33.49752],
          [75.01646, 33.49276],
          [75.01485, 33.48515],
          [75.01639, 33.47925],
          [75.01642, 33.47923],
          [75.01951, 33.47644],
          [75.02181, 33.47191],
          [75.02176, 33.46891],
          [75.02141, 33.46796],
          [75.02145, 33.46734],
          [75.02168, 33.4662],
          [75.02193, 33.46436],
          [75.02175, 33.46333],
          [75.02172, 33.46251],
          [75.02193, 33.46149],
          [75.02208, 33.46081],
          [75.02324, 33.4597],
          [75.02347, 33.45922],
          [75.02353, 33.45864],
          [75.02334, 33.45746],
          [75.02351, 33.45657],
          [75.02438, 33.45542],
          [75.02606, 33.45401],
          [75.02829, 33.45303],
          [75.03029, 33.45215],
          [75.03101, 33.45173],
          [75.03143, 33.45105],
          [75.03169, 33.44994],
          [75.03201, 33.44895],
          [75.03282, 33.44771],
          [75.03403, 33.4463],
          [75.03554, 33.4441],
          [75.03623, 33.44286],
          [75.03625, 33.44231],
          [75.03593, 33.44129],
          [75.03552, 33.44064],
          [75.03493, 33.43997],
          [75.03375, 33.43921],
          [75.03286, 33.43866],
          [75.03171, 33.43867],
          [75.0304, 33.43868],
          [75.02966, 33.4386],
          [75.02919, 33.43817],
          [75.02914, 33.43714],
          [75.02882, 33.43648],
          [75.02797, 33.43535],
          [75.02727, 33.43447],
          [75.02687, 33.43382],
          [75.02613, 33.43314],
          [75.02511, 33.43261],
          [75.02392, 33.43236],
          [75.02309, 33.43228],
          [75.02259, 33.43209],
          [75.0219, 33.43142],
          [75.02127, 33.43026],
          [75.02096, 33.42965],
          [75.02051, 33.42898],
          [75.01983, 33.42835],
          [75.01906, 33.42772],
          [75.01826, 33.42737],
          [75.01746, 33.42682],
          [75.01685, 33.42561],
          [75.01631, 33.42497],
          [75.01563, 33.42433],
          [75.01414, 33.42313],
          [75.01284, 33.42211],
          [75.01203, 33.42132],
          [75.01134, 33.42046],
          [75.01092, 33.41973],
          [75.01045, 33.41801],
          [75.01033, 33.4176],
          [75.01071, 33.41713],
          [75.01107, 33.41671],
          [75.01183, 33.41525],
          [75.01216, 33.41424],
          [75.01233, 33.41272],
          [75.01233, 33.41271],
          [75.01234, 33.41271],
          [75.01191, 33.41196],
          [75.01189, 33.41146],
          [75.01236, 33.41078],
          [75.01297, 33.41025],
          [75.01308, 33.40991],
          [75.0132, 33.40958],
          [75.01323, 33.40945],
          [75.0137, 33.40802],
          [75.0148, 33.40714],
          [75.0162, 33.40622],
          [75.0176, 33.4053],
          [75.01846, 33.40463],
          [75.01897, 33.40412],
          [75.01944, 33.40351],
          [75.0198, 33.4027],
          [75.01994, 33.40177],
          [75.02027, 33.40128],
          [75.02115, 33.40083],
          [75.02199, 33.40053],
          [75.02269, 33.40028],
          [75.02381, 33.40001],
          [75.02449, 33.39987],
          [75.0246, 33.39934],
          [75.02502, 33.39867],
          [75.02549, 33.39772],
          [75.02577, 33.39689],
          [75.02626, 33.39623],
          [75.02774, 33.39532],
          [75.02827, 33.39504],
          [75.0305, 33.39436],
          [75.03098, 33.39425],
          [75.03136, 33.3937],
          [75.03148, 33.39281],
          [75.03171, 33.39114],
          [75.03199, 33.39032],
          [75.03297, 33.38878],
          [75.03335, 33.38782],
          [75.03431, 33.38553],
          [75.03484, 33.38495],
          [75.03589, 33.38422],
          [75.03662, 33.3839],
          [75.0376, 33.38316],
          [75.03818, 33.38256],
          [75.03873, 33.38181],
          [75.03952, 33.38099],
          [75.03985, 33.38067],
          [75.04038, 33.38019],
          [75.04103, 33.37968],
          [75.04169, 33.37917],
          [75.04225, 33.37851],
          [75.04242, 33.37831],
          [75.04281, 33.37784],
          [75.04354, 33.3769],
          [75.04397, 33.37635],
          [75.04449, 33.37567],
          [75.04462, 33.3748],
          [75.04462, 33.37477],
          [75.04462, 33.37475],
          [75.04461, 33.37362],
          [75.04451, 33.37297],
          [75.04406, 33.37232],
          [75.04446, 33.37183],
          [75.04559, 33.37071],
          [75.04264, 33.36809],
          [75.03858, 33.36645],
          [75.03452, 33.36482],
          [75.03244, 33.36386],
          [75.03158, 33.36347],
          [75.02322, 33.35975],
          [75.0195, 33.35797],
          [75.01679, 33.35583],
          [75.01409, 33.35368],
          [75.01139, 33.35011],
          [75.00832, 33.3467],
          [75.00444, 33.3437],
          [75, 33.34123],
          [74.99765, 33.33995],
          [74.99369, 33.33723],
          [74.99102, 33.33405],
          [74.9895, 33.33225],
          [74.98647, 33.3263],
          [74.98647, 33.3263],
          [74.98591, 33.32611],
          [74.98447, 33.32561],
          [74.98233, 33.32504],
          [74.98029, 33.32449],
          [74.97825, 33.32393],
          [74.9769, 33.32389],
          [74.97431, 33.32372],
          [74.97293, 33.32232],
          [74.97156, 33.32093],
          [74.96988, 33.31815],
          [74.96885, 33.31515],
          [74.96828, 33.31429],
          [74.96772, 33.31342],
          [74.96658, 33.3117],
          [74.96544, 33.30997],
          [74.96522, 33.30759],
          [74.96489, 33.30618],
          [74.96456, 33.30477],
          [74.96427, 33.30395],
          [74.96398, 33.30313],
          [74.9637, 33.30274],
          [74.9625, 33.30107],
          [74.96129, 33.29939],
          [74.9599, 33.29731],
          [74.95976, 33.29707],
          [74.95797, 33.29381],
          [74.96033, 33.29034],
          [74.96202, 33.28759],
          [74.96318, 33.28554],
          [74.96434, 33.28348],
          [74.96512, 33.28112],
          [74.96575, 33.27908],
          [74.96636, 33.27708],
          [74.96638, 33.27703],
          [74.96638, 33.27703],
          [74.96756, 33.27436],
          [74.96861, 33.27197],
          [74.96896, 33.27126],
          [74.9691, 33.27101],
          [74.97112, 33.26734],
          [74.9735, 33.26301],
          [74.97134, 33.26166],
          [74.96837, 33.25966],
          [74.96539, 33.25766],
          [74.96538, 33.2565],
          [74.96537, 33.25534],
          [74.96652, 33.25326],
          [74.96767, 33.25118],
          [74.96931, 33.24988],
          [74.97095, 33.24859],
          [74.97161, 33.24582],
          [74.97161, 33.24582],
          [74.97136, 33.24442],
          [74.97136, 33.24442],
          [74.97174, 33.24316],
          [74.97211, 33.24191],
          [74.9722, 33.24022],
          [74.97228, 33.23853],
          [74.97077, 33.23743],
          [74.96926, 33.23633],
          [74.9682, 33.23562],
          [74.96641, 33.23444],
          [74.96356, 33.23255],
          [74.96334, 33.23167],
          [74.9632, 33.23106]
        ]
      ]
    ]
  }
}
