{
  "type": "Feature",
  "id": "JK-AC-69",
  "properties": {
    "stateName": "JAMMU & KASHMIR",
    "stateCode": "JK",
    "districtName": "SAMBA",
    "acNo": 69,
    "acName": "RAMGARH (SC)",
    "seatType": null,
    "pcNo": null,
    "pcName": null,
    "quality": "unverified",
    "sources": [
      "TBD"
    ]
  },
  "geometry": {
    "type": "MultiPolygon",
    "coordinates": [
      [
        [
          [74.98615, 32.57911],
          [74.98646, 32.5788],
          [74.98705, 32.57822],
          [74.9877, 32.57757],
          [74.9882, 32.5763],
          [74.98974, 32.57553],
          [74.99265, 32.57522],
          [74.99278, 32.57524],
          [74.99464, 32.57502],
          [74.9952, 32.57496],
          [74.9963, 32.57406],
          [74.99668, 32.5735],
          [74.99699, 32.57328],
          [74.99704, 32.57305],
          [74.99722, 32.57215],
          [74.99801, 32.57044],
          [74.99851, 32.56968],
          [74.99788, 32.56968],
          [74.99713, 32.56958],
          [74.99638, 32.56948],
          [74.99504, 32.56893],
          [74.99371, 32.56839],
          [74.99241, 32.56777],
          [74.9911, 32.56716],
          [74.98985, 32.56657],
          [74.98854, 32.56577],
          [74.98693, 32.56438],
          [74.98496, 32.56315],
          [74.98321, 32.56214],
          [74.98223, 32.56165],
          [74.98038, 32.56047],
          [74.97911, 32.55955],
          [74.97739, 32.55863],
          [74.97616, 32.55722],
          [74.97611, 32.55179],
          [74.97608, 32.54892],
          [74.97542, 32.5479],
          [74.97462, 32.54706],
          [74.97424, 32.54667],
          [74.97391, 32.54633],
          [74.97326, 32.54587],
          [74.97261, 32.54542],
          [74.9707, 32.54411],
          [74.96992, 32.54339],
          [74.96914, 32.54268],
          [74.96838, 32.54211],
          [74.96764, 32.54153],
          [74.96881, 32.54037],
          [74.9711, 32.53878],
          [74.9711, 32.53878],
          [74.97111, 32.53877],
          [74.97112, 32.53877],
          [74.97114, 32.53875],
          [74.97116, 32.53874],
          [74.97118, 32.53872],
          [74.97121, 32.53871],
          [74.97124, 32.53869],
          [74.97127, 32.53866],
          [74.97131, 32.53864],
          [74.97134, 32.53861],
          [74.97139, 32.53858],
          [74.97143, 32.53855],
          [74.97148, 32.53852],
          [74.97153, 32.53848],
          [74.97158, 32.53845],
          [74.97163, 32.53841],
          [74.97168, 32.53838],
          [74.97174, 32.53834],
          [74.97179, 32.5383],
          [74.97185, 32.53826],
          [74.97191, 32.53822],
          [74.97197, 32.53818],
          [74.97202, 32.53814],
          [74.97208, 32.5381],
          [74.97214, 32.53806],
          [74.9722, 32.53801],
          [74.97226, 32.53797],
          [74.97232, 32.53793],
          [74.97237, 32.53789],
          [74.97243, 32.53786],
          [74.97249, 32.53782],
          [74.97254, 32.53778],
          [74.97259, 32.53774],
          [74.97264, 32.53771],
          [74.97269, 32.53767],
          [74.97274, 32.53764],
          [74.97278, 32.53761],
          [74.97282, 32.53758],
          [74.97286, 32.53756],
          [74.9729, 32.53753],
          [74.97293, 32.53751],
          [74.97296, 32.53749],
          [74.97299, 32.53747],
          [74.97301, 32.53745],
          [74.97306, 32.53741],
          [74.97307, 32.53741],
          [74.97307, 32.53741],
          [74.97308, 32.5374],
          [74.97309, 32.5374],
          [74.9731, 32.53739],
          [74.97312, 32.53738],
          [74.97313, 32.53737],
          [74.97315, 32.53736],
          [74.97316, 32.53735],
          [74.97318, 32.53734],
          [74.9732, 32.53733],
          [74.97322, 32.53732],
          [74.97324, 32.5373],
          [74.97327, 32.53729],
          [74.97329, 32.53727],
          [74.97332, 32.53726],
          [74.97334, 32.53724],
          [74.97337, 32.53723],
          [74.97339, 32.53721],
          [74.97342, 32.53719],
          [74.97345, 32.53718],
          [74.97348, 32.53716],
          [74.9735, 32.53714],
          [74.97353, 32.53712],
          [74.97356, 32.53711],
          [74.97359, 32.53709],
          [74.97362, 32.53707],
          [74.97364, 32.53705],
          [74.97367, 32.53704],
          [74.9737, 32.53702],
          [74.97372, 32.53701],
          [74.97375, 32.53699],
          [74.97377, 32.53697],
          [74.9738, 32.53696],
          [74.97382, 32.53695],
          [74.97384, 32.53693],
          [74.97386, 32.53692],
          [74.97388, 32.53691],
          [74.9739, 32.53689],
          [74.97392, 32.53688],
          [74.97393, 32.53687],
          [74.97395, 32.53687],
          [74.97396, 32.53686],
          [74.97397, 32.53685],
          [74.97398, 32.53685],
          [74.97399, 32.53684],
          [74.97399, 32.53684],
          [74.974, 32.53684],
          [74.974, 32.53683],
          [74.97542, 32.53599],
          [74.97707, 32.53511],
          [74.97872, 32.53558],
          [74.97946, 32.53608],
          [74.9799, 32.5365],
          [74.98033, 32.53691],
          [74.98101, 32.53738],
          [74.98115, 32.53761],
          [74.98142, 32.53819],
          [74.98194, 32.5385],
          [74.98246, 32.5388],
          [74.98311, 32.53914],
          [74.98376, 32.53946],
          [74.985, 32.53967],
          [74.98628, 32.54014],
          [74.98739, 32.54039],
          [74.98845, 32.54078],
          [74.98997, 32.54148],
          [74.99162, 32.54228],
          [74.99334, 32.54281],
          [74.99736, 32.54298],
          [74.9991, 32.54291],
          [75.00014, 32.54283],
          [75.00014, 32.54283],
          [75.00015, 32.54283],
          [75.00016, 32.54283],
          [75.00017, 32.54283],
          [75.00019, 32.54282],
          [75.00021, 32.54282],
          [75.00024, 32.54281],
          [75.00026, 32.5428],
          [75.00029, 32.5428],
          [75.00032, 32.54279],
          [75.00036, 32.54278],
          [75.0004, 32.54277],
          [75.00044, 32.54276],
          [75.00048, 32.54275],
          [75.00052, 32.54274],
          [75.00057, 32.54272],
          [75.00061, 32.54271],
          [75.00066, 32.5427],
          [75.00071, 32.54269],
          [75.00076, 32.54267],
          [75.00081, 32.54266],
          [75.00087, 32.54265],
          [75.00092, 32.54263],
          [75.00097, 32.54262],
          [75.00102, 32.54261],
          [75.00108, 32.54259],
          [75.00113, 32.54258],
          [75.00118, 32.54257],
          [75.00123, 32.54255],
          [75.00128, 32.54254],
          [75.00133, 32.54253],
          [75.00138, 32.54251],
          [75.00143, 32.5425],
          [75.00148, 32.54249],
          [75.00152, 32.54248],
          [75.00157, 32.54246],
          [75.00161, 32.54245],
          [75.00165, 32.54244],
          [75.00169, 32.54243],
          [75.00172, 32.54242],
          [75.00175, 32.54242],
          [75.00178, 32.54241],
          [75.00181, 32.5424],
          [75.00184, 32.5424],
          [75.00186, 32.54239],
          [75.00187, 32.54239],
          [75.00191, 32.54238],
          [75.00191, 32.54238],
          [75.00192, 32.54237],
          [75.00193, 32.54237],
          [75.00194, 32.54237],
          [75.00196, 32.54236],
          [75.00198, 32.54236],
          [75.002, 32.54235],
          [75.00202, 32.54234],
          [75.00204, 32.54234],
          [75.00207, 32.54233],
          [75.0021, 32.54232],
          [75.00213, 32.54231],
          [75.00216, 32.5423],
          [75.00219, 32.54229],
          [75.00223, 32.54228],
          [75.00226, 32.54227],
          [75.0023, 32.54226],
          [75.00234, 32.54225],
          [75.00238, 32.54224],
          [75.00242, 32.54223],
          [75.00245, 32.54222],
          [75.00249, 32.54221],
          [75.00253, 32.54219],
          [75.00257, 32.54218],
          [75.00261, 32.54217],
          [75.00265, 32.54216],
          [75.00269, 32.54215],
          [75.00273, 32.54214],
          [75.00277, 32.54213],
          [75.00281, 32.54211],
          [75.00285, 32.5421],
          [75.00288, 32.54209],
          [75.00292, 32.54208],
          [75.00295, 32.54207],
          [75.00299, 32.54206],
          [75.00302, 32.54205],
          [75.00305, 32.54204],
          [75.00308, 32.54204],
          [75.0031, 32.54203],
          [75.00313, 32.54202],
          [75.00315, 32.54202],
          [75.00317, 32.54201],
          [75.00319, 32.542],
          [75.00321, 32.542],
          [75.00322, 32.542],
          [75.00323, 32.54199],
          [75.00324, 32.54199],
          [75.00324, 32.54199],
          [75.00324, 32.54199],
          [75.00401, 32.54176],
          [75.00417, 32.54172],
          [75.00495, 32.54098],
          [75.00573, 32.54023],
          [75.00751, 32.53853],
          [75.00763, 32.53833],
          [75.00929, 32.53701],
          [75.0114, 32.53597],
          [75.01215, 32.53568],
          [75.01289, 32.53538],
          [75.01334, 32.53533],
          [75.0139, 32.53526],
          [75.01491, 32.53514],
          [75.01604, 32.53498],
          [75.01604, 32.53498],
          [75.01514, 32.53421],
          [75.01376, 32.53258],
          [75.01193, 32.53111],
          [75.01193, 32.53111],
          [75.0111, 32.53015],
          [75.01044, 32.52938],
          [75.00824, 32.52809],
          [75.00824, 32.52809],
          [75.00769, 32.52782],
          [75.00769, 32.52782],
          [75.00691, 32.527],
          [75.00671, 32.52694],
          [75.00672, 32.52608],
          [75.00672, 32.52608],
          [75.00672, 32.52584],
          [75.00672, 32.52522],
          [75.00657, 32.52402],
          [75.00585, 32.52312],
          [75.00585, 32.52312],
          [75.00512, 32.52229],
          [75.00484, 32.52163],
          [75.00484, 32.52163],
          [75.005, 32.52028],
          [75.00515, 32.51894],
          [75.0054, 32.51794],
          [75.00563, 32.51694],
          [75.00606, 32.51657],
          [75.00649, 32.5162],
          [75.00707, 32.5159],
          [75.00765, 32.5156],
          [75.00807, 32.51519],
          [75.00818, 32.51481],
          [75.00828, 32.51444],
          [75.00844, 32.51429],
          [75.00859, 32.51413],
          [75.00883, 32.51428],
          [75.00906, 32.5144],
          [75.00936, 32.51457],
          [75.00963, 32.51485],
          [75.00989, 32.51514],
          [75.0108, 32.51553],
          [75.01171, 32.51593],
          [75.0125, 32.5163],
          [75.01298, 32.51652],
          [75.01328, 32.51666],
          [75.01385, 32.51677],
          [75.01385, 32.51677],
          [75.01441, 32.51688],
          [75.01455, 32.51698],
          [75.01485, 32.51719],
          [75.01527, 32.51749],
          [75.01666, 32.51785],
          [75.01666, 32.51785],
          [75.01743, 32.51803],
          [75.01821, 32.51821],
          [75.0192, 32.51866],
          [75.02021, 32.51898],
          [75.02075, 32.51855],
          [75.02083, 32.51831],
          [75.02083, 32.51831],
          [75.02086, 32.5183],
          [75.02088, 32.51829],
          [75.02092, 32.51828],
          [75.02097, 32.51826],
          [75.02102, 32.51824],
          [75.02109, 32.51821],
          [75.02116, 32.51818],
          [75.02124, 32.51815],
          [75.02132, 32.51811],
          [75.02142, 32.51808],
          [75.02152, 32.51804],
          [75.02162, 32.51799],
          [75.02174, 32.51795],
          [75.02185, 32.5179],
          [75.02197, 32.51785],
          [75.0221, 32.5178],
          [75.02223, 32.51775],
          [75.02236, 32.5177],
          [75.02249, 32.51764],
          [75.02263, 32.51759],
          [75.02277, 32.51753],
          [75.02291, 32.51748],
          [75.02305, 32.51742],
          [75.02319, 32.51736],
          [75.02333, 32.51731],
          [75.02347, 32.51725],
          [75.02361, 32.51719],
          [75.02375, 32.51714],
          [75.02388, 32.51708],
          [75.02402, 32.51703],
          [75.02415, 32.51698],
          [75.02428, 32.51692],
          [75.0244, 32.51687],
          [75.02452, 32.51682],
          [75.02464, 32.51678],
          [75.02475, 32.51673],
          [75.02485, 32.51669],
          [75.02554, 32.51642],
          [75.02799, 32.51528],
          [75.02971, 32.51509],
          [75.02971, 32.51509],
          [75.03172, 32.51465],
          [75.03418, 32.51464],
          [75.03604, 32.51389],
          [75.03835, 32.51212],
          [75.03956, 32.50939],
          [75.04087, 32.51132],
          [75.04087, 32.51132],
          [75.04126, 32.51177],
          [75.04309, 32.51353],
          [75.04309, 32.51353],
          [75.04342, 32.51379],
          [75.04455, 32.51463],
          [75.04692, 32.51601],
          [75.04692, 32.51601],
          [75.04777, 32.51628],
          [75.04902, 32.51639],
          [75.04916, 32.5164],
          [75.05114, 32.51651],
          [75.05309, 32.51625],
          [75.05381, 32.51575],
          [75.05426, 32.51518],
          [75.05483, 32.51578],
          [75.0563, 32.51659],
          [75.0563, 32.51659],
          [75.05725, 32.51722],
          [75.05812, 32.51791],
          [75.05911, 32.51889],
          [75.06009, 32.51987],
          [75.06043, 32.52046],
          [75.06094, 32.52137],
          [75.06208, 32.52295],
          [75.06208, 32.52295],
          [75.06256, 32.52355],
          [75.06397, 32.52394],
          [75.06576, 32.52378],
          [75.06701, 32.52453],
          [75.06808, 32.52517],
          [75.0697, 32.52553],
          [75.07022, 32.52565],
          [75.07295, 32.52731],
          [75.07434, 32.5283],
          [75.07567, 32.52807],
          [75.07699, 32.52784],
          [75.07927, 32.52737],
          [75.08104, 32.52691],
          [75.08281, 32.52644],
          [75.08425, 32.52642],
          [75.08569, 32.52641],
          [75.08664, 32.52645],
          [75.08634, 32.52568],
          [75.08613, 32.52519],
          [75.0878, 32.52505],
          [75.08884, 32.5247],
          [75.09078, 32.52496],
          [75.09133, 32.52508],
          [75.09266, 32.52536],
          [75.09491, 32.52722],
          [75.09496, 32.52739],
          [75.09506, 32.52771],
          [75.09543, 32.52797],
          [75.09716, 32.52811],
          [75.09829, 32.52927],
          [75.09943, 32.53043],
          [75.10171, 32.53262],
          [75.10341, 32.53426],
          [75.10294, 32.53608],
          [75.10291, 32.5362],
          [75.10291, 32.5362],
          [75.10288, 32.53628],
          [75.10288, 32.53628],
          [75.10307, 32.53621],
          [75.10342, 32.53666],
          [75.10397, 32.53737],
          [75.10397, 32.53737],
          [75.10398, 32.53738],
          [75.10398, 32.53738],
          [75.10399, 32.53739],
          [75.104, 32.5374],
          [75.10401, 32.53741],
          [75.10402, 32.53742],
          [75.10403, 32.53744],
          [75.10405, 32.53746],
          [75.10407, 32.53747],
          [75.10408, 32.53749],
          [75.1041, 32.53751],
          [75.10412, 32.53754],
          [75.10415, 32.53756],
          [75.10417, 32.53758],
          [75.10419, 32.53761],
          [75.10422, 32.53764],
          [75.10424, 32.53766],
          [75.10427, 32.53769],
          [75.10429, 32.53772],
          [75.10432, 32.53775],
          [75.10434, 32.53778],
          [75.10437, 32.53781],
          [75.1044, 32.53784],
          [75.10442, 32.53786],
          [75.10445, 32.53789],
          [75.10448, 32.53792],
          [75.10451, 32.53795],
          [75.10453, 32.53798],
          [75.10456, 32.53801],
          [75.10458, 32.53804],
          [75.10461, 32.53807],
          [75.10463, 32.53809],
          [75.10466, 32.53812],
          [75.10468, 32.53815],
          [75.1047, 32.53817],
          [75.10472, 32.53819],
          [75.10474, 32.53821],
          [75.10476, 32.53824],
          [75.10478, 32.53826],
          [75.1048, 32.53827],
          [75.10481, 32.53829],
          [75.10483, 32.53831],
          [75.10484, 32.53832],
          [75.10485, 32.53833],
          [75.10486, 32.53834],
          [75.10487, 32.53835],
          [75.10487, 32.53835],
          [75.10487, 32.53836],
          [75.10488, 32.53836],
          [75.10488, 32.53836],
          [75.10578, 32.53934],
          [75.10723, 32.54116],
          [75.10823, 32.54242],
          [75.10878, 32.54316],
          [75.10888, 32.5433],
          [75.10888, 32.5433],
          [75.10899, 32.54344],
          [75.10975, 32.54445],
          [75.11186, 32.54674],
          [75.11236, 32.54722],
          [75.1129, 32.54775],
          [75.11426, 32.54927],
          [75.11556, 32.55073],
          [75.1158, 32.55106],
          [75.11596, 32.55129],
          [75.11638, 32.55201],
          [75.11616, 32.55249],
          [75.11546, 32.55305],
          [75.1139, 32.55366],
          [75.11289, 32.55392],
          [75.11187, 32.55418],
          [75.1134, 32.55474],
          [75.11441, 32.55505],
          [75.11527, 32.5552],
          [75.11613, 32.55533],
          [75.11664, 32.55558],
          [75.11701, 32.55574],
          [75.11723, 32.55584],
          [75.11789, 32.55615],
          [75.11906, 32.55674],
          [75.12023, 32.55734],
          [75.12174, 32.55752],
          [75.12317, 32.55784],
          [75.12316, 32.55784],
          [75.12485, 32.55823],
          [75.12487, 32.55823],
          [75.1249, 32.55824],
          [75.12492, 32.55825],
          [75.12494, 32.55825],
          [75.12497, 32.55826],
          [75.12852, 32.55876],
          [75.12985, 32.55885],
          [75.1304, 32.55889],
          [75.13145, 32.55903],
          [75.13303, 32.55925],
          [75.13407, 32.55962],
          [75.13417, 32.55911],
          [75.13417, 32.55911],
          [75.13404, 32.55874],
          [75.13399, 32.55859],
          [75.13394, 32.55852],
          [75.13383, 32.55838],
          [75.13367, 32.55817],
          [75.13206, 32.55795],
          [75.1309, 32.55785],
          [75.12908, 32.55772],
          [75.12908, 32.55772],
          [75.12833, 32.5575],
          [75.12758, 32.55728],
          [75.12736, 32.55704],
          [75.12726, 32.55693],
          [75.12718, 32.55626],
          [75.1272, 32.5558],
          [75.1272, 32.5558],
          [75.12722, 32.55535],
          [75.12763, 32.55453],
          [75.12807, 32.55409],
          [75.12711, 32.55452],
          [75.12601, 32.555],
          [75.12407, 32.55479],
          [75.12289, 32.55358],
          [75.12201, 32.55178],
          [75.12132, 32.55036],
          [75.12157, 32.54993],
          [75.12184, 32.54961],
          [75.12224, 32.54972],
          [75.12254, 32.54981],
          [75.12347, 32.54975],
          [75.12424, 32.5497],
          [75.12514, 32.55007],
          [75.12549, 32.55018],
          [75.12591, 32.55031],
          [75.12593, 32.54962],
          [75.12596, 32.54894],
          [75.1266, 32.5482],
          [75.12725, 32.54746],
          [75.12861, 32.54686],
          [75.12909, 32.5464],
          [75.12922, 32.54618],
          [75.12959, 32.54567],
          [75.12985, 32.54533],
          [75.13062, 32.54578],
          [75.13128, 32.54613],
          [75.13133, 32.54616],
          [75.13203, 32.54653],
          [75.13203, 32.54653],
          [75.13415, 32.54797],
          [75.1342, 32.54811],
          [75.13432, 32.54844],
          [75.13443, 32.54875],
          [75.13457, 32.54912],
          [75.13472, 32.54953],
          [75.13527, 32.54942],
          [75.13567, 32.54934],
          [75.13638, 32.54974],
          [75.13731, 32.54974],
          [75.13857, 32.54991],
          [75.13918, 32.54999],
          [75.13967, 32.54995],
          [75.14157, 32.54979],
          [75.14289, 32.54932],
          [75.1443, 32.54854],
          [75.14537, 32.54822],
          [75.14537, 32.54822],
          [75.14561, 32.54929],
          [75.14631, 32.55033],
          [75.14724, 32.5512],
          [75.14749, 32.55209],
          [75.14775, 32.55299],
          [75.14795, 32.55428],
          [75.14875, 32.55335],
          [75.14924, 32.55301],
          [75.15153, 32.55139],
          [75.15273, 32.55079],
          [75.15354, 32.55133],
          [75.15452, 32.55218],
          [75.15523, 32.55218],
          [75.15588, 32.55191],
          [75.15569, 32.55111],
          [75.15572, 32.55112],
          [75.15575, 32.55114],
          [75.15578, 32.55116],
          [75.15583, 32.55119],
          [75.15589, 32.55123],
          [75.15595, 32.55127],
          [75.15602, 32.55132],
          [75.1561, 32.55137],
          [75.15619, 32.55143],
          [75.15629, 32.55149],
          [75.15639, 32.55156],
          [75.15649, 32.55163],
          [75.15661, 32.5517],
          [75.15672, 32.55178],
          [75.15684, 32.55186],
          [75.15697, 32.55194],
          [75.1571, 32.55203],
          [75.15723, 32.55211],
          [75.15737, 32.5522],
          [75.1575, 32.55229],
          [75.15764, 32.55239],
          [75.15778, 32.55248],
          [75.15792, 32.55257],
          [75.15806, 32.55267],
          [75.15821, 32.55276],
          [75.15835, 32.55285],
          [75.15849, 32.55295],
          [75.15863, 32.55304],
          [75.15876, 32.55313],
          [75.1589, 32.55322],
          [75.15903, 32.55331],
          [75.15916, 32.55339],
          [75.15928, 32.55348],
          [75.1594, 32.55356],
          [75.15952, 32.55364],
          [75.15963, 32.55371],
          [75.15974, 32.55378],
          [75.15984, 32.55385],
          [75.15993, 32.55391],
          [75.16002, 32.55397],
          [75.1601, 32.55402],
          [75.16017, 32.55407],
          [75.16023, 32.55411],
          [75.16029, 32.55415],
          [75.16042, 32.55424],
          [75.16042, 32.55424],
          [75.16209, 32.55409],
          [75.16209, 32.55409],
          [75.16191, 32.55267],
          [75.16178, 32.55161],
          [75.16143, 32.54892],
          [75.16121, 32.5475],
          [75.16121, 32.5475],
          [75.16092, 32.54558],
          [75.15951, 32.54381],
          [75.15951, 32.54381],
          [75.15823, 32.54219],
          [75.15663, 32.54018],
          [75.15657, 32.5401],
          [75.15629, 32.53975],
          [75.15489, 32.53856],
          [75.15489, 32.53856],
          [75.15489, 32.53856],
          [75.15294, 32.53965],
          [75.15264, 32.53971],
          [75.1509, 32.54005],
          [75.14982, 32.53888],
          [75.14939, 32.53842],
          [75.14869, 32.53724],
          [75.14702, 32.53612],
          [75.14708, 32.53482],
          [75.14757, 32.53405],
          [75.14806, 32.53329],
          [75.14966, 32.53198],
          [75.15198, 32.5308],
          [75.15168, 32.5304],
          [75.1515, 32.53015],
          [75.15107, 32.52952],
          [75.15025, 32.52938],
          [75.14948, 32.5298],
          [75.14905, 32.52994],
          [75.14842, 32.52951],
          [75.14795, 32.5292],
          [75.14795, 32.5292],
          [75.1469, 32.52901],
          [75.14625, 32.52864],
          [75.14625, 32.52864],
          [75.14617, 32.52857],
          [75.14581, 32.52822],
          [75.14581, 32.52822],
          [75.14597, 32.52723],
          [75.14597, 32.52723],
          [75.14599, 32.52722],
          [75.14601, 32.52722],
          [75.14601, 32.52722],
          [75.14814, 32.52687],
          [75.14819, 32.52687],
          [75.14824, 32.52686],
          [75.14828, 32.52685],
          [75.14831, 32.52685],
          [75.14835, 32.52684],
          [75.14838, 32.52684],
          [75.1484, 32.52683],
          [75.14842, 32.52683],
          [75.14843, 32.52683],
          [75.14844, 32.52682],
          [75.14844, 32.52682],
          [75.14844, 32.52682],
          [75.15429, 32.52682],
          [75.15429, 32.52682],
          [75.15769, 32.52633],
          [75.15796, 32.52599],
          [75.15694, 32.52534],
          [75.15592, 32.52469],
          [75.15481, 32.52406],
          [75.1537, 32.52343],
          [75.14997, 32.52111],
          [75.14875, 32.52039],
          [75.14802, 32.51995],
          [75.14834, 32.51979],
          [75.14805, 32.51915],
          [75.14777, 32.51827],
          [75.1472, 32.51731],
          [75.14598, 32.51667],
          [75.14692, 32.51563],
          [75.14701, 32.51451],
          [75.14569, 32.51316],
          [75.14569, 32.51316],
          [75.14465, 32.51148],
          [75.14417, 32.51044],
          [75.14483, 32.50972],
          [75.1454, 32.50876],
          [75.14492, 32.50844],
          [75.14492, 32.50844],
          [75.1437, 32.50788],
          [75.1437, 32.50788],
          [75.14228, 32.5074],
          [75.14269, 32.50574],
          [75.14208, 32.50648],
          [75.14148, 32.50723],
          [75.13806, 32.50929],
          [75.13785, 32.50942],
          [75.1369, 32.51004],
          [75.13594, 32.51067],
          [75.13584, 32.5106],
          [75.13565, 32.51044],
          [75.13544, 32.51026],
          [75.13544, 32.51027],
          [75.13543, 32.51028],
          [75.13543, 32.51029],
          [75.13542, 32.51031],
          [75.13541, 32.51033],
          [75.1354, 32.51035],
          [75.13539, 32.51038],
          [75.13538, 32.51041],
          [75.13536, 32.51044],
          [75.13535, 32.51047],
          [75.13533, 32.51051],
          [75.13531, 32.51055],
          [75.1353, 32.51059],
          [75.13528, 32.51063],
          [75.13526, 32.51067],
          [75.13524, 32.51072],
          [75.13522, 32.51076],
          [75.13519, 32.51081],
          [75.13517, 32.51086],
          [75.13515, 32.51091],
          [75.13513, 32.51096],
          [75.13511, 32.51101],
          [75.13508, 32.51106],
          [75.13506, 32.51111],
          [75.13504, 32.51116],
          [75.13501, 32.51121],
          [75.13499, 32.51126],
          [75.13497, 32.51131],
          [75.13495, 32.51136],
          [75.13492, 32.51141],
          [75.1349, 32.51145],
          [75.13488, 32.5115],
          [75.13486, 32.51154],
          [75.13484, 32.51159],
          [75.13482, 32.51163],
          [75.13481, 32.51167],
          [75.13479, 32.51171],
          [75.13477, 32.51174],
          [75.13476, 32.51178],
          [75.13474, 32.51181],
          [75.13473, 32.51184],
          [75.13472, 32.51186],
          [75.13471, 32.51189],
          [75.1347, 32.51191],
          [75.13469, 32.51192],
          [75.13469, 32.51194],
          [75.13468, 32.51195],
          [75.13468, 32.51195],
          [75.13468, 32.51195],
          [75.13422, 32.51267],
          [75.13376, 32.51306],
          [75.13223, 32.51455],
          [75.13162, 32.5154],
          [75.13162, 32.5154],
          [75.13108, 32.51651],
          [75.13093, 32.51742],
          [75.1307, 32.51865],
          [75.13024, 32.51904],
          [75.12928, 32.51946],
          [75.12917, 32.51942],
          [75.1284, 32.51915],
          [75.1284, 32.51915],
          [75.12822, 32.51903],
          [75.1275, 32.51854],
          [75.12636, 32.51753],
          [75.12614, 32.51688],
          [75.12671, 32.51529],
          [75.12772, 32.51474],
          [75.12757, 32.5134],
          [75.12699, 32.51169],
          [75.12685, 32.51059],
          [75.12685, 32.51059],
          [75.12649, 32.51029],
          [75.12504, 32.50912],
          [75.12331, 32.50827],
          [75.12233, 32.50792],
          [75.12194, 32.50778],
          [75.12194, 32.50778],
          [75.12014, 32.50778],
          [75.11834, 32.50803],
          [75.1182, 32.50764],
          [75.11689, 32.50639],
          [75.11581, 32.50529],
          [75.11524, 32.50519],
          [75.11524, 32.50519],
          [75.11519, 32.50447],
          [75.11576, 32.50306],
          [75.11673, 32.50314],
          [75.11715, 32.50318],
          [75.11933, 32.50327],
          [75.12003, 32.5024],
          [75.12003, 32.5024],
          [75.11855, 32.50188],
          [75.11725, 32.50151],
          [75.1166, 32.50132],
          [75.11633, 32.50124],
          [75.11595, 32.50113],
          [75.11546, 32.50054],
          [75.11545, 32.50048],
          [75.11541, 32.50035],
          [75.11541, 32.50035],
          [75.11536, 32.5002],
          [75.11526, 32.49986],
          [75.11526, 32.49986],
          [75.11426, 32.49843],
          [75.11299, 32.49707],
          [75.1125, 32.49548],
          [75.1124, 32.49329],
          [75.11215, 32.49152],
          [75.11205, 32.49085],
          [75.11205, 32.49085],
          [75.11248, 32.49004],
          [75.11314, 32.48968],
          [75.11314, 32.48968],
          [75.11344, 32.48948],
          [75.11401, 32.4891],
          [75.11493, 32.48873],
          [75.11493, 32.48873],
          [75.11493, 32.48873],
          [75.11493, 32.48873],
          [75.11493, 32.48874],
          [75.11493, 32.48875],
          [75.11493, 32.48876],
          [75.11493, 32.48877],
          [75.11493, 32.48879],
          [75.11493, 32.4888],
          [75.11493, 32.48882],
          [75.11493, 32.48883],
          [75.11493, 32.48885],
          [75.11493, 32.48887],
          [75.11493, 32.48889],
          [75.11493, 32.48891],
          [75.11493, 32.48894],
          [75.11493, 32.48896],
          [75.11493, 32.48898],
          [75.11493, 32.48901],
          [75.11493, 32.48903],
          [75.11493, 32.48906],
          [75.11493, 32.48908],
          [75.11493, 32.48911],
          [75.11492, 32.48914],
          [75.11492, 32.48916],
          [75.11492, 32.48919],
          [75.11492, 32.48922],
          [75.11492, 32.48924],
          [75.11492, 32.48927],
          [75.11492, 32.48929],
          [75.11492, 32.48932],
          [75.11492, 32.48934],
          [75.11492, 32.48937],
          [75.11492, 32.48939],
          [75.11492, 32.4896],
          [75.11432, 32.49008],
          [75.11396, 32.49038],
          [75.11391, 32.4917],
          [75.11423, 32.49342],
          [75.11423, 32.49342],
          [75.11394, 32.49431],
          [75.11447, 32.49507],
          [75.11465, 32.49509],
          [75.11546, 32.49522],
          [75.11713, 32.49547],
          [75.11787, 32.49529],
          [75.11788, 32.49529],
          [75.11789, 32.49529],
          [75.11789, 32.49528],
          [75.1179, 32.49528],
          [75.11791, 32.49528],
          [75.11792, 32.49528],
          [75.11793, 32.49528],
          [75.11794, 32.49527],
          [75.11795, 32.49527],
          [75.11796, 32.49527],
          [75.11797, 32.49527],
          [75.11799, 32.49526],
          [75.118, 32.49526],
          [75.11802, 32.49526],
          [75.11803, 32.49525],
          [75.11805, 32.49525],
          [75.11807, 32.49525],
          [75.11808, 32.49524],
          [75.1181, 32.49524],
          [75.11812, 32.49523],
          [75.11813, 32.49523],
          [75.11815, 32.49523],
          [75.11817, 32.49522],
          [75.11819, 32.49522],
          [75.11821, 32.49521],
          [75.11822, 32.49521],
          [75.11824, 32.49521],
          [75.11826, 32.4952],
          [75.11827, 32.4952],
          [75.11829, 32.4952],
          [75.11831, 32.49519],
          [75.11832, 32.49519],
          [75.11834, 32.49518],
          [75.11835, 32.49518],
          [75.11837, 32.49518],
          [75.11838, 32.49517],
          [75.11839, 32.49517],
          [75.11841, 32.49517],
          [75.11842, 32.49517],
          [75.11843, 32.49516],
          [75.11844, 32.49516],
          [75.11845, 32.49516],
          [75.11845, 32.49516],
          [75.11846, 32.49516],
          [75.11847, 32.49516],
          [75.11847, 32.49515],
          [75.11847, 32.49515],
          [75.11848, 32.49515],
          [75.11848, 32.49515],
          [75.1205, 32.4947],
          [75.12341, 32.49404],
          [75.12605, 32.49282],
          [75.12622, 32.49219],
          [75.12647, 32.49111],
          [75.12655, 32.49076],
          [75.12658, 32.49063],
          [75.12733, 32.48991],
          [75.12875, 32.48925],
          [75.12907, 32.48897],
          [75.12993, 32.4882],
          [75.13264, 32.48904],
          [75.13459, 32.48949],
          [75.13563, 32.48974],
          [75.13603, 32.48983],
          [75.13713, 32.49009],
          [75.13863, 32.49044],
          [75.14042, 32.49079],
          [75.14109, 32.49092],
          [75.1419, 32.49108],
          [75.14221, 32.49114],
          [75.14306, 32.49154],
          [75.14391, 32.49193],
          [75.14391, 32.49229],
          [75.14391, 32.49229],
          [75.14405, 32.49245],
          [75.14426, 32.49271],
          [75.14483, 32.49301],
          [75.14511, 32.49315],
          [75.14596, 32.49359],
          [75.14602, 32.49365],
          [75.14614, 32.49379],
          [75.14659, 32.49344],
          [75.14659, 32.49344],
          [75.14659, 32.49343],
          [75.14651, 32.49332],
          [75.14651, 32.49331],
          [75.14651, 32.49331],
          [75.1465, 32.49331],
          [75.1465, 32.4933],
          [75.1465, 32.4933],
          [75.1465, 32.4933],
          [75.1465, 32.4933],
          [75.1465, 32.4933],
          [75.1465, 32.4933],
          [75.1465, 32.4933],
          [75.1465, 32.4933],
          [75.1465, 32.49329],
          [75.14634, 32.49308],
          [75.14625, 32.49294],
          [75.14607, 32.49256],
          [75.14586, 32.4921],
          [75.14615, 32.49066],
          [75.147, 32.48937],
          [75.14773, 32.48896],
          [75.14807, 32.48877],
          [75.14924, 32.48818],
          [75.14975, 32.48782],
          [75.15026, 32.48747],
          [75.15127, 32.48677],
          [75.15226, 32.48644],
          [75.15272, 32.48707],
          [75.15294, 32.48726],
          [75.15309, 32.48739],
          [75.15379, 32.48803],
          [75.15406, 32.48828],
          [75.15314, 32.48942],
          [75.15314, 32.48942],
          [75.15314, 32.48942],
          [75.15314, 32.48943],
          [75.15313, 32.48943],
          [75.15313, 32.48944],
          [75.15313, 32.48945],
          [75.15312, 32.48946],
          [75.15311, 32.48947],
          [75.15311, 32.48948],
          [75.1531, 32.4895],
          [75.15309, 32.48951],
          [75.15309, 32.48953],
          [75.15308, 32.48955],
          [75.15307, 32.48956],
          [75.15306, 32.48958],
          [75.15305, 32.4896],
          [75.15304, 32.48962],
          [75.15303, 32.48964],
          [75.15302, 32.48966],
          [75.15301, 32.48968],
          [75.153, 32.4897],
          [75.15299, 32.48973],
          [75.15298, 32.48975],
          [75.15297, 32.48977],
          [75.15296, 32.48979],
          [75.15295, 32.48981],
          [75.15294, 32.48984],
          [75.15293, 32.48986],
          [75.15292, 32.48988],
          [75.15291, 32.4899],
          [75.1529, 32.48992],
          [75.15289, 32.48994],
          [75.15288, 32.48996],
          [75.15287, 32.48998],
          [75.15286, 32.49],
          [75.15285, 32.49002],
          [75.15284, 32.49004],
          [75.15283, 32.49006],
          [75.15283, 32.49007],
          [75.15282, 32.49009],
          [75.15281, 32.4901],
          [75.15281, 32.49011],
          [75.1528, 32.49012],
          [75.1528, 32.49013],
          [75.15279, 32.49014],
          [75.15279, 32.49015],
          [75.15279, 32.49015],
          [75.15278, 32.49016],
          [75.15278, 32.49016],
          [75.15278, 32.49016],
          [75.15206, 32.49167],
          [75.15224, 32.49362],
          [75.15224, 32.49362],
          [75.15257, 32.49448],
          [75.15257, 32.49448],
          [75.15264, 32.49467],
          [75.1529, 32.49533],
          [75.15349, 32.49633],
          [75.1538, 32.49686],
          [75.15407, 32.49732],
          [75.15407, 32.49732],
          [75.15472, 32.49819],
          [75.15482, 32.49832],
          [75.15497, 32.49853],
          [75.15626, 32.4997],
          [75.15676, 32.50089],
          [75.15738, 32.50236],
          [75.15817, 32.50421],
          [75.15838, 32.50469],
          [75.15763, 32.50494],
          [75.15763, 32.50494],
          [75.15798, 32.50511],
          [75.15872, 32.50543],
          [75.15872, 32.50543],
          [75.15939, 32.50637],
          [75.15978, 32.50692],
          [75.16006, 32.50732],
          [75.16016, 32.50757],
          [75.16034, 32.50801],
          [75.16062, 32.5087],
          [75.16062, 32.5087],
          [75.16087, 32.50964],
          [75.16095, 32.50995],
          [75.16095, 32.50995],
          [75.16179, 32.51089],
          [75.16371, 32.51303],
          [75.1642, 32.51274],
          [75.16466, 32.51246],
          [75.16469, 32.51244],
          [75.16488, 32.51234],
          [75.16506, 32.51223],
          [75.16526, 32.51212],
          [75.16544, 32.51201],
          [75.16572, 32.51208],
          [75.1662, 32.5122],
          [75.16697, 32.51238],
          [75.16697, 32.51238],
          [75.16764, 32.51258],
          [75.16764, 32.51258],
          [75.16831, 32.51277],
          [75.1691, 32.51309],
          [75.16989, 32.51341],
          [75.17054, 32.51377],
          [75.17054, 32.51377],
          [75.17119, 32.51412],
          [75.17184, 32.51396],
          [75.17194, 32.51358],
          [75.17203, 32.51326],
          [75.17226, 32.51251],
          [75.17215, 32.51188],
          [75.17203, 32.51125],
          [75.17222, 32.51085],
          [75.17222, 32.51085],
          [75.17232, 32.51066],
          [75.17241, 32.51046],
          [75.1726, 32.51043],
          [75.1732, 32.51035],
          [75.17399, 32.51023],
          [75.17499, 32.51067],
          [75.17598, 32.5111],
          [75.17682, 32.51142],
          [75.17765, 32.51174],
          [75.17816, 32.51148],
          [75.17867, 32.51123],
          [75.17889, 32.51084],
          [75.17889, 32.51084],
          [75.17839, 32.50034],
          [75.17839, 32.50034],
          [75.17835, 32.49953],
          [75.17831, 32.49867],
          [75.17825, 32.49756],
          [75.17805, 32.49337],
          [75.1834, 32.49275],
          [75.18537, 32.4933],
          [75.18537, 32.4933],
          [75.18587, 32.49344],
          [75.19865, 32.49704],
          [75.199, 32.49751],
          [75.19939, 32.49802],
          [75.19944, 32.49974],
          [75.19949, 32.49985],
          [75.19951, 32.49988],
          [75.19951, 32.49988],
          [75.19964, 32.50015],
          [75.20018, 32.50003],
          [75.20034, 32.49999],
          [75.20072, 32.4999],
          [75.20209, 32.49965],
          [75.20347, 32.49939],
          [75.20577, 32.49853],
          [75.20577, 32.49853],
          [75.20767, 32.49768],
          [75.20825, 32.49737],
          [75.20825, 32.49737],
          [75.20927, 32.49683],
          [75.20989, 32.4961],
          [75.21099, 32.49535],
          [75.21213, 32.49457],
          [75.21302, 32.49453],
          [75.21339, 32.49451],
          [75.21465, 32.49443],
          [75.21465, 32.49443],
          [75.21614, 32.4946],
          [75.21763, 32.49477],
          [75.21897, 32.49368],
          [75.21928, 32.49355],
          [75.21989, 32.49329],
          [75.2199, 32.49329],
          [75.21991, 32.49328],
          [75.21992, 32.49328],
          [75.21994, 32.49327],
          [75.21996, 32.49326],
          [75.21998, 32.49325],
          [75.22, 32.49324],
          [75.22003, 32.49323],
          [75.22006, 32.49322],
          [75.22009, 32.49321],
          [75.22012, 32.4932],
          [75.22015, 32.49318],
          [75.22019, 32.49317],
          [75.22023, 32.49315],
          [75.22027, 32.49313],
          [75.22031, 32.49312],
          [75.22035, 32.4931],
          [75.22039, 32.49308],
          [75.22348, 32.49158],
          [75.22185, 32.48994],
          [75.22184, 32.48992],
          [75.22069, 32.48762],
          [75.21994, 32.48591],
          [75.21991, 32.48586],
          [75.21855, 32.48392],
          [75.2185, 32.48384],
          [75.21797, 32.48247],
          [75.21747, 32.48118],
          [75.21748, 32.48116],
          [75.2175, 32.48049],
          [75.21795, 32.47968],
          [75.2184, 32.47887],
          [75.21914, 32.47816],
          [75.21989, 32.47746],
          [75.22027, 32.47657],
          [75.22064, 32.47569],
          [75.22117, 32.47468],
          [75.22171, 32.47368],
          [75.22302, 32.47209],
          [75.22434, 32.47051],
          [75.22476, 32.46911],
          [75.22517, 32.46771],
          [75.22588, 32.46639],
          [75.22659, 32.46508],
          [75.22656, 32.46399],
          [75.22653, 32.46291],
          [75.22615, 32.46184],
          [75.22607, 32.46159],
          [75.22578, 32.46078],
          [75.22485, 32.46102],
          [75.22391, 32.46126],
          [75.2229, 32.46136],
          [75.22189, 32.46147],
          [75.22072, 32.46154],
          [75.21955, 32.46161],
          [75.21854, 32.46149],
          [75.21753, 32.46137],
          [75.21634, 32.46083],
          [75.21516, 32.4603],
          [75.21641, 32.45784],
          [75.21698, 32.45643],
          [75.21524, 32.45549],
          [75.21348, 32.4545],
          [75.21106, 32.45503],
          [75.20876, 32.45551],
          [75.20706, 32.45556],
          [75.20707, 32.45548],
          [75.20718, 32.45404],
          [75.20637, 32.45233],
          [75.20637, 32.45231],
          [75.20634, 32.45227],
          [75.20533, 32.45071],
          [75.20492, 32.44995],
          [75.20492, 32.44993],
          [75.20488, 32.44986],
          [75.20484, 32.44964],
          [75.2048, 32.44943],
          [75.20472, 32.44899],
          [75.20484, 32.44852],
          [75.20496, 32.44806],
          [75.20528, 32.44745],
          [75.20556, 32.44692],
          [75.20422, 32.44679],
          [75.20232, 32.44629],
          [75.2004, 32.44593],
          [75.19912, 32.4455],
          [75.19835, 32.44525],
          [75.19597, 32.44446],
          [75.19512, 32.44368],
          [75.19515, 32.44367],
          [75.19608, 32.4432],
          [75.19796, 32.44258],
          [75.19907, 32.44174],
          [75.19905, 32.4416],
          [75.19896, 32.44059],
          [75.19904, 32.43867],
          [75.19915, 32.43711],
          [75.19894, 32.43579],
          [75.19877, 32.43489],
          [75.19856, 32.4339],
          [75.19867, 32.43318],
          [75.19872, 32.43311],
          [75.19959, 32.43207],
          [75.20072, 32.43105],
          [75.20108, 32.43027],
          [75.20112, 32.42922],
          [75.20017, 32.42819],
          [75.19932, 32.42747],
          [75.1988, 32.42702],
          [75.19844, 32.42627],
          [75.19881, 32.4227],
          [75.1989, 32.42178],
          [75.19891, 32.42164],
          [75.19884, 32.42161],
          [75.19885, 32.4216],
          [75.19674, 32.42119],
          [75.19355, 32.42138],
          [75.19175, 32.42209],
          [75.19175, 32.4221],
          [75.192, 32.42401],
          [75.192, 32.42401],
          [75.18977, 32.42581],
          [75.18709, 32.42605],
          [75.18494, 32.42494],
          [75.18251, 32.42429],
          [75.18033, 32.42424],
          [75.17903, 32.42352],
          [75.17825, 32.42155],
          [75.17679, 32.42137],
          [75.17467, 32.42202],
          [75.17131, 32.42274],
          [75.16763, 32.42321],
          [75.16386, 32.42264],
          [75.16196, 32.4209],
          [75.16012, 32.41864],
          [75.15868, 32.41872],
          [75.15518, 32.42024],
          [75.15266, 32.42108],
          [75.15077, 32.41935],
          [75.14731, 32.41752],
          [75.1443, 32.4148],
          [75.14111, 32.41235],
          [75.13551, 32.4096],
          [75.13325, 32.4085],
          [75.13142, 32.40886],
          [75.13142, 32.40887],
          [75.13118, 32.41239],
          [75.13166, 32.41447],
          [75.13165, 32.41447],
          [75.13003, 32.41614],
          [75.12753, 32.41725],
          [75.12708, 32.41815],
          [75.12708, 32.41815],
          [75.12663, 32.42028],
          [75.12707, 32.42315],
          [75.12725, 32.42551],
          [75.12992, 32.42659],
          [75.13301, 32.42641],
          [75.13323, 32.4278],
          [75.13322, 32.42781],
          [75.13194, 32.42981],
          [75.12936, 32.43118],
          [75.1284, 32.43352],
          [75.12666, 32.43379],
          [75.12445, 32.43462],
          [75.12445, 32.43462],
          [75.1244, 32.43655],
          [75.1244, 32.43655],
          [75.12277, 32.43822],
          [75.12179, 32.44021],
          [75.12097, 32.44157],
          [75.1186, 32.44434],
          [75.1186, 32.44434],
          [75.11819, 32.447],
          [75.1192, 32.45203],
          [75.11927, 32.45422],
          [75.11927, 32.45422],
          [75.1174, 32.45546],
          [75.1111, 32.45819],
          [75.10777, 32.46057],
          [75.10777, 32.46058],
          [75.10846, 32.46404],
          [75.10861, 32.46603],
          [75.10874, 32.46762],
          [75.10866, 32.46806],
          [75.10794, 32.47197],
          [75.10794, 32.47197],
          [75.10666, 32.47406],
          [75.10321, 32.47627],
          [75.10135, 32.47769],
          [75.09898, 32.47774],
          [75.09674, 32.47559],
          [75.09595, 32.47344],
          [75.0945, 32.47212],
          [75.09268, 32.47011],
          [75.09075, 32.46926],
          [75.0883, 32.46966],
          [75.08713, 32.4706],
          [75.08629, 32.47039],
          [75.08554, 32.46876],
          [75.08424, 32.46936],
          [75.08424, 32.46936],
          [75.08403, 32.472],
          [75.08403, 32.47201],
          [75.08284, 32.47269],
          [75.07659, 32.47611],
          [75.07321, 32.47788],
          [75.06994, 32.47973],
          [75.06959, 32.47791],
          [75.06782, 32.47774],
          [75.06484, 32.47932],
          [75.06224, 32.4792],
          [75.05946, 32.48076],
          [75.0572, 32.48097],
          [75.05477, 32.48164],
          [75.05231, 32.48327],
          [75.04838, 32.48594],
          [75.04535, 32.48831],
          [75.04386, 32.48778],
          [75.04164, 32.48711],
          [75.03689, 32.48992],
          [75.03287, 32.49287],
          [75.0317, 32.49369],
          [75.03002, 32.49487],
          [75.02802, 32.49709],
          [75.02609, 32.49491],
          [75.02362, 32.4911],
          [75.022, 32.48751],
          [75.01818, 32.48237],
          [75.01682, 32.47946],
          [75.01648, 32.47518],
          [75.01656, 32.47079],
          [75.01656, 32.47079],
          [75.0179, 32.46949],
          [75.01974, 32.46789],
          [75.01975, 32.46789],
          [75.0193, 32.46616],
          [75.01736, 32.46513],
          [75.01469, 32.46545],
          [75.0119, 32.46412],
          [75.00968, 32.46222],
          [75.00329, 32.45723],
          [75.00096, 32.45657],
          [74.99927, 32.45745],
          [74.99817, 32.45655],
          [74.99675, 32.45566],
          [74.9952, 32.45426],
          [74.99372, 32.45259],
          [74.99187, 32.45146],
          [74.99066, 32.45179],
          [74.98874, 32.45242],
          [74.98735, 32.4518],
          [74.98652, 32.45044],
          [74.98436, 32.45065],
          [74.98324, 32.45089],
          [74.98057, 32.45253],
          [74.97722, 32.45464],
          [74.97418, 32.45683],
          [74.97129, 32.45954],
          [74.96858, 32.45934],
          [74.96547, 32.45793],
          [74.96071, 32.4553],
          [74.95671, 32.45166],
          [74.95479, 32.44966],
          [74.95266, 32.4475],
          [74.95121, 32.44749],
          [74.94865, 32.44781],
          [74.94704, 32.44842],
          [74.94704, 32.44843],
          [74.9464, 32.45083],
          [74.9464, 32.45083],
          [74.94509, 32.45397],
          [74.94357, 32.45712],
          [74.94357, 32.45713],
          [74.94163, 32.46285],
          [74.94163, 32.46285],
          [74.93894, 32.46554],
          [74.9362, 32.46753],
          [74.9362, 32.46754],
          [74.93591, 32.46922],
          [74.93794, 32.4713],
          [74.93793, 32.4713],
          [74.93464, 32.47148],
          [74.931, 32.47124],
          [74.92817, 32.46947],
          [74.92511, 32.46736],
          [74.92151, 32.46501],
          [74.91928, 32.46425],
          [74.91742, 32.46427],
          [74.91395, 32.46622],
          [74.91214, 32.46833],
          [74.90965, 32.47084],
          [74.90831, 32.47232],
          [74.9066, 32.47294],
          [74.90375, 32.4709],
          [74.90079, 32.46738],
          [74.89746, 32.46844],
          [74.89175, 32.47094],
          [74.88488, 32.47457],
          [74.87925, 32.47672],
          [74.87835, 32.47843],
          [74.87835, 32.47844],
          [74.87914, 32.48199],
          [74.88124, 32.48512],
          [74.8839, 32.48875],
          [74.88354, 32.49087],
          [74.88354, 32.49087],
          [74.88001, 32.49212],
          [74.87799, 32.49275],
          [74.87799, 32.49275],
          [74.8787, 32.4937],
          [74.87887, 32.49392],
          [74.87939, 32.49461],
          [74.87939, 32.49461],
          [74.87941, 32.49464],
          [74.88044, 32.496],
          [74.88085, 32.49655],
          [74.88086, 32.49656],
          [74.8818, 32.49801],
          [74.8818, 32.49801],
          [74.88189, 32.49815],
          [74.8822, 32.49862],
          [74.88293, 32.49974],
          [74.88293, 32.49974],
          [74.88294, 32.49975],
          [74.88317, 32.5001],
          [74.88325, 32.5004],
          [74.88325, 32.5004],
          [74.88325, 32.5004],
          [74.88326, 32.50042],
          [74.88393, 32.50128],
          [74.88414, 32.50155],
          [74.88416, 32.50157],
          [74.88417, 32.50159],
          [74.88506, 32.50272],
          [74.88507, 32.50273],
          [74.88508, 32.50274],
          [74.88553, 32.50332],
          [74.88599, 32.5039],
          [74.88645, 32.50449],
          [74.88704, 32.50526],
          [74.88719, 32.50546],
          [74.88775, 32.50623],
          [74.88803, 32.50663],
          [74.8881, 32.50674],
          [74.88827, 32.50703],
          [74.88852, 32.50743],
          [74.88852, 32.50744],
          [74.88901, 32.50824],
          [74.88929, 32.50851],
          [74.89012, 32.50931],
          [74.89014, 32.50932],
          [74.89075, 32.50966],
          [74.89138, 32.51],
          [74.8914, 32.51001],
          [74.89162, 32.5107],
          [74.89149, 32.51078],
          [74.89149, 32.51078],
          [74.89042, 32.5115],
          [74.89029, 32.51158],
          [74.88995, 32.51172],
          [74.88934, 32.51196],
          [74.88902, 32.51209],
          [74.88892, 32.51213],
          [74.88842, 32.51251],
          [74.88791, 32.51289],
          [74.88735, 32.51346],
          [74.88681, 32.51402],
          [74.88641, 32.51449],
          [74.88561, 32.51544],
          [74.88522, 32.51591],
          [74.88522, 32.51591],
          [74.88522, 32.51591],
          [74.88545, 32.51602],
          [74.88565, 32.51613],
          [74.88599, 32.51637],
          [74.8862, 32.51653],
          [74.88649, 32.51675],
          [74.8867, 32.51691],
          [74.88705, 32.51719],
          [74.88705, 32.51719],
          [74.88647, 32.51756],
          [74.88596, 32.51787],
          [74.88532, 32.51829],
          [74.88469, 32.51871],
          [74.8845, 32.51885],
          [74.88394, 32.51926],
          [74.884, 32.51943],
          [74.88407, 32.5196],
          [74.88419, 32.51994],
          [74.88431, 32.52027],
          [74.88443, 32.52062],
          [74.88443, 32.52092],
          [74.88443, 32.52123],
          [74.88443, 32.52154],
          [74.88442, 32.52184],
          [74.88442, 32.52195],
          [74.88442, 32.52228],
          [74.88442, 32.52245],
          [74.88441, 32.52285],
          [74.88441, 32.52306],
          [74.88439, 32.52348],
          [74.88438, 32.52373],
          [74.88435, 32.52406],
          [74.88434, 32.52439],
          [74.88432, 32.52473],
          [74.8843, 32.52506],
          [74.88428, 32.52539],
          [74.88426, 32.52572],
          [74.88442, 32.52592],
          [74.88458, 32.52613],
          [74.8848, 32.52641],
          [74.88489, 32.52653],
          [74.88505, 32.52673],
          [74.88521, 32.52694],
          [74.88546, 32.52727],
          [74.88552, 32.52734],
          [74.88579, 32.52755],
          [74.8859, 32.52763],
          [74.88621, 32.52787],
          [74.88628, 32.52793],
          [74.88666, 32.52823],
          [74.88704, 32.52852],
          [74.88727, 32.52875],
          [74.8875, 32.52898],
          [74.88773, 32.52894],
          [74.88796, 32.52889],
          [74.8882, 32.52884],
          [74.88843, 32.52879],
          [74.88864, 32.52891],
          [74.88886, 32.52902],
          [74.88901, 32.5291],
          [74.88912, 32.52916],
          [74.88938, 32.52929],
          [74.88949, 32.52935],
          [74.88975, 32.52949],
          [74.88986, 32.52955],
          [74.89009, 32.52967],
          [74.89033, 32.5298],
          [74.8905, 32.52996],
          [74.89067, 32.53013],
          [74.89083, 32.53029],
          [74.89095, 32.5304],
          [74.891, 32.53045],
          [74.89125, 32.5307],
          [74.89134, 32.53078],
          [74.89151, 32.53095],
          [74.89167, 32.53111],
          [74.89178, 32.53128],
          [74.89189, 32.53145],
          [74.892, 32.53162],
          [74.8921, 32.53179],
          [74.89225, 32.53201],
          [74.89228, 32.53206],
          [74.89232, 32.53212],
          [74.89254, 32.53246],
          [74.89263, 32.53237],
          [74.89319, 32.53178],
          [74.89372, 32.53123],
          [74.89428, 32.53064],
          [74.89493, 32.52996],
          [74.89584, 32.529],
          [74.89602, 32.52882],
          [74.89684, 32.52837],
          [74.89711, 32.52822],
          [74.89742, 32.52804],
          [74.89765, 32.52792],
          [74.89809, 32.52768],
          [74.89819, 32.52762],
          [74.89951, 32.52668],
          [74.90083, 32.52574],
          [74.90086, 32.52578],
          [74.90309, 32.52782],
          [74.90342, 32.52812],
          [74.90342, 32.52812],
          [74.90363, 32.52832],
          [74.90429, 32.52891],
          [74.9046, 32.5292],
          [74.90536, 32.5299],
          [74.90536, 32.5299],
          [74.90593, 32.53042],
          [74.90667, 32.53111],
          [74.90681, 32.53123],
          [74.90686, 32.53128],
          [74.90689, 32.53131],
          [74.9083, 32.53297],
          [74.90832, 32.53299],
          [74.90832, 32.53299],
          [74.90844, 32.5334],
          [74.90884, 32.53465],
          [74.90822, 32.53519],
          [74.90816, 32.53525],
          [74.90729, 32.53594],
          [74.90536, 32.53767],
          [74.90543, 32.54004],
          [74.90542, 32.54084],
          [74.90542, 32.54116],
          [74.90545, 32.54212],
          [74.90543, 32.54233],
          [74.90539, 32.54302],
          [74.90458, 32.54354],
          [74.90427, 32.54387],
          [74.90396, 32.5442],
          [74.90334, 32.54486],
          [74.90309, 32.54506],
          [74.90234, 32.54567],
          [74.90222, 32.54644],
          [74.90218, 32.5467],
          [74.90201, 32.54769],
          [74.90195, 32.54802],
          [74.90183, 32.54869],
          [74.90172, 32.54936],
          [74.90161, 32.55022],
          [74.90158, 32.5505],
          [74.9023, 32.55059],
          [74.90302, 32.55068],
          [74.90375, 32.55077],
          [74.90447, 32.55086],
          [74.90509, 32.55088],
          [74.90572, 32.55088],
          [74.90578, 32.55089],
          [74.90689, 32.5509],
          [74.90696, 32.55091],
          [74.90721, 32.55088],
          [74.90758, 32.55084],
          [74.90795, 32.5508],
          [74.90832, 32.55076],
          [74.90893, 32.55069],
          [74.9098, 32.55022],
          [74.91009, 32.55006],
          [74.91124, 32.54944],
          [74.91236, 32.54856],
          [74.91292, 32.54812],
          [74.91348, 32.54768],
          [74.91393, 32.54768],
          [74.91438, 32.54767],
          [74.91442, 32.54767],
          [74.91523, 32.54766],
          [74.91528, 32.54766],
          [74.91535, 32.54768],
          [74.91656, 32.54805],
          [74.91662, 32.54807],
          [74.91729, 32.54827],
          [74.91754, 32.54835],
          [74.91763, 32.54837],
          [74.9179, 32.54846],
          [74.91796, 32.54848],
          [74.91803, 32.5485],
          [74.91905, 32.54891],
          [74.91941, 32.54905],
          [74.91946, 32.54907],
          [74.92015, 32.54934],
          [74.92083, 32.5496],
          [74.92086, 32.54962],
          [74.92183, 32.54988],
          [74.92208, 32.54995],
          [74.92281, 32.55015],
          [74.9229, 32.55017],
          [74.92416, 32.55045],
          [74.92544, 32.55073],
          [74.9255, 32.55074],
          [74.92611, 32.55091],
          [74.92673, 32.55108],
          [74.92734, 32.55126],
          [74.92796, 32.55142],
          [74.92808, 32.5516],
          [74.92821, 32.55177],
          [74.92846, 32.55213],
          [74.92864, 32.55236],
          [74.92897, 32.55282],
          [74.92897, 32.55283],
          [74.92899, 32.55285],
          [74.92914, 32.55309],
          [74.92914, 32.55309],
          [74.92914, 32.55309],
          [74.9293, 32.55335],
          [74.92961, 32.55386],
          [74.92962, 32.55387],
          [74.92978, 32.55413],
          [74.93002, 32.55452],
          [74.9301, 32.55465],
          [74.93026, 32.55491],
          [74.9303, 32.55496],
          [74.93079, 32.55567],
          [74.93079, 32.55567],
          [74.93099, 32.55597],
          [74.93131, 32.55643],
          [74.93131, 32.55643],
          [74.93155, 32.55699],
          [74.93155, 32.55699],
          [74.93193, 32.55794],
          [74.93193, 32.55794],
          [74.93231, 32.5589],
          [74.93231, 32.5589],
          [74.93268, 32.55985],
          [74.93268, 32.55985],
          [74.93305, 32.56079],
          [74.93306, 32.56081],
          [74.93334, 32.56128],
          [74.93364, 32.56177],
          [74.93422, 32.56275],
          [74.93423, 32.56277],
          [74.93467, 32.56324],
          [74.93469, 32.56326],
          [74.93515, 32.56377],
          [74.93515, 32.56377],
          [74.93519, 32.56388],
          [74.9352, 32.56389],
          [74.93533, 32.56408],
          [74.93547, 32.56427],
          [74.93548, 32.56429],
          [74.93664, 32.56467],
          [74.93679, 32.56472],
          [74.93767, 32.56501],
          [74.93781, 32.56506],
          [74.93867, 32.56527],
          [74.93871, 32.56528],
          [74.93949, 32.56547],
          [74.93954, 32.56548],
          [74.94014, 32.56602],
          [74.94016, 32.56603],
          [74.94071, 32.56653],
          [74.94073, 32.56655],
          [74.94074, 32.56656],
          [74.94121, 32.56707],
          [74.94122, 32.56708],
          [74.94171, 32.56761],
          [74.94268, 32.56767],
          [74.94366, 32.56773],
          [74.94371, 32.56773],
          [74.94445, 32.56779],
          [74.94449, 32.56779],
          [74.94532, 32.56787],
          [74.94608, 32.5681],
          [74.94684, 32.56833],
          [74.94721, 32.56888],
          [74.94725, 32.56894],
          [74.94728, 32.56899],
          [74.94756, 32.5694],
          [74.94772, 32.56965],
          [74.94772, 32.56965],
          [74.94795, 32.57086],
          [74.94817, 32.57208],
          [74.94816, 32.57211],
          [74.94793, 32.5732],
          [74.94792, 32.57323],
          [74.94792, 32.57325],
          [74.94767, 32.57437],
          [74.94767, 32.57439],
          [74.94765, 32.57656],
          [74.94765, 32.57659],
          [74.94766, 32.57774],
          [74.94766, 32.57785],
          [74.95365, 32.57785],
          [74.95393, 32.57841],
          [74.95484, 32.57846],
          [74.95885, 32.57834],
          [74.96249, 32.57822],
          [74.965, 32.57962],
          [74.96641, 32.57935],
          [74.96781, 32.5791],
          [74.96947, 32.57932],
          [74.97112, 32.57955],
          [74.97208, 32.57984],
          [74.97303, 32.58014],
          [74.97406, 32.58028],
          [74.97509, 32.58042],
          [74.97604, 32.58064],
          [74.97714, 32.58093],
          [74.97825, 32.58122],
          [74.97993, 32.58147],
          [74.98161, 32.58172],
          [74.98421, 32.58078],
          [74.98615, 32.57911]
        ]
      ]
    ]
  }
}
