{
  "type": "Feature",
  "id": "JK-AC-72",
  "properties": {
    "stateName": "JAMMU & KASHMIR",
    "stateCode": "JK",
    "districtName": "JAMMU",
    "acNo": 72,
    "acName": "BISHNAH (SC)",
    "seatType": null,
    "pcNo": null,
    "pcName": null,
    "quality": "unverified",
    "sources": [
      "TBD"
    ]
  },
  "geometry": {
    "type": "MultiPolygon",
    "coordinates": [
      [
        [
          [74.8818, 32.6367],
          [74.88177, 32.63654],
          [74.88183, 32.63659],
          [74.88224, 32.63686],
          [74.88358, 32.63721],
          [74.88521, 32.63761],
          [74.88833, 32.63895],
          [74.89138, 32.63902],
          [74.89193, 32.63761],
          [74.8954, 32.6418],
          [74.8954, 32.64161],
          [74.89552, 32.64084],
          [74.89564, 32.64008],
          [74.89618, 32.63955],
          [74.89672, 32.63904],
          [74.89672, 32.63904],
          [74.89648, 32.63881],
          [74.89599, 32.6384],
          [74.89551, 32.63799],
          [74.895, 32.63757],
          [74.89449, 32.63715],
          [74.89409, 32.63684],
          [74.89387, 32.63667],
          [74.89386, 32.63666],
          [74.89298, 32.63611],
          [74.89183, 32.63539],
          [74.89135, 32.63512],
          [74.89118, 32.63502],
          [74.89088, 32.63484],
          [74.89088, 32.63484],
          [74.89149, 32.63385],
          [74.89203, 32.63295],
          [74.89234, 32.63247],
          [74.89277, 32.63193],
          [74.89243, 32.63128],
          [74.89208, 32.63111],
          [74.89174, 32.63095],
          [74.89135, 32.63075],
          [74.89096, 32.63055],
          [74.89067, 32.63045],
          [74.89018, 32.63025],
          [74.88983, 32.63004],
          [74.88966, 32.62993],
          [74.88949, 32.62982],
          [74.88949, 32.62982],
          [74.88949, 32.62934],
          [74.88949, 32.62886],
          [74.88949, 32.62886],
          [74.88909, 32.6283],
          [74.88909, 32.6283],
          [74.88916, 32.62767],
          [74.88916, 32.62767],
          [74.88869, 32.62677],
          [74.88783, 32.62651],
          [74.88726, 32.62633],
          [74.88641, 32.62607],
          [74.88588, 32.62647],
          [74.88536, 32.62687],
          [74.88493, 32.62655],
          [74.88479, 32.62644],
          [74.88445, 32.62616],
          [74.88445, 32.62616],
          [74.88551, 32.62551],
          [74.88594, 32.62524],
          [74.88658, 32.62485],
          [74.88672, 32.62477],
          [74.88676, 32.62474],
          [74.8873, 32.62442],
          [74.88741, 32.62377],
          [74.88741, 32.62377],
          [74.88689, 32.62343],
          [74.88637, 32.62309],
          [74.88586, 32.62231],
          [74.88535, 32.62154],
          [74.885, 32.6209],
          [74.88466, 32.62027],
          [74.88336, 32.61978],
          [74.88205, 32.61958],
          [74.88113, 32.6204],
          [74.88036, 32.62085],
          [74.88019, 32.62089],
          [74.8785, 32.62127],
          [74.87833, 32.62131],
          [74.87692, 32.62103],
          [74.87684, 32.621],
          [74.87517, 32.62053],
          [74.87508, 32.6205],
          [74.87348, 32.62042],
          [74.87252, 32.62059],
          [74.87155, 32.62076],
          [74.87076, 32.62056],
          [74.86937, 32.62097],
          [74.86937, 32.62097],
          [74.87086, 32.61916],
          [74.8739, 32.61612],
          [74.87573, 32.61476],
          [74.87633, 32.61441],
          [74.87763, 32.61399],
          [74.87874, 32.6139],
          [74.87948, 32.61333],
          [74.88033, 32.61289],
          [74.88077, 32.61201],
          [74.88158, 32.61138],
          [74.88251, 32.61128],
          [74.88373, 32.61096],
          [74.88388, 32.61089],
          [74.88427, 32.61071],
          [74.88465, 32.61053],
          [74.8848, 32.61046],
          [74.88525, 32.60992],
          [74.88519, 32.6098],
          [74.88489, 32.60923],
          [74.88483, 32.60911],
          [74.88483, 32.60911],
          [74.88492, 32.60908],
          [74.88552, 32.60887],
          [74.88612, 32.60866],
          [74.88621, 32.60863],
          [74.88728, 32.60822],
          [74.88782, 32.6086],
          [74.88835, 32.60897],
          [74.88838, 32.60901],
          [74.88875, 32.60954],
          [74.88913, 32.6101],
          [74.88914, 32.6101],
          [74.89001, 32.61069],
          [74.89088, 32.61129],
          [74.89148, 32.6118],
          [74.89208, 32.61232],
          [74.89209, 32.61233],
          [74.89282, 32.61342],
          [74.89356, 32.6145],
          [74.89356, 32.61451],
          [74.89448, 32.61581],
          [74.89539, 32.61711],
          [74.89539, 32.61711],
          [74.89566, 32.61779],
          [74.89592, 32.61846],
          [74.89719, 32.61927],
          [74.90186, 32.62148],
          [74.90417, 32.62267],
          [74.90424, 32.62272],
          [74.90592, 32.62396],
          [74.90599, 32.62401],
          [74.90681, 32.625],
          [74.9073, 32.62557],
          [74.90733, 32.62561],
          [74.90789, 32.62617],
          [74.90807, 32.62637],
          [74.9084, 32.62672],
          [74.90883, 32.62719],
          [74.90884, 32.62721],
          [74.90922, 32.62766],
          [74.90923, 32.62767],
          [74.91034, 32.62651],
          [74.9104, 32.62645],
          [74.91124, 32.62562],
          [74.91233, 32.62452],
          [74.91433, 32.62329],
          [74.91508, 32.62251],
          [74.91534, 32.62235],
          [74.91624, 32.62181],
          [74.91655, 32.62162],
          [74.91786, 32.62083],
          [74.918, 32.62075],
          [74.91989, 32.61964],
          [74.92029, 32.61941],
          [74.92255, 32.6181],
          [74.92261, 32.61806],
          [74.92266, 32.61802],
          [74.92388, 32.61707],
          [74.92394, 32.61703],
          [74.92486, 32.61574],
          [74.92621, 32.61407],
          [74.92626, 32.61402],
          [74.92653, 32.61374],
          [74.92724, 32.61288],
          [74.92763, 32.61237],
          [74.92763, 32.61237],
          [74.927, 32.61187],
          [74.92637, 32.61136],
          [74.92618, 32.61123],
          [74.92577, 32.61094],
          [74.92418, 32.60984],
          [74.92319, 32.60896],
          [74.92163, 32.60782],
          [74.9216, 32.6078],
          [74.9201, 32.6067],
          [74.92007, 32.60668],
          [74.92006, 32.60667],
          [74.91891, 32.60566],
          [74.91887, 32.60562],
          [74.91887, 32.60562],
          [74.91933, 32.605],
          [74.91937, 32.60496],
          [74.91993, 32.6044],
          [74.91997, 32.60436],
          [74.92034, 32.60382],
          [74.92072, 32.60327],
          [74.92073, 32.60279],
          [74.92075, 32.60231],
          [74.92136, 32.60224],
          [74.92197, 32.60217],
          [74.92274, 32.60258],
          [74.9231, 32.6028],
          [74.92367, 32.60291],
          [74.92424, 32.60302],
          [74.92514, 32.60284],
          [74.92527, 32.60246],
          [74.9254, 32.60207],
          [74.92544, 32.60202],
          [74.92611, 32.60119],
          [74.9265, 32.60025],
          [74.92677, 32.59961],
          [74.92704, 32.59897],
          [74.92755, 32.59825],
          [74.92772, 32.59802],
          [74.92781, 32.59789],
          [74.92807, 32.59754],
          [74.92835, 32.59696],
          [74.92864, 32.59638],
          [74.92885, 32.59572],
          [74.92906, 32.59507],
          [74.92953, 32.59498],
          [74.93, 32.59488],
          [74.93031, 32.59479],
          [74.93128, 32.59454],
          [74.93275, 32.59413],
          [74.93379, 32.59384],
          [74.93455, 32.59339],
          [74.93499, 32.59313],
          [74.93551, 32.59282],
          [74.93623, 32.59234],
          [74.93693, 32.59188],
          [74.93716, 32.59173],
          [74.9376, 32.59126],
          [74.93805, 32.59078],
          [74.93906, 32.59154],
          [74.94007, 32.5923],
          [74.941, 32.59297],
          [74.94147, 32.59331],
          [74.94189, 32.59362],
          [74.94193, 32.59365],
          [74.94273, 32.59427],
          [74.94353, 32.59489],
          [74.94425, 32.5953],
          [74.94497, 32.59572],
          [74.94574, 32.5962],
          [74.946, 32.59636],
          [74.94702, 32.59701],
          [74.94708, 32.59695],
          [74.94792, 32.59615],
          [74.94823, 32.59587],
          [74.94899, 32.59535],
          [74.94942, 32.59512],
          [74.94975, 32.59483],
          [74.9502, 32.59427],
          [74.95064, 32.59372],
          [74.95064, 32.59372],
          [74.94932, 32.59291],
          [74.94926, 32.59288],
          [74.94923, 32.59286],
          [74.94865, 32.5925],
          [74.94865, 32.5925],
          [74.94799, 32.5921],
          [74.94687, 32.59136],
          [74.94683, 32.59134],
          [74.94655, 32.59115],
          [74.94568, 32.59058],
          [74.94557, 32.5905],
          [74.94334, 32.58894],
          [74.94323, 32.58886],
          [74.94179, 32.5879],
          [74.94092, 32.58728],
          [74.94092, 32.58728],
          [74.9407, 32.58708],
          [74.94068, 32.58708],
          [74.94059, 32.587],
          [74.94047, 32.58691],
          [74.94039, 32.58683],
          [74.94039, 32.58683],
          [74.93981, 32.58635],
          [74.93965, 32.58622],
          [74.9396, 32.58618],
          [74.93959, 32.58617],
          [74.93954, 32.58613],
          [74.93902, 32.58567],
          [74.93902, 32.58566],
          [74.93909, 32.58562],
          [74.9394, 32.58543],
          [74.9397, 32.58525],
          [74.93977, 32.5852],
          [74.94007, 32.58533],
          [74.94036, 32.58544],
          [74.94112, 32.58578],
          [74.94187, 32.58611],
          [74.94191, 32.58614],
          [74.94262, 32.58658],
          [74.94334, 32.58702],
          [74.94339, 32.58705],
          [74.94411, 32.58679],
          [74.94485, 32.58655],
          [74.94485, 32.58653],
          [74.94472, 32.58598],
          [74.94458, 32.5854],
          [74.94458, 32.5854],
          [74.94464, 32.58496],
          [74.9447, 32.58453],
          [74.94504, 32.5839],
          [74.94538, 32.58329],
          [74.94554, 32.58324],
          [74.94585, 32.58315],
          [74.94616, 32.58305],
          [74.94631, 32.58301],
          [74.94696, 32.58301],
          [74.9476, 32.58302],
          [74.9476, 32.58293],
          [74.9476, 32.58289],
          [74.94766, 32.58114],
          [74.94766, 32.5811],
          [74.94766, 32.58103],
          [74.94766, 32.57785],
          [74.94766, 32.57774],
          [74.94765, 32.57659],
          [74.94765, 32.57656],
          [74.94767, 32.57439],
          [74.94767, 32.57437],
          [74.94792, 32.57325],
          [74.94792, 32.57323],
          [74.94793, 32.5732],
          [74.94816, 32.57211],
          [74.94817, 32.57208],
          [74.94795, 32.57086],
          [74.94772, 32.56965],
          [74.94772, 32.56965],
          [74.94756, 32.5694],
          [74.94728, 32.56899],
          [74.94725, 32.56894],
          [74.94721, 32.56888],
          [74.94684, 32.56833],
          [74.94608, 32.5681],
          [74.94532, 32.56787],
          [74.94449, 32.56779],
          [74.94445, 32.56779],
          [74.94371, 32.56773],
          [74.94366, 32.56773],
          [74.94268, 32.56767],
          [74.94171, 32.56761],
          [74.94122, 32.56708],
          [74.94121, 32.56707],
          [74.94074, 32.56656],
          [74.94073, 32.56655],
          [74.94071, 32.56653],
          [74.94016, 32.56603],
          [74.94014, 32.56602],
          [74.93954, 32.56548],
          [74.93949, 32.56547],
          [74.93871, 32.56528],
          [74.93867, 32.56527],
          [74.93781, 32.56506],
          [74.93767, 32.56501],
          [74.93679, 32.56472],
          [74.93664, 32.56467],
          [74.93548, 32.56429],
          [74.93547, 32.56427],
          [74.93533, 32.56408],
          [74.9352, 32.56389],
          [74.93519, 32.56388],
          [74.93515, 32.56377],
          [74.93515, 32.56377],
          [74.93469, 32.56326],
          [74.93467, 32.56324],
          [74.93423, 32.56277],
          [74.93422, 32.56275],
          [74.93364, 32.56177],
          [74.93334, 32.56128],
          [74.93306, 32.56081],
          [74.93305, 32.56079],
          [74.93268, 32.55985],
          [74.93268, 32.55985],
          [74.93231, 32.5589],
          [74.93231, 32.5589],
          [74.93193, 32.55794],
          [74.93193, 32.55794],
          [74.93155, 32.55699],
          [74.93155, 32.55699],
          [74.93131, 32.55643],
          [74.93131, 32.55643],
          [74.93099, 32.55597],
          [74.93079, 32.55567],
          [74.93079, 32.55567],
          [74.9303, 32.55496],
          [74.93026, 32.55491],
          [74.9301, 32.55465],
          [74.93002, 32.55452],
          [74.92978, 32.55413],
          [74.92962, 32.55387],
          [74.92961, 32.55386],
          [74.9293, 32.55335],
          [74.92914, 32.55309],
          [74.92914, 32.55309],
          [74.92914, 32.55309],
          [74.92899, 32.55285],
          [74.92897, 32.55283],
          [74.92897, 32.55282],
          [74.92864, 32.55236],
          [74.92846, 32.55213],
          [74.92821, 32.55177],
          [74.92808, 32.5516],
          [74.92796, 32.55142],
          [74.92734, 32.55126],
          [74.92673, 32.55108],
          [74.92611, 32.55091],
          [74.9255, 32.55074],
          [74.92544, 32.55073],
          [74.92416, 32.55045],
          [74.9229, 32.55017],
          [74.92281, 32.55015],
          [74.92208, 32.54995],
          [74.92183, 32.54988],
          [74.92086, 32.54962],
          [74.92083, 32.5496],
          [74.92015, 32.54934],
          [74.91946, 32.54907],
          [74.91941, 32.54905],
          [74.91905, 32.54891],
          [74.91803, 32.5485],
          [74.91796, 32.54848],
          [74.9179, 32.54846],
          [74.91763, 32.54837],
          [74.91754, 32.54835],
          [74.91729, 32.54827],
          [74.91662, 32.54807],
          [74.91656, 32.54805],
          [74.91535, 32.54768],
          [74.91528, 32.54766],
          [74.91523, 32.54766],
          [74.91442, 32.54767],
          [74.91438, 32.54767],
          [74.91393, 32.54768],
          [74.91348, 32.54768],
          [74.91292, 32.54812],
          [74.91236, 32.54856],
          [74.91124, 32.54944],
          [74.91009, 32.55006],
          [74.9098, 32.55022],
          [74.90893, 32.55069],
          [74.90832, 32.55076],
          [74.90795, 32.5508],
          [74.90758, 32.55084],
          [74.90721, 32.55088],
          [74.90696, 32.55091],
          [74.90689, 32.5509],
          [74.90578, 32.55089],
          [74.90572, 32.55088],
          [74.90509, 32.55088],
          [74.90447, 32.55086],
          [74.90375, 32.55077],
          [74.90302, 32.55068],
          [74.9023, 32.55059],
          [74.90158, 32.5505],
          [74.90161, 32.55022],
          [74.90172, 32.54936],
          [74.90183, 32.54869],
          [74.90195, 32.54802],
          [74.90201, 32.54769],
          [74.90218, 32.5467],
          [74.90222, 32.54644],
          [74.90234, 32.54567],
          [74.90309, 32.54506],
          [74.90334, 32.54486],
          [74.90396, 32.5442],
          [74.90427, 32.54387],
          [74.90458, 32.54354],
          [74.90539, 32.54302],
          [74.90543, 32.54233],
          [74.90545, 32.54212],
          [74.90542, 32.54116],
          [74.90542, 32.54084],
          [74.90543, 32.54004],
          [74.90536, 32.53767],
          [74.90729, 32.53594],
          [74.90816, 32.53525],
          [74.90822, 32.53519],
          [74.90884, 32.53465],
          [74.90844, 32.5334],
          [74.90832, 32.53299],
          [74.90832, 32.53299],
          [74.9083, 32.53297],
          [74.90689, 32.53131],
          [74.90686, 32.53128],
          [74.90681, 32.53123],
          [74.90667, 32.53111],
          [74.90593, 32.53042],
          [74.90536, 32.5299],
          [74.90536, 32.5299],
          [74.9046, 32.5292],
          [74.90429, 32.52891],
          [74.90363, 32.52832],
          [74.90342, 32.52812],
          [74.90342, 32.52812],
          [74.90309, 32.52782],
          [74.90086, 32.52578],
          [74.90083, 32.52574],
          [74.89951, 32.52668],
          [74.89819, 32.52762],
          [74.89809, 32.52768],
          [74.89765, 32.52792],
          [74.89742, 32.52804],
          [74.89711, 32.52822],
          [74.89684, 32.52837],
          [74.89602, 32.52882],
          [74.89584, 32.529],
          [74.89493, 32.52996],
          [74.89428, 32.53064],
          [74.89372, 32.53123],
          [74.89319, 32.53178],
          [74.89263, 32.53237],
          [74.89254, 32.53246],
          [74.89232, 32.53212],
          [74.89228, 32.53206],
          [74.89225, 32.53201],
          [74.8921, 32.53179],
          [74.892, 32.53162],
          [74.89189, 32.53145],
          [74.89178, 32.53128],
          [74.89167, 32.53111],
          [74.89151, 32.53095],
          [74.89134, 32.53078],
          [74.89125, 32.5307],
          [74.891, 32.53045],
          [74.89095, 32.5304],
          [74.89083, 32.53029],
          [74.89067, 32.53013],
          [74.8905, 32.52996],
          [74.89033, 32.5298],
          [74.89009, 32.52967],
          [74.88986, 32.52955],
          [74.88975, 32.52949],
          [74.88949, 32.52935],
          [74.88938, 32.52929],
          [74.88912, 32.52916],
          [74.88901, 32.5291],
          [74.88886, 32.52902],
          [74.88864, 32.52891],
          [74.88843, 32.52879],
          [74.8882, 32.52884],
          [74.88796, 32.52889],
          [74.88773, 32.52894],
          [74.8875, 32.52898],
          [74.88727, 32.52875],
          [74.88704, 32.52852],
          [74.88666, 32.52823],
          [74.88628, 32.52793],
          [74.88621, 32.52787],
          [74.8859, 32.52763],
          [74.88579, 32.52755],
          [74.88552, 32.52734],
          [74.88546, 32.52727],
          [74.88521, 32.52694],
          [74.88505, 32.52673],
          [74.88489, 32.52653],
          [74.8848, 32.52641],
          [74.88458, 32.52613],
          [74.88442, 32.52592],
          [74.88426, 32.52572],
          [74.88428, 32.52539],
          [74.8843, 32.52506],
          [74.88432, 32.52473],
          [74.88434, 32.52439],
          [74.88435, 32.52406],
          [74.88438, 32.52373],
          [74.88439, 32.52348],
          [74.88441, 32.52306],
          [74.88441, 32.52285],
          [74.88442, 32.52245],
          [74.88442, 32.52228],
          [74.88442, 32.52195],
          [74.88442, 32.52184],
          [74.88443, 32.52154],
          [74.88443, 32.52123],
          [74.88443, 32.52092],
          [74.88443, 32.52062],
          [74.88431, 32.52027],
          [74.88419, 32.51994],
          [74.88407, 32.5196],
          [74.884, 32.51943],
          [74.88394, 32.51926],
          [74.8845, 32.51885],
          [74.88469, 32.51871],
          [74.88532, 32.51829],
          [74.88596, 32.51787],
          [74.88647, 32.51756],
          [74.88705, 32.51719],
          [74.88705, 32.51719],
          [74.8867, 32.51691],
          [74.88649, 32.51675],
          [74.8862, 32.51653],
          [74.88599, 32.51637],
          [74.88565, 32.51613],
          [74.88545, 32.51602],
          [74.88522, 32.51591],
          [74.88522, 32.51591],
          [74.88522, 32.51591],
          [74.88561, 32.51544],
          [74.88641, 32.51449],
          [74.88681, 32.51402],
          [74.88735, 32.51346],
          [74.88791, 32.51289],
          [74.88842, 32.51251],
          [74.88892, 32.51213],
          [74.88902, 32.51209],
          [74.88934, 32.51196],
          [74.88995, 32.51172],
          [74.89029, 32.51158],
          [74.89042, 32.5115],
          [74.89149, 32.51078],
          [74.89149, 32.51078],
          [74.89162, 32.5107],
          [74.8914, 32.51001],
          [74.89138, 32.51],
          [74.89075, 32.50966],
          [74.89014, 32.50932],
          [74.89012, 32.50931],
          [74.88929, 32.50851],
          [74.88901, 32.50824],
          [74.88852, 32.50744],
          [74.88852, 32.50743],
          [74.88827, 32.50703],
          [74.8881, 32.50674],
          [74.88803, 32.50663],
          [74.88775, 32.50623],
          [74.88719, 32.50546],
          [74.88704, 32.50526],
          [74.88645, 32.50449],
          [74.88599, 32.5039],
          [74.88553, 32.50332],
          [74.88508, 32.50274],
          [74.88507, 32.50273],
          [74.88506, 32.50272],
          [74.88417, 32.50159],
          [74.88416, 32.50157],
          [74.88414, 32.50155],
          [74.88393, 32.50128],
          [74.88326, 32.50042],
          [74.88325, 32.5004],
          [74.88325, 32.5004],
          [74.88325, 32.5004],
          [74.88317, 32.5001],
          [74.88294, 32.49975],
          [74.88293, 32.49974],
          [74.88293, 32.49974],
          [74.8822, 32.49862],
          [74.88189, 32.49815],
          [74.8818, 32.49801],
          [74.8818, 32.49801],
          [74.88086, 32.49656],
          [74.88085, 32.49655],
          [74.88044, 32.496],
          [74.87941, 32.49464],
          [74.87939, 32.49461],
          [74.87939, 32.49461],
          [74.87887, 32.49392],
          [74.8787, 32.4937],
          [74.87799, 32.49275],
          [74.87799, 32.49275],
          [74.87728, 32.49297],
          [74.87586, 32.49199],
          [74.87286, 32.48926],
          [74.87183, 32.488],
          [74.87074, 32.48596],
          [74.86827, 32.48609],
          [74.86529, 32.48634],
          [74.86302, 32.48778],
          [74.86183, 32.48987],
          [74.85864, 32.49285],
          [74.85752, 32.49308],
          [74.85498, 32.49235],
          [74.8536, 32.49058],
          [74.85151, 32.49025],
          [74.85058, 32.49039],
          [74.84873, 32.48918],
          [74.84708, 32.48918],
          [74.84571, 32.49022],
          [74.844, 32.49093],
          [74.84142, 32.49107],
          [74.84014, 32.49184],
          [74.83958, 32.49275],
          [74.83774, 32.49443],
          [74.83552, 32.49516],
          [74.83302, 32.49486],
          [74.82823, 32.49459],
          [74.82423, 32.49507],
          [74.8221, 32.49563],
          [74.82105, 32.49682],
          [74.81989, 32.49794],
          [74.81875, 32.49791],
          [74.81815, 32.49672],
          [74.81704, 32.49441],
          [74.8152, 32.48925],
          [74.81377, 32.48678],
          [74.8133, 32.4847],
          [74.81292, 32.48103],
          [74.81282, 32.47964],
          [74.81027, 32.48013],
          [74.807, 32.48074],
          [74.80277, 32.4822],
          [74.8005, 32.48232],
          [74.80042, 32.48136],
          [74.79985, 32.47929],
          [74.79954, 32.47781],
          [74.79768, 32.47651],
          [74.79477, 32.4764],
          [74.79183, 32.47718],
          [74.78883, 32.47725],
          [74.78446, 32.47828],
          [74.78102, 32.47934],
          [74.77825, 32.47966],
          [74.77651, 32.47985],
          [74.77367, 32.4807],
          [74.77113, 32.48128],
          [74.76832, 32.48108],
          [74.76548, 32.48053],
          [74.76209, 32.4808],
          [74.758, 32.48154],
          [74.75463, 32.48208],
          [74.75305, 32.479],
          [74.75155, 32.4783],
          [74.75024, 32.47872],
          [74.74853, 32.47942],
          [74.74539, 32.47889],
          [74.7405, 32.47863],
          [74.73816, 32.4791],
          [74.7378, 32.47991],
          [74.73535, 32.48031],
          [74.73103, 32.48062],
          [74.72835, 32.48077],
          [74.72827, 32.47972],
          [74.72796, 32.47693],
          [74.72746, 32.47582],
          [74.72388, 32.47636],
          [74.72162, 32.47665],
          [74.71899, 32.4775],
          [74.71677, 32.47814],
          [74.71627, 32.47712],
          [74.71552, 32.47672],
          [74.7145, 32.47686],
          [74.7145, 32.47687],
          [74.71419, 32.47837],
          [74.71419, 32.47837],
          [74.71338, 32.47859],
          [74.71118, 32.47818],
          [74.71118, 32.47818],
          [74.71139, 32.47966],
          [74.71222, 32.48242],
          [74.71341, 32.48587],
          [74.71357, 32.48582],
          [74.7148, 32.48639],
          [74.71527, 32.48611],
          [74.71548, 32.48602],
          [74.71587, 32.48593],
          [74.71623, 32.48594],
          [74.71663, 32.486],
          [74.71695, 32.48606],
          [74.71745, 32.48601],
          [74.71807, 32.486],
          [74.71894, 32.48614],
          [74.71998, 32.48637],
          [74.72051, 32.4865],
          [74.72136, 32.48656],
          [74.72173, 32.48655],
          [74.72222, 32.48648],
          [74.7233, 32.48626],
          [74.7246, 32.48543],
          [74.72639, 32.48437],
          [74.72787, 32.48363],
          [74.72872, 32.48329],
          [74.72902, 32.48317],
          [74.73026, 32.48262],
          [74.73238, 32.48335],
          [74.73343, 32.48414],
          [74.7343, 32.4849],
          [74.73494, 32.48557],
          [74.73525, 32.48622],
          [74.73594, 32.48693],
          [74.73672, 32.48864],
          [74.73705, 32.48938],
          [74.73767, 32.49065],
          [74.73815, 32.49128],
          [74.73879, 32.49198],
          [74.74097, 32.49443],
          [74.74198, 32.49576],
          [74.74208, 32.49589],
          [74.74224, 32.4961],
          [74.74284, 32.49653],
          [74.74344, 32.49689],
          [74.74379, 32.4974],
          [74.74396, 32.49766],
          [74.7441, 32.49842],
          [74.74446, 32.49898],
          [74.7453, 32.49859],
          [74.74514, 32.50012],
          [74.7453, 32.50079],
          [74.74522, 32.5013],
          [74.74628, 32.50134],
          [74.7467, 32.50099],
          [74.74777, 32.50034],
          [74.74974, 32.49967],
          [74.75, 32.49959],
          [74.75119, 32.49925],
          [74.75131, 32.49984],
          [74.75255, 32.50009],
          [74.7535, 32.49987],
          [74.75421, 32.49946],
          [74.7544, 32.49934],
          [74.75547, 32.49931],
          [74.75469, 32.49859],
          [74.75563, 32.49881],
          [74.75581, 32.49886],
          [74.75653, 32.49903],
          [74.75675, 32.4989],
          [74.75819, 32.49964],
          [74.75839, 32.50076],
          [74.75969, 32.50161],
          [74.76014, 32.5019],
          [74.76065, 32.50223],
          [74.76162, 32.50288],
          [74.76265, 32.50358],
          [74.7649, 32.50522],
          [74.7658, 32.50575],
          [74.76651, 32.5062],
          [74.7676, 32.50697],
          [74.76955, 32.50691],
          [74.77211, 32.50767],
          [74.77363, 32.50651],
          [74.77409, 32.50613],
          [74.77485, 32.50632],
          [74.77607, 32.50579],
          [74.77686, 32.50551],
          [74.77743, 32.50577],
          [74.77491, 32.50847],
          [74.77397, 32.51126],
          [74.77474, 32.51163],
          [74.77544, 32.51202],
          [74.77617, 32.51252],
          [74.77686, 32.51286],
          [74.77738, 32.51288],
          [74.77753, 32.51275],
          [74.77802, 32.51207],
          [74.77942, 32.51202],
          [74.78004, 32.51236],
          [74.78039, 32.51333],
          [74.78054, 32.51522],
          [74.78013, 32.51695],
          [74.77762, 32.51726],
          [74.7761, 32.51697],
          [74.77568, 32.51744],
          [74.7746, 32.51771],
          [74.77348, 32.51783],
          [74.77331, 32.51841],
          [74.77451, 32.51931],
          [74.77525, 32.51994],
          [74.77583, 32.52047],
          [74.77745, 32.52175],
          [74.77844, 32.52259],
          [74.77921, 32.52328],
          [74.78031, 32.52441],
          [74.78168, 32.52503],
          [74.78338, 32.5258],
          [74.78487, 32.52642],
          [74.78607, 32.52629],
          [74.78706, 32.52397],
          [74.78754, 32.5236],
          [74.78778, 32.52344],
          [74.78874, 32.52371],
          [74.78898, 32.52465],
          [74.78943, 32.52536],
          [74.78993, 32.52607],
          [74.78989, 32.52638],
          [74.78946, 32.52788],
          [74.78833, 32.53076],
          [74.78933, 32.5307],
          [74.79036, 32.53053],
          [74.79092, 32.53048],
          [74.79133, 32.53044],
          [74.79267, 32.52886],
          [74.79471, 32.52765],
          [74.79584, 32.52699],
          [74.79775, 32.52663],
          [74.79792, 32.52659],
          [74.79868, 32.52642],
          [74.79904, 32.52635],
          [74.80023, 32.52629],
          [74.80203, 32.52627],
          [74.80271, 32.52677],
          [74.80372, 32.52727],
          [74.80489, 32.52779],
          [74.80562, 32.52824],
          [74.80647, 32.52875],
          [74.8067, 32.52901],
          [74.80727, 32.52958],
          [74.80681, 32.53055],
          [74.8063, 32.53147],
          [74.80547, 32.53229],
          [74.80434, 32.53293],
          [74.80249, 32.53383],
          [74.80396, 32.53449],
          [74.80481, 32.53479],
          [74.80645, 32.53458],
          [74.81173, 32.53396],
          [74.81337, 32.53372],
          [74.81474, 32.53374],
          [74.81565, 32.53377],
          [74.8161, 32.53378],
          [74.81791, 32.53382],
          [74.81897, 32.53399],
          [74.8201, 32.53419],
          [74.82074, 32.53447],
          [74.82109, 32.53481],
          [74.82127, 32.53549],
          [74.82085, 32.53639],
          [74.82013, 32.5371],
          [74.81982, 32.53737],
          [74.81782, 32.5383],
          [74.81666, 32.53871],
          [74.81569, 32.539],
          [74.81659, 32.53992],
          [74.81743, 32.54032],
          [74.81809, 32.54052],
          [74.81844, 32.5406],
          [74.8202, 32.54081],
          [74.82217, 32.54124],
          [74.82251, 32.54168],
          [74.8217, 32.54217],
          [74.82194, 32.54284],
          [74.82173, 32.54342],
          [74.82159, 32.54377],
          [74.82164, 32.54387],
          [74.82188, 32.54463],
          [74.82198, 32.54557],
          [74.82196, 32.54618],
          [74.82169, 32.54714],
          [74.82136, 32.54853],
          [74.82113, 32.54966],
          [74.82083, 32.5503],
          [74.82001, 32.55158],
          [74.81951, 32.55251],
          [74.81905, 32.55354],
          [74.81813, 32.55622],
          [74.8175, 32.55704],
          [74.81663, 32.55822],
          [74.81613, 32.55907],
          [74.81546, 32.56049],
          [74.81555, 32.56163],
          [74.81542, 32.56274],
          [74.81506, 32.56395],
          [74.81497, 32.56505],
          [74.81485, 32.56685],
          [74.81487, 32.56808],
          [74.81501, 32.56986],
          [74.8153, 32.57274],
          [74.81559, 32.57419],
          [74.81615, 32.57541],
          [74.81651, 32.57616],
          [74.81685, 32.57741],
          [74.81671, 32.5785],
          [74.81641, 32.57912],
          [74.81644, 32.57922],
          [74.81666, 32.57964],
          [74.81621, 32.57996],
          [74.81629, 32.58048],
          [74.81786, 32.58192],
          [74.81719, 32.58302],
          [74.81607, 32.58327],
          [74.81436, 32.58311],
          [74.81414, 32.58351],
          [74.81401, 32.58375],
          [74.81403, 32.5839],
          [74.81696, 32.58566],
          [74.82045, 32.58792],
          [74.82144, 32.58866],
          [74.82252, 32.58951],
          [74.82258, 32.59011],
          [74.82228, 32.59091],
          [74.82252, 32.59153],
          [74.82325, 32.5922],
          [74.82453, 32.5931],
          [74.8255, 32.5937],
          [74.82664, 32.59426],
          [74.82713, 32.59482],
          [74.82715, 32.59527],
          [74.8271, 32.59588],
          [74.82657, 32.59654],
          [74.82585, 32.59712],
          [74.82557, 32.59763],
          [74.82619, 32.5985],
          [74.82691, 32.59906],
          [74.82521, 32.59972],
          [74.82337, 32.60102],
          [74.82241, 32.60174],
          [74.82208, 32.60198],
          [74.82156, 32.6025],
          [74.82106, 32.60306],
          [74.82057, 32.6037],
          [74.82082, 32.60418],
          [74.82186, 32.60448],
          [74.82369, 32.60484],
          [74.82401, 32.60491],
          [74.82864, 32.60574],
          [74.83113, 32.60669],
          [74.83268, 32.60734],
          [74.83367, 32.60801],
          [74.83541, 32.60946],
          [74.83591, 32.61004],
          [74.836, 32.61071],
          [74.83595, 32.6111],
          [74.83586, 32.61168],
          [74.83528, 32.61265],
          [74.83268, 32.61498],
          [74.83078, 32.61756],
          [74.8302, 32.61836],
          [74.82848, 32.61967],
          [74.82792, 32.62073],
          [74.82735, 32.62165],
          [74.82646, 32.62329],
          [74.82588, 32.62414],
          [74.82568, 32.62498],
          [74.82593, 32.62747],
          [74.82601, 32.62821],
          [74.82619, 32.62994],
          [74.82815, 32.62915],
          [74.82939, 32.62876],
          [74.83147, 32.62855],
          [74.83459, 32.62851],
          [74.83726, 32.62869],
          [74.83855, 32.62898],
          [74.83869, 32.63004],
          [74.83859, 32.63217],
          [74.83879, 32.63315],
          [74.83977, 32.63401],
          [74.84202, 32.63633],
          [74.84254, 32.63747],
          [74.84303, 32.63808],
          [74.84375, 32.63839],
          [74.84463, 32.63813],
          [74.84585, 32.63764],
          [74.84753, 32.63567],
          [74.84818, 32.63555],
          [74.84871, 32.63546],
          [74.85086, 32.63578],
          [74.8531, 32.63617],
          [74.85783, 32.63813],
          [74.86062, 32.64013],
          [74.86158, 32.64105],
          [74.86316, 32.64376],
          [74.86422, 32.64509],
          [74.86464, 32.64544],
          [74.86621, 32.64548],
          [74.86926, 32.64598],
          [74.87299, 32.64607],
          [74.87432, 32.64637],
          [74.87472, 32.64632],
          [74.87493, 32.6463],
          [74.87589, 32.64577],
          [74.87708, 32.64508],
          [74.87891, 32.64467],
          [74.88111, 32.64405],
          [74.88313, 32.64348],
          [74.88442, 32.64283],
          [74.88331, 32.63972],
          [74.8818, 32.6367]
        ]
      ]
    ]
  }
}
