{
  "type": "Feature",
  "id": "JK-AC-76",
  "properties": {
    "stateName": "JAMMU & KASHMIR",
    "stateCode": "JK",
    "districtName": "JAMMU",
    "acNo": 76,
    "acName": "JAMMU EAST",
    "seatType": null,
    "pcNo": null,
    "pcName": null,
    "quality": "unverified",
    "sources": [
      "TBD"
    ]
  },
  "geometry": {
    "type": "MultiPolygon",
    "coordinates": [
      [
        [
          [74.86258, 32.86754],
          [74.86852, 32.86624],
          [74.87136, 32.86373],
          [74.87567, 32.86118],
          [74.87742, 32.86018],
          [74.87742, 32.86018],
          [74.88208, 32.85738],
          [74.88523, 32.85687],
          [74.88744, 32.85571],
          [74.8893, 32.85552],
          [74.88777, 32.85098],
          [74.88545, 32.84494],
          [74.88367, 32.8427],
          [74.88436, 32.84147],
          [74.88457, 32.83981],
          [74.88604, 32.83771],
          [74.88888, 32.83929],
          [74.89041, 32.8401],
          [74.8929, 32.84141],
          [74.89535, 32.84169],
          [74.89673, 32.84062],
          [74.89733, 32.84043],
          [74.89846, 32.84138],
          [74.90216, 32.84065],
          [74.90603, 32.84094],
          [74.91002, 32.84055],
          [74.91183, 32.8401],
          [74.91228, 32.8394],
          [74.91094, 32.83812],
          [74.90689, 32.83325],
          [74.90687, 32.83325],
          [74.90828, 32.8323],
          [74.90798, 32.83162],
          [74.90725, 32.82837],
          [74.90849, 32.82536],
          [74.91084, 32.82301],
          [74.91233, 32.82137],
          [74.9128, 32.81752],
          [74.91458, 32.81621],
          [74.91427, 32.81298],
          [74.91423, 32.8125],
          [74.91216, 32.81159],
          [74.90202, 32.81032],
          [74.90202, 32.81047],
          [74.90106, 32.80926],
          [74.90194, 32.80268],
          [74.90456, 32.79748],
          [74.90289, 32.79431],
          [74.90121, 32.79465],
          [74.89414, 32.79806],
          [74.89003, 32.79961],
          [74.88766, 32.80021],
          [74.88385, 32.79846],
          [74.87831, 32.79569],
          [74.87618, 32.79201],
          [74.87493, 32.79186],
          [74.87202, 32.79008],
          [74.86913, 32.78942],
          [74.8681, 32.78883],
          [74.86549, 32.7873],
          [74.8646, 32.78353],
          [74.86352, 32.78337],
          [74.86422, 32.77482],
          [74.86319, 32.77303],
          [74.86334, 32.77102],
          [74.86919, 32.77053],
          [74.871, 32.77046],
          [74.87303, 32.77038],
          [74.87788, 32.76729],
          [74.8822, 32.76507],
          [74.88396, 32.76502],
          [74.88399, 32.76666],
          [74.88404, 32.76895],
          [74.88626, 32.77175],
          [74.88962, 32.77303],
          [74.89036, 32.77311],
          [74.89221, 32.7733],
          [74.89219, 32.77316],
          [74.89533, 32.77117],
          [74.8967, 32.77004],
          [74.89699, 32.76994],
          [74.89809, 32.76957],
          [74.90086, 32.76949],
          [74.90273, 32.76816],
          [74.9052, 32.76775],
          [74.90676, 32.7659],
          [74.90951, 32.76544],
          [74.91243, 32.76512],
          [74.91329, 32.76544],
          [74.91546, 32.76549],
          [74.91538, 32.76569],
          [74.91847, 32.76668],
          [74.92039, 32.7682],
          [74.92194, 32.77124],
          [74.92462, 32.77302],
          [74.92589, 32.77489],
          [74.92659, 32.77684],
          [74.92619, 32.779],
          [74.92664, 32.77964],
          [74.93051, 32.78299],
          [74.93307, 32.78443],
          [74.93325, 32.78453],
          [74.93516, 32.78459],
          [74.93726, 32.78424],
          [74.93919, 32.78311],
          [74.9471, 32.78307],
          [74.95017, 32.77852],
          [74.9518, 32.77692],
          [74.95319, 32.77635],
          [74.95576, 32.77538],
          [74.95836, 32.77508],
          [74.95691, 32.77623],
          [74.95373, 32.77954],
          [74.95476, 32.77987],
          [74.95914, 32.77696],
          [74.9627, 32.777],
          [74.96817, 32.78057],
          [74.96913, 32.78341],
          [74.96827, 32.78744],
          [74.968, 32.79138],
          [74.97139, 32.79206],
          [74.97312, 32.79285],
          [74.97476, 32.79161],
          [74.97662, 32.79037],
          [74.97864, 32.78972],
          [74.97732, 32.79228],
          [74.98022, 32.79272],
          [74.98168, 32.79411],
          [74.98155, 32.79507],
          [74.98088, 32.79675],
          [74.98205, 32.7993],
          [74.98356, 32.80178],
          [74.99098, 32.80663],
          [74.99444, 32.80854],
          [74.99845, 32.80857],
          [75.00503, 32.8049],
          [75.00033, 32.80578],
          [74.9983, 32.80614],
          [74.99737, 32.80598],
          [74.99727, 32.80503],
          [74.99921, 32.8042],
          [74.99916, 32.80087],
          [74.99896, 32.79997],
          [74.99947, 32.79857],
          [75.00034, 32.79769],
          [75.0017, 32.79636],
          [75.00412, 32.79343],
          [75.00633, 32.79056],
          [75.00829, 32.78869],
          [75.01214, 32.78772],
          [75.01559, 32.78772],
          [75.0166, 32.78617],
          [75.0181, 32.78555],
          [75.01969, 32.78307],
          [75.02017, 32.78174],
          [75.02208, 32.78085],
          [75.02224, 32.77968],
          [75.02524, 32.7788],
          [75.02636, 32.77732],
          [75.02841, 32.77565],
          [75.0298, 32.77403],
          [75.03171, 32.77204],
          [75.03276, 32.77065],
          [75.03374, 32.76984],
          [75.03405, 32.76849],
          [75.03379, 32.76854],
          [75.03425, 32.76647],
          [75.034, 32.76195],
          [75.03279, 32.75872],
          [75.031, 32.75637],
          [75.02956, 32.75595],
          [75.0281, 32.75668],
          [75.02714, 32.75814],
          [75.02626, 32.75988],
          [75.02488, 32.76072],
          [75.02386, 32.76069],
          [75.02223, 32.76051],
          [75.01892, 32.75906],
          [75.01942, 32.75641],
          [75.01998, 32.75348],
          [75.01873, 32.75088],
          [75.01825, 32.74901],
          [75.01711, 32.74755],
          [75.01586, 32.74678],
          [75.01413, 32.74403],
          [75.01406, 32.74394],
          [75.01356, 32.7433],
          [75.01355, 32.74268],
          [75.01353, 32.74084],
          [75.01447, 32.73892],
          [75.01336, 32.73157],
          [75.01325, 32.73156],
          [75.01322, 32.73156],
          [75.01244, 32.73191],
          [75.01193, 32.73217],
          [75.01187, 32.7322],
          [75.01172, 32.73228],
          [75.01168, 32.7323],
          [75.01078, 32.73233],
          [75.01021, 32.73195],
          [75.01021, 32.73195],
          [75.01019, 32.73061],
          [75.00992, 32.72971],
          [75.00979, 32.72926],
          [75.00966, 32.72881],
          [75.00969, 32.72846],
          [75.00972, 32.72812],
          [75.01018, 32.72733],
          [75.01064, 32.72654],
          [75.01048, 32.72542],
          [75.01034, 32.72429],
          [75.01034, 32.72429],
          [75.00979, 32.72319],
          [75.00979, 32.72319],
          [75.00977, 32.72296],
          [75.00977, 32.72296],
          [75.00898, 32.72322],
          [75.00885, 32.72323],
          [75.00793, 32.72329],
          [75.007, 32.72336],
          [75.00687, 32.72336],
          [75.00655, 32.72331],
          [75.00621, 32.72325],
          [75.00587, 32.72319],
          [75.00587, 32.72319],
          [75.00555, 32.72313],
          [75.00545, 32.7231],
          [75.00449, 32.72277],
          [75.00353, 32.72245],
          [75.00353, 32.72245],
          [75.00343, 32.72242],
          [75.00207, 32.72187],
          [75.001, 32.72148],
          [75.00094, 32.72145],
          [74.99968, 32.72101],
          [74.99968, 32.72101],
          [74.99961, 32.72099],
          [74.99908, 32.72066],
          [74.99908, 32.72127],
          [74.99908, 32.72127],
          [74.99882, 32.72097],
          [74.99877, 32.72086],
          [74.99876, 32.72084],
          [74.99873, 32.72077],
          [74.99871, 32.72074],
          [74.99871, 32.72074],
          [74.99871, 32.72073],
          [74.99864, 32.72053],
          [74.99864, 32.72052],
          [74.9986, 32.72039],
          [74.99856, 32.72025],
          [74.9985, 32.72004],
          [74.99853, 32.71986],
          [74.99853, 32.71986],
          [74.99855, 32.71967],
          [74.99858, 32.71947],
          [74.9986, 32.7193],
          [74.99861, 32.71821],
          [74.99854, 32.71785],
          [74.99854, 32.71785],
          [74.99793, 32.71711],
          [74.99687, 32.71723],
          [74.99535, 32.71693],
          [74.99535, 32.71693],
          [74.99493, 32.71595],
          [74.99442, 32.71514],
          [74.99331, 32.71444],
          [74.99215, 32.71386],
          [74.99215, 32.71386],
          [74.99196, 32.71296],
          [74.99214, 32.71222],
          [74.99214, 32.71222],
          [74.99158, 32.71136],
          [74.99151, 32.71131],
          [74.99084, 32.71084],
          [74.99017, 32.71036],
          [74.9901, 32.71031],
          [74.98885, 32.70977],
          [74.98765, 32.70946],
          [74.98659, 32.70958],
          [74.9853, 32.71002],
          [74.98391, 32.7103],
          [74.98313, 32.71088],
          [74.98258, 32.71175],
          [74.98184, 32.71222],
          [74.98088, 32.7123],
          [74.97945, 32.71272],
          [74.97945, 32.71272],
          [74.97894, 32.71258],
          [74.97783, 32.71239],
          [74.97672, 32.7122],
          [74.97469, 32.71233],
          [74.97289, 32.71257],
          [74.97224, 32.713],
          [74.97035, 32.71293],
          [74.96924, 32.71266],
          [74.96813, 32.71239],
          [74.96705, 32.71197],
          [74.96598, 32.71154],
          [74.96677, 32.71027],
          [74.96699, 32.70857],
          [74.96658, 32.70651],
          [74.96611, 32.70414],
          [74.96594, 32.70356],
          [74.96507, 32.70284],
          [74.96415, 32.7026],
          [74.96266, 32.70517],
          [74.96225, 32.70587],
          [74.96137, 32.70736],
          [74.96104, 32.70859],
          [74.96152, 32.70904],
          [74.96179, 32.7093],
          [74.95803, 32.71102],
          [74.95732, 32.71455],
          [74.95599, 32.71501],
          [74.95545, 32.71875],
          [74.9526, 32.71926],
          [74.9488, 32.72165],
          [74.94514, 32.72547],
          [74.94286, 32.7256],
          [74.94193, 32.7271],
          [74.94142, 32.72793],
          [74.93894, 32.72936],
          [74.93671, 32.73078],
          [74.93361, 32.7318],
          [74.93202, 32.73236],
          [74.93109, 32.73285],
          [74.92919, 32.73279],
          [74.92484, 32.73227],
          [74.924, 32.73167],
          [74.92129, 32.73163],
          [74.92007, 32.73149],
          [74.91826, 32.73217],
          [74.91537, 32.73087],
          [74.91272, 32.73072],
          [74.91098, 32.72928],
          [74.90658, 32.7294],
          [74.90491, 32.72835],
          [74.90369, 32.73005],
          [74.90202, 32.73232],
          [74.8955, 32.73365],
          [74.89273, 32.73372],
          [74.8914, 32.73256],
          [74.88869, 32.73257],
          [74.88673, 32.73262],
          [74.88636, 32.73372],
          [74.88548, 32.7338],
          [74.88541, 32.73552],
          [74.88632, 32.73607],
          [74.88628, 32.73687],
          [74.88504, 32.73816],
          [74.88464, 32.74001],
          [74.88463, 32.74001],
          [74.88333, 32.74319],
          [74.88224, 32.74482],
          [74.88203, 32.74815],
          [74.8816, 32.75154],
          [74.88151, 32.75228],
          [74.88171, 32.75403],
          [74.87915, 32.74792],
          [74.87887, 32.74413],
          [74.87855, 32.73993],
          [74.87844, 32.73839],
          [74.8771, 32.73839],
          [74.87716, 32.73786],
          [74.8771, 32.73572],
          [74.87706, 32.73405],
          [74.87702, 32.73352],
          [74.87691, 32.73227],
          [74.87652, 32.73123],
          [74.87646, 32.73112],
          [74.87612, 32.73044],
          [74.87563, 32.7295],
          [74.87503, 32.72846],
          [74.87494, 32.72787],
          [74.87464, 32.72713],
          [74.87251, 32.72594],
          [74.8695, 32.72471],
          [74.86653, 32.72396],
          [74.86475, 32.72327],
          [74.86376, 32.72303],
          [74.86302, 32.72303],
          [74.86173, 32.72278],
          [74.86055, 32.72238],
          [74.85971, 32.72233],
          [74.85768, 32.72194],
          [74.85852, 32.71907],
          [74.86208, 32.72031],
          [74.86673, 32.72209],
          [74.86994, 32.72321],
          [74.87136, 32.7219],
          [74.87273, 32.72077],
          [74.87389, 32.72021],
          [74.87321, 32.71914],
          [74.87261, 32.71854],
          [74.87202, 32.71792],
          [74.87172, 32.71729],
          [74.871, 32.71649],
          [74.87032, 32.71592],
          [74.86981, 32.71539],
          [74.8694, 32.71488],
          [74.86892, 32.71461],
          [74.86863, 32.71435],
          [74.8686, 32.71408],
          [74.86827, 32.71488],
          [74.86607, 32.71628],
          [74.86238, 32.71809],
          [74.86125, 32.71833],
          [74.85878, 32.71806],
          [74.8589, 32.71759],
          [74.85923, 32.71708],
          [74.85943, 32.71652],
          [74.85958, 32.71604],
          [74.85964, 32.71533],
          [74.85964, 32.71455],
          [74.85921, 32.71309],
          [74.85852, 32.71314],
          [74.85674, 32.71319],
          [74.85545, 32.71373],
          [74.85466, 32.71457],
          [74.8541, 32.71517],
          [74.85382, 32.71546],
          [74.85442, 32.71581],
          [74.85397, 32.71615],
          [74.85343, 32.71645],
          [74.85199, 32.71724],
          [74.85016, 32.71798],
          [74.84814, 32.71892],
          [74.84754, 32.71966],
          [74.8474, 32.72194],
          [74.84581, 32.72238],
          [74.84295, 32.72322],
          [74.84191, 32.72352],
          [74.84222, 32.72567],
          [74.8434, 32.72692],
          [74.84385, 32.72811],
          [74.84388, 32.72909],
          [74.84424, 32.73113],
          [74.84439, 32.73198],
          [74.84564, 32.73135],
          [74.8459, 32.73114],
          [74.84617, 32.73085],
          [74.84653, 32.7304],
          [74.84712, 32.72986],
          [74.84906, 32.72903],
          [74.84942, 32.72911],
          [74.85081, 32.72869],
          [74.85239, 32.72821],
          [74.85425, 32.72719],
          [74.85606, 32.72608],
          [74.8573, 32.72755],
          [74.85759, 32.72799],
          [74.85789, 32.72861],
          [74.8584, 32.72966],
          [74.8585, 32.73004],
          [74.8586, 32.73051],
          [74.85867, 32.73111],
          [74.85867, 32.73171],
          [74.85865, 32.73193],
          [74.85862, 32.73216],
          [74.85861, 32.73219],
          [74.8585, 32.73256],
          [74.85852, 32.73283],
          [74.85831, 32.73355],
          [74.85828, 32.73376],
          [74.85769, 32.73668],
          [74.85796, 32.73828],
          [74.85873, 32.7412],
          [74.86024, 32.74345],
          [74.859, 32.74426],
          [74.85831, 32.74455],
          [74.85814, 32.74493],
          [74.85805, 32.74526],
          [74.85797, 32.74533],
          [74.85719, 32.74597],
          [74.85593, 32.74673],
          [74.85574, 32.74662],
          [74.8555, 32.74659],
          [74.85517, 32.74664],
          [74.85486, 32.74681],
          [74.85479, 32.74704],
          [74.85471, 32.74731],
          [74.85445, 32.74757],
          [74.85383, 32.74797],
          [74.8536, 32.74819],
          [74.85331, 32.74854],
          [74.85295, 32.74909],
          [74.85174, 32.75035],
          [74.85057, 32.75116],
          [74.84994, 32.75183],
          [74.85006, 32.75187],
          [74.85023, 32.75192],
          [74.85053, 32.75213],
          [74.85108, 32.7524],
          [74.85132, 32.75253],
          [74.8515, 32.75263],
          [74.85171, 32.75267],
          [74.85181, 32.75269],
          [74.85215, 32.7527],
          [74.8523, 32.75276],
          [74.85236, 32.75278],
          [74.8525, 32.75283],
          [74.85268, 32.75289],
          [74.85318, 32.75312],
          [74.85349, 32.75328],
          [74.85352, 32.75329],
          [74.85357, 32.75329],
          [74.85377, 32.75329],
          [74.85432, 32.75323],
          [74.85455, 32.7532],
          [74.85459, 32.75319],
          [74.85474, 32.75316],
          [74.85577, 32.7531],
          [74.85626, 32.7531],
          [74.85674, 32.75318],
          [74.8571, 32.75329],
          [74.8571, 32.75329],
          [74.85746, 32.75347],
          [74.85764, 32.75388],
          [74.85768, 32.75398],
          [74.85733, 32.75383],
          [74.85705, 32.75383],
          [74.85689, 32.75383],
          [74.8561, 32.75388],
          [74.85565, 32.75403],
          [74.85506, 32.75497],
          [74.85466, 32.75546],
          [74.85458, 32.7558],
          [74.85447, 32.75625],
          [74.85422, 32.75684],
          [74.85436, 32.75699],
          [74.85447, 32.75709],
          [74.85478, 32.75723],
          [74.85526, 32.75744],
          [74.85723, 32.75877],
          [74.85778, 32.75942],
          [74.85783, 32.75986],
          [74.85727, 32.76011],
          [74.85659, 32.7604],
          [74.85585, 32.76021],
          [74.85571, 32.76054],
          [74.8556, 32.7608],
          [74.85587, 32.76096],
          [74.8562, 32.76115],
          [74.85649, 32.76149],
          [74.85714, 32.76209],
          [74.857, 32.76226],
          [74.85694, 32.76233],
          [74.8562, 32.76238],
          [74.85553, 32.76223],
          [74.85491, 32.76209],
          [74.85387, 32.76322],
          [74.85283, 32.76426],
          [74.85292, 32.76459],
          [74.85303, 32.765],
          [74.85318, 32.7653],
          [74.85306, 32.76542],
          [74.85274, 32.76574],
          [74.85224, 32.76609],
          [74.85343, 32.76752],
          [74.85392, 32.76762],
          [74.85422, 32.76782],
          [74.85442, 32.76861],
          [74.8555, 32.7697],
          [74.85595, 32.7701],
          [74.8562, 32.77054],
          [74.85589, 32.77078],
          [74.85575, 32.77089],
          [74.85547, 32.77114],
          [74.85526, 32.77133],
          [74.85565, 32.77173],
          [74.8561, 32.77202],
          [74.85689, 32.77252],
          [74.85717, 32.77269],
          [74.85728, 32.77277],
          [74.85753, 32.77301],
          [74.85758, 32.77306],
          [74.85728, 32.77341],
          [74.85728, 32.77341],
          [74.85664, 32.77366],
          [74.85646, 32.77368],
          [74.8563, 32.7737],
          [74.8563, 32.7737],
          [74.85619, 32.77365],
          [74.85575, 32.77341],
          [74.85471, 32.77291],
          [74.85397, 32.77277],
          [74.85313, 32.77264],
          [74.85298, 32.77262],
          [74.85308, 32.77331],
          [74.85343, 32.774],
          [74.85374, 32.77463],
          [74.85382, 32.77479],
          [74.85417, 32.77539],
          [74.85465, 32.77586],
          [74.85491, 32.77613],
          [74.85555, 32.77667],
          [74.8559, 32.77695],
          [74.8563, 32.77726],
          [74.85669, 32.77776],
          [74.85697, 32.77834],
          [74.85709, 32.7786],
          [74.85649, 32.77909],
          [74.85521, 32.7787],
          [74.85338, 32.7783],
          [74.85224, 32.77791],
          [74.85208, 32.77789],
          [74.85031, 32.77766],
          [74.84829, 32.77766],
          [74.8468, 32.77811],
          [74.84665, 32.77815],
          [74.84595, 32.7783],
          [74.84408, 32.7787],
          [74.84191, 32.77909],
          [74.84181, 32.77934],
          [74.84199, 32.77948],
          [74.8423, 32.77974],
          [74.84295, 32.77998],
          [74.8435, 32.78002],
          [74.84369, 32.78003],
          [74.8443, 32.78026],
          [74.84517, 32.78058],
          [74.84646, 32.78191],
          [74.84736, 32.78256],
          [74.84769, 32.7828],
          [74.84771, 32.78306],
          [74.84834, 32.78339],
          [74.85278, 32.78677],
          [74.85278, 32.78677],
          [74.85345, 32.78701],
          [74.85519, 32.78764],
          [74.85868, 32.79055],
          [74.85868, 32.79055],
          [74.86058, 32.79143],
          [74.86297, 32.79429],
          [74.86297, 32.79429],
          [74.86297, 32.79429],
          [74.86253, 32.79463],
          [74.86192, 32.79727],
          [74.86123, 32.79943],
          [74.86077, 32.8004],
          [74.86036, 32.80192],
          [74.86039, 32.80191],
          [74.86047, 32.80189],
          [74.86104, 32.8026],
          [74.86153, 32.80319],
          [74.86204, 32.80435],
          [74.8624, 32.80517],
          [74.86316, 32.80882],
          [74.86309, 32.81608],
          [74.86274, 32.82038],
          [74.85998, 32.82341],
          [74.85877, 32.82608],
          [74.85845, 32.82679],
          [74.85982, 32.82734],
          [74.86096, 32.82916],
          [74.86158, 32.83207],
          [74.86158, 32.83207],
          [74.86193, 32.83915],
          [74.86162, 32.83989],
          [74.86038, 32.84284],
          [74.85995, 32.84474],
          [74.85958, 32.84644],
          [74.85741, 32.84857],
          [74.8559, 32.85004],
          [74.85519, 32.85115],
          [74.85422, 32.85266],
          [74.85358, 32.86048],
          [74.85369, 32.86115],
          [74.85388, 32.86232],
          [74.85368, 32.86234],
          [74.85287, 32.86453],
          [74.8525, 32.86552],
          [74.84992, 32.867],
          [74.84834, 32.86571],
          [74.84992, 32.867],
          [74.84979, 32.86708],
          [74.8512, 32.87295],
          [74.85243, 32.8713],
          [74.85586, 32.86925],
          [74.86258, 32.86754]
        ]
      ]
    ]
  }
}
