{
  "type": "Feature",
  "id": "PB-AC-1",
  "properties": {
    "stateName": "PUNJAB",
    "stateCode": "PB",
    "districtName": "GURDASPUR",
    "acNo": 1,
    "acName": "Sujanpur",
    "seatType": null,
    "pcNo": 1,
    "pcName": "GURDASPUR",
    "quality": "unverified",
    "sources": [
      "TBD"
    ]
  },
  "geometry": {
    "type": "Polygon",
    "coordinates": [
      [
        [75.84332, 32.50309],
        [75.85849, 32.48313],
        [75.90185, 32.45293],
        [75.9076, 32.43694],
        [75.92038, 32.42941],
        [75.91834, 32.41353],
        [75.936, 32.39767],
        [75.93221, 32.39181],
        [75.92914, 32.39475],
        [75.92289, 32.39171],
        [75.92178, 32.39652],
        [75.91604, 32.39723],
        [75.91014, 32.39414],
        [75.8713, 32.39456],
        [75.84684, 32.37347],
        [75.84449, 32.35625],
        [75.83409, 32.35709],
        [75.82675, 32.35053],
        [75.81137, 32.34868],
        [75.80791, 32.34105],
        [75.81506, 32.33027],
        [75.80118, 32.32823],
        [75.78101, 32.30855],
        [75.77247, 32.28926],
        [75.75259, 32.2799],
        [75.70398, 32.26726],
        [75.69966, 32.31094],
        [75.68786, 32.31722],
        [75.66854, 32.30372],
        [75.67264, 32.30961],
        [75.66848, 32.31326],
        [75.66158, 32.30827],
        [75.66268, 32.30353],
        [75.64658, 32.30015],
        [75.63466, 32.2899],
        [75.64534, 32.28969],
        [75.64869, 32.285],
        [75.62636, 32.28576],
        [75.61249, 32.27824],
        [75.60275, 32.27971],
        [75.59993, 32.29135],
        [75.60331, 32.29904],
        [75.61392, 32.29932],
        [75.61738, 32.30347],
        [75.61179, 32.31435],
        [75.60112, 32.31344],
        [75.60169, 32.31618],
        [75.59358, 32.30876],
        [75.58298, 32.30782],
        [75.59383, 32.307],
        [75.58422, 32.29741],
        [75.57863, 32.29861],
        [75.57901, 32.30726],
        [75.57137, 32.30687],
        [75.56042, 32.29858],
        [75.55293, 32.30175],
        [75.53953, 32.29506],
        [75.54306, 32.30982],
        [75.53879, 32.33431],
        [75.55156, 32.35022],
        [75.59416, 32.37686],
        [75.63249, 32.37996],
        [75.63518, 32.38071],
        [75.63604, 32.38095],
        [75.66105, 32.39164],
        [75.67467, 32.39418],
        [75.6806, 32.38979],
        [75.68731, 32.39095],
        [75.71049, 32.41099],
        [75.7227, 32.40592],
        [75.7321, 32.42385],
        [75.72868, 32.43308],
        [75.73854, 32.42964],
        [75.74422, 32.43243],
        [75.73009, 32.43886],
        [75.72876, 32.45308],
        [75.74884, 32.45441],
        [75.77183, 32.46262],
        [75.80074, 32.48548],
        [75.82051, 32.49248],
        [75.82571, 32.50361],
        [75.83329, 32.50346],
        [75.83203, 32.51015],
        [75.83853, 32.50993],
        [75.84332, 32.50309]
      ]
    ]
  }
}
