{
  "type": "Feature",
  "id": "PB-AC-105",
  "properties": {
    "stateName": "PUNJAB",
    "stateCode": "PB",
    "districtName": "SANGRUR",
    "acNo": 105,
    "acName": "Malerkotla",
    "seatType": null,
    "pcNo": 12,
    "pcName": "SANGRUR",
    "quality": "unverified",
    "sources": [
      "TBD"
    ]
  },
  "geometry": {
    "type": "Polygon",
    "coordinates": [
      [
        [75.72716, 30.61791],
        [75.73361, 30.62088],
        [75.7382, 30.63102],
        [75.74841, 30.63084],
        [75.76073, 30.63767],
        [75.78234, 30.62472],
        [75.81359, 30.59508],
        [75.82641, 30.59569],
        [75.84086, 30.57846],
        [75.82927, 30.56886],
        [75.84092, 30.56629],
        [75.85345, 30.55264],
        [75.86165, 30.55917],
        [75.87064, 30.55291],
        [75.87902, 30.55705],
        [75.88198, 30.57072],
        [75.87001, 30.56989],
        [75.86139, 30.59293],
        [75.87755, 30.59836],
        [75.8812, 30.58379],
        [75.89065, 30.5754],
        [75.88418, 30.57057],
        [75.88456, 30.56222],
        [75.89469, 30.5621],
        [75.88951, 30.55766],
        [75.89918, 30.54594],
        [75.88781, 30.5407],
        [75.88734, 30.52982],
        [75.89841, 30.52023],
        [75.90428, 30.5213],
        [75.90468, 30.52602],
        [75.91192, 30.52151],
        [75.9009, 30.51209],
        [75.88936, 30.51588],
        [75.88754, 30.5091],
        [75.89689, 30.49473],
        [75.88174, 30.50542],
        [75.86884, 30.49799],
        [75.88154, 30.48595],
        [75.87651, 30.48187],
        [75.88032, 30.47526],
        [75.87458, 30.4691],
        [75.84522, 30.45812],
        [75.84964, 30.44873],
        [75.82782, 30.43369],
        [75.81099, 30.43598],
        [75.80449, 30.44429],
        [75.80618, 30.45547],
        [75.80078, 30.46358],
        [75.79911, 30.48443],
        [75.80371, 30.4895],
        [75.79208, 30.49849],
        [75.78224, 30.49989],
        [75.75785, 30.51362],
        [75.72949, 30.51411],
        [75.72679, 30.52353],
        [75.73189, 30.53502],
        [75.70977, 30.54521],
        [75.69089, 30.53663],
        [75.68102, 30.52153],
        [75.65841, 30.52979],
        [75.65221, 30.54307],
        [75.66568, 30.55423],
        [75.65898, 30.56268],
        [75.67136, 30.57105],
        [75.6762, 30.58359],
        [75.68497, 30.59008],
        [75.6771, 30.59753],
        [75.68285, 30.60609],
        [75.70303, 30.60323],
        [75.72716, 30.61791]
      ]
    ]
  }
}
