{
  "type": "Feature",
  "id": "PB-AC-112",
  "properties": {
    "stateName": "PUNJAB",
    "stateCode": "PB",
    "districtName": "PATIALA",
    "acNo": 112,
    "acName": "Dera Bassi",
    "seatType": null,
    "pcNo": 13,
    "pcName": "PATIALA",
    "quality": "unverified",
    "sources": [
      "TBD"
    ]
  },
  "geometry": {
    "type": "Polygon",
    "coordinates": [
      [
        [76.8322, 30.66878],
        [76.83731, 30.66508],
        [76.84757, 30.66792],
        [76.84445, 30.66035],
        [76.85356, 30.65778],
        [76.87614, 30.68075],
        [76.8711, 30.6427],
        [76.88732, 30.645],
        [76.89638, 30.6361],
        [76.89541, 30.62971],
        [76.9122, 30.62515],
        [76.91182, 30.61328],
        [76.92563, 30.61135],
        [76.92256, 30.59622],
        [76.9105, 30.59289],
        [76.9197, 30.58575],
        [76.90927, 30.56551],
        [76.91776, 30.55988],
        [76.91679, 30.55499],
        [76.90527, 30.54319],
        [76.88689, 30.5515],
        [76.88609, 30.54861],
        [76.89625, 30.53857],
        [76.91282, 30.53427],
        [76.91497, 30.52623],
        [76.92793, 30.5241],
        [76.9325, 30.52263],
        [76.92864, 30.50728],
        [76.9316, 30.501],
        [76.91916, 30.48931],
        [76.91102, 30.49419],
        [76.89817, 30.48536],
        [76.91385, 30.46859],
        [76.89876, 30.44879],
        [76.90533, 30.44396],
        [76.89747, 30.43793],
        [76.9171, 30.42702],
        [76.91357, 30.42236],
        [76.91894, 30.40678],
        [76.91211, 30.40053],
        [76.93283, 30.40168],
        [76.94172, 30.39373],
        [76.91666, 30.36401],
        [76.8994, 30.36004],
        [76.89069, 30.3701],
        [76.89698, 30.38189],
        [76.89421, 30.38704],
        [76.88521, 30.39439],
        [76.88011, 30.39313],
        [76.88158, 30.40925],
        [76.85745, 30.41736],
        [76.84742, 30.4382],
        [76.82241, 30.41254],
        [76.80989, 30.41813],
        [76.80268, 30.41402],
        [76.79806, 30.41734],
        [76.78766, 30.41594],
        [76.7754, 30.42608],
        [76.7857, 30.43552],
        [76.77334, 30.44352],
        [76.76732, 30.43321],
        [76.74812, 30.42879],
        [76.74633, 30.44317],
        [76.75556, 30.4452],
        [76.75846, 30.45117],
        [76.75208, 30.46037],
        [76.75314, 30.46991],
        [76.7654, 30.47544],
        [76.76897, 30.50359],
        [76.787, 30.51893],
        [76.768, 30.52463],
        [76.76501, 30.53142],
        [76.75131, 30.53634],
        [76.75211, 30.55548],
        [76.75982, 30.55782],
        [76.76916, 30.55179],
        [76.76185, 30.55936],
        [76.77645, 30.57565],
        [76.77263, 30.58329],
        [76.78796, 30.59716],
        [76.77363, 30.61043],
        [76.76227, 30.60494],
        [76.76458, 30.60883],
        [76.75909, 30.61802],
        [76.7806, 30.63495],
        [76.7772, 30.64605],
        [76.79606, 30.65125],
        [76.78918, 30.66155],
        [76.79675, 30.66777],
        [76.8076, 30.66765],
        [76.82885, 30.6807],
        [76.8322, 30.66878]
      ]
    ]
  }
}
