{
  "type": "Feature",
  "id": "PB-AC-113",
  "properties": {
    "stateName": "PUNJAB",
    "stateCode": "PB",
    "districtName": "PATIALA",
    "acNo": 113,
    "acName": "Ghanaur",
    "seatType": null,
    "pcNo": 13,
    "pcName": "PATIALA",
    "quality": "unverified",
    "sources": [
      "TBD"
    ]
  },
  "geometry": {
    "type": "Polygon",
    "coordinates": [
      [
        [76.4971, 30.5076],
        [76.50405, 30.50845],
        [76.50363, 30.49684],
        [76.51489, 30.49951],
        [76.52625, 30.4904],
        [76.52828, 30.47991],
        [76.54191, 30.46674],
        [76.53722, 30.463],
        [76.54093, 30.45442],
        [76.55233, 30.44744],
        [76.57181, 30.44874],
        [76.56669, 30.43904],
        [76.57015, 30.43595],
        [76.58006, 30.43462],
        [76.58872, 30.44374],
        [76.61035, 30.43996],
        [76.62054, 30.44736],
        [76.62494, 30.43129],
        [76.63044, 30.43007],
        [76.63407, 30.43452],
        [76.65155, 30.4317],
        [76.65559, 30.44303],
        [76.64724, 30.45233],
        [76.653, 30.46949],
        [76.66568, 30.48312],
        [76.64752, 30.49694],
        [76.63726, 30.48804],
        [76.62919, 30.49229],
        [76.62138, 30.48446],
        [76.61631, 30.48485],
        [76.61105, 30.47625],
        [76.6089, 30.47837],
        [76.61749, 30.5004],
        [76.61206, 30.51661],
        [76.64007, 30.53051],
        [76.65403, 30.51735],
        [76.65411, 30.50684],
        [76.67082, 30.50799],
        [76.68114, 30.51425],
        [76.68878, 30.50976],
        [76.67717, 30.49578],
        [76.68124, 30.49078],
        [76.70782, 30.48602],
        [76.71727, 30.49951],
        [76.74141, 30.49137],
        [76.74024, 30.48194],
        [76.75175, 30.47567],
        [76.75314, 30.46991],
        [76.75208, 30.46037],
        [76.75846, 30.45117],
        [76.75556, 30.4452],
        [76.74633, 30.44317],
        [76.74812, 30.42879],
        [76.73889, 30.4255],
        [76.73498, 30.41936],
        [76.74032, 30.41213],
        [76.72936, 30.40041],
        [76.71426, 30.40215],
        [76.71301, 30.39048],
        [76.72035, 30.37817],
        [76.73025, 30.38213],
        [76.73171, 30.37946],
        [76.71971, 30.36635],
        [76.72182, 30.3636],
        [76.72659, 30.3614],
        [76.73859, 30.37059],
        [76.74638, 30.36658],
        [76.75024, 30.35315],
        [76.73859, 30.34674],
        [76.73275, 30.34827],
        [76.73052, 30.33851],
        [76.723, 30.33321],
        [76.71657, 30.33599],
        [76.71118, 30.32586],
        [76.70125, 30.32789],
        [76.69657, 30.3212],
        [76.6894, 30.32747],
        [76.67777, 30.30034],
        [76.66649, 30.30619],
        [76.64283, 30.28652],
        [76.63878, 30.28452],
        [76.63569, 30.28949],
        [76.60753, 30.29978],
        [76.59921, 30.29242],
        [76.59147, 30.29296],
        [76.57208, 30.30389],
        [76.56108, 30.2976],
        [76.5453, 30.31151],
        [76.54141, 30.30781],
        [76.53206, 30.31677],
        [76.51752, 30.31035],
        [76.5203, 30.33684],
        [76.50427, 30.34068],
        [76.499, 30.34604],
        [76.52231, 30.36578],
        [76.50736, 30.37206],
        [76.51334, 30.39103],
        [76.51163, 30.40135],
        [76.52895, 30.40478],
        [76.53941, 30.41532],
        [76.52816, 30.42273],
        [76.53356, 30.43355],
        [76.52997, 30.43979],
        [76.51777, 30.44539],
        [76.50701, 30.43646],
        [76.49025, 30.44239],
        [76.49916, 30.46277],
        [76.50394, 30.47895],
        [76.4918, 30.4999],
        [76.4971, 30.5076]
      ]
    ]
  }
}
