{
  "type": "Feature",
  "id": "PB-AC-24",
  "properties": {
    "stateName": "PUNJAB",
    "stateCode": "PB",
    "districtName": "AMRITSAR",
    "acNo": 24,
    "acName": "Khadoor Sahib",
    "seatType": null,
    "pcNo": 3,
    "pcName": "KHADOOR SAHIB",
    "quality": "unverified",
    "sources": [
      "TBD"
    ]
  },
  "geometry": {
    "type": "Polygon",
    "coordinates": [
      [
        [75.04826, 31.51697],
        [75.05586, 31.5007],
        [75.04553, 31.49347],
        [75.03953, 31.49671],
        [75.03057, 31.49184],
        [75.02689, 31.49451],
        [75.0213, 31.47915],
        [75.00932, 31.47523],
        [75.0139, 31.46211],
        [75.00811, 31.44753],
        [75.02326, 31.4277],
        [75.02588, 31.42016],
        [75.01951, 31.41226],
        [75.02826, 31.40838],
        [75.02783, 31.39745],
        [75.04718, 31.39126],
        [75.0433, 31.38498],
        [75.03416, 31.38884],
        [75.0277, 31.38663],
        [75.01491, 31.36129],
        [75.00863, 31.35405],
        [74.9898, 31.35081],
        [74.99777, 31.34169],
        [74.98552, 31.33687],
        [74.99261, 31.32337],
        [74.9984, 31.32424],
        [75.01025, 31.31618],
        [75.01789, 31.31997],
        [75.01394, 31.33494],
        [75.03404, 31.33771],
        [75.03421, 31.32723],
        [75.02686, 31.31804],
        [75.03675, 31.31396],
        [75.0393, 31.30409],
        [75.04952, 31.30082],
        [75.05119, 31.29496],
        [75.03279, 31.26326],
        [75.04048, 31.25871],
        [75.05043, 31.26296],
        [75.08084, 31.25748],
        [75.07901, 31.24587],
        [75.05867, 31.22971],
        [75.05979, 31.21088],
        [75.05058, 31.20182],
        [75.04766, 31.19083],
        [75.0043, 31.1741],
        [74.98552, 31.15764],
        [74.94004, 31.18747],
        [74.93977, 31.20468],
        [74.94717, 31.21124],
        [74.94429, 31.22397],
        [74.93638, 31.22741],
        [74.93512, 31.23847],
        [74.91084, 31.24606],
        [74.90743, 31.25267],
        [74.89963, 31.25413],
        [74.90307, 31.27154],
        [74.89992, 31.28402],
        [74.9203, 31.31708],
        [74.90925, 31.31806],
        [74.90173, 31.32578],
        [74.90613, 31.33465],
        [74.90181, 31.34049],
        [74.90313, 31.35115],
        [74.91355, 31.35528],
        [74.90798, 31.36299],
        [74.87719, 31.36089],
        [74.85092, 31.34263],
        [74.82663, 31.33793],
        [74.82165, 31.32331],
        [74.81316, 31.32837],
        [74.80515, 31.32299],
        [74.79903, 31.32771],
        [74.78988, 31.3272],
        [74.79402, 31.33465],
        [74.79199, 31.34711],
        [74.7841, 31.3567],
        [74.78989, 31.36942],
        [74.78618, 31.37575],
        [74.77156, 31.37685],
        [74.77062, 31.38462],
        [74.77863, 31.39146],
        [74.78851, 31.3872],
        [74.79388, 31.39211],
        [74.79018, 31.39877],
        [74.79359, 31.40234],
        [74.8134, 31.39878],
        [74.82127, 31.40532],
        [74.83218, 31.39664],
        [74.84081, 31.40439],
        [74.84256, 31.42114],
        [74.83942, 31.42905],
        [74.8292, 31.43186],
        [74.83078, 31.44125],
        [74.83795, 31.45049],
        [74.84254, 31.44771],
        [74.86203, 31.46239],
        [74.87073, 31.45671],
        [74.86908, 31.44181],
        [74.87488, 31.42963],
        [74.88928, 31.42128],
        [74.90388, 31.42412],
        [74.90446, 31.43792],
        [74.91602, 31.44863],
        [74.92262, 31.44157],
        [74.92901, 31.4414],
        [74.9309, 31.43515],
        [74.94159, 31.43664],
        [74.9418, 31.46204],
        [74.93377, 31.46723],
        [74.92842, 31.48173],
        [74.94102, 31.48789],
        [74.91874, 31.4998],
        [74.93821, 31.5094],
        [74.95674, 31.49653],
        [74.96501, 31.5141],
        [74.97722, 31.51272],
        [74.97303, 31.51847],
        [74.98197, 31.52679],
        [74.99021, 31.51955],
        [74.98694, 31.51668],
        [74.9925, 31.50429],
        [75.00859, 31.52535],
        [75.03583, 31.52715],
        [75.04826, 31.51697]
      ]
    ]
  }
}
