{
  "type": "Feature",
  "id": "PB-AC-36",
  "properties": {
    "stateName": "PUNJAB",
    "stateCode": "PB",
    "districtName": "JALANDHAR",
    "acNo": 36,
    "acName": "Jalandhar North",
    "seatType": null,
    "pcNo": 4,
    "pcName": "JALANDHAR (SC)",
    "quality": "unverified",
    "sources": [
      "TBD"
    ]
  },
  "geometry": {
    "type": "Polygon",
    "coordinates": [
      [
        [75.66566, 31.3704],
        [75.67497, 31.34778],
        [75.68006, 31.34915],
        [75.67965, 31.33713],
        [75.66226, 31.33643],
        [75.61692, 31.33395],
        [75.59682, 31.31959],
        [75.58572, 31.32553],
        [75.5598, 31.32408],
        [75.55553, 31.34188],
        [75.56196, 31.36159],
        [75.57786, 31.36603],
        [75.59627, 31.34508],
        [75.5986, 31.35971],
        [75.59095, 31.36817],
        [75.59494, 31.37859],
        [75.60708, 31.38501],
        [75.6122, 31.38685],
        [75.61877, 31.38185],
        [75.62621, 31.38628],
        [75.63488, 31.3706],
        [75.65073, 31.36443],
        [75.66566, 31.3704]
      ]
    ]
  }
}
