{
  "type": "Feature",
  "id": "PB-AC-38",
  "properties": {
    "stateName": "PUNJAB",
    "stateCode": "PB",
    "districtName": "JALANDHAR",
    "acNo": 38,
    "acName": "Adampur (SC)",
    "seatType": null,
    "pcNo": 4,
    "pcName": "JALANDHAR (SC)",
    "quality": "unverified",
    "sources": [
      "TBD"
    ]
  },
  "geometry": {
    "type": "Polygon",
    "coordinates": [
      [
        [75.59427, 31.6032],
        [75.60395, 31.61208],
        [75.62506, 31.60378],
        [75.63209, 31.61225],
        [75.63894, 31.61012],
        [75.64039, 31.61659],
        [75.65106, 31.60602],
        [75.66886, 31.60807],
        [75.67122, 31.59701],
        [75.6817, 31.59024],
        [75.68096, 31.57488],
        [75.69462, 31.55416],
        [75.70293, 31.55552],
        [75.7054, 31.54249],
        [75.69905, 31.53955],
        [75.70267, 31.5292],
        [75.71036, 31.53045],
        [75.71676, 31.52015],
        [75.72391, 31.52177],
        [75.72731, 31.51567],
        [75.73358, 31.51704],
        [75.7347, 31.50522],
        [75.7396, 31.50194],
        [75.73674, 31.49624],
        [75.75865, 31.47673],
        [75.77787, 31.47229],
        [75.78943, 31.4494],
        [75.79941, 31.45443],
        [75.80586, 31.43596],
        [75.81602, 31.43124],
        [75.81272, 31.42115],
        [75.8198, 31.40468],
        [75.80551, 31.39919],
        [75.80307, 31.38935],
        [75.78104, 31.38261],
        [75.78767, 31.36871],
        [75.7887, 31.36446],
        [75.76572, 31.35379],
        [75.76737, 31.34218],
        [75.76039, 31.33227],
        [75.75023, 31.33283],
        [75.74044, 31.32629],
        [75.7247, 31.34736],
        [75.70739, 31.34948],
        [75.70284, 31.344],
        [75.69966, 31.34174],
        [75.70834, 31.3386],
        [75.70825, 31.33203],
        [75.71785, 31.32633],
        [75.7222, 31.31652],
        [75.68644, 31.31834],
        [75.68433, 31.30563],
        [75.69721, 31.29813],
        [75.70414, 31.28561],
        [75.69854, 31.28736],
        [75.69904, 31.28304],
        [75.67901, 31.2919],
        [75.67438, 31.28243],
        [75.65907, 31.29476],
        [75.66304, 31.30342],
        [75.6621, 31.31108],
        [75.65785, 31.31114],
        [75.66348, 31.31872],
        [75.66226, 31.33643],
        [75.67965, 31.33713],
        [75.68006, 31.34915],
        [75.67497, 31.34778],
        [75.66566, 31.3704],
        [75.66609, 31.38245],
        [75.67283, 31.38622],
        [75.66461, 31.40337],
        [75.65508, 31.40729],
        [75.64366, 31.40377],
        [75.6415, 31.41252],
        [75.61372, 31.42784],
        [75.60422, 31.42666],
        [75.60485, 31.43657],
        [75.58905, 31.47091],
        [75.60111, 31.47125],
        [75.609, 31.47799],
        [75.60744, 31.48369],
        [75.62807, 31.48623],
        [75.61858, 31.48883],
        [75.61523, 31.50662],
        [75.60562, 31.50987],
        [75.60801, 31.51872],
        [75.62477, 31.51882],
        [75.6252, 31.52644],
        [75.64113, 31.52692],
        [75.64771, 31.53739],
        [75.64611, 31.54654],
        [75.65559, 31.55368],
        [75.64659, 31.56419],
        [75.64988, 31.57142],
        [75.63773, 31.56065],
        [75.63714, 31.55085],
        [75.62236, 31.55139],
        [75.61092, 31.53866],
        [75.59541, 31.54666],
        [75.59608, 31.55537],
        [75.60172, 31.56416],
        [75.59177, 31.57613],
        [75.59593, 31.58721],
        [75.60264, 31.5847],
        [75.59427, 31.6032]
      ]
    ]
  }
}
