{
  "type": "Feature",
  "id": "PB-AC-42",
  "properties": {
    "stateName": "PUNJAB",
    "stateCode": "PB",
    "districtName": "HOSHIARPUR",
    "acNo": 42,
    "acName": "Sham Chaurasi (SC)",
    "seatType": null,
    "pcNo": 5,
    "pcName": "HOSHIARPUR (SC)",
    "quality": "unverified",
    "sources": [
      "TBD"
    ]
  },
  "geometry": {
    "type": "Polygon",
    "coordinates": [
      [
        [75.89124, 31.83254],
        [75.90163, 31.81922],
        [75.93538, 31.81566],
        [75.94996, 31.78277],
        [75.95855, 31.77968],
        [75.9757, 31.74384],
        [75.9734, 31.73678],
        [75.9787, 31.73335],
        [76.00048, 31.68382],
        [75.9553, 31.65238],
        [75.95235, 31.63475],
        [75.9587, 31.62223],
        [75.952, 31.61228],
        [75.91628, 31.57485],
        [75.90556, 31.56983],
        [75.90077, 31.57212],
        [75.90048, 31.56364],
        [75.88201, 31.54824],
        [75.87852, 31.53548],
        [75.86321, 31.52197],
        [75.86761, 31.51675],
        [75.86849, 31.48512],
        [75.84969, 31.48381],
        [75.85381, 31.47703],
        [75.85124, 31.47206],
        [75.84239, 31.47027],
        [75.83953, 31.45958],
        [75.84722, 31.45073],
        [75.84064, 31.43771],
        [75.81602, 31.43124],
        [75.80586, 31.43596],
        [75.79941, 31.45443],
        [75.78943, 31.4494],
        [75.77787, 31.47229],
        [75.75865, 31.47673],
        [75.73674, 31.49624],
        [75.7396, 31.50194],
        [75.7347, 31.50522],
        [75.73358, 31.51704],
        [75.72731, 31.51567],
        [75.72391, 31.52177],
        [75.71676, 31.52015],
        [75.71036, 31.53045],
        [75.70267, 31.5292],
        [75.69905, 31.53955],
        [75.7054, 31.54249],
        [75.70293, 31.55552],
        [75.69462, 31.55416],
        [75.68096, 31.57488],
        [75.6817, 31.59024],
        [75.6878, 31.59293],
        [75.69326, 31.58335],
        [75.7143, 31.58355],
        [75.71153, 31.59389],
        [75.73479, 31.59044],
        [75.73494, 31.5992],
        [75.74548, 31.597],
        [75.73795, 31.60953],
        [75.76678, 31.62938],
        [75.75884, 31.63411],
        [75.73758, 31.63408],
        [75.73498, 31.62566],
        [75.7107, 31.62344],
        [75.71022, 31.63646],
        [75.69546, 31.64195],
        [75.69377, 31.64899],
        [75.70732, 31.65908],
        [75.70291, 31.67762],
        [75.72224, 31.67589],
        [75.72178, 31.64773],
        [75.72597, 31.65299],
        [75.73399, 31.64672],
        [75.75609, 31.65397],
        [75.75934, 31.6615],
        [75.75011, 31.67362],
        [75.73989, 31.6734],
        [75.73918, 31.68503],
        [75.76013, 31.68937],
        [75.76716, 31.70808],
        [75.771, 31.70442],
        [75.7827, 31.71313],
        [75.77683, 31.73265],
        [75.78323, 31.7403],
        [75.82015, 31.74143],
        [75.82653, 31.74747],
        [75.85363, 31.75658],
        [75.86719, 31.77679],
        [75.86211, 31.79694],
        [75.86332, 31.81885],
        [75.87548, 31.83313],
        [75.87843, 31.83007],
        [75.88338, 31.83446],
        [75.89124, 31.83254]
      ]
    ]
  }
}
