{
  "type": "Feature",
  "id": "PB-AC-6",
  "properties": {
    "stateName": "PUNJAB",
    "stateCode": "PB",
    "districtName": "GURDASPUR",
    "acNo": 6,
    "acName": "Qadian",
    "seatType": null,
    "pcNo": 1,
    "pcName": "GURDASPUR",
    "quality": "unverified",
    "sources": [
      "TBD"
    ]
  },
  "geometry": {
    "type": "Polygon",
    "coordinates": [
      [
        [75.48271, 31.95894],
        [75.48559, 31.9623],
        [75.50415, 31.95272],
        [75.50103, 31.95562],
        [75.51808, 31.96344],
        [75.53421, 31.96034],
        [75.53157, 31.94287],
        [75.53752, 31.94239],
        [75.5398, 31.92603],
        [75.549, 31.92179],
        [75.55092, 31.89049],
        [75.56886, 31.85776],
        [75.56237, 31.83359],
        [75.56894, 31.8169],
        [75.56359, 31.79974],
        [75.573, 31.78051],
        [75.53516, 31.77192],
        [75.5262, 31.7902],
        [75.53263, 31.81047],
        [75.53055, 31.82756],
        [75.52549, 31.81429],
        [75.51391, 31.80507],
        [75.47758, 31.79727],
        [75.47187, 31.80677],
        [75.46405, 31.80727],
        [75.44058, 31.79494],
        [75.4299, 31.79743],
        [75.41789, 31.8135],
        [75.40107, 31.80782],
        [75.38577, 31.81846],
        [75.39276, 31.82575],
        [75.38942, 31.83679],
        [75.3793, 31.84558],
        [75.37801, 31.86154],
        [75.35568, 31.87629],
        [75.3581, 31.88735],
        [75.35257, 31.89886],
        [75.3464, 31.90086],
        [75.33546, 31.89593],
        [75.30877, 31.9004],
        [75.30839, 31.89219],
        [75.30085, 31.89409],
        [75.29605, 31.90203],
        [75.30187, 31.92081],
        [75.29965, 31.93121],
        [75.30877, 31.93377],
        [75.30955, 31.93959],
        [75.31628, 31.93877],
        [75.31441, 31.93079],
        [75.32508, 31.93129],
        [75.33722, 31.94594],
        [75.33891, 31.93882],
        [75.34633, 31.93913],
        [75.34905, 31.93355],
        [75.36246, 31.94833],
        [75.38669, 31.95036],
        [75.39882, 31.95925],
        [75.42008, 31.95215],
        [75.42256, 31.94684],
        [75.41264, 31.93556],
        [75.42363, 31.92683],
        [75.41159, 31.90999],
        [75.42349, 31.90695],
        [75.40892, 31.89848],
        [75.41052, 31.89597],
        [75.42666, 31.8834],
        [75.43361, 31.89055],
        [75.44408, 31.88592],
        [75.46949, 31.887],
        [75.47518, 31.89123],
        [75.46893, 31.89396],
        [75.47276, 31.90958],
        [75.47864, 31.90976],
        [75.49117, 31.8999],
        [75.5043, 31.91428],
        [75.47621, 31.92567],
        [75.48469, 31.9314],
        [75.47809, 31.93505],
        [75.4823, 31.94226],
        [75.47102, 31.9457],
        [75.48271, 31.95894]
      ]
    ]
  }
}
