{
  "type": "Feature",
  "id": "PB-AC-7",
  "properties": {
    "stateName": "PUNJAB",
    "stateCode": "PB",
    "districtName": "GURDASPUR",
    "acNo": 7,
    "acName": "Batala",
    "seatType": null,
    "pcNo": 1,
    "pcName": "GURDASPUR",
    "quality": "unverified",
    "sources": [
      "TBD"
    ]
  },
  "geometry": {
    "type": "Polygon",
    "coordinates": [
      [
        [75.29272, 31.84466],
        [75.31028, 31.84774],
        [75.31001, 31.83932],
        [75.32394, 31.83467],
        [75.32975, 31.83844],
        [75.33949, 31.82984],
        [75.34174, 31.83254],
        [75.33376, 31.84053],
        [75.34054, 31.84549],
        [75.34558, 31.83637],
        [75.35304, 31.83759],
        [75.36458, 31.82891],
        [75.38067, 31.8379],
        [75.38942, 31.83679],
        [75.39276, 31.82575],
        [75.38577, 31.81846],
        [75.40107, 31.80782],
        [75.41789, 31.8135],
        [75.4299, 31.79743],
        [75.42473, 31.78762],
        [75.43928, 31.78432],
        [75.44669, 31.77587],
        [75.43599, 31.76014],
        [75.41922, 31.76774],
        [75.40767, 31.76194],
        [75.3994, 31.76403],
        [75.37901, 31.78472],
        [75.36916, 31.77916],
        [75.35742, 31.78258],
        [75.3467, 31.77732],
        [75.34149, 31.77248],
        [75.34069, 31.75463],
        [75.31609, 31.74629],
        [75.30769, 31.77311],
        [75.29293, 31.78379],
        [75.29309, 31.77885],
        [75.28361, 31.77431],
        [75.26963, 31.785],
        [75.25665, 31.77544],
        [75.24137, 31.7836],
        [75.23324, 31.77014],
        [75.22808, 31.78022],
        [75.20375, 31.76973],
        [75.20222, 31.77479],
        [75.19314, 31.77747],
        [75.19747, 31.7864],
        [75.18124, 31.79247],
        [75.16969, 31.78699],
        [75.16385, 31.79302],
        [75.18, 31.80143],
        [75.17759, 31.81074],
        [75.17238, 31.81093],
        [75.1774, 31.81631],
        [75.16889, 31.82236],
        [75.16965, 31.8257],
        [75.17839, 31.82379],
        [75.181, 31.82877],
        [75.17776, 31.85028],
        [75.18473, 31.85032],
        [75.1862, 31.84203],
        [75.19483, 31.83613],
        [75.20479, 31.84622],
        [75.21244, 31.84599],
        [75.21817, 31.84113],
        [75.21204, 31.83369],
        [75.21712, 31.83144],
        [75.22719, 31.84314],
        [75.24316, 31.83163],
        [75.24458, 31.82405],
        [75.25808, 31.82063],
        [75.2678, 31.8301],
        [75.27569, 31.82471],
        [75.28572, 31.83151],
        [75.27745, 31.84269],
        [75.28853, 31.84716],
        [75.29272, 31.84466]
      ]
    ]
  }
}
