{
  "type": "Feature",
  "id": "PB-AC-73",
  "properties": {
    "stateName": "PUNJAB",
    "stateCode": "PB",
    "districtName": "MOGA",
    "acNo": 73,
    "acName": "Moga",
    "seatType": null,
    "pcNo": 9,
    "pcName": "FARIDKOT (SC)",
    "quality": "unverified",
    "sources": [
      "TBD"
    ]
  },
  "geometry": {
    "type": "Polygon",
    "coordinates": [
      [
        [75.03038, 30.89682],
        [75.04157, 30.88208],
        [75.08212, 30.87827],
        [75.09227, 30.87046],
        [75.10228, 30.8779],
        [75.13183, 30.8806],
        [75.14101, 30.87663],
        [75.14787, 30.86653],
        [75.16108, 30.87295],
        [75.17259, 30.86747],
        [75.17757, 30.86254],
        [75.17022, 30.84957],
        [75.16946, 30.8341],
        [75.18779, 30.82914],
        [75.20253, 30.8328],
        [75.2201, 30.81917],
        [75.21503, 30.8028],
        [75.21765, 30.78836],
        [75.20218, 30.79913],
        [75.19028, 30.79576],
        [75.19239, 30.78325],
        [75.20263, 30.77413],
        [75.19259, 30.76853],
        [75.19453, 30.75726],
        [75.21617, 30.74519],
        [75.19672, 30.73098],
        [75.20632, 30.71615],
        [75.21831, 30.70762],
        [75.21695, 30.69569],
        [75.19624, 30.68489],
        [75.17986, 30.69725],
        [75.16478, 30.69987],
        [75.16113, 30.69593],
        [75.14026, 30.70642],
        [75.12837, 30.70108],
        [75.11805, 30.71001],
        [75.12025, 30.73627],
        [75.11027, 30.75677],
        [75.08821, 30.77309],
        [75.07414, 30.77191],
        [75.05754, 30.78258],
        [75.03932, 30.77993],
        [75.02965, 30.77297],
        [75.01966, 30.78136],
        [75.00534, 30.77667],
        [74.9861, 30.79136],
        [74.98473, 30.78619],
        [74.959, 30.77111],
        [74.95143, 30.7866],
        [74.9312, 30.78882],
        [74.92975, 30.80607],
        [74.94796, 30.82983],
        [74.94131, 30.84025],
        [74.94779, 30.8558],
        [74.94366, 30.87793],
        [74.95251, 30.89234],
        [74.99545, 30.88911],
        [75.00071, 30.89387],
        [75.03038, 30.89682]
      ]
    ]
  }
}
