{
  "type": "Feature",
  "id": "KA-AC-100",
  "properties": {
    "stateName": "KARNATAKA",
    "stateCode": "KA",
    "districtName": "CHITRADURGA",
    "acNo": 100,
    "acName": "Hiriyur",
    "seatType": null,
    "pcNo": 18,
    "pcName": "CHITRADURGA (SC)",
    "quality": "unverified",
    "sources": [
      "TBD"
    ]
  },
  "geometry": {
    "type": "Polygon",
    "coordinates": [
      [
        [76.64043, 14.18853],
        [76.63647, 14.15841],
        [76.6417, 14.14184],
        [76.66132, 14.14183],
        [76.66219, 14.14512],
        [76.68771, 14.14253],
        [76.68768, 14.11917],
        [76.70606, 14.11712],
        [76.71644, 14.11149],
        [76.73846, 14.1186],
        [76.74035, 14.07298],
        [76.75245, 14.07166],
        [76.76299, 14.10028],
        [76.77197, 14.11008],
        [76.78502, 14.11166],
        [76.78263, 14.13053],
        [76.78802, 14.1553],
        [76.80407, 14.16692],
        [76.82317, 14.16003],
        [76.83284, 14.14977],
        [76.85762, 14.15332],
        [76.89075, 14.14359],
        [76.88877, 14.14141],
        [76.8859, 14.1383],
        [76.8892, 14.1357],
        [76.9176, 14.1289],
        [76.925, 14.1372],
        [76.9359, 14.1289],
        [76.9526, 14.1039],
        [76.94841, 14.09212],
        [76.9484, 14.09212],
        [76.92797, 14.07739],
        [76.92271, 14.05674],
        [76.90996, 14.06417],
        [76.88871, 14.04795],
        [76.87993, 14.01859],
        [76.87655, 14.01895],
        [76.87284, 14.00915],
        [76.83729, 14.01797],
        [76.83358, 14.00353],
        [76.8226, 14.0009],
        [76.82342, 13.99425],
        [76.84865, 13.9803],
        [76.8497, 13.96355],
        [76.82178, 13.95036],
        [76.81933, 13.93653],
        [76.81134, 13.93624],
        [76.81546, 13.91611],
        [76.7645, 13.92442],
        [76.7636, 13.92002],
        [76.75045, 13.91754],
        [76.75239, 13.90606],
        [76.72214, 13.8973],
        [76.73666, 13.86853],
        [76.74995, 13.8535],
        [76.75285, 13.85504],
        [76.76228, 13.83492],
        [76.76652, 13.83552],
        [76.76391, 13.81988],
        [76.76896, 13.79555],
        [76.76481, 13.78283],
        [76.74998, 13.78047],
        [76.73148, 13.78475],
        [76.72752, 13.79694],
        [76.72348, 13.79963],
        [76.71737, 13.79549],
        [76.70602, 13.77588],
        [76.69726, 13.77005],
        [76.69569, 13.75459],
        [76.68763, 13.74636],
        [76.6847, 13.72996],
        [76.68888, 13.72857],
        [76.6899, 13.72144],
        [76.68516, 13.69043],
        [76.67257, 13.7061],
        [76.6733, 13.71869],
        [76.66187, 13.72185],
        [76.62994, 13.71389],
        [76.62459, 13.73401],
        [76.62117, 13.73415],
        [76.6095, 13.72369],
        [76.6034, 13.72582],
        [76.59601, 13.72023],
        [76.56947, 13.71461],
        [76.57695, 13.69019],
        [76.56079, 13.68392],
        [76.5208, 13.74601],
        [76.51763, 13.78943],
        [76.50562, 13.81305],
        [76.50194, 13.84983],
        [76.49235, 13.85811],
        [76.48769, 13.89631],
        [76.46586, 13.93321],
        [76.46682, 13.94734],
        [76.4853, 13.95084],
        [76.47845, 13.95623],
        [76.46552, 13.99049],
        [76.45931, 14.00788],
        [76.46122, 14.02893],
        [76.47565, 14.03548],
        [76.46122, 14.05903],
        [76.44917, 14.05382],
        [76.44234, 14.05921],
        [76.4413, 14.10489],
        [76.43597, 14.12827],
        [76.44874, 14.14046],
        [76.45108, 14.16121],
        [76.50334, 14.16255],
        [76.50522, 14.14651],
        [76.56698, 14.14835],
        [76.57616, 14.15845],
        [76.58163, 14.20297],
        [76.58779, 14.2019],
        [76.60449, 14.20299],
        [76.61358, 14.18128],
        [76.64043, 14.18853]
      ]
    ]
  }
}
