{
  "type": "Feature",
  "id": "KA-AC-101",
  "properties": {
    "stateName": "KARNATAKA",
    "stateCode": "KA",
    "districtName": "CHITRADURGA",
    "acNo": 101,
    "acName": "Hosadurga",
    "seatType": null,
    "pcNo": 18,
    "pcName": "CHITRADURGA (SC)",
    "quality": "unverified",
    "sources": [
      "TBD"
    ]
  },
  "geometry": {
    "type": "Polygon",
    "coordinates": [
      [
        [76.4853, 13.95084],
        [76.46682, 13.94734],
        [76.46586, 13.93321],
        [76.48769, 13.89631],
        [76.49235, 13.85811],
        [76.50194, 13.84983],
        [76.50562, 13.81305],
        [76.51763, 13.78943],
        [76.5208, 13.74601],
        [76.56079, 13.68392],
        [76.54957, 13.67703],
        [76.53965, 13.66279],
        [76.5295, 13.66619],
        [76.53406, 13.65115],
        [76.51831, 13.64081],
        [76.51702, 13.63446],
        [76.49713, 13.62698],
        [76.50001, 13.62207],
        [76.46113, 13.61935],
        [76.45539, 13.61165],
        [76.46169, 13.60022],
        [76.45522, 13.59088],
        [76.43401, 13.59433],
        [76.42816, 13.59222],
        [76.42439, 13.58155],
        [76.41254, 13.5782],
        [76.39927, 13.59501],
        [76.38206, 13.5767],
        [76.3734, 13.59323],
        [76.35281, 13.57928],
        [76.34085, 13.576],
        [76.3329, 13.59607],
        [76.30155, 13.5888],
        [76.2929, 13.5906],
        [76.29225, 13.59755],
        [76.28811, 13.59407],
        [76.28135, 13.60707],
        [76.27325, 13.60488],
        [76.27988, 13.63696],
        [76.2869, 13.64618],
        [76.26286, 13.64878],
        [76.25582, 13.66067],
        [76.24364, 13.666],
        [76.23596, 13.67786],
        [76.2241, 13.67994],
        [76.21986, 13.71318],
        [76.19737, 13.71125],
        [76.17314, 13.71688],
        [76.17035, 13.72693],
        [76.14915, 13.73283],
        [76.14382, 13.76074],
        [76.13262, 13.78642],
        [76.12976, 13.81448],
        [76.11523, 13.81217],
        [76.10009, 13.85981],
        [76.13182, 13.86179],
        [76.14319, 13.86708],
        [76.15028, 13.86353],
        [76.14876, 13.87236],
        [76.17577, 13.87696],
        [76.1726, 13.89566],
        [76.18467, 13.91972],
        [76.20704, 13.91127],
        [76.21366, 13.91604],
        [76.21241, 13.92524],
        [76.23603, 13.93474],
        [76.2404, 13.93051],
        [76.23446, 13.95161],
        [76.24328, 13.95807],
        [76.23505, 13.96834],
        [76.22846, 13.99208],
        [76.24767, 13.9967],
        [76.26374, 13.99533],
        [76.26835, 13.97932],
        [76.25755, 13.96352],
        [76.26062, 13.95607],
        [76.26511, 13.95597],
        [76.26686, 13.96148],
        [76.273, 13.95731],
        [76.27405, 13.93959],
        [76.27929, 13.92971],
        [76.2856, 13.93071],
        [76.28874, 13.94134],
        [76.30047, 13.94529],
        [76.30019, 13.95651],
        [76.32331, 13.96051],
        [76.3185, 13.98118],
        [76.36005, 13.98618],
        [76.36484, 13.97805],
        [76.36098, 13.9717],
        [76.3634, 13.9674],
        [76.37014, 13.96726],
        [76.373, 13.95561],
        [76.39839, 13.95934],
        [76.40216, 13.95143],
        [76.41706, 13.95284],
        [76.42498, 13.96556],
        [76.42467, 13.97752],
        [76.41471, 13.98873],
        [76.41921, 13.99484],
        [76.43715, 14.00346],
        [76.46552, 13.99049],
        [76.47845, 13.95623],
        [76.4853, 13.95084]
      ]
    ]
  }
}
