{
  "type": "Feature",
  "id": "KA-AC-129",
  "properties": {
    "stateName": "KARNATAKA",
    "stateCode": "KA",
    "districtName": "TUMKUR",
    "acNo": 129,
    "acName": "Tiptur",
    "seatType": null,
    "pcNo": 19,
    "pcName": "TUMKUR",
    "quality": "unverified",
    "sources": [
      "TBD"
    ]
  },
  "geometry": {
    "type": "Polygon",
    "coordinates": [
      [
        [76.45535, 13.41235],
        [76.47116, 13.41128],
        [76.47444, 13.41723],
        [76.48042, 13.41708],
        [76.49892, 13.40817],
        [76.51775, 13.39305],
        [76.51517, 13.3854],
        [76.51874, 13.37894],
        [76.54123, 13.37497],
        [76.54747, 13.35947],
        [76.54076, 13.33192],
        [76.54578, 13.33544],
        [76.55189, 13.32989],
        [76.55834, 13.3338],
        [76.56782, 13.32799],
        [76.57882, 13.33105],
        [76.58485, 13.33837],
        [76.59683, 13.34012],
        [76.59683, 13.32331],
        [76.61124, 13.32415],
        [76.61681, 13.31493],
        [76.62917, 13.31414],
        [76.65166, 13.3333],
        [76.67833, 13.33608],
        [76.69242, 13.34648],
        [76.70035, 13.34351],
        [76.70102, 13.35002],
        [76.70643, 13.35044],
        [76.71827, 13.34499],
        [76.71653, 13.3321],
        [76.70916, 13.33125],
        [76.71035, 13.31585],
        [76.72295, 13.30677],
        [76.68961, 13.3025],
        [76.68898, 13.27369],
        [76.67946, 13.27404],
        [76.66756, 13.28256],
        [76.66173, 13.27649],
        [76.63557, 13.27342],
        [76.64875, 13.27894],
        [76.64626, 13.28751],
        [76.63453, 13.28197],
        [76.62133, 13.28382],
        [76.61824, 13.28006],
        [76.6208, 13.26495],
        [76.6321, 13.25547],
        [76.62228, 13.24929],
        [76.61908, 13.23979],
        [76.60341, 13.24138],
        [76.58989, 13.22243],
        [76.591, 13.21059],
        [76.61137, 13.20785],
        [76.61097, 13.19576],
        [76.59444, 13.1724],
        [76.5928, 13.14543],
        [76.58375, 13.14488],
        [76.58374, 13.1517],
        [76.56624, 13.15141],
        [76.56456, 13.12452],
        [76.55934, 13.12105],
        [76.55725, 13.11392],
        [76.56088, 13.11131],
        [76.55316, 13.09923],
        [76.55288, 13.07656],
        [76.5231, 13.07885],
        [76.51514, 13.06903],
        [76.49571, 13.08686],
        [76.49433, 13.09501],
        [76.48063, 13.09104],
        [76.47226, 13.0933],
        [76.46843, 13.11956],
        [76.47328, 13.14978],
        [76.45497, 13.15],
        [76.44468, 13.16948],
        [76.42913, 13.17274],
        [76.42582, 13.18329],
        [76.41251, 13.19148],
        [76.39442, 13.1904],
        [76.39352, 13.19769],
        [76.37051, 13.20041],
        [76.36978, 13.21149],
        [76.3792, 13.22025],
        [76.37977, 13.23042],
        [76.36479, 13.23375],
        [76.36153, 13.24949],
        [76.35606, 13.24934],
        [76.35721, 13.287],
        [76.34793, 13.30151],
        [76.35232, 13.33118],
        [76.34653, 13.34551],
        [76.34717, 13.36008],
        [76.38135, 13.36426],
        [76.38218, 13.37239],
        [76.38578, 13.37099],
        [76.39216, 13.3796],
        [76.38939, 13.39625],
        [76.39696, 13.40219],
        [76.40027, 13.42217],
        [76.40953, 13.43598],
        [76.4346, 13.41471],
        [76.44528, 13.41941],
        [76.45535, 13.41235]
      ]
    ]
  }
}
