{
  "type": "Feature",
  "id": "KA-AC-133",
  "properties": {
    "stateName": "KARNATAKA",
    "stateCode": "KA",
    "districtName": "TUMKUR",
    "acNo": 133,
    "acName": "Tumkur Rural",
    "seatType": null,
    "pcNo": 19,
    "pcName": "TUMKUR",
    "quality": "unverified",
    "sources": [
      "TBD"
    ]
  },
  "geometry": {
    "type": "Polygon",
    "coordinates": [
      [
        [76.99539, 13.51354],
        [76.99048, 13.51651],
        [76.99209, 13.52744],
        [76.99866, 13.52654],
        [77.00036, 13.5309],
        [76.99884, 13.5433],
        [77.01172, 13.54188],
        [77.00996, 13.53673],
        [77.0085, 13.52344],
        [77.02211, 13.51916],
        [77.0251, 13.48729],
        [77.04202, 13.484],
        [77.03475, 13.47521],
        [77.03599, 13.46764],
        [77.0575, 13.45966],
        [77.05513, 13.44168],
        [77.05932, 13.43747],
        [77.04575, 13.42722],
        [77.04904, 13.41962],
        [77.084, 13.41736],
        [77.09138, 13.42178],
        [77.09347, 13.43094],
        [77.10269, 13.43305],
        [77.10438, 13.44303],
        [77.10926, 13.44406],
        [77.11731, 13.44093],
        [77.11896, 13.42942],
        [77.12951, 13.42245],
        [77.1306, 13.41723],
        [77.1502, 13.41469],
        [77.15547, 13.40128],
        [77.16795, 13.4047],
        [77.16782, 13.4134],
        [77.18059, 13.41839],
        [77.22274, 13.42591],
        [77.21534, 13.41175],
        [77.22983, 13.39921],
        [77.22237, 13.39238],
        [77.23293, 13.38004],
        [77.24257, 13.3775],
        [77.2437, 13.36569],
        [77.27367, 13.36617],
        [77.29772, 13.35662],
        [77.29123, 13.35371],
        [77.28407, 13.3372],
        [77.29704, 13.33719],
        [77.29902, 13.32612],
        [77.31064, 13.31892],
        [77.31203, 13.32352],
        [77.32921, 13.33046],
        [77.33903, 13.33085],
        [77.33848, 13.3291],
        [77.33195, 13.32806],
        [77.32929, 13.3303],
        [77.32315, 13.32568],
        [77.31217, 13.32214],
        [77.30881, 13.3105],
        [77.28147, 13.31046],
        [77.28182, 13.29744],
        [77.27541, 13.29774],
        [77.27007, 13.31099],
        [77.25488, 13.3088],
        [77.24904, 13.30153],
        [77.2291, 13.31311],
        [77.22005, 13.28454],
        [77.22193, 13.26842],
        [77.21694, 13.26164],
        [77.20537, 13.26169],
        [77.19942, 13.26843],
        [77.19237, 13.26918],
        [77.18877, 13.27637],
        [77.18337, 13.25749],
        [77.19228, 13.24414],
        [77.18262, 13.22897],
        [77.1942, 13.22423],
        [77.19434, 13.20789],
        [77.2002, 13.20328],
        [77.19923, 13.19663],
        [77.20719, 13.1969],
        [77.20329, 13.18411],
        [77.19737, 13.1803],
        [77.17726, 13.18621],
        [77.1688, 13.18381],
        [77.16605, 13.19735],
        [77.15546, 13.19342],
        [77.14779, 13.1737],
        [77.13879, 13.17775],
        [77.13098, 13.166],
        [77.11838, 13.1619],
        [77.11592, 13.13023],
        [77.1074, 13.1334],
        [77.10742, 13.14256],
        [77.09796, 13.14569],
        [77.09197, 13.13554],
        [77.07994, 13.13348],
        [77.06313, 13.13282],
        [77.05464, 13.12862],
        [77.0542, 13.12268],
        [77.04257, 13.11969],
        [77.02385, 13.13037],
        [77.01772, 13.11172],
        [77.00642, 13.11475],
        [77.0022, 13.12768],
        [76.99561, 13.12484],
        [76.98396, 13.12914],
        [76.98008, 13.14587],
        [76.97642, 13.14666],
        [76.98117, 13.17958],
        [76.9647, 13.18168],
        [76.96509, 13.18565],
        [76.97585, 13.188],
        [76.97709, 13.20623],
        [76.98594, 13.20883],
        [76.98266, 13.23314],
        [76.98635, 13.23823],
        [76.99366, 13.2383],
        [76.98877, 13.25057],
        [76.9961, 13.252],
        [76.99653, 13.25844],
        [76.99367, 13.2683],
        [76.9855, 13.26778],
        [76.98438, 13.26245],
        [76.97975, 13.26194],
        [76.98274, 13.27191],
        [76.97745, 13.27508],
        [76.98741, 13.28991],
        [76.98696, 13.29967],
        [76.99701, 13.30274],
        [77.00496, 13.33621],
        [76.99153, 13.35883],
        [76.99711, 13.39518],
        [76.99045, 13.40156],
        [76.99736, 13.4054],
        [76.9885, 13.40903],
        [76.99144, 13.42784],
        [76.97626, 13.44631],
        [76.97491, 13.47112],
        [76.96393, 13.49027],
        [76.99068, 13.50494],
        [76.99539, 13.51354]
      ],
      [
        [77.11849, 13.32571],
        [77.11959, 13.33233],
        [77.12525, 13.33196],
        [77.12731, 13.34566],
        [77.12154, 13.34734],
        [77.12322, 13.35069],
        [77.11482, 13.35048],
        [77.1126, 13.35561],
        [77.095, 13.357],
        [77.09109, 13.34255],
        [77.08436, 13.33923],
        [77.0979, 13.33185],
        [77.09435, 13.32572],
        [77.10954, 13.32023],
        [77.11264, 13.32734],
        [77.11849, 13.32571]
      ]
    ]
  }
}
