{
  "type": "Feature",
  "id": "KA-AC-138",
  "properties": {
    "stateName": "KARNATAKA",
    "stateCode": "KA",
    "districtName": "TUMKUR",
    "acNo": 138,
    "acName": "Madhugiri",
    "seatType": null,
    "pcNo": 19,
    "pcName": "TUMKUR",
    "quality": "unverified",
    "sources": [
      "TBD"
    ]
  },
  "geometry": {
    "type": "Polygon",
    "coordinates": [
      [
        [77.02449, 13.77926],
        [77.0245, 13.7793],
        [77.03571, 13.77841],
        [77.04338, 13.7778],
        [77.0434, 13.7778],
        [77.0441, 13.7709],
        [77.05738, 13.76084],
        [77.05778, 13.76054],
        [77.0581, 13.7603],
        [77.0575, 13.753],
        [77.05884, 13.75126],
        [77.06283, 13.74607],
        [77.0645, 13.7439],
        [77.08208, 13.74265],
        [77.08558, 13.7424],
        [77.08558, 13.7424],
        [77.0856, 13.7424],
        [77.08497, 13.74737],
        [77.0838, 13.7567],
        [77.0905, 13.7672],
        [77.10004, 13.76757],
        [77.106, 13.7678],
        [77.1368, 13.7583],
        [77.14002, 13.76364],
        [77.14089, 13.76508],
        [77.1409, 13.7651],
        [77.14366, 13.7654],
        [77.1511, 13.7662],
        [77.17115, 13.76246],
        [77.17307, 13.76211],
        [77.1731, 13.7621],
        [77.1785, 13.7827],
        [77.1575, 13.8061],
        [77.16208, 13.80843],
        [77.1626, 13.8087],
        [77.16193, 13.81047],
        [77.1595, 13.8169],
        [77.1677, 13.8213],
        [77.1687, 13.8296],
        [77.15912, 13.83254],
        [77.15511, 13.83377],
        [77.1537, 13.8342],
        [77.156, 13.8444],
        [77.1322, 13.8462],
        [77.1282, 13.8565],
        [77.1361, 13.8566],
        [77.1477, 13.8685],
        [77.1686, 13.8645],
        [77.1715, 13.8715],
        [77.1689, 13.89],
        [77.162, 13.9067],
        [77.1699, 13.9206],
        [77.16992, 13.92061],
        [77.1847, 13.9252],
        [77.1909, 13.9119],
        [77.1857, 13.8762],
        [77.1814, 13.8699],
        [77.18142, 13.86989],
        [77.1965, 13.86452],
        [77.2005, 13.8631],
        [77.2069, 13.87754],
        [77.2102, 13.885],
        [77.2152, 13.8863],
        [77.2153, 13.86836],
        [77.2153, 13.8683],
        [77.21809, 13.868],
        [77.21989, 13.8678],
        [77.2199, 13.8678],
        [77.2307, 13.9034],
        [77.2356, 13.9042],
        [77.23561, 13.90417],
        [77.23588, 13.90322],
        [77.23595, 13.90298],
        [77.2365, 13.9011],
        [77.2483, 13.9013],
        [77.24733, 13.89605],
        [77.2447, 13.8819],
        [77.24787, 13.8711],
        [77.2489, 13.8676],
        [77.2591, 13.8632],
        [77.2567, 13.8466],
        [77.2803, 13.8511],
        [77.28419, 13.84935],
        [77.2883, 13.8475],
        [77.2936, 13.85546],
        [77.2949, 13.8574],
        [77.3106, 13.8629],
        [77.31126, 13.86632],
        [77.3113, 13.8665],
        [77.3215, 13.856],
        [77.3254, 13.8333],
        [77.3369, 13.8328],
        [77.35014, 13.84379],
        [77.3628, 13.8543],
        [77.3787, 13.8494],
        [77.38076, 13.84295],
        [77.3819, 13.8394],
        [77.38192, 13.8394],
        [77.38192, 13.8394],
        [77.38202, 13.8394],
        [77.4152, 13.8396],
        [77.4292, 13.8448],
        [77.432, 13.8411],
        [77.4161, 13.8067],
        [77.41613, 13.80673],
        [77.41613, 13.80672],
        [77.41642, 13.80696],
        [77.4197, 13.8096],
        [77.4287, 13.8068],
        [77.4226, 13.7991],
        [77.4358, 13.7965],
        [77.4453, 13.8111],
        [77.448, 13.81045],
        [77.4515, 13.8096],
        [77.46454, 13.80811],
        [77.4646, 13.8081],
        [77.4564, 13.7889],
        [77.45753, 13.78879],
        [77.4589, 13.78865],
        [77.46139, 13.7884],
        [77.4614, 13.7884],
        [77.4652, 13.7587],
        [77.4706, 13.7581],
        [77.4671, 13.74654],
        [77.465, 13.7396],
        [77.46495, 13.72527],
        [77.4649, 13.711],
        [77.46487, 13.711],
        [77.4499, 13.711],
        [77.4555, 13.6827],
        [77.49106, 13.68989],
        [77.49107, 13.68986],
        [77.45547, 13.68266],
        [77.43669, 13.68409],
        [77.43527, 13.67259],
        [77.39713, 13.67314],
        [77.39363, 13.66504],
        [77.38329, 13.66238],
        [77.37676, 13.64988],
        [77.3784, 13.64505],
        [77.36877, 13.64124],
        [77.36929, 13.63599],
        [77.35839, 13.64024],
        [77.34272, 13.67246],
        [77.3477, 13.68235],
        [77.33996, 13.67967],
        [77.3337, 13.68305],
        [77.3383, 13.69565],
        [77.32841, 13.69653],
        [77.3308, 13.70175],
        [77.34088, 13.7046],
        [77.33707, 13.71762],
        [77.32508, 13.72351],
        [77.32405, 13.7377],
        [77.3147, 13.73817],
        [77.31419, 13.74277],
        [77.3051, 13.74694],
        [77.28511, 13.74298],
        [77.28129, 13.71169],
        [77.28433, 13.69585],
        [77.26913, 13.68999],
        [77.26123, 13.65737],
        [77.26084, 13.65333],
        [77.26658, 13.65065],
        [77.26603, 13.6341],
        [77.26228, 13.62273],
        [77.24425, 13.60971],
        [77.24185, 13.60007],
        [77.23198, 13.60218],
        [77.20279, 13.59733],
        [77.1833, 13.60137],
        [77.16779, 13.59011],
        [77.13488, 13.59855],
        [77.12994, 13.59411],
        [77.10383, 13.58922],
        [77.09643, 13.58105],
        [77.02823, 13.58872],
        [77.03182, 13.60046],
        [77.02853, 13.63406],
        [77.02403, 13.63836],
        [77.02483, 13.67116],
        [77.01529, 13.67449],
        [77.01152, 13.68069],
        [77.00906, 13.70089],
        [77.0282, 13.70825],
        [77.02986, 13.72304],
        [77.02135, 13.72369],
        [77.01275, 13.73978],
        [77.01387, 13.73938],
        [77.01414, 13.73928],
        [77.0166, 13.7384],
        [77.02449, 13.77926]
      ]
    ]
  }
}
