{
  "type": "Feature",
  "id": "KA-AC-141",
  "properties": {
    "stateName": "KARNATAKA",
    "stateCode": "KA",
    "districtName": "KOLAR",
    "acNo": 141,
    "acName": "Chikkaballapur",
    "seatType": null,
    "pcNo": 27,
    "pcName": "CHIKKBALLAPUR",
    "quality": "unverified",
    "sources": [
      "TBD"
    ]
  },
  "geometry": {
    "type": "Polygon",
    "coordinates": [
      [
        [77.74887, 13.65412],
        [77.75405, 13.65784],
        [77.75736, 13.64779],
        [77.74427, 13.63812],
        [77.7629, 13.63075],
        [77.77106, 13.6356],
        [77.77742, 13.63316],
        [77.77798, 13.62415],
        [77.76806, 13.62281],
        [77.77303, 13.61487],
        [77.78376, 13.61575],
        [77.80366, 13.62742],
        [77.81045, 13.6254],
        [77.8105, 13.61903],
        [77.81695, 13.61369],
        [77.8319, 13.61142],
        [77.82912, 13.60214],
        [77.83396, 13.58736],
        [77.85044, 13.58714],
        [77.85042, 13.58145],
        [77.87068, 13.58444],
        [77.8712, 13.57499],
        [77.86882, 13.56607],
        [77.83765, 13.55852],
        [77.82697, 13.53856],
        [77.81062, 13.53432],
        [77.81515, 13.51464],
        [77.83046, 13.51013],
        [77.82786, 13.49639],
        [77.83277, 13.48758],
        [77.82961, 13.48045],
        [77.84316, 13.46759],
        [77.83882, 13.45293],
        [77.84528, 13.44064],
        [77.83218, 13.43592],
        [77.82506, 13.41368],
        [77.83407, 13.40562],
        [77.84094, 13.38782],
        [77.83776, 13.37739],
        [77.82345, 13.37048],
        [77.81234, 13.37446],
        [77.80828, 13.36837],
        [77.79434, 13.36374],
        [77.79098, 13.34906],
        [77.75387, 13.36393],
        [77.74367, 13.35799],
        [77.74574, 13.35284],
        [77.73207, 13.35923],
        [77.72974, 13.34914],
        [77.71798, 13.34922],
        [77.71769, 13.3625],
        [77.71292, 13.36267],
        [77.70905, 13.35808],
        [77.69947, 13.35779],
        [77.70425, 13.3433],
        [77.69779, 13.33408],
        [77.68712, 13.34924],
        [77.67629, 13.34641],
        [77.65825, 13.35492],
        [77.65724, 13.36825],
        [77.66257, 13.37827],
        [77.65225, 13.38464],
        [77.65892, 13.39519],
        [77.63871, 13.39034],
        [77.63377, 13.37342],
        [77.62084, 13.37378],
        [77.62225, 13.38168],
        [77.6115, 13.38597],
        [77.6189, 13.39889],
        [77.60582, 13.405],
        [77.60558, 13.39717],
        [77.60148, 13.3962],
        [77.59883, 13.41285],
        [77.61521, 13.4184],
        [77.60609, 13.42324],
        [77.60274, 13.43966],
        [77.59696, 13.4325],
        [77.58972, 13.4331],
        [77.5921, 13.41904],
        [77.55416, 13.41655],
        [77.54828, 13.43165],
        [77.55928, 13.43741],
        [77.54247, 13.44056],
        [77.5486, 13.44526],
        [77.54692, 13.45669],
        [77.55233, 13.48223],
        [77.56244, 13.4949],
        [77.5602, 13.50486],
        [77.55402, 13.50655],
        [77.55799, 13.51192],
        [77.54316, 13.5393],
        [77.55123, 13.54744],
        [77.55148, 13.56583],
        [77.55575, 13.57251],
        [77.57032, 13.55999],
        [77.58465, 13.55983],
        [77.59202, 13.54373],
        [77.59791, 13.54643],
        [77.60183, 13.56665],
        [77.61524, 13.56175],
        [77.61858, 13.56889],
        [77.631, 13.56388],
        [77.65427, 13.56667],
        [77.66231, 13.57728],
        [77.63819, 13.58136],
        [77.65184, 13.59828],
        [77.65183, 13.62822],
        [77.6564, 13.64462],
        [77.66871, 13.63329],
        [77.72378, 13.6252],
        [77.72426, 13.63599],
        [77.71401, 13.64015],
        [77.71675, 13.65929],
        [77.72737, 13.66798],
        [77.73591, 13.66491],
        [77.73716, 13.65226],
        [77.74789, 13.64471],
        [77.75376, 13.64689],
        [77.74887, 13.65412]
      ]
    ]
  }
}
