{
  "type": "Feature",
  "id": "KA-AC-146",
  "properties": {
    "stateName": "KARNATAKA",
    "stateCode": "KA",
    "districtName": "KOLAR",
    "acNo": 146,
    "acName": "Kolar Gold Field(SC)",
    "seatType": null,
    "pcNo": 28,
    "pcName": "KOLAR (SC)",
    "quality": "unverified",
    "sources": [
      "TBD"
    ]
  },
  "geometry": {
    "type": "Polygon",
    "coordinates": [
      [
        [78.2648, 12.8617],
        [78.2534, 12.862],
        [78.2534, 12.86199],
        [78.24945, 12.86734],
        [78.25969, 12.8984],
        [78.25827, 12.92244],
        [78.24428, 12.91775],
        [78.23632, 12.92173],
        [78.24241, 12.92974],
        [78.23734, 12.93453],
        [78.22616, 13.00601],
        [78.23355, 13.0086],
        [78.24018, 13.00315],
        [78.24857, 13.00942],
        [78.25559, 13.00491],
        [78.25367, 12.99397],
        [78.26752, 12.99274],
        [78.26766, 12.98221],
        [78.28266, 12.98064],
        [78.28586, 12.98395],
        [78.28663, 12.99611],
        [78.29082, 12.99873],
        [78.25971, 13.01439],
        [78.26895, 13.02507],
        [78.25312, 13.04122],
        [78.25203, 13.05202],
        [78.25999, 13.05476],
        [78.27772, 13.04813],
        [78.27997, 13.0509],
        [78.26288, 13.05786],
        [78.26205, 13.07048],
        [78.27627, 13.06768],
        [78.27873, 13.08058],
        [78.28713, 13.0831],
        [78.29407, 13.06889],
        [78.29562, 13.06556],
        [78.32409, 13.06308],
        [78.34232, 13.05483],
        [78.3552, 13.05873],
        [78.36189, 13.05581],
        [78.36395, 13.03833],
        [78.36776, 13.03687],
        [78.36764, 13.03222],
        [78.36079, 13.02797],
        [78.36241, 13.01954],
        [78.36923, 13.0195],
        [78.37083, 13.02461],
        [78.38481, 13.02144],
        [78.3996, 13.02937],
        [78.40124, 13.02525],
        [78.40441, 13.02832],
        [78.41078, 13.02458],
        [78.41797, 13.03266],
        [78.44872, 13.02378],
        [78.46045, 13.0263],
        [78.46196, 13.01386],
        [78.4629, 13.0058],
        [78.4747, 12.9915],
        [78.47469, 12.99149],
        [78.47271, 12.98699],
        [78.4674, 12.975],
        [78.44635, 12.97899],
        [78.4352, 12.9811],
        [78.4326, 12.9678],
        [78.43789, 12.96401],
        [78.4379, 12.964],
        [78.4291, 12.9575],
        [78.42909, 12.9575],
        [78.42306, 12.95823],
        [78.4192, 12.9587],
        [78.4203, 12.9478],
        [78.41399, 12.94622],
        [78.4111, 12.9455],
        [78.4188, 12.9217],
        [78.4281, 12.9321],
        [78.4379, 12.929],
        [78.4434, 12.9215],
        [78.4666, 12.9054],
        [78.4694, 12.89],
        [78.4647, 12.8668],
        [78.4641, 12.8777],
        [78.4472, 12.8922],
        [78.4455, 12.9118],
        [78.4349, 12.9119],
        [78.4336, 12.9046],
        [78.42905, 12.90232],
        [78.42859, 12.9021],
        [78.4122, 12.9033],
        [78.40341, 12.91234],
        [78.40128, 12.91454],
        [78.3986, 12.9173],
        [78.3961, 12.907],
        [78.39241, 12.90695],
        [78.38988, 12.90692],
        [78.3886, 12.9069],
        [78.36335, 12.933],
        [78.3558, 12.9408],
        [78.3497, 12.9357],
        [78.3538, 12.9303],
        [78.349, 12.929],
        [78.3466, 12.9141],
        [78.34656, 12.91408],
        [78.34622, 12.91392],
        [78.34194, 12.91192],
        [78.3419, 12.9119],
        [78.34289, 12.91023],
        [78.3442, 12.908],
        [78.3397, 12.9032],
        [78.3235, 12.9018],
        [78.3203, 12.8873],
        [78.3292, 12.8846],
        [78.3345, 12.8892],
        [78.3345, 12.8892],
        [78.3371, 12.8824],
        [78.331, 12.8756],
        [78.3137, 12.8763],
        [78.31305, 12.86743],
        [78.31289, 12.86533],
        [78.3124, 12.8586],
        [78.2821, 12.8594],
        [78.27282, 12.86502],
        [78.2684, 12.8677],
        [78.2648, 12.8617]
      ]
    ]
  }
}
