{
  "type": "Feature",
  "id": "KA-AC-15",
  "properties": {
    "stateName": "KARNATAKA",
    "stateCode": "KA",
    "districtName": "BELGAUM",
    "acNo": 15,
    "acName": "Kittur",
    "seatType": null,
    "pcNo": 12,
    "pcName": "UTTARA KANNADA",
    "quality": "unverified",
    "sources": [
      "TBD"
    ]
  },
  "geometry": {
    "type": "Polygon",
    "coordinates": [
      [
        [74.83021, 15.95002],
        [74.8414, 15.90251],
        [74.80167, 15.88312],
        [74.80883, 15.85266],
        [74.82258, 15.83934],
        [74.82232, 15.83418],
        [74.79885, 15.83288],
        [74.78581, 15.8151],
        [74.78521, 15.80794],
        [74.76807, 15.80694],
        [74.77367, 15.79225],
        [74.78678, 15.78933],
        [74.80794, 15.79205],
        [74.80807, 15.77835],
        [74.81834, 15.75781],
        [74.80183, 15.75281],
        [74.80006, 15.74259],
        [74.80694, 15.73144],
        [74.79965, 15.72756],
        [74.79442, 15.73098],
        [74.79821, 15.7073],
        [74.79423, 15.7028],
        [74.80979, 15.70531],
        [74.80674, 15.70969],
        [74.81647, 15.71247],
        [74.81947, 15.70712],
        [74.82976, 15.70847],
        [74.84568, 15.69723],
        [74.84282, 15.71631],
        [74.84703, 15.71695],
        [74.84732, 15.72338],
        [74.85534, 15.72491],
        [74.86212, 15.71601],
        [74.86471, 15.68472],
        [74.87994, 15.67736],
        [74.86967, 15.66522],
        [74.86067, 15.67119],
        [74.85199, 15.66633],
        [74.85395, 15.64935],
        [74.84926, 15.64281],
        [74.85866, 15.61296],
        [74.84485, 15.60781],
        [74.83833, 15.61257],
        [74.82934, 15.60962],
        [74.83011, 15.5903],
        [74.83556, 15.58744],
        [74.84057, 15.5744],
        [74.82244, 15.56869],
        [74.80745, 15.55108],
        [74.79698, 15.54841],
        [74.8108, 15.5208],
        [74.80962, 15.51154],
        [74.8138, 15.50436],
        [74.80301, 15.50244],
        [74.805, 15.49775],
        [74.79742, 15.4979],
        [74.79551, 15.48757],
        [74.78627, 15.48617],
        [74.78837, 15.47358],
        [74.77772, 15.45874],
        [74.76445, 15.47364],
        [74.76061, 15.47025],
        [74.75453, 15.48757],
        [74.74865, 15.49541],
        [74.74471, 15.49395],
        [74.72922, 15.51203],
        [74.73298, 15.51446],
        [74.7332, 15.5578],
        [74.71988, 15.55908],
        [74.7042, 15.5713],
        [74.70453, 15.57816],
        [74.71347, 15.58166],
        [74.71483, 15.58891],
        [74.70916, 15.58821],
        [74.70249, 15.59701],
        [74.70729, 15.59897],
        [74.70454, 15.63087],
        [74.71792, 15.62707],
        [74.71594, 15.63616],
        [74.72283, 15.64745],
        [74.69147, 15.65431],
        [74.68895, 15.6752],
        [74.68369, 15.68113],
        [74.67177, 15.68334],
        [74.66888, 15.69189],
        [74.65766, 15.69547],
        [74.65073, 15.70866],
        [74.66841, 15.71405],
        [74.66881, 15.72178],
        [74.67764, 15.72006],
        [74.67745, 15.73605],
        [74.66925, 15.75786],
        [74.67099, 15.77202],
        [74.66548, 15.77967],
        [74.66905, 15.79297],
        [74.66682, 15.8035],
        [74.64116, 15.80598],
        [74.63227, 15.80296],
        [74.63163, 15.8118],
        [74.64108, 15.82521],
        [74.63812, 15.83674],
        [74.65897, 15.85031],
        [74.67735, 15.8475],
        [74.6996, 15.86777],
        [74.69612, 15.90427],
        [74.68152, 15.91242],
        [74.68198, 15.9182],
        [74.69238, 15.92497],
        [74.68439, 15.93469],
        [74.68727, 15.94431],
        [74.69601, 15.94553],
        [74.69846, 15.95568],
        [74.72832, 15.96809],
        [74.73973, 15.97929],
        [74.7509, 15.97668],
        [74.76539, 15.9897],
        [74.84452, 15.9899],
        [74.8446, 15.98643],
        [74.8408, 15.96144],
        [74.83021, 15.95002]
      ]
    ]
  }
}
