{
  "type": "Feature",
  "id": "KA-AC-155",
  "properties": {
    "stateName": "KARNATAKA",
    "stateCode": "KA",
    "districtName": "BANGALORE",
    "acNo": 155,
    "acName": "Dasarahalli",
    "seatType": null,
    "pcNo": 24,
    "pcName": "BANGALORE NORTH",
    "quality": "unverified",
    "sources": [
      "TBD"
    ]
  },
  "geometry": {
    "type": "Polygon",
    "coordinates": [
      [
        [77.53099, 13.07124],
        [77.52304, 13.07219],
        [77.52549, 13.05802],
        [77.53077, 13.05448],
        [77.5152, 13.0414],
        [77.51704, 13.02463],
        [77.50307, 13.00975],
        [77.50708, 13.00582],
        [77.50192, 12.99432],
        [77.49134, 13.00316],
        [77.50027, 13.01225],
        [77.49375, 13.05242],
        [77.4913, 13.05233],
        [77.49348, 13.09479],
        [77.50051, 13.0928],
        [77.50318, 13.10006],
        [77.51468, 13.09411],
        [77.53799, 13.09255],
        [77.52825, 13.08317],
        [77.53099, 13.07124]
      ]
    ]
  }
}
