{
  "type": "Feature",
  "id": "KA-AC-166",
  "properties": {
    "stateName": "KARNATAKA",
    "stateCode": "KA",
    "districtName": "BANGALORE",
    "acNo": 166,
    "acName": "Govindraj Nagar",
    "seatType": null,
    "pcNo": 26,
    "pcName": "BANGALORE SOUTH",
    "quality": "unverified",
    "sources": [
      "TBD"
    ]
  },
  "geometry": {
    "type": "Polygon",
    "coordinates": [
      [
        [77.53817, 12.98745],
        [77.55013, 12.9842],
        [77.5555, 12.97679],
        [77.53968, 12.97328],
        [77.53524, 12.9641],
        [77.52239, 12.96215],
        [77.52938, 12.95798],
        [77.52905, 12.94376],
        [77.52814, 12.93909],
        [77.51452, 12.93685],
        [77.51796, 12.94445],
        [77.51225, 12.95021],
        [77.51867, 12.96333],
        [77.52158, 12.98659],
        [77.53066, 12.98391],
        [77.53677, 12.98172],
        [77.53817, 12.98745]
      ]
    ]
  }
}
