{
  "type": "Feature",
  "id": "KA-AC-191",
  "properties": {
    "stateName": "KARNATAKA",
    "stateCode": "KA",
    "districtName": "MANDYA",
    "acNo": 191,
    "acName": "Nagamangala",
    "seatType": null,
    "pcNo": 20,
    "pcName": "MANDYA",
    "quality": "unverified",
    "sources": [
      "TBD"
    ]
  },
  "geometry": {
    "type": "Polygon",
    "coordinates": [
      [
        [76.65372, 13.0082],
        [76.67309, 13.05551],
        [76.69386, 13.03717],
        [76.7022, 13.0419],
        [76.72581, 13.04182],
        [76.77295, 13.0338],
        [76.78296, 13.02963],
        [76.78572, 13.01545],
        [76.81464, 13.01387],
        [76.8195, 13.00536],
        [76.82981, 13.00213],
        [76.82721, 12.99892],
        [76.85255, 12.9787],
        [76.85118, 12.97398],
        [76.83971, 12.97356],
        [76.83824, 12.94579],
        [76.84882, 12.94412],
        [76.85027, 12.93851],
        [76.86091, 12.93538],
        [76.86287, 12.92895],
        [76.89104, 12.93381],
        [76.89618, 12.9203],
        [76.86762, 12.91906],
        [76.86422, 12.91298],
        [76.87199, 12.89821],
        [76.88797, 12.89843],
        [76.89481, 12.87382],
        [76.89258, 12.85237],
        [76.90563, 12.83493],
        [76.90609, 12.82785],
        [76.91867, 12.81824],
        [76.92399, 12.80525],
        [76.9333, 12.79973],
        [76.94155, 12.80457],
        [76.95166, 12.80073],
        [76.97331, 12.80355],
        [76.97618, 12.79192],
        [76.98393, 12.79231],
        [76.99929, 12.77549],
        [76.98292, 12.76423],
        [76.98982, 12.75585],
        [76.98358, 12.74604],
        [76.98685, 12.74022],
        [77.00345, 12.73401],
        [77.00188, 12.72842],
        [76.99044, 12.72387],
        [76.99164, 12.71787],
        [77.00271, 12.71503],
        [77.01124, 12.7073],
        [77.00687, 12.69619],
        [77.00676, 12.65874],
        [76.98954, 12.66019],
        [76.98918, 12.64644],
        [76.9653, 12.64501],
        [76.95725, 12.66146],
        [76.94489, 12.66628],
        [76.92949, 12.6587],
        [76.91848, 12.67514],
        [76.9215, 12.69034],
        [76.92955, 12.69069],
        [76.93568, 12.70283],
        [76.94518, 12.70174],
        [76.94637, 12.70685],
        [76.9138, 12.71602],
        [76.89624, 12.73018],
        [76.90687, 12.74408],
        [76.89538, 12.75118],
        [76.88821, 12.74619],
        [76.88339, 12.75542],
        [76.86691, 12.75497],
        [76.88369, 12.74608],
        [76.87974, 12.73935],
        [76.84355, 12.75374],
        [76.84167, 12.75024],
        [76.82117, 12.74799],
        [76.81724, 12.73894],
        [76.8065, 12.73071],
        [76.79551, 12.74108],
        [76.7817, 12.7439],
        [76.77564, 12.72625],
        [76.75918, 12.7196],
        [76.75929, 12.70476],
        [76.74943, 12.69455],
        [76.75543, 12.68291],
        [76.73179, 12.67738],
        [76.73049, 12.68461],
        [76.71934, 12.69137],
        [76.70622, 12.66233],
        [76.69902, 12.66679],
        [76.68068, 12.6681],
        [76.68246, 12.67618],
        [76.67193, 12.67916],
        [76.67434, 12.69253],
        [76.66312, 12.69743],
        [76.65954, 12.69401],
        [76.65947, 12.72606],
        [76.63177, 12.72229],
        [76.61303, 12.7076],
        [76.6129, 12.70151],
        [76.60295, 12.72424],
        [76.5951, 12.72448],
        [76.59627, 12.74311],
        [76.60366, 12.76433],
        [76.5989, 12.76397],
        [76.59779, 12.78851],
        [76.60835, 12.79004],
        [76.60799, 12.79996],
        [76.60118, 12.82145],
        [76.59223, 12.81618],
        [76.58606, 12.81879],
        [76.59875, 12.83187],
        [76.57743, 12.84723],
        [76.5752, 12.86623],
        [76.57877, 12.87347],
        [76.59604, 12.88131],
        [76.59018, 12.89087],
        [76.59925, 12.90459],
        [76.59589, 12.9207],
        [76.60263, 12.92304],
        [76.60572, 12.93872],
        [76.61525, 12.93688],
        [76.61737, 12.94334],
        [76.61745, 12.95382],
        [76.61091, 12.96497],
        [76.63133, 12.97201],
        [76.63257, 13.00454],
        [76.64095, 13.00972],
        [76.65372, 13.0082]
      ]
    ]
  }
}
