{
  "type": "Feature",
  "id": "KA-AC-203",
  "properties": {
    "stateName": "KARNATAKA",
    "stateCode": "KA",
    "districtName": "DAKSHINA KANNADA",
    "acNo": 203,
    "acName": "Mangalore City South",
    "seatType": null,
    "pcNo": 17,
    "pcName": "DAKSHINA KANNADA",
    "quality": "unverified",
    "sources": [
      "TBD"
    ]
  },
  "geometry": {
    "type": "Polygon",
    "coordinates": [
      [
        [74.78474, 13.03166],
        [74.81272, 13.02156],
        [74.81484, 13.01277],
        [74.81816, 13.00896],
        [74.82294, 13.01048],
        [74.82125, 13.00662],
        [74.8302, 13.00032],
        [74.83353, 12.99251],
        [74.82817, 12.98281],
        [74.82133, 12.98057],
        [74.82532, 12.96695],
        [74.822, 12.964],
        [74.83732, 12.95802],
        [74.83784, 12.95167],
        [74.83364, 12.94927],
        [74.83809, 12.94126],
        [74.84658, 12.94778],
        [74.85866, 12.94643],
        [74.87152, 12.93788],
        [74.86914, 12.92213],
        [74.87737, 12.92554],
        [74.89312, 12.91972],
        [74.90456, 12.92308],
        [74.91083, 12.93188],
        [74.9242, 12.92843],
        [74.92102, 12.92675],
        [74.92183, 12.91621],
        [74.90899, 12.90926],
        [74.89828, 12.91001],
        [74.90741, 12.90529],
        [74.90378, 12.90129],
        [74.90652, 12.89333],
        [74.89327, 12.89124],
        [74.89243, 12.88781],
        [74.91099, 12.87551],
        [74.90803, 12.87111],
        [74.91306, 12.86775],
        [74.91366, 12.85895],
        [74.8987, 12.85443],
        [74.88972, 12.84302],
        [74.87543, 12.83774],
        [74.87047, 12.82939],
        [74.86029, 12.82732],
        [74.85427, 12.82889],
        [74.85412, 12.83277],
        [74.83102, 12.83366],
        [74.831, 12.8337],
        [74.829, 12.8462],
        [74.8236, 12.8468],
        [74.79967, 12.96053],
        [74.78474, 13.03166]
      ]
    ]
  }
}
