{
  "type": "Feature",
  "id": "KA-AC-208",
  "properties": {
    "stateName": "KARNATAKA",
    "stateCode": "KA",
    "districtName": "KODAGU",
    "acNo": 208,
    "acName": "Madikeri",
    "seatType": null,
    "pcNo": 21,
    "pcName": "MYSORE",
    "quality": "unverified",
    "sources": [
      "TBD"
    ]
  },
  "geometry": {
    "type": "Polygon",
    "coordinates": [
      [
        [75.95747, 12.78198],
        [75.95484, 12.76895],
        [75.93292, 12.76444],
        [75.93778, 12.7487],
        [75.93373, 12.73574],
        [75.94268, 12.71815],
        [75.9653, 12.71077],
        [75.95759, 12.68043],
        [75.93937, 12.67631],
        [75.94789, 12.66422],
        [75.93884, 12.65307],
        [75.93775, 12.64317],
        [75.94346, 12.63663],
        [75.93631, 12.63009],
        [75.94471, 12.62917],
        [75.94982, 12.62311],
        [75.94733, 12.61453],
        [75.93927, 12.60842],
        [75.96275, 12.5612],
        [75.97525, 12.56334],
        [75.96863, 12.57646],
        [75.98847, 12.57388],
        [75.99087, 12.58879],
        [75.9944, 12.58898],
        [76.00348, 12.57372],
        [76.01806, 12.57057],
        [76.01151, 12.55378],
        [75.99157, 12.56172],
        [75.99103, 12.55521],
        [75.99909, 12.54762],
        [75.99465, 12.54061],
        [75.986, 12.54518],
        [75.98311, 12.54088],
        [75.99316, 12.5301],
        [75.9936, 12.52178],
        [75.97693, 12.52047],
        [75.97312, 12.51248],
        [75.96121, 12.50491],
        [75.9582, 12.49053],
        [75.96065, 12.48441],
        [75.96611, 12.48404],
        [75.9646, 12.47343],
        [75.97188, 12.47089],
        [75.96682, 12.46509],
        [75.97144, 12.44972],
        [75.9463, 12.44925],
        [75.92606, 12.437],
        [75.92374, 12.42318],
        [75.90862, 12.39825],
        [75.91325, 12.38592],
        [75.91283, 12.37903],
        [75.89781, 12.36697],
        [75.90483, 12.35568],
        [75.90372, 12.34742],
        [75.88409, 12.34122],
        [75.87912, 12.33274],
        [75.88809, 12.3212],
        [75.8802, 12.31012],
        [75.8571, 12.30441],
        [75.85249, 12.29564],
        [75.84611, 12.30974],
        [75.82784, 12.29858],
        [75.83047, 12.30795],
        [75.82201, 12.31602],
        [75.81501, 12.30308],
        [75.80703, 12.30007],
        [75.81009, 12.29205],
        [75.80501, 12.29117],
        [75.80319, 12.29644],
        [75.79149, 12.30272],
        [75.78236, 12.29695],
        [75.76951, 12.27653],
        [75.76257, 12.27721],
        [75.75848, 12.28248],
        [75.75993, 12.29882],
        [75.74713, 12.31365],
        [75.75009, 12.32134],
        [75.73523, 12.32386],
        [75.72879, 12.30042],
        [75.70693, 12.29959],
        [75.69648, 12.30818],
        [75.68348, 12.31095],
        [75.69069, 12.35135],
        [75.69251, 12.35651],
        [75.69763, 12.35169],
        [75.7243, 12.354],
        [75.73223, 12.34603],
        [75.74944, 12.3492],
        [75.76857, 12.34291],
        [75.78836, 12.37619],
        [75.76428, 12.39063],
        [75.74771, 12.4096],
        [75.73128, 12.40712],
        [75.69962, 12.43388],
        [75.68478, 12.43479],
        [75.68048, 12.42644],
        [75.67591, 12.42615],
        [75.66551, 12.43698],
        [75.65127, 12.44109],
        [75.62528, 12.46082],
        [75.59349, 12.47608],
        [75.59081, 12.50144],
        [75.57777, 12.51242],
        [75.59944, 12.53206],
        [75.61975, 12.49714],
        [75.64271, 12.50836],
        [75.64318, 12.51583],
        [75.65615, 12.52777],
        [75.67109, 12.5299],
        [75.68788, 12.54129],
        [75.67745, 12.60594],
        [75.67097, 12.62408],
        [75.66334, 12.63182],
        [75.67013, 12.66927],
        [75.68824, 12.7014],
        [75.70457, 12.70022],
        [75.72496, 12.7094],
        [75.74471, 12.69227],
        [75.7467, 12.68091],
        [75.76072, 12.67416],
        [75.76808, 12.68167],
        [75.77282, 12.67924],
        [75.7775, 12.68906],
        [75.79167, 12.68818],
        [75.80761, 12.70158],
        [75.83468, 12.67004],
        [75.84674, 12.67314],
        [75.85232, 12.66943],
        [75.86765, 12.67469],
        [75.87682, 12.67164],
        [75.88744, 12.67838],
        [75.88959, 12.69154],
        [75.88598, 12.70428],
        [75.88371, 12.70839],
        [75.87223, 12.70906],
        [75.86998, 12.71478],
        [75.85396, 12.72439],
        [75.8545, 12.74424],
        [75.84921, 12.74997],
        [75.86004, 12.75674],
        [75.85883, 12.7701],
        [75.87533, 12.76982],
        [75.8729, 12.77392],
        [75.87837, 12.77671],
        [75.87394, 12.77698],
        [75.86535, 12.79267],
        [75.86404, 12.81919],
        [75.87684, 12.82345],
        [75.8759, 12.83143],
        [75.88062, 12.83449],
        [75.90001, 12.82783],
        [75.90332, 12.81909],
        [75.91115, 12.81525],
        [75.91901, 12.81991],
        [75.91727, 12.82621],
        [75.9204, 12.82808],
        [75.92761, 12.82197],
        [75.92538, 12.81347],
        [75.92968, 12.80817],
        [75.94672, 12.80769],
        [75.94905, 12.80063],
        [75.96922, 12.8049],
        [75.97108, 12.78365],
        [75.95747, 12.78198]
      ]
    ]
  }
}
