{
  "type": "Feature",
  "id": "KA-AC-214",
  "properties": {
    "stateName": "KARNATAKA",
    "stateCode": "KA",
    "districtName": "MYSORE",
    "acNo": 214,
    "acName": "Nanjangud (SC)",
    "seatType": null,
    "pcNo": 22,
    "pcName": "CHAMARAJANAGAR(SC)",
    "quality": "unverified",
    "sources": [
      "TBD"
    ]
  },
  "geometry": {
    "type": "Polygon",
    "coordinates": [
      [
        [76.67339, 12.14228],
        [76.67761, 12.13466],
        [76.69969, 12.12082],
        [76.70887, 12.12626],
        [76.71138, 12.13578],
        [76.72314, 12.14848],
        [76.72823, 12.14962],
        [76.74003, 12.11446],
        [76.73528, 12.11378],
        [76.73473, 12.10937],
        [76.74914, 12.1091],
        [76.75, 12.10429],
        [76.74674, 12.09795],
        [76.73244, 12.09751],
        [76.73312, 12.09256],
        [76.75837, 12.08568],
        [76.7667, 12.07312],
        [76.78366, 12.08118],
        [76.79084, 12.08031],
        [76.79441, 12.06695],
        [76.8063, 12.06703],
        [76.80957, 12.04903],
        [76.80505, 12.04641],
        [76.80505, 12.03801],
        [76.8101, 12.03423],
        [76.8107, 12.02573],
        [76.80555, 12.01691],
        [76.79201, 12.00994],
        [76.79705, 12.0021],
        [76.79654, 11.99039],
        [76.78862, 11.98601],
        [76.77927, 11.98539],
        [76.7804, 11.98821],
        [76.76841, 11.99229],
        [76.76619, 11.99962],
        [76.74784, 12.00196],
        [76.74604, 12.009],
        [76.7418, 12.00955],
        [76.72797, 11.99229],
        [76.71126, 11.98439],
        [76.70406, 11.98558],
        [76.69934, 11.9988],
        [76.67888, 11.9993],
        [76.67155, 12.00666],
        [76.65425, 12.00843],
        [76.63938, 11.98375],
        [76.629, 11.9837],
        [76.60985, 11.99376],
        [76.59636, 11.98555],
        [76.57847, 11.98744],
        [76.57316, 11.96772],
        [76.55846, 11.94839],
        [76.57136, 11.9388],
        [76.56873, 11.92799],
        [76.57542, 11.92424],
        [76.56965, 11.90856],
        [76.55518, 11.89155],
        [76.55308, 11.85866],
        [76.5345, 11.87363],
        [76.50152, 11.86035],
        [76.4894, 11.86029],
        [76.48933, 11.85698],
        [76.48917, 11.87642],
        [76.46636, 11.87595],
        [76.46324, 11.88452],
        [76.47153, 11.89203],
        [76.47712, 11.8877],
        [76.48859, 11.88914],
        [76.50131, 11.89973],
        [76.49034, 11.91072],
        [76.48899, 11.93975],
        [76.48032, 11.93769],
        [76.47186, 11.92112],
        [76.47113, 11.93388],
        [76.47419, 11.94485],
        [76.48998, 11.94899],
        [76.48884, 11.95851],
        [76.50036, 11.97302],
        [76.49619, 11.99235],
        [76.48887, 11.99069],
        [76.48314, 11.99642],
        [76.48421, 12.00017],
        [76.50492, 12.00281],
        [76.50637, 12.01633],
        [76.49843, 12.01967],
        [76.50847, 12.03271],
        [76.4898, 12.03318],
        [76.47744, 12.02566],
        [76.46418, 12.03245],
        [76.47878, 12.04376],
        [76.46359, 12.04184],
        [76.47516, 12.05857],
        [76.45266, 12.05792],
        [76.44933, 12.04846],
        [76.43572, 12.0584],
        [76.43459, 12.07801],
        [76.4497, 12.07869],
        [76.45007, 12.08449],
        [76.44926, 12.09251],
        [76.44108, 12.09375],
        [76.4343, 12.11712],
        [76.45325, 12.11634],
        [76.45356, 12.0963],
        [76.4662, 12.11079],
        [76.47148, 12.09758],
        [76.48059, 12.09575],
        [76.49903, 12.10547],
        [76.51404, 12.10272],
        [76.52083, 12.10566],
        [76.52948, 12.1003],
        [76.53609, 12.10906],
        [76.54443, 12.10966],
        [76.55247, 12.10226],
        [76.56224, 12.10095],
        [76.56614, 12.11599],
        [76.57113, 12.11917],
        [76.59106, 12.11436],
        [76.60004, 12.11909],
        [76.6168, 12.11762],
        [76.64572, 12.13043],
        [76.65011, 12.14447],
        [76.65781, 12.15064],
        [76.67683, 12.15254],
        [76.67909, 12.149],
        [76.67339, 12.14228]
      ]
    ]
  }
}
