{
  "type": "Feature",
  "id": "KA-AC-22",
  "properties": {
    "stateName": "KARNATAKA",
    "stateCode": "KA",
    "districtName": "BAGALKOT",
    "acNo": 22,
    "acName": "Bilgi",
    "seatType": null,
    "pcNo": 3,
    "pcName": "BAGALKOT",
    "quality": "unverified",
    "sources": [
      "TBD"
    ]
  },
  "geometry": {
    "type": "Polygon",
    "coordinates": [
      [
        [75.4316, 16.43523],
        [75.44853, 16.41313],
        [75.45806, 16.41306],
        [75.466, 16.41869],
        [75.47846, 16.41594],
        [75.48995, 16.41902],
        [75.49882, 16.43149],
        [75.49543, 16.4451],
        [75.49832, 16.45295],
        [75.53191, 16.46653],
        [75.55129, 16.4572],
        [75.55641, 16.42461],
        [75.56919, 16.41182],
        [75.57484, 16.41279],
        [75.58161, 16.42954],
        [75.60193, 16.44768],
        [75.64281, 16.44042],
        [75.6776, 16.42457],
        [75.72059, 16.39064],
        [75.78055, 16.38109],
        [75.78843, 16.37438],
        [75.81385, 16.36865],
        [75.83892, 16.35054],
        [75.82735, 16.34771],
        [75.80484, 16.33144],
        [75.77717, 16.33371],
        [75.77648, 16.32579],
        [75.78635, 16.31507],
        [75.78364, 16.30673],
        [75.74891, 16.31764],
        [75.75194, 16.2977],
        [75.73338, 16.28973],
        [75.73647, 16.2693],
        [75.7209, 16.25805],
        [75.72322, 16.24606],
        [75.73817, 16.23066],
        [75.73228, 16.21872],
        [75.73526, 16.21519],
        [75.71057, 16.19651],
        [75.69025, 16.20738],
        [75.6776, 16.20722],
        [75.66886, 16.17016],
        [75.64886, 16.1681],
        [75.64125, 16.14402],
        [75.63284, 16.14447],
        [75.62413, 16.10537],
        [75.61149, 16.1022],
        [75.61695, 16.07449],
        [75.6361, 16.03369],
        [75.64126, 16.02879],
        [75.66423, 16.02811],
        [75.65448, 15.99044],
        [75.65836, 15.97371],
        [75.60354, 15.97432],
        [75.60006, 15.97909],
        [75.58451, 15.98299],
        [75.56369, 15.98016],
        [75.57031, 15.99991],
        [75.56758, 16.00834],
        [75.56245, 16.00874],
        [75.56654, 16.03029],
        [75.565, 16.0428],
        [75.56068, 16.04545],
        [75.52495, 16.04028],
        [75.5213, 16.01941],
        [75.51247, 16.01929],
        [75.50751, 16.00588],
        [75.49341, 16.00408],
        [75.4881, 16.00851],
        [75.48847, 16.02107],
        [75.48023, 16.02354],
        [75.46009, 15.99772],
        [75.44863, 15.99312],
        [75.43594, 15.99666],
        [75.43798, 16.00297],
        [75.42622, 16.00922],
        [75.42327, 16.03288],
        [75.41598, 16.03532],
        [75.41593, 16.05317],
        [75.42739, 16.05761],
        [75.43008, 16.0819],
        [75.42515, 16.09778],
        [75.41937, 16.09956],
        [75.41138, 16.12972],
        [75.4338, 16.15475],
        [75.44781, 16.18584],
        [75.44437, 16.24971],
        [75.43455, 16.25351],
        [75.42766, 16.26977],
        [75.42957, 16.30313],
        [75.47659, 16.27982],
        [75.49531, 16.33789],
        [75.49669, 16.3538],
        [75.41367, 16.3767],
        [75.40339, 16.37534],
        [75.39558, 16.38323],
        [75.38949, 16.40114],
        [75.40804, 16.40631],
        [75.40715, 16.42691],
        [75.38267, 16.42699],
        [75.38941, 16.44415],
        [75.40008, 16.44102],
        [75.3945, 16.46329],
        [75.41254, 16.46743],
        [75.40674, 16.49329],
        [75.41473, 16.49497],
        [75.42468, 16.52959],
        [75.44179, 16.52438],
        [75.45575, 16.506],
        [75.46334, 16.47376],
        [75.4316, 16.43523]
      ]
    ]
  }
}
