{
  "type": "Feature",
  "id": "KA-AC-222",
  "properties": {
    "stateName": "KARNATAKA",
    "stateCode": "KA",
    "districtName": "CHAMRAJNAGAR",
    "acNo": 222,
    "acName": "Kollegal (SC)",
    "seatType": null,
    "pcNo": 22,
    "pcName": "CHAMARAJANAGAR(SC)",
    "quality": "unverified",
    "sources": [
      "TBD"
    ]
  },
  "geometry": {
    "type": "Polygon",
    "coordinates": [
      [
        [77.13436, 12.15019],
        [77.13061, 12.15025],
        [77.13127, 12.13646],
        [77.13969, 12.13208],
        [77.14565, 12.12247],
        [77.16189, 12.11739],
        [77.17809, 12.10114],
        [77.16334, 12.0786],
        [77.16799, 12.06724],
        [77.1596, 12.05445],
        [77.15639, 12.0308],
        [77.16772, 12.01875],
        [77.17715, 12.01599],
        [77.17485, 12.00506],
        [77.18284, 11.99166],
        [77.1772, 11.96032],
        [77.17885, 11.92151],
        [77.17296, 11.88905],
        [77.14702, 11.89283],
        [77.1323, 11.90336],
        [77.13293, 11.93014],
        [77.12502, 11.93437],
        [77.10885, 11.94134],
        [77.09927, 11.93457],
        [77.05, 11.96278],
        [77.00622, 11.97362],
        [77.00028, 11.96965],
        [76.99727, 11.97537],
        [76.98105, 11.98114],
        [76.97588, 11.99275],
        [76.98185, 12.00854],
        [76.97561, 12.0351],
        [76.94949, 12.03543],
        [76.93904, 12.02508],
        [76.91543, 12.02576],
        [76.90943, 12.04172],
        [76.89867, 12.04354],
        [76.90115, 12.04708],
        [76.89221, 12.04988],
        [76.88924, 12.04643],
        [76.89096, 12.05957],
        [76.87027, 12.05562],
        [76.86848, 12.05993],
        [76.85316, 12.06039],
        [76.87004, 12.06366],
        [76.87374, 12.07476],
        [76.88257, 12.08266],
        [76.87703, 12.10098],
        [76.88052, 12.1048],
        [76.87658, 12.10735],
        [76.87696, 12.11522],
        [76.86761, 12.11801],
        [76.84715, 12.11821],
        [76.84539, 12.11346],
        [76.84531, 12.11961],
        [76.83117, 12.13481],
        [76.8412, 12.14708],
        [76.84087, 12.15571],
        [76.85331, 12.15999],
        [76.84469, 12.16783],
        [76.85365, 12.17147],
        [76.85123, 12.17898],
        [76.8619, 12.18042],
        [76.86995, 12.17448],
        [76.86689, 12.16076],
        [76.8709, 12.14223],
        [76.88223, 12.12961],
        [76.89, 12.12938],
        [76.88979, 12.12153],
        [76.90241, 12.12373],
        [76.90605, 12.11386],
        [76.92391, 12.11494],
        [76.92563, 12.10963],
        [76.94746, 12.09827],
        [76.96948, 12.11198],
        [76.96908, 12.12295],
        [76.97607, 12.12323],
        [76.97554, 12.13425],
        [76.98907, 12.14227],
        [76.98734, 12.16163],
        [76.9922, 12.1763],
        [77.00288, 12.16582],
        [77.00305, 12.16026],
        [77.01437, 12.16327],
        [77.01134, 12.15383],
        [77.01573, 12.13404],
        [77.03623, 12.13964],
        [77.03968, 12.12895],
        [77.0461, 12.13555],
        [77.04449, 12.14199],
        [77.03972, 12.14184],
        [77.04476, 12.16934],
        [77.06365, 12.1718],
        [77.08308, 12.1902],
        [77.1078, 12.19007],
        [77.12213, 12.19744],
        [77.12253, 12.19156],
        [77.13992, 12.17068],
        [77.13436, 12.15019]
      ]
    ]
  }
}
