{
  "type": "Feature",
  "id": "KA-AC-37",
  "properties": {
    "stateName": "KARNATAKA",
    "stateCode": "KA",
    "districtName": "GULBARGA",
    "acNo": 37,
    "acName": "Shahapur",
    "seatType": null,
    "pcNo": 6,
    "pcName": "RAICHUR (ST)",
    "quality": "unverified",
    "sources": [
      "TBD"
    ]
  },
  "geometry": {
    "type": "Polygon",
    "coordinates": [
      [
        [76.90032, 16.81228],
        [76.9102, 16.76766],
        [76.88781, 16.76346],
        [76.88171, 16.70948],
        [76.88546, 16.70271],
        [76.8954, 16.70472],
        [76.91281, 16.69758],
        [76.93184, 16.69768],
        [76.92453, 16.65565],
        [76.90384, 16.65853],
        [76.90318, 16.6555],
        [76.91353, 16.65293],
        [76.91422, 16.64103],
        [76.93154, 16.63567],
        [76.93388, 16.63101],
        [76.90901, 16.63363],
        [76.90717, 16.62979],
        [76.8901, 16.62774],
        [76.8921, 16.61431],
        [76.90527, 16.59706],
        [76.90655, 16.57508],
        [76.90006, 16.56942],
        [76.87033, 16.57332],
        [76.86622, 16.56247],
        [76.85514, 16.56551],
        [76.84784, 16.55797],
        [76.82094, 16.56592],
        [76.82108, 16.5699],
        [76.80135, 16.5656],
        [76.78856, 16.58423],
        [76.77043, 16.58916],
        [76.77021, 16.59371],
        [76.75641, 16.5919],
        [76.75211, 16.61059],
        [76.7313, 16.60739],
        [76.71255, 16.61416],
        [76.70412, 16.60582],
        [76.69554, 16.60659],
        [76.69342, 16.57941],
        [76.67178, 16.57741],
        [76.65679, 16.58321],
        [76.65151, 16.59065],
        [76.65104, 16.58247],
        [76.62184, 16.58168],
        [76.60508, 16.58979],
        [76.57164, 16.5905],
        [76.56832, 16.59582],
        [76.55194, 16.59362],
        [76.55397, 16.61206],
        [76.5503, 16.61534],
        [76.53021, 16.61695],
        [76.52782, 16.60689],
        [76.51102, 16.60582],
        [76.50002, 16.61398],
        [76.49514, 16.60824],
        [76.50132, 16.62953],
        [76.49642, 16.63283],
        [76.48955, 16.63178],
        [76.48878, 16.62651],
        [76.46838, 16.62729],
        [76.467, 16.61203],
        [76.45243, 16.61063],
        [76.45154, 16.59934],
        [76.444, 16.59958],
        [76.45198, 16.5913],
        [76.45039, 16.5817],
        [76.41901, 16.58176],
        [76.41332, 16.59043],
        [76.4146, 16.60651],
        [76.40508, 16.62502],
        [76.40492, 16.6535],
        [76.42707, 16.68633],
        [76.42571, 16.69578],
        [76.44192, 16.70951],
        [76.45246, 16.71406],
        [76.46027, 16.70796],
        [76.46065, 16.7115],
        [76.47967, 16.71215],
        [76.50309, 16.72349],
        [76.50331, 16.74158],
        [76.51707, 16.75098],
        [76.54692, 16.7478],
        [76.55382, 16.75311],
        [76.58015, 16.7583],
        [76.58157, 16.76556],
        [76.60056, 16.76708],
        [76.62353, 16.76533],
        [76.62291, 16.74177],
        [76.63548, 16.74572],
        [76.63365, 16.7229],
        [76.65831, 16.71237],
        [76.66092, 16.71606],
        [76.6527, 16.75101],
        [76.66072, 16.76681],
        [76.67549, 16.76522],
        [76.67948, 16.78482],
        [76.69747, 16.78645],
        [76.70215, 16.79306],
        [76.70964, 16.7924],
        [76.70948, 16.78056],
        [76.71959, 16.77816],
        [76.72486, 16.78496],
        [76.73531, 16.7768],
        [76.74508, 16.77835],
        [76.74493, 16.81615],
        [76.7546, 16.82021],
        [76.76182, 16.83858],
        [76.75994, 16.84414],
        [76.78918, 16.83705],
        [76.79111, 16.84983],
        [76.80495, 16.85017],
        [76.81312, 16.85843],
        [76.81646, 16.87351],
        [76.8421, 16.86657],
        [76.85477, 16.87882],
        [76.85677, 16.89193],
        [76.8695, 16.89239],
        [76.87108, 16.89581],
        [76.90147, 16.89249],
        [76.90144, 16.87841],
        [76.92044, 16.86949],
        [76.91518, 16.86132],
        [76.90141, 16.8538],
        [76.90681, 16.82169],
        [76.90095, 16.82242],
        [76.90032, 16.81228]
      ]
    ]
  }
}
