{
  "type": "Feature",
  "id": "KA-AC-38",
  "properties": {
    "stateName": "KARNATAKA",
    "stateCode": "KA",
    "districtName": "GULBARGA",
    "acNo": 38,
    "acName": "Yadgir",
    "seatType": null,
    "pcNo": 6,
    "pcName": "RAICHUR (ST)",
    "quality": "unverified",
    "sources": [
      "TBD"
    ]
  },
  "geometry": {
    "type": "Polygon",
    "coordinates": [
      [
        [77.03885, 16.84408],
        [77.05073, 16.82014],
        [77.04965, 16.80825],
        [77.07162, 16.8112],
        [77.07305, 16.81527],
        [77.10043, 16.80064],
        [77.1097, 16.80277],
        [77.12206, 16.79819],
        [77.1245, 16.79008],
        [77.13368, 16.78446],
        [77.15304, 16.79502],
        [77.16107, 16.80469],
        [77.16789, 16.80546],
        [77.16931, 16.7988],
        [77.1771, 16.79804],
        [77.19329, 16.81084],
        [77.20216, 16.80114],
        [77.20382, 16.78391],
        [77.21978, 16.77036],
        [77.24293, 16.78274],
        [77.25551, 16.79634],
        [77.25498, 16.81664],
        [77.26197, 16.83029],
        [77.2729, 16.82282],
        [77.29431, 16.754],
        [77.26826, 16.71569],
        [77.24554, 16.70505],
        [77.24484, 16.7081],
        [77.23615, 16.70486],
        [77.20075, 16.70776],
        [77.19221, 16.70398],
        [77.19009, 16.69392],
        [77.18137, 16.69278],
        [77.17615, 16.68695],
        [77.16151, 16.69081],
        [77.15285, 16.68827],
        [77.15193, 16.6816],
        [77.13341, 16.66581],
        [77.13076, 16.65328],
        [77.14186, 16.64014],
        [77.16136, 16.64554],
        [77.18071, 16.6237],
        [77.18029, 16.61708],
        [77.16605, 16.60162],
        [77.16846, 16.56392],
        [77.17661, 16.54937],
        [77.19869, 16.54468],
        [77.19739, 16.52117],
        [77.20114, 16.5081],
        [77.21044, 16.49731],
        [77.2325, 16.49368],
        [77.23646, 16.47326],
        [77.26211, 16.45185],
        [77.26899, 16.43047],
        [77.28821, 16.40878],
        [77.26698, 16.40244],
        [77.24653, 16.41655],
        [77.22412, 16.42085],
        [77.17433, 16.43179],
        [77.16176, 16.44596],
        [77.16397, 16.4605],
        [77.15627, 16.47254],
        [77.14163, 16.48025],
        [77.12203, 16.48185],
        [77.09169, 16.49361],
        [77.05582, 16.52029],
        [77.04002, 16.51582],
        [77.02291, 16.50064],
        [77.0122, 16.50232],
        [77.00508, 16.51659],
        [77.00923, 16.54583],
        [76.98998, 16.56176],
        [76.97544, 16.56045],
        [76.97015, 16.55443],
        [76.96831, 16.5416],
        [76.97642, 16.51712],
        [76.97167, 16.50443],
        [76.94242, 16.49991],
        [76.9121, 16.48497],
        [76.87936, 16.49187],
        [76.87703, 16.52745],
        [76.85136, 16.53124],
        [76.84784, 16.55797],
        [76.85514, 16.56551],
        [76.86622, 16.56247],
        [76.87033, 16.57332],
        [76.90006, 16.56942],
        [76.90655, 16.57508],
        [76.90527, 16.59706],
        [76.8921, 16.61431],
        [76.8901, 16.62774],
        [76.90717, 16.62979],
        [76.90901, 16.63363],
        [76.93388, 16.63101],
        [76.93154, 16.63567],
        [76.91422, 16.64103],
        [76.91353, 16.65293],
        [76.90318, 16.6555],
        [76.90384, 16.65853],
        [76.92453, 16.65565],
        [76.93184, 16.69768],
        [76.91281, 16.69758],
        [76.8954, 16.70472],
        [76.88546, 16.70271],
        [76.88171, 16.70948],
        [76.88781, 16.76346],
        [76.9102, 16.76766],
        [76.90032, 16.81228],
        [76.90095, 16.82242],
        [76.90681, 16.82169],
        [76.91103, 16.81616],
        [76.91806, 16.81652],
        [76.92443, 16.83037],
        [76.94526, 16.83087],
        [76.98304, 16.80968],
        [76.9906, 16.8121],
        [76.99496, 16.83452],
        [77.01212, 16.82728],
        [77.03885, 16.84408]
      ]
    ]
  }
}
