{
  "type": "Feature",
  "id": "KA-AC-4",
  "properties": {
    "stateName": "KARNATAKA",
    "stateCode": "KA",
    "districtName": "BELGAUM",
    "acNo": 4,
    "acName": "Kagwad",
    "seatType": null,
    "pcNo": 1,
    "pcName": "CHIKKODI",
    "quality": "unverified",
    "sources": [
      "TBD"
    ]
  },
  "geometry": {
    "type": "Polygon",
    "coordinates": [
      [
        [74.675, 16.6244],
        [74.6737, 16.6251],
        [74.6732, 16.6258],
        [74.6722, 16.6274],
        [74.6722, 16.6275],
        [74.67101, 16.62919],
        [74.671, 16.6292],
        [74.6702, 16.6303],
        [74.6701, 16.6303],
        [74.67, 16.6304],
        [74.6684, 16.6309],
        [74.6683, 16.6309],
        [74.6682, 16.6309],
        [74.6664, 16.6307],
        [74.6644, 16.6305],
        [74.6624, 16.6305],
        [74.6604, 16.6305],
        [74.6593, 16.6308],
        [74.6581, 16.6318],
        [74.6571, 16.6333],
        [74.657, 16.6333],
        [74.6559, 16.6347],
        [74.6548, 16.6362],
        [74.6542, 16.6374],
        [74.6536, 16.6384],
        [74.6532, 16.6389],
        [74.6539, 16.6392],
        [74.6557, 16.64],
        [74.6558, 16.6401],
        [74.6559, 16.6402],
        [74.657, 16.6416],
        [74.657, 16.6417],
        [74.6577, 16.6431],
        [74.6582, 16.6437],
        [74.6582, 16.6438],
        [74.6586, 16.6447],
        [74.659, 16.6454],
        [74.6591, 16.6454],
        [74.6603, 16.6476],
        [74.6603, 16.6477],
        [74.6606, 16.6494],
        [74.66096, 16.65172],
        [74.661, 16.652],
        [74.661, 16.6521],
        [74.661, 16.6531],
        [74.66149, 16.65366],
        [74.6618, 16.654],
        [74.6618, 16.6541],
        [74.6618, 16.6542],
        [74.6619, 16.6543],
        [74.6619, 16.65512],
        [74.6619, 16.6562],
        [74.663, 16.6589],
        [74.6637, 16.6605],
        [74.6643, 16.6621],
        [74.6648, 16.6636],
        [74.6653, 16.6651],
        [74.6653, 16.6652],
        [74.6654, 16.6657],
        [74.6674, 16.6665],
        [74.6675, 16.6665],
        [74.6688, 16.667],
        [74.6706, 16.6679],
        [74.6707, 16.668],
        [74.6718, 16.6687],
        [74.6719, 16.6688],
        [74.672, 16.6688],
        [74.67229, 16.66944],
        [74.6725, 16.6699],
        [74.6731, 16.6701],
        [74.67366, 16.67007],
        [74.6749, 16.67],
        [74.6767, 16.6702],
        [74.6768, 16.6702],
        [74.6769, 16.6702],
        [74.6769, 16.6703],
        [74.677, 16.6703],
        [74.6773, 16.6706],
        [74.6788, 16.6717],
        [74.6788, 16.6718],
        [74.6789, 16.6719],
        [74.67931, 16.67266],
        [74.6796, 16.6732],
        [74.6806, 16.6736],
        [74.6806, 16.6737],
        [74.6826, 16.6748],
        [74.68457, 16.67507],
        [74.6848, 16.6751],
        [74.6869, 16.6755],
        [74.687, 16.6755],
        [74.6888, 16.6762],
        [74.6889, 16.6763],
        [74.6897, 16.677],
        [74.6898, 16.677],
        [74.6899, 16.6771],
        [74.6899, 16.6772],
        [74.6899, 16.6773],
        [74.6899, 16.6774],
        [74.6897, 16.6791],
        [74.6897, 16.6792],
        [74.6889, 16.6821],
        [74.6888, 16.6822],
        [74.6888, 16.6823],
        [74.6887, 16.6824],
        [74.6886, 16.6824],
        [74.6885, 16.6825],
        [74.6884, 16.6825],
        [74.6883, 16.6825],
        [74.687, 16.6821],
        [74.6856, 16.6818],
        [74.6844, 16.6817],
        [74.6814, 16.6813],
        [74.6812, 16.6861],
        [74.689, 16.686],
        [74.6891, 16.686],
        [74.6892, 16.686],
        [74.6893, 16.6861],
        [74.6894, 16.6861],
        [74.6894, 16.6862],
        [74.6895, 16.6863],
        [74.6895, 16.6864],
        [74.6896, 16.6883],
        [74.6899, 16.6915],
        [74.6901, 16.6926],
        [74.6901, 16.6946],
        [74.6901, 16.6947],
        [74.69, 16.6968],
        [74.69, 16.6987],
        [74.69, 16.6988],
        [74.6897, 16.7008],
        [74.6894, 16.7018],
        [74.6885, 16.7056],
        [74.6887, 16.7064],
        [74.6891, 16.7072],
        [74.6891, 16.7073],
        [74.6892, 16.7074],
        [74.6892, 16.7086],
        [74.6892, 16.7087],
        [74.6892, 16.7088],
        [74.6892, 16.7089],
        [74.6887, 16.7096],
        [74.6886, 16.7096],
        [74.6883, 16.7099],
        [74.6881, 16.7105],
        [74.6879, 16.7124],
        [74.6882, 16.7129],
        [74.6892, 16.7139],
        [74.6905, 16.7149],
        [74.6906, 16.715],
        [74.6909, 16.7155],
        [74.6915, 16.7159],
        [74.6919, 16.7159],
        [74.6922, 16.7159],
        [74.6932, 16.7159],
        [74.6933, 16.7159],
        [74.6945, 16.7159],
        [74.6954, 16.7158],
        [74.6955, 16.7158],
        [74.6972, 16.7158],
        [74.6996, 16.7157],
        [74.7033, 16.7155],
        [74.7043, 16.7155],
        [74.7054, 16.7154],
        [74.7055, 16.7154],
        [74.7069, 16.7156],
        [74.7078, 16.7156],
        [74.7079, 16.7156],
        [74.7092, 16.7156],
        [74.7103, 16.7158],
        [74.7116, 16.716],
        [74.7129, 16.716],
        [74.713, 16.716],
        [74.715, 16.7163],
        [74.7162, 16.7163],
        [74.72, 16.7165],
        [74.7214, 16.7166],
        [74.723, 16.7165],
        [74.7231, 16.7165],
        [74.7241, 16.7165],
        [74.7249, 16.7166],
        [74.7262, 16.7166],
        [74.7269, 16.7167],
        [74.727, 16.7168],
        [74.7271, 16.7168],
        [74.7272, 16.7168],
        [74.7272, 16.7169],
        [74.7273, 16.717],
        [74.7273, 16.7171],
        [74.7273, 16.7172],
        [74.7273, 16.7173],
        [74.7271, 16.7178],
        [74.7271, 16.7182],
        [74.7282, 16.7194],
        [74.7293, 16.7194],
        [74.7294, 16.7195],
        [74.7298, 16.7196],
        [74.7299, 16.7196],
        [74.73, 16.7197],
        [74.7301, 16.7197],
        [74.7301, 16.7198],
        [74.7301, 16.7199],
        [74.7301, 16.72],
        [74.7301, 16.7201],
        [74.73, 16.7203],
        [74.7301, 16.7204],
        [74.7308, 16.7191],
        [74.7309, 16.719],
        [74.7309, 16.7189],
        [74.73102, 16.7188],
        [74.7314, 16.7185],
        [74.7315, 16.7185],
        [74.7316, 16.7184],
        [74.7317, 16.7184],
        [74.7318, 16.7184],
        [74.7319, 16.7184],
        [74.732, 16.7185],
        [74.7321, 16.7185],
        [74.7321, 16.7186],
        [74.73278, 16.71955],
        [74.7331, 16.72],
        [74.7341, 16.7209],
        [74.7353, 16.7218],
        [74.7363, 16.7225],
        [74.7381, 16.7232],
        [74.73819, 16.72323],
        [74.7404, 16.724],
        [74.7405, 16.724],
        [74.7423, 16.7252],
        [74.7429, 16.7256],
        [74.7437, 16.7261],
        [74.7446, 16.7264],
        [74.7447, 16.7265],
        [74.7448, 16.7265],
        [74.7452, 16.7271],
        [74.7456, 16.7275],
        [74.7468, 16.7285],
        [74.7475, 16.7289],
        [74.7476, 16.7289],
        [74.7495, 16.7305],
        [74.7515, 16.7305],
        [74.7516, 16.7305],
        [74.7516, 16.7306],
        [74.7526, 16.7309],
        [74.7527, 16.731],
        [74.7528, 16.731],
        [74.7537, 16.7323],
        [74.7537, 16.7324],
        [74.7537, 16.7325],
        [74.7537, 16.7326],
        [74.7537, 16.7327],
        [74.7535, 16.7331],
        [74.7538, 16.7338],
        [74.7552, 16.7348],
        [74.7553, 16.7349],
        [74.7559, 16.7358],
        [74.7566, 16.7364],
        [74.7566, 16.7365],
        [74.7571, 16.737],
        [74.7574, 16.7373],
        [74.7575, 16.7374],
        [74.7582, 16.7386],
        [74.7588, 16.7396],
        [74.7597, 16.7403],
        [74.7598, 16.7404],
        [74.7608, 16.7414],
        [74.7623, 16.7416],
        [74.7624, 16.7416],
        [74.76637, 16.74239],
        [74.7669, 16.7425],
        [74.767, 16.7425],
        [74.767, 16.7426],
        [74.769, 16.7436],
        [74.7691, 16.7437],
        [74.7692, 16.7438],
        [74.7704, 16.7457],
        [74.7713, 16.7475],
        [74.7713, 16.7476],
        [74.7718, 16.7493],
        [74.7719, 16.7497],
        [74.7723, 16.7505],
        [74.7731, 16.7507],
        [74.77315, 16.75071],
        [74.7742, 16.7509],
        [74.7758, 16.7512],
        [74.777, 16.7513],
        [74.7783, 16.7513],
        [74.7803, 16.7515],
        [74.7831, 16.7516],
        [74.784, 16.7514],
        [74.7862, 16.7507],
        [74.787, 16.7506],
        [74.7884, 16.7498],
        [74.7893, 16.7492],
        [74.7894, 16.7491],
        [74.7894, 16.7491],
        [74.78941, 16.7491],
        [74.7895, 16.7491],
        [74.791, 16.749],
        [74.7923, 16.7488],
        [74.7938, 16.7485],
        [74.7949, 16.7481],
        [74.7949, 16.748],
        [74.795, 16.748],
        [74.7959, 16.748],
        [74.7962, 16.748],
        [74.7963, 16.748],
        [74.7964, 16.748],
        [74.7965, 16.7481],
        [74.7966, 16.7482],
        [74.7974, 16.7492],
        [74.7974, 16.7493],
        [74.7974, 16.7494],
        [74.7977, 16.7502],
        [74.7981, 16.751],
        [74.7982, 16.7513],
        [74.7987, 16.7525],
        [74.7991, 16.7535],
        [74.8142, 16.7563],
        [74.8178, 16.7566],
        [74.8179, 16.7566],
        [74.8212, 16.7574],
        [74.8242, 16.7581],
        [74.8272, 16.7586],
        [74.8304, 16.7588],
        [74.8305, 16.7588],
        [74.8306, 16.7588],
        [74.833, 16.7596],
        [74.8355, 16.7601],
        [74.8381, 16.7607],
        [74.8402, 16.761],
        [74.8403, 16.761],
        [74.8448, 16.7618],
        [74.8449, 16.7618],
        [74.8449, 16.7619],
        [74.845, 16.7619],
        [74.8451, 16.762],
        [74.8451, 16.7621],
        [74.8503, 16.7722],
        [74.852, 16.7711],
        [74.8536, 16.7698],
        [74.8565, 16.7679],
        [74.8587, 16.7666],
        [74.8601, 16.7653],
        [74.8611, 16.7646],
        [74.8612, 16.7645],
        [74.8625, 16.764],
        [74.8652, 16.7629],
        [74.8653, 16.7629],
        [74.8654, 16.7629],
        [74.8655, 16.7629],
        [74.8662, 16.7631],
        [74.8662, 16.7632],
        [74.8663, 16.7632],
        [74.8664, 16.7633],
        [74.8664, 16.7634],
        [74.8672, 16.7654],
        [74.8678, 16.7675],
        [74.8684, 16.7691],
        [74.8688, 16.7701],
        [74.8698, 16.7723],
        [74.87, 16.7729],
        [74.87, 16.773],
        [74.87, 16.7731],
        [74.87, 16.7738],
        [74.8727, 16.7735],
        [74.8747, 16.7731],
        [74.8748, 16.7731],
        [74.8779, 16.7728],
        [74.88, 16.7722],
        [74.8827, 16.7719],
        [74.8845, 16.7716],
        [74.8856, 16.7713],
        [74.8857, 16.7713],
        [74.8888, 16.7708],
        [74.8889, 16.7708],
        [74.8908, 16.7709],
        [74.896, 16.7711],
        [74.8961, 16.7711],
        [74.8981, 16.7712],
        [74.8982, 16.7712],
        [74.8999, 16.7715],
        [74.9017, 16.7718],
        [74.9036, 16.7716],
        [74.9037, 16.7716],
        [74.9057, 16.7718],
        [74.9077, 16.772],
        [74.9094, 16.7721],
        [74.9114, 16.7719],
        [74.9129, 16.772],
        [74.9144, 16.772],
        [74.9145, 16.772],
        [74.9155, 16.7723],
        [74.9164, 16.7723],
        [74.917, 16.7721],
        [74.9171, 16.7721],
        [74.918, 16.7721],
        [74.9181, 16.7721],
        [74.9197, 16.7721],
        [74.9198, 16.7721],
        [74.9199, 16.7722],
        [74.92, 16.7723],
        [74.9201, 16.7723],
        [74.9201, 16.7724],
        [74.9201, 16.7725],
        [74.9201, 16.7726],
        [74.9201, 16.7727],
        [74.9201, 16.7728],
        [74.9189, 16.7751],
        [74.9183, 16.7766],
        [74.9171, 16.7793],
        [74.917, 16.7794],
        [74.9154, 16.7817],
        [74.9146, 16.783],
        [74.9138, 16.7843],
        [74.9128, 16.7864],
        [74.9127, 16.7865],
        [74.9117, 16.7878],
        [74.9112, 16.789],
        [74.9114, 16.7904],
        [74.9114, 16.7905],
        [74.9113, 16.7923],
        [74.911, 16.7944],
        [74.9109, 16.7962],
        [74.911, 16.7974],
        [74.911, 16.7975],
        [74.911, 16.799],
        [74.9109, 16.8005],
        [74.9111, 16.8022],
        [74.9115, 16.8042],
        [74.9115, 16.8043],
        [74.9115, 16.8053],
        [74.9115, 16.8054],
        [74.911, 16.808],
        [74.911, 16.8093],
        [74.9111, 16.8107],
        [74.9111, 16.8108],
        [74.9108, 16.8121],
        [74.9109, 16.8138],
        [74.9108, 16.816],
        [74.9108, 16.8161],
        [74.91041, 16.81765],
        [74.9103, 16.8181],
        [74.9102, 16.8193],
        [74.9101, 16.8194],
        [74.9096, 16.8211],
        [74.9094, 16.8225],
        [74.9092, 16.8247],
        [74.9094, 16.8263],
        [74.9095, 16.8278],
        [74.9101, 16.8313],
        [74.91023, 16.8318],
        [74.9105, 16.8328],
        [74.9105, 16.8329],
        [74.9105, 16.8339],
        [74.9107, 16.8353],
        [74.9107, 16.8354],
        [74.9103, 16.8374],
        [74.9097, 16.8414],
        [74.9094, 16.8435],
        [74.9092, 16.8445],
        [74.9092, 16.8446],
        [74.9085, 16.8486],
        [74.9083, 16.8494],
        [74.908, 16.8505],
        [74.9079, 16.8506],
        [74.9079, 16.8507],
        [74.9078, 16.8508],
        [74.9077, 16.8508],
        [74.9076, 16.8508],
        [74.9075, 16.8509],
        [74.9075, 16.8514],
        [74.9075, 16.8515],
        [74.9074, 16.8516],
        [74.9071, 16.8524],
        [74.907, 16.8525],
        [74.907, 16.8526],
        [74.9069, 16.8526],
        [74.9063, 16.853],
        [74.906, 16.8534],
        [74.906, 16.8541],
        [74.906, 16.8542],
        [74.9054, 16.8556],
        [74.9053, 16.8566],
        [74.905, 16.8589],
        [74.905, 16.859],
        [74.9049, 16.8593],
        [74.9049, 16.8594],
        [74.9048, 16.8595],
        [74.9047, 16.8596],
        [74.9046, 16.8596],
        [74.9045, 16.8597],
        [74.9044, 16.8597],
        [74.9044, 16.8596],
        [74.9043, 16.8596],
        [74.9038, 16.8594],
        [74.9036, 16.8594],
        [74.9034, 16.8601],
        [74.9033, 16.8602],
        [74.9028, 16.8612],
        [74.9023, 16.8623],
        [74.9031, 16.8626],
        [74.9046, 16.8626],
        [74.9047, 16.8626],
        [74.9064, 16.8628],
        [74.90712, 16.86297],
        [74.9094, 16.8635],
        [74.9132, 16.8639],
        [74.915, 16.8639],
        [74.9161, 16.8638],
        [74.9178, 16.8635],
        [74.9179, 16.8634],
        [74.9192, 16.8634],
        [74.9193, 16.8634],
        [74.9239, 16.8635],
        [74.9259, 16.8637],
        [74.9272, 16.8639],
        [74.9273, 16.864],
        [74.9274, 16.864],
        [74.9275, 16.8641],
        [74.9275, 16.8642],
        [74.9275, 16.8643],
        [74.9275, 16.8644],
        [74.9275, 16.8645],
        [74.9275, 16.8646],
        [74.9274, 16.8647],
        [74.925, 16.8671],
        [74.926, 16.8673],
        [74.9261, 16.8673],
        [74.9262, 16.8673],
        [74.9262, 16.8674],
        [74.9263, 16.8675],
        [74.9264, 16.8676],
        [74.9264, 16.8677],
        [74.9262, 16.8719],
        [74.9313, 16.8718],
        [74.9314, 16.871],
        [74.9315, 16.8709],
        [74.9315, 16.8708],
        [74.9316, 16.8707],
        [74.9317, 16.8707],
        [74.9318, 16.8707],
        [74.9319, 16.8706],
        [74.932, 16.8706],
        [74.9357, 16.871],
        [74.9358, 16.8711],
        [74.9359, 16.8711],
        [74.936, 16.8712],
        [74.9361, 16.8713],
        [74.9361, 16.8714],
        [74.9361, 16.8715],
        [74.9366, 16.879],
        [74.937, 16.8792],
        [74.9443, 16.8823],
        [74.9446, 16.8813],
        [74.9446, 16.8812],
        [74.9446, 16.8811],
        [74.9447, 16.8811],
        [74.9448, 16.881],
        [74.9449, 16.881],
        [74.945, 16.881],
        [74.9608, 16.8807],
        [74.9609, 16.8807],
        [74.961, 16.8807],
        [74.9611, 16.8808],
        [74.9612, 16.8808],
        [74.9612, 16.8809],
        [74.9612, 16.881],
        [74.9613, 16.8811],
        [74.964, 16.9079],
        [74.9643, 16.9107],
        [74.9643, 16.9108],
        [74.9643, 16.9109],
        [74.9642, 16.911],
        [74.9642, 16.9111],
        [74.9641, 16.9111],
        [74.9637, 16.9114],
        [74.9637, 16.9115],
        [74.9636, 16.9115],
        [74.9635, 16.9115],
        [74.9634, 16.9115],
        [74.9633, 16.9115],
        [74.9632, 16.9114],
        [74.9631, 16.9114],
        [74.9622, 16.9105],
        [74.9621, 16.9104],
        [74.9616, 16.9094],
        [74.9603, 16.9079],
        [74.9602, 16.9078],
        [74.9595, 16.9069],
        [74.9585, 16.906],
        [74.9571, 16.9059],
        [74.9569, 16.9059],
        [74.9568, 16.9059],
        [74.956, 16.9054],
        [74.9558, 16.907],
        [74.9555, 16.9104],
        [74.9555, 16.9105],
        [74.9554, 16.9106],
        [74.9554, 16.9107],
        [74.9553, 16.9107],
        [74.9552, 16.9108],
        [74.9551, 16.9108],
        [74.9543, 16.911],
        [74.9542, 16.911],
        [74.9541, 16.911],
        [74.954, 16.911],
        [74.9532, 16.9106],
        [74.9522, 16.911],
        [74.9517, 16.9113],
        [74.9516, 16.9114],
        [74.9515, 16.9114],
        [74.9503, 16.9116],
        [74.9502, 16.9116],
        [74.9501, 16.9116],
        [74.9491, 16.9113],
        [74.9478, 16.9108],
        [74.9469, 16.9105],
        [74.9456, 16.9106],
        [74.94431, 16.91138],
        [74.9436, 16.9118],
        [74.9433, 16.9122],
        [74.9433, 16.9123],
        [74.9417, 16.9136],
        [74.9407, 16.9158],
        [74.9405, 16.9163],
        [74.9404, 16.9164],
        [74.9403, 16.9164],
        [74.9403, 16.9165],
        [74.939, 16.9171],
        [74.9385, 16.9176],
        [74.9384, 16.9176],
        [74.9379, 16.9178],
        [74.9373, 16.9183],
        [74.9362, 16.9193],
        [74.9362, 16.9194],
        [74.9361, 16.9194],
        [74.936, 16.9194],
        [74.9359, 16.9194],
        [74.9346, 16.9193],
        [74.934, 16.9193],
        [74.9341, 16.9194],
        [74.9341, 16.9195],
        [74.9341, 16.9196],
        [74.9341, 16.9209],
        [74.9342, 16.9217],
        [74.9349, 16.9233],
        [74.9349, 16.9234],
        [74.935, 16.9239],
        [74.935, 16.924],
        [74.935, 16.9241],
        [74.9349, 16.9241],
        [74.9349, 16.9242],
        [74.9348, 16.9243],
        [74.9326, 16.9259],
        [74.9325, 16.926],
        [74.9301, 16.927],
        [74.93, 16.927],
        [74.9276, 16.9274],
        [74.9259, 16.9284],
        [74.9259, 16.9285],
        [74.9226, 16.93],
        [74.9231, 16.9331],
        [74.9234, 16.9343],
        [74.9235, 16.9354],
        [74.9235, 16.9355],
        [74.9234, 16.9383],
        [74.9238, 16.9395],
        [74.9252, 16.9392],
        [74.9253, 16.9392],
        [74.9267, 16.9391],
        [74.9268, 16.9391],
        [74.9269, 16.9391],
        [74.927, 16.9392],
        [74.9283, 16.9401],
        [74.929, 16.9404],
        [74.9301, 16.9409],
        [74.9308, 16.9413],
        [74.9309, 16.9414],
        [74.9323, 16.9425],
        [74.9324, 16.9426],
        [74.9324, 16.9427],
        [74.9324, 16.9428],
        [74.9324, 16.94294],
        [74.9324, 16.9436],
        [74.9325, 16.944],
        [74.9329, 16.9439],
        [74.933, 16.9439],
        [74.9331, 16.9439],
        [74.934, 16.944],
        [74.9358, 16.9443],
        [74.9372, 16.9441],
        [74.9383, 16.9433],
        [74.9384, 16.9432],
        [74.9394, 16.9428],
        [74.9408, 16.941],
        [74.9409, 16.9409],
        [74.9418, 16.9403],
        [74.9418, 16.9402],
        [74.9419, 16.9402],
        [74.942, 16.9402],
        [74.9441, 16.94],
        [74.94474, 16.9399],
        [74.9454, 16.9398],
        [74.9455, 16.9398],
        [74.9466, 16.9397],
        [74.9479, 16.9393],
        [74.9486, 16.9387],
        [74.9489, 16.9376],
        [74.94887, 16.9373],
        [74.9488, 16.9366],
        [74.9488, 16.9365],
        [74.9488, 16.9364],
        [74.9489, 16.9363],
        [74.9495, 16.935],
        [74.9494, 16.9341],
        [74.9494, 16.934],
        [74.9494, 16.9339],
        [74.9494, 16.9338],
        [74.9494, 16.9337],
        [74.9495, 16.9336],
        [74.9507, 16.9326],
        [74.9508, 16.9326],
        [74.9509, 16.9325],
        [74.951, 16.9325],
        [74.9511, 16.9325],
        [74.9518, 16.9327],
        [74.9524, 16.9323],
        [74.9537, 16.9313],
        [74.955, 16.93],
        [74.955, 16.9299],
        [74.9561, 16.9292],
        [74.9575, 16.9285],
        [74.9586, 16.9281],
        [74.9596, 16.9277],
        [74.9597, 16.9277],
        [74.9598, 16.9277],
        [74.9619, 16.9277],
        [74.9632, 16.9276],
        [74.9645, 16.9272],
        [74.9646, 16.9269],
        [74.9647, 16.9268],
        [74.9647, 16.9267],
        [74.9648, 16.9267],
        [74.9649, 16.9267],
        [74.965, 16.9266],
        [74.9651, 16.9266],
        [74.9652, 16.9266],
        [74.9652, 16.9267],
        [74.9653, 16.9267],
        [74.9654, 16.9267],
        [74.9659, 16.9272],
        [74.966, 16.9273],
        [74.966, 16.9274],
        [74.9661, 16.9274],
        [74.9663, 16.9284],
        [74.9663, 16.9285],
        [74.9664, 16.9298],
        [74.9664, 16.9299],
        [74.9664, 16.93],
        [74.9663, 16.9301],
        [74.9662, 16.9302],
        [74.9659, 16.9305],
        [74.9658, 16.9305],
        [74.9647, 16.9312],
        [74.9645, 16.9313],
        [74.9632, 16.9316],
        [74.9629, 16.9318],
        [74.96229, 16.93255],
        [74.9616, 16.9334],
        [74.9616, 16.9335],
        [74.9611, 16.9338],
        [74.9611, 16.9343],
        [74.96123, 16.93464],
        [74.9615, 16.9353],
        [74.9616, 16.9354],
        [74.9616, 16.9355],
        [74.9615, 16.9356],
        [74.9615, 16.9357],
        [74.9612, 16.9362],
        [74.9606, 16.9371],
        [74.9607, 16.9374],
        [74.9611, 16.9386],
        [74.9611, 16.9387],
        [74.9611, 16.9388],
        [74.9611, 16.9394],
        [74.9611, 16.9399],
        [74.962, 16.9403],
        [74.9637, 16.9407],
        [74.9653, 16.941],
        [74.966, 16.9411],
        [74.96668, 16.9411],
        [74.9671, 16.9411],
        [74.9672, 16.9411],
        [74.968, 16.9414],
        [74.9681, 16.9415],
        [74.9682, 16.9415],
        [74.9682, 16.9416],
        [74.9683, 16.9416],
        [74.9683, 16.9417],
        [74.9683, 16.9418],
        [74.9683, 16.9419],
        [74.9683, 16.942],
        [74.9683, 16.9421],
        [74.9682, 16.9421],
        [74.9674, 16.9431],
        [74.9666, 16.9448],
        [74.9661, 16.9455],
        [74.9657, 16.9465],
        [74.9656, 16.9466],
        [74.9652, 16.9475],
        [74.9661, 16.9475],
        [74.9662, 16.9475],
        [74.9663, 16.9475],
        [74.9664, 16.9476],
        [74.9665, 16.9477],
        [74.9688, 16.9502],
        [74.98427, 16.95174],
        [74.9879, 16.9521],
        [74.9903, 16.9523],
        [74.99118, 16.95225],
        [74.992, 16.9522],
        [74.9939, 16.952],
        [74.9951, 16.9517],
        [74.9959, 16.9515],
        [74.9997, 16.9499],
        [74.9998, 16.9499],
        [75, 16.9499],
        [74.9999, 16.9494],
        [74.9999, 16.9493],
        [74.9999, 16.9492],
        [74.9999, 16.9491],
        [74.9999, 16.949],
        [75, 16.949],
        [75, 16.9489],
        [75.0001, 16.9489],
        [75.0014, 16.9481],
        [75.003, 16.9473],
        [75.0044, 16.9466],
        [75.0045, 16.9465],
        [75.0061, 16.9462],
        [75.0086, 16.9457],
        [75.0114, 16.9453],
        [75.0115, 16.9453],
        [75.0134, 16.9452],
        [75.0177, 16.9446],
        [75.0204, 16.9444],
        [75.0227, 16.9439],
        [75.0227, 16.9438],
        [75.0245, 16.9436],
        [75.0246, 16.9436],
        [75.0258, 16.9437],
        [75.02582, 16.9437],
        [75.0259, 16.9437],
        [75.026, 16.9437],
        [75.0261, 16.9437],
        [75.02581, 16.94278],
        [75.0256, 16.9421],
        [75.0252, 16.9407],
        [75.0244, 16.9385],
        [75.0244, 16.9384],
        [75.0243, 16.9373],
        [75.0241, 16.9355],
        [75.0241, 16.9354],
        [75.0242, 16.9333],
        [75.0243, 16.9316],
        [75.0243, 16.9315],
        [75.0247, 16.9301],
        [75.0249, 16.9286],
        [75.0249, 16.9285],
        [75.025, 16.9284],
        [75.025, 16.9283],
        [75.0251, 16.9283],
        [75.0253, 16.9281],
        [75.0254, 16.928],
        [75.0255, 16.928],
        [75.0256, 16.928],
        [75.0257, 16.928],
        [75.0258, 16.928],
        [75.0259, 16.9281],
        [75.0269, 16.9288],
        [75.027, 16.9288],
        [75.0274, 16.9292],
        [75.0275, 16.9293],
        [75.0276, 16.9294],
        [75.0276, 16.9295],
        [75.0276, 16.9296],
        [75.0276, 16.9297],
        [75.02757, 16.9298],
        [75.0273, 16.9306],
        [75.0272, 16.9306],
        [75.0272, 16.9307],
        [75.027, 16.931],
        [75.027, 16.9314],
        [75.0278, 16.9316],
        [75.0286, 16.9314],
        [75.0287, 16.9314],
        [75.02984, 16.9314],
        [75.0299, 16.9314],
        [75.03, 16.9315],
        [75.0301, 16.9315],
        [75.031, 16.932],
        [75.0311, 16.932],
        [75.0315, 16.9324],
        [75.0321, 16.9324],
        [75.0322, 16.9324],
        [75.0328, 16.9325],
        [75.0329, 16.9325],
        [75.0337, 16.9329],
        [75.0338, 16.9329],
        [75.0339, 16.933],
        [75.0343, 16.9334],
        [75.0345, 16.9334],
        [75.0351, 16.933],
        [75.0351, 16.9329],
        [75.0352, 16.9329],
        [75.0353, 16.9329],
        [75.0354, 16.9329],
        [75.036, 16.9329],
        [75.0361, 16.9329],
        [75.0362, 16.933],
        [75.0369, 16.9335],
        [75.037, 16.9336],
        [75.0379, 16.9347],
        [75.0387, 16.9353],
        [75.0393, 16.9354],
        [75.0397, 16.9352],
        [75.0398, 16.9352],
        [75.0399, 16.9352],
        [75.04, 16.9353],
        [75.0407, 16.9355],
        [75.0408, 16.9356],
        [75.0409, 16.9356],
        [75.0414, 16.9361],
        [75.0419, 16.9368],
        [75.042, 16.9368],
        [75.042, 16.9369],
        [75.042, 16.937],
        [75.0422, 16.9377],
        [75.0422, 16.9378],
        [75.0421, 16.9379],
        [75.0419, 16.9388],
        [75.042, 16.9399],
        [75.0437, 16.9409],
        [75.0447, 16.9414],
        [75.0451, 16.9416],
        [75.0463, 16.9417],
        [75.0464, 16.9417],
        [75.04701, 16.942],
        [75.0472, 16.9421],
        [75.048, 16.9422],
        [75.0486, 16.9418],
        [75.0494, 16.9413],
        [75.0495, 16.9413],
        [75.0495, 16.9412],
        [75.0506, 16.941],
        [75.0507, 16.941],
        [75.0508, 16.941],
        [75.0531, 16.9416],
        [75.0541, 16.9419],
        [75.05414, 16.94191],
        [75.0548, 16.942],
        [75.0552, 16.94189],
        [75.0559, 16.9417],
        [75.0568, 16.9414],
        [75.0569, 16.9414],
        [75.0578, 16.9414],
        [75.0579, 16.9414],
        [75.058, 16.9415],
        [75.0593, 16.9419],
        [75.0601, 16.9416],
        [75.0605, 16.9413],
        [75.0606, 16.9412],
        [75.0607, 16.9412],
        [75.0608, 16.9412],
        [75.0642, 16.9413],
        [75.0643, 16.9413],
        [75.0644, 16.9414],
        [75.0645, 16.9414],
        [75.0656, 16.9423],
        [75.0657, 16.9424],
        [75.0661, 16.9429],
        [75.0669, 16.9433],
        [75.0676, 16.9438],
        [75.068, 16.944],
        [75.0681, 16.944],
        [75.0685, 16.9442],
        [75.0686, 16.9442],
        [75.0693, 16.9447],
        [75.0694, 16.9448],
        [75.0698, 16.9452],
        [75.0704, 16.9458],
        [75.0705, 16.9458],
        [75.0709, 16.9463],
        [75.0715, 16.9462],
        [75.0716, 16.9461],
        [75.0717, 16.9461],
        [75.0721, 16.9462],
        [75.0723, 16.9462],
        [75.073, 16.9464],
        [75.0731, 16.9464],
        [75.0731, 16.9465],
        [75.0732, 16.9465],
        [75.0732, 16.9466],
        [75.0733, 16.9467],
        [75.0741, 16.9487],
        [75.0744, 16.9494],
        [75.0749, 16.9497],
        [75.0761, 16.9499],
        [75.0768, 16.9493],
        [75.0768, 16.9492],
        [75.0774, 16.9488],
        [75.0775, 16.9488],
        [75.0776, 16.9487],
        [75.0777, 16.9487],
        [75.0784, 16.9486],
        [75.0785, 16.9486],
        [75.0799, 16.9488],
        [75.08, 16.9488],
        [75.0801, 16.9489],
        [75.0807, 16.9492],
        [75.0811, 16.9494],
        [75.0816, 16.9492],
        [75.0817, 16.9492],
        [75.0818, 16.9492],
        [75.0819, 16.9492],
        [75.0825, 16.9494],
        [75.0826, 16.9495],
        [75.084, 16.9503],
        [75.0848, 16.9507],
        [75.0857, 16.9512],
        [75.0858, 16.9512],
        [75.08611, 16.95141],
        [75.0867, 16.9518],
        [75.0872, 16.9517],
        [75.0874, 16.9517],
        [75.0882, 16.9517],
        [75.0891, 16.9516],
        [75.0896, 16.9515],
        [75.0899, 16.9499],
        [75.0899, 16.9498],
        [75.0907, 16.9475],
        [75.0912, 16.9461],
        [75.0915, 16.9443],
        [75.0918, 16.9415],
        [75.09203, 16.9395],
        [75.0921, 16.9389],
        [75.0921, 16.9366],
        [75.0919, 16.9359],
        [75.0919, 16.9358],
        [75.0918, 16.9348],
        [75.0918, 16.9347],
        [75.092, 16.9335],
        [75.0919, 16.9324],
        [75.0917, 16.9306],
        [75.0917, 16.9305],
        [75.0918, 16.9289],
        [75.0919, 16.9278],
        [75.092, 16.9264],
        [75.0922, 16.9252],
        [75.0922, 16.9251],
        [75.0925, 16.9238],
        [75.0929, 16.9219],
        [75.0934, 16.9204],
        [75.0941, 16.9187],
        [75.0947, 16.917],
        [75.0952, 16.9153],
        [75.0953, 16.9153],
        [75.0959, 16.914],
        [75.0959, 16.9139],
        [75.096, 16.9138],
        [75.0961, 16.9138],
        [75.0961, 16.9137],
        [75.0993, 16.9128],
        [75.0994, 16.9128],
        [75.1016, 16.9126],
        [75.104, 16.9125],
        [75.1041, 16.9125],
        [75.107, 16.9127],
        [75.1071, 16.9127],
        [75.1091, 16.913],
        [75.1112, 16.9128],
        [75.1113, 16.9128],
        [75.113, 16.9129],
        [75.1172, 16.913],
        [75.1189, 16.9066],
        [75.1193, 16.9047],
        [75.1197, 16.903],
        [75.1196, 16.9024],
        [75.1196, 16.9023],
        [75.1196, 16.9022],
        [75.1196, 16.9021],
        [75.1197, 16.902],
        [75.1198, 16.9019],
        [75.1293, 16.8967],
        [75.1318, 16.8954],
        [75.1319, 16.8953],
        [75.1338, 16.8948],
        [75.1344, 16.8944],
        [75.1338, 16.894],
        [75.1329, 16.8934],
        [75.1329, 16.8933],
        [75.1328, 16.8932],
        [75.1328, 16.8931],
        [75.1323, 16.8908],
        [75.1323, 16.8907],
        [75.1323, 16.8906],
        [75.1325, 16.8891],
        [75.1327, 16.8874],
        [75.1328, 16.8863],
        [75.1329, 16.8859],
        [75.1338, 16.8832],
        [75.1345, 16.881],
        [75.135, 16.8788],
        [75.135, 16.8778],
        [75.135, 16.8777],
        [75.1353, 16.876],
        [75.1353, 16.8759],
        [75.136, 16.8744],
        [75.1361, 16.8743],
        [75.1361, 16.8742],
        [75.1362, 16.8742],
        [75.1396, 16.8726],
        [75.1397, 16.8725],
        [75.1424, 16.8718],
        [75.1437, 16.8715],
        [75.1438, 16.8715],
        [75.1455, 16.8714],
        [75.1476, 16.8705],
        [75.1496, 16.8701],
        [75.1509, 16.8697],
        [75.152, 16.8691],
        [75.1543, 16.8681],
        [75.1558, 16.8676],
        [75.1559, 16.8676],
        [75.1579, 16.8674],
        [75.158, 16.8674],
        [75.1595, 16.8673],
        [75.161, 16.867],
        [75.1644, 16.8667],
        [75.1645, 16.8667],
        [75.1671, 16.8669],
        [75.1701, 16.8669],
        [75.1702, 16.8669],
        [75.1733, 16.8672],
        [75.1752, 16.8673],
        [75.1753, 16.8673],
        [75.1771, 16.8675],
        [75.1772, 16.8676],
        [75.1773, 16.8676],
        [75.179, 16.8687],
        [75.1807, 16.87],
        [75.1828, 16.871],
        [75.1829, 16.871],
        [75.1841, 16.8718],
        [75.1856, 16.8729],
        [75.1878, 16.8742],
        [75.1886, 16.8746],
        [75.1889, 16.8734],
        [75.1884, 16.8718],
        [75.1884, 16.8717],
        [75.1881, 16.87],
        [75.1876, 16.8684],
        [75.1875, 16.8684],
        [75.1872, 16.8671],
        [75.1868, 16.8659],
        [75.1857, 16.8637],
        [75.1856, 16.8636],
        [75.1854, 16.8617],
        [75.1841, 16.8586],
        [75.1836, 16.8576],
        [75.1836, 16.8575],
        [75.1832, 16.8561],
        [75.1829, 16.8547],
        [75.1827, 16.8532],
        [75.1826, 16.8519],
        [75.1823, 16.8502],
        [75.1819, 16.8484],
        [75.1818, 16.8484],
        [75.1817, 16.8469],
        [75.1812, 16.8447],
        [75.1812, 16.8446],
        [75.1812, 16.8445],
        [75.1812, 16.8444],
        [75.1813, 16.8444],
        [75.1813, 16.8443],
        [75.18149, 16.84405],
        [75.17269, 16.82085],
        [75.17964, 16.79424],
        [75.16591, 16.77839],
        [75.11433, 16.77267],
        [75.07402, 16.77804],
        [75.06791, 16.78436],
        [75.05354, 16.78605],
        [75.05189, 16.77822],
        [75.02727, 16.78324],
        [75.01841, 16.77654],
        [75.00033, 16.77983],
        [74.97638, 16.77582],
        [74.97727, 16.75685],
        [74.95938, 16.74959],
        [74.96832, 16.72843],
        [74.96541, 16.67849],
        [74.96205, 16.67025],
        [74.95151, 16.66937],
        [74.94946, 16.65426],
        [74.95449, 16.65251],
        [74.94117, 16.61867],
        [74.93712, 16.61205],
        [74.92242, 16.61433],
        [74.90534, 16.64667],
        [74.88196, 16.65722],
        [74.87233, 16.65561],
        [74.84292, 16.63436],
        [74.82591, 16.63633],
        [74.81493, 16.64409],
        [74.8087, 16.64272],
        [74.80495, 16.59016],
        [74.79341, 16.57678],
        [74.77851, 16.57166],
        [74.77048, 16.606],
        [74.72637, 16.60836],
        [74.72547, 16.59848],
        [74.69277, 16.59443],
        [74.69156, 16.60283],
        [74.68587, 16.60643],
        [74.6878, 16.6071],
        [74.6879, 16.6071],
        [74.6879, 16.6072],
        [74.6889, 16.6081],
        [74.689, 16.6081],
        [74.6891, 16.6082],
        [74.6891, 16.6083],
        [74.6897, 16.6111],
        [74.6897, 16.6112],
        [74.6896, 16.6122],
        [74.6899, 16.6138],
        [74.6899, 16.6139],
        [74.6898, 16.614],
        [74.6892, 16.6159],
        [74.6885, 16.6173],
        [74.6885, 16.6174],
        [74.6877, 16.6183],
        [74.6876, 16.6184],
        [74.6862, 16.6193],
        [74.6843, 16.6203],
        [74.6826, 16.6211],
        [74.6825, 16.6211],
        [74.6807, 16.6217],
        [74.6778, 16.6229],
        [74.6764, 16.6237],
        [74.675, 16.6244]
      ]
    ]
  }
}
