{
  "type": "Feature",
  "id": "KA-AC-45",
  "properties": {
    "stateName": "KARNATAKA",
    "stateCode": "KA",
    "districtName": "GULBARGA",
    "acNo": 45,
    "acName": "Gulbarga Uttar",
    "seatType": null,
    "pcNo": 5,
    "pcName": "GULBARGA (SC)",
    "quality": "unverified",
    "sources": [
      "TBD"
    ]
  },
  "geometry": {
    "type": "Polygon",
    "coordinates": [
      [
        [76.86158, 17.40922],
        [76.86485, 17.40822],
        [76.86821, 17.38501],
        [76.87356, 17.38003],
        [76.86369, 17.34455],
        [76.87305, 17.32695],
        [76.86433, 17.32696],
        [76.85473, 17.30482],
        [76.84608, 17.3109],
        [76.83238, 17.29648],
        [76.8327, 17.31003],
        [76.82021, 17.30859],
        [76.8112, 17.29612],
        [76.80523, 17.29636],
        [76.80032, 17.31122],
        [76.80777, 17.32645],
        [76.79404, 17.32335],
        [76.79782, 17.3384],
        [76.8101, 17.34607],
        [76.80778, 17.35193],
        [76.81149, 17.35754],
        [76.80382, 17.36488],
        [76.80177, 17.35811],
        [76.78982, 17.35832],
        [76.78732, 17.37324],
        [76.79096, 17.38146],
        [76.79972, 17.38006],
        [76.80335, 17.37409],
        [76.81331, 17.37978],
        [76.82215, 17.36595],
        [76.82988, 17.36722],
        [76.83062, 17.38123],
        [76.84098, 17.39666],
        [76.85367, 17.39594],
        [76.86158, 17.40922]
      ]
    ]
  }
}
