{
  "type": "Feature",
  "id": "KA-AC-59",
  "properties": {
    "stateName": "KARNATAKA",
    "stateCode": "KA",
    "districtName": "RAICHUR",
    "acNo": 59,
    "acName": "Maski (ST)",
    "seatType": null,
    "pcNo": 8,
    "pcName": "KOPPAL",
    "quality": "unverified",
    "sources": [
      "TBD"
    ]
  },
  "geometry": {
    "type": "Polygon",
    "coordinates": [
      [
        [76.77533, 16.08763],
        [76.79855, 16.09005],
        [76.80483, 16.04995],
        [76.85578, 16.04545],
        [76.85478, 16.0343],
        [76.86901, 16.03416],
        [76.87357, 16.02943],
        [76.87437, 16.01468],
        [76.86585, 16.01452],
        [76.86408, 16.00814],
        [76.85427, 16.00915],
        [76.8462, 15.98141],
        [76.801, 15.9772],
        [76.79668, 15.96893],
        [76.80301, 15.96455],
        [76.79513, 15.94395],
        [76.80249, 15.93449],
        [76.8123, 15.93354],
        [76.81263, 15.89503],
        [76.79354, 15.89616],
        [76.79161, 15.88357],
        [76.79725, 15.87734],
        [76.7805, 15.88007],
        [76.77058, 15.85582],
        [76.76452, 15.85613],
        [76.76906, 15.8777],
        [76.75617, 15.88008],
        [76.75745, 15.89781],
        [76.73041, 15.89997],
        [76.72473, 15.88346],
        [76.70731, 15.87817],
        [76.70024, 15.88341],
        [76.69113, 15.87772],
        [76.68821, 15.83451],
        [76.68333, 15.82903],
        [76.6746, 15.83069],
        [76.67388, 15.80727],
        [76.68099, 15.81123],
        [76.68374, 15.79009],
        [76.70819, 15.78445],
        [76.70816, 15.77335],
        [76.71964, 15.77351],
        [76.71639, 15.74272],
        [76.68413, 15.74231],
        [76.65556, 15.73107],
        [76.65511, 15.76404],
        [76.64854, 15.76446],
        [76.64739, 15.75805],
        [76.64323, 15.75786],
        [76.64277, 15.76253],
        [76.62381, 15.75967],
        [76.62057, 15.73695],
        [76.61239, 15.7431],
        [76.61023, 15.71214],
        [76.59769, 15.70902],
        [76.60023, 15.70081],
        [76.59711, 15.69953],
        [76.58602, 15.69734],
        [76.56207, 15.70552],
        [76.5527, 15.69945],
        [76.54151, 15.69875],
        [76.54452, 15.703],
        [76.54008, 15.70423],
        [76.53246, 15.69886],
        [76.51191, 15.71653],
        [76.49137, 15.70753],
        [76.49072, 15.71367],
        [76.4842, 15.71459],
        [76.48251, 15.71957],
        [76.4529, 15.72999],
        [76.44302, 15.73858],
        [76.4476, 15.74369],
        [76.43914, 15.74918],
        [76.43977, 15.78437],
        [76.42234, 15.7854],
        [76.42221, 15.79091],
        [76.41282, 15.79651],
        [76.41307, 15.80415],
        [76.42051, 15.80526],
        [76.422, 15.81206],
        [76.43797, 15.82473],
        [76.44241, 15.82408],
        [76.45118, 15.84434],
        [76.44853, 15.8538],
        [76.45571, 15.86186],
        [76.4705, 15.85484],
        [76.49422, 15.85438],
        [76.49643, 15.8575],
        [76.48724, 15.85814],
        [76.48668, 15.87003],
        [76.45847, 15.87653],
        [76.46584, 15.8985],
        [76.45403, 15.90675],
        [76.43967, 15.93219],
        [76.45332, 15.94532],
        [76.45197, 15.9751],
        [76.45982, 15.98062],
        [76.46803, 15.98001],
        [76.46968, 15.99577],
        [76.48603, 16.00969],
        [76.48518, 16.01956],
        [76.47367, 16.02068],
        [76.47146, 16.01571],
        [76.46201, 16.01909],
        [76.44601, 16.03705],
        [76.44655, 16.04667],
        [76.4633, 16.0732],
        [76.47101, 16.07923],
        [76.49568, 16.07401],
        [76.52479, 16.07416],
        [76.51746, 16.03762],
        [76.5191, 16.01657],
        [76.52281, 16.01705],
        [76.53302, 16.07272],
        [76.53908, 16.07138],
        [76.53856, 16.08059],
        [76.54478, 16.08517],
        [76.54654, 16.09439],
        [76.56603, 16.09121],
        [76.57318, 16.09978],
        [76.56249, 16.10241],
        [76.5592, 16.13071],
        [76.56339, 16.14298],
        [76.58152, 16.14485],
        [76.58364, 16.15511],
        [76.59506, 16.15008],
        [76.59852, 16.14312],
        [76.60724, 16.14215],
        [76.6052, 16.12252],
        [76.5826, 16.12319],
        [76.58227, 16.11892],
        [76.61965, 16.10138],
        [76.62932, 16.07602],
        [76.63471, 16.07388],
        [76.64039, 16.07442],
        [76.64152, 16.08047],
        [76.64554, 16.07898],
        [76.655, 16.08884],
        [76.65889, 16.11255],
        [76.66408, 16.11243],
        [76.66844, 16.11925],
        [76.67829, 16.11646],
        [76.68394, 16.12342],
        [76.6916, 16.12353],
        [76.68804, 16.14536],
        [76.69745, 16.15517],
        [76.71941, 16.1559],
        [76.76875, 16.13671],
        [76.76985, 16.14162],
        [76.78085, 16.13131],
        [76.77533, 16.08763]
      ]
    ]
  }
}
