{
  "type": "Feature",
  "id": "KA-AC-73",
  "properties": {
    "stateName": "KARNATAKA",
    "stateCode": "KA",
    "districtName": "DHARWAD",
    "acNo": 73,
    "acName": "Hubli-Dharwad-Central",
    "seatType": null,
    "pcNo": 11,
    "pcName": "DHARWAD",
    "quality": "unverified",
    "sources": [
      "TBD"
    ]
  },
  "geometry": {
    "type": "Polygon",
    "coordinates": [
      [
        [75.1817, 15.42056],
        [75.18263, 15.3904],
        [75.188, 15.37112],
        [75.20002, 15.36501],
        [75.18379, 15.35759],
        [75.15657, 15.35321],
        [75.15367, 15.35345],
        [75.15554, 15.36293],
        [75.16143, 15.36515],
        [75.16008, 15.36939],
        [75.14887, 15.3647],
        [75.14206, 15.34953],
        [75.12404, 15.33263],
        [75.11951, 15.33264],
        [75.10798, 15.33541],
        [75.10235, 15.33828],
        [75.10039, 15.34967],
        [75.12908, 15.35349],
        [75.11881, 15.36169],
        [75.10389, 15.35166],
        [75.10236, 15.35531],
        [75.11058, 15.35869],
        [75.10312, 15.37751],
        [75.12567, 15.39257],
        [75.14205, 15.42229],
        [75.15108, 15.41934],
        [75.17115, 15.41424],
        [75.1817, 15.42056]
      ]
    ]
  }
}
