{
  "type": "Feature",
  "id": "KA-AC-77",
  "properties": {
    "stateName": "KARNATAKA",
    "stateCode": "KA",
    "districtName": "UTTARA KANNADA",
    "acNo": 77,
    "acName": "Karwar",
    "seatType": null,
    "pcNo": 12,
    "pcName": "UTTARA KANNADA",
    "quality": "unverified",
    "sources": [
      "TBD"
    ]
  },
  "geometry": {
    "type": "Polygon",
    "coordinates": [
      [
        [74.31941, 15.02561],
        [74.31621, 15.01967],
        [74.3099, 15.02047],
        [74.31013, 15.01632],
        [74.31556, 14.99015],
        [74.32625, 14.9903],
        [74.33567, 14.96442],
        [74.33194, 14.9578],
        [74.34051, 14.9523],
        [74.35594, 14.95138],
        [74.36968, 14.93557],
        [74.38755, 14.93271],
        [74.39787, 14.90224],
        [74.40436, 14.91773],
        [74.42897, 14.94247],
        [74.43954, 14.961],
        [74.45358, 14.93781],
        [74.45083, 14.92134],
        [74.45793, 14.9102],
        [74.45956, 14.8878],
        [74.48162, 14.89707],
        [74.49599, 14.91798],
        [74.51586, 14.92429],
        [74.5271, 14.92182],
        [74.52177, 14.90268],
        [74.52404, 14.89661],
        [74.51697, 14.88287],
        [74.50472, 14.87852],
        [74.51119, 14.86115],
        [74.49176, 14.8495],
        [74.47268, 14.81315],
        [74.45355, 14.80077],
        [74.45941, 14.79825],
        [74.45695, 14.79026],
        [74.42164, 14.77806],
        [74.4228, 14.76499],
        [74.42965, 14.75921],
        [74.45034, 14.76413],
        [74.46704, 14.75451],
        [74.49822, 14.79626],
        [74.51111, 14.78551],
        [74.51464, 14.76967],
        [74.529, 14.78627],
        [74.53559, 14.77962],
        [74.54152, 14.78177],
        [74.54077, 14.79893],
        [74.54892, 14.797],
        [74.55295, 14.80191],
        [74.55808, 14.7946],
        [74.56625, 14.79345],
        [74.57688, 14.80559],
        [74.56143, 14.83225],
        [74.55745, 14.85926],
        [74.56187, 14.87022],
        [74.56474, 14.86653],
        [74.57376, 14.86921],
        [74.58366, 14.84783],
        [74.59957, 14.8305],
        [74.60855, 14.79938],
        [74.61503, 14.81687],
        [74.63177, 14.82601],
        [74.63934, 14.83737],
        [74.65788, 14.83598],
        [74.66865, 14.82944],
        [74.69886, 14.83612],
        [74.70661, 14.81807],
        [74.67179, 14.80796],
        [74.63502, 14.80798],
        [74.65531, 14.77979],
        [74.63232, 14.77678],
        [74.63123, 14.76507],
        [74.61111, 14.74421],
        [74.61697, 14.72883],
        [74.60866, 14.69228],
        [74.5994, 14.69578],
        [74.5755, 14.68218],
        [74.58057, 14.65359],
        [74.57312, 14.64289],
        [74.57524, 14.63483],
        [74.56795, 14.61991],
        [74.57358, 14.60936],
        [74.54532, 14.58829],
        [74.53233, 14.56592],
        [74.52032, 14.56805],
        [74.50414, 14.55438],
        [74.48169, 14.51967],
        [74.48134, 14.52752],
        [74.46031, 14.52229],
        [74.47354, 14.53247],
        [74.46554, 14.54373],
        [74.47233, 14.55876],
        [74.46572, 14.56284],
        [74.46728, 14.56805],
        [74.46022, 14.56349],
        [74.45332, 14.57283],
        [74.47315, 14.5917],
        [74.46098, 14.60268],
        [74.45754, 14.59811],
        [74.44032, 14.6067],
        [74.44206, 14.61006],
        [74.42474, 14.59562],
        [74.43263, 14.58938],
        [74.43697, 14.56854],
        [74.41853, 14.56265],
        [74.39287, 14.56514],
        [74.39868, 14.57374],
        [74.38207, 14.57206],
        [74.37735, 14.58012],
        [74.34865, 14.57142],
        [74.34538, 14.57345],
        [74.34795, 14.58198],
        [74.3275, 14.57885],
        [74.31811, 14.58208],
        [74.31829, 14.59801],
        [74.29321, 14.59689],
        [74.31474, 14.54583],
        [74.31083, 14.53677],
        [74.31628, 14.52784],
        [74.31628, 14.52784],
        [74.3108, 14.5368],
        [74.3147, 14.5458],
        [74.2934, 14.5964],
        [74.2932, 14.5964],
        [74.2931, 14.5964],
        [74.293, 14.5965],
        [74.2929, 14.5965],
        [74.2929, 14.5966],
        [74.28, 14.6099],
        [74.28, 14.61],
        [74.2799, 14.6101],
        [74.2731, 14.6268],
        [74.2701, 14.6265],
        [74.27, 14.6265],
        [74.2699, 14.6266],
        [74.2698, 14.6266],
        [74.2697, 14.6267],
        [74.2696, 14.6268],
        [74.2696, 14.6269],
        [74.2696, 14.627],
        [74.2696, 14.6271],
        [74.2696, 14.6272],
        [74.271, 14.6306],
        [74.271, 14.6307],
        [74.2711, 14.6308],
        [74.2712, 14.6308],
        [74.2713, 14.6309],
        [74.2714, 14.6309],
        [74.2715, 14.6309],
        [74.2716, 14.6309],
        [74.2809, 14.6271],
        [74.2858, 14.6347],
        [74.2852, 14.6456],
        [74.2783, 14.6563],
        [74.2783, 14.6564],
        [74.2782, 14.6565],
        [74.2782, 14.6566],
        [74.2782, 14.6567],
        [74.2783, 14.6567],
        [74.2804, 14.661],
        [74.2752, 14.6661],
        [74.2752, 14.6662],
        [74.2751, 14.6663],
        [74.2751, 14.6664],
        [74.2751, 14.6665],
        [74.2752, 14.6666],
        [74.2752, 14.6667],
        [74.2822, 14.6756],
        [74.2718, 14.7],
        [74.2569, 14.7063],
        [74.2568, 14.7064],
        [74.2567, 14.7064],
        [74.2567, 14.7065],
        [74.2567, 14.7066],
        [74.2567, 14.7067],
        [74.2567, 14.7068],
        [74.2567, 14.7069],
        [74.2568, 14.707],
        [74.2649, 14.7134],
        [74.2497, 14.7391],
        [74.2373, 14.7469],
        [74.2273, 14.7476],
        [74.2282, 14.7375],
        [74.2282, 14.7374],
        [74.2281, 14.7373],
        [74.2281, 14.7372],
        [74.228, 14.7372],
        [74.2279, 14.7371],
        [74.2278, 14.7371],
        [74.2039, 14.7347],
        [74.2088, 14.718],
        [74.2088, 14.7179],
        [74.2087, 14.7178],
        [74.2087, 14.7177],
        [74.2087, 14.7176],
        [74.2086, 14.7176],
        [74.2085, 14.7175],
        [74.2084, 14.7175],
        [74.2083, 14.7175],
        [74.2082, 14.7175],
        [74.2044, 14.7181],
        [74.2043, 14.7182],
        [74.2042, 14.7182],
        [74.1917, 14.7262],
        [74.1916, 14.7262],
        [74.1916, 14.7263],
        [74.1915, 14.7264],
        [74.1915, 14.7265],
        [74.1915, 14.7266],
        [74.1926, 14.7343],
        [74.1774, 14.75],
        [74.1619, 14.7515],
        [74.1576, 14.7447],
        [74.1575, 14.7446],
        [74.1575, 14.7445],
        [74.1574, 14.7445],
        [74.1573, 14.7445],
        [74.1572, 14.7445],
        [74.1571, 14.7445],
        [74.157, 14.7445],
        [74.1519, 14.7469],
        [74.1518, 14.747],
        [74.1517, 14.747],
        [74.1517, 14.7471],
        [74.15, 14.7514],
        [74.15, 14.7515],
        [74.15, 14.7516],
        [74.15, 14.7517],
        [74.15, 14.7518],
        [74.1501, 14.7518],
        [74.1568, 14.76],
        [74.1413, 14.7789],
        [74.1292, 14.7805],
        [74.1194, 14.7742],
        [74.1193, 14.7742],
        [74.1192, 14.7742],
        [74.1191, 14.7742],
        [74.119, 14.7742],
        [74.1189, 14.7742],
        [74.1189, 14.7743],
        [74.1188, 14.7743],
        [74.1188, 14.7744],
        [74.1187, 14.7745],
        [74.1187, 14.7746],
        [74.1177, 14.7854],
        [74.1104, 14.7848],
        [74.1103, 14.7848],
        [74.1102, 14.7848],
        [74.1101, 14.7848],
        [74.11, 14.7849],
        [74.1099, 14.785],
        [74.1099, 14.7851],
        [74.1099, 14.7852],
        [74.1092, 14.7923],
        [74.0951, 14.7995],
        [74.095, 14.7996],
        [74.0949, 14.7997],
        [74.0948, 14.7998],
        [74.0948, 14.7999],
        [74.0947, 14.8065],
        [74.0947, 14.8066],
        [74.0947, 14.8067],
        [74.0948, 14.8068],
        [74.0949, 14.8069],
        [74.095, 14.8069],
        [74.0951, 14.8069],
        [74.0952, 14.8069],
        [74.1133, 14.8056],
        [74.1134, 14.8056],
        [74.1135, 14.8055],
        [74.1136, 14.8055],
        [74.1136, 14.8054],
        [74.1137, 14.8054],
        [74.1137, 14.8053],
        [74.1137, 14.8052],
        [74.1137, 14.8051],
        [74.1136, 14.7978],
        [74.1241, 14.8058],
        [74.1246, 14.8404],
        [74.1115, 14.8494],
        [74.1115, 14.8495],
        [74.1114, 14.8495],
        [74.1114, 14.8496],
        [74.0955, 14.8979],
        [74.0856, 14.9002],
        [74.0855, 14.9002],
        [74.0854, 14.9003],
        [74.0853, 14.9003],
        [74.0853, 14.9004],
        [74.0853, 14.9005],
        [74.0852, 14.9006],
        [74.0852, 14.9007],
        [74.0853, 14.9008],
        [74.0853, 14.9009],
        [74.0854, 14.901],
        [74.1015, 14.9159],
        [74.1015, 14.916],
        [74.1016, 14.916],
        [74.1017, 14.9161],
        [74.1018, 14.9161],
        [74.1019, 14.9161],
        [74.102, 14.916],
        [74.1021, 14.9159],
        [74.1049, 14.9134],
        [74.1148, 14.9186],
        [74.1149, 14.9187],
        [74.115, 14.9187],
        [74.1151, 14.9187],
        [74.1152, 14.9187],
        [74.1197, 14.9171],
        [74.1241, 14.9255],
        [74.1241, 14.9256],
        [74.1242, 14.9256],
        [74.1243, 14.9257],
        [74.1244, 14.9257],
        [74.1245, 14.9257],
        [74.1246, 14.9257],
        [74.1416, 14.9231],
        [74.1417, 14.923],
        [74.1418, 14.923],
        [74.1619, 14.9125],
        [74.1657, 14.919],
        [74.1535, 14.9395],
        [74.1535, 14.9396],
        [74.1535, 14.9397],
        [74.1535, 14.9398],
        [74.1587, 14.9559],
        [74.1587, 14.956],
        [74.1588, 14.956],
        [74.1588, 14.9561],
        [74.1589, 14.9561],
        [74.1636, 14.959],
        [74.1637, 14.959],
        [74.1638, 14.959],
        [74.1791, 14.9578],
        [74.1792, 14.9578],
        [74.1793, 14.9577],
        [74.1794, 14.9577],
        [74.1794, 14.9576],
        [74.1795, 14.9575],
        [74.1795, 14.9574],
        [74.1795, 14.9573],
        [74.1796, 14.9509],
        [74.1922, 14.9445],
        [74.1923, 14.9444],
        [74.1924, 14.9444],
        [74.1924, 14.9443],
        [74.1924, 14.9442],
        [74.193, 14.9325],
        [74.2011, 14.9263],
        [74.2133, 14.9475],
        [74.2134, 14.9476],
        [74.2134, 14.9477],
        [74.2135, 14.9477],
        [74.2136, 14.9477],
        [74.2302, 14.9514],
        [74.2366, 14.9677],
        [74.2367, 14.9678],
        [74.2368, 14.9679],
        [74.2369, 14.9679],
        [74.237, 14.968],
        [74.2371, 14.968],
        [74.2372, 14.968],
        [74.2372, 14.9679],
        [74.2373, 14.9679],
        [74.249, 14.96],
        [74.2533, 14.9609],
        [74.2542, 14.9698],
        [74.2543, 14.9699],
        [74.2543, 14.97],
        [74.2544, 14.9701],
        [74.2638, 14.9785],
        [74.2519, 14.9922],
        [74.2519, 14.9923],
        [74.2519, 14.9924],
        [74.2518, 14.9925],
        [74.2518, 14.9926],
        [74.253, 14.9975],
        [74.253, 14.9976],
        [74.2531, 14.9976],
        [74.2532, 14.9977],
        [74.2532, 14.9978],
        [74.2533, 14.9978],
        [74.2673, 15.0022],
        [74.2664, 15.0071],
        [74.2664, 15.0072],
        [74.2664, 15.0073],
        [74.2665, 15.0074],
        [74.2665, 15.0075],
        [74.2831, 15.024],
        [74.2829, 15.0316],
        [74.2829, 15.0317],
        [74.2829, 15.0318],
        [74.283, 15.0319],
        [74.283, 15.032],
        [74.2831, 15.032],
        [74.2957, 15.0414],
        [74.295, 15.0455],
        [74.2895, 15.0644],
        [74.2803, 15.0687],
        [74.2802, 15.0688],
        [74.2801, 15.0689],
        [74.2801, 15.069],
        [74.2785, 15.095],
        [74.2724, 15.097],
        [74.2723, 15.097],
        [74.2723, 15.0971],
        [74.2722, 15.0971],
        [74.2722, 15.0972],
        [74.2721, 15.0973],
        [74.2721, 15.0974],
        [74.2721, 15.0975],
        [74.2721, 15.0976],
        [74.2759, 15.1054],
        [74.276, 15.1054],
        [74.276, 15.1055],
        [74.2761, 15.1056],
        [74.2762, 15.1056],
        [74.2821, 15.107],
        [74.2862, 15.1214],
        [74.2825, 15.1304],
        [74.2825, 15.1305],
        [74.2825, 15.1306],
        [74.2846, 15.1484],
        [74.2846, 15.1485],
        [74.2847, 15.1486],
        [74.2848, 15.1487],
        [74.2848, 15.1488],
        [74.2849, 15.1488],
        [74.2954, 15.1519],
        [74.3162, 15.1869],
        [74.3101, 15.1941],
        [74.3101, 15.1942],
        [74.31, 15.1943],
        [74.3044, 15.2158],
        [74.2997, 15.2187],
        [74.2996, 15.2188],
        [74.2995, 15.2189],
        [74.2995, 15.219],
        [74.2994, 15.2191],
        [74.2995, 15.2192],
        [74.3008, 15.2243],
        [74.291, 15.2341],
        [74.2873, 15.2316],
        [74.2872, 15.2316],
        [74.2872, 15.2315],
        [74.2871, 15.2315],
        [74.287, 15.2315],
        [74.2869, 15.2316],
        [74.2595, 15.2403],
        [74.2594, 15.2404],
        [74.2593, 15.2404],
        [74.2592, 15.2405],
        [74.2592, 15.2406],
        [74.2509, 15.2577],
        [74.2509, 15.2578],
        [74.2509, 15.2579],
        [74.2509, 15.258],
        [74.251, 15.2581],
        [74.251, 15.2582],
        [74.2511, 15.2582],
        [74.2511, 15.2583],
        [74.2512, 15.2583],
        [74.2608, 15.2611],
        [74.2722, 15.2822],
        [74.2722, 15.2823],
        [74.2723, 15.2823],
        [74.2724, 15.2824],
        [74.2725, 15.2824],
        [74.2726, 15.2824],
        [74.2727, 15.2824],
        [74.2817, 15.2806],
        [74.2934, 15.2849],
        [74.2941, 15.2888],
        [74.2941, 15.2889],
        [74.2941, 15.289],
        [74.2942, 15.2891],
        [74.2943, 15.2891],
        [74.2944, 15.2892],
        [74.2945, 15.2892],
        [74.2946, 15.2892],
        [74.2947, 15.2892],
        [74.3082, 15.2836],
        [74.3259, 15.2841],
        [74.3354, 15.2951],
        [74.3205, 15.3147],
        [74.3204, 15.3148],
        [74.3163, 15.3305],
        [74.3163, 15.3306],
        [74.3163, 15.3307],
        [74.3163, 15.3308],
        [74.3216, 15.3431],
        [74.3158, 15.3621],
        [74.3158, 15.3622],
        [74.3158, 15.3623],
        [74.3158, 15.3624],
        [74.3159, 15.3624],
        [74.3159, 15.3625],
        [74.316, 15.3626],
        [74.3223, 15.3674],
        [74.2988, 15.3816],
        [74.283, 15.3826],
        [74.2829, 15.3826],
        [74.2828, 15.3827],
        [74.2827, 15.3827],
        [74.2762, 15.39],
        [74.2762, 15.3901],
        [74.2761, 15.3901],
        [74.2761, 15.3902],
        [74.2761, 15.3903],
        [74.2782, 15.4051],
        [74.2685, 15.4194],
        [74.2684, 15.4195],
        [74.2684, 15.4196],
        [74.2684, 15.4197],
        [74.2684, 15.4198],
        [74.2772, 15.4405],
        [74.2505, 15.4931],
        [74.2504, 15.4932],
        [74.2504, 15.4933],
        [74.2504, 15.4934],
        [74.2505, 15.4935],
        [74.2539, 15.5027],
        [74.2539, 15.5028],
        [74.254, 15.5028],
        [74.254, 15.5029],
        [74.2541, 15.5029],
        [74.2738, 15.513],
        [74.2781, 15.523],
        [74.2782, 15.5231],
        [74.2782, 15.5232],
        [74.2783, 15.5232],
        [74.2784, 15.5233],
        [74.2785, 15.5233],
        [74.27875, 15.5233],
        [74.27856, 15.52284],
        [74.2742, 15.51272],
        [74.25434, 15.50254],
        [74.2509, 15.49332],
        [74.27774, 15.44054],
        [74.26887, 15.41963],
        [74.27865, 15.40522],
        [74.27656, 15.39027],
        [74.28307, 15.38304],
        [74.29895, 15.38201],
        [74.3231, 15.36746],
        [74.31626, 15.36223],
        [74.32214, 15.34305],
        [74.31673, 15.33061],
        [74.32088, 15.31492],
        [74.336, 15.29511],
        [74.32608, 15.28366],
        [74.30807, 15.28315],
        [74.29454, 15.28877],
        [74.29378, 15.28457],
        [74.28173, 15.28016],
        [74.2726, 15.28199],
        [74.26113, 15.26073],
        [74.25136, 15.25787],
        [74.25961, 15.24076],
        [74.28704, 15.23198],
        [74.29106, 15.2347],
        [74.30135, 15.22445],
        [74.29991, 15.21912],
        [74.30484, 15.21607],
        [74.3105, 15.1944],
        [74.31674, 15.18695],
        [74.2957, 15.15148],
        [74.28506, 15.14836],
        [74.28298, 15.13056],
        [74.2867, 15.12138],
        [74.28243, 15.10661],
        [74.27635, 15.10518],
        [74.27257, 15.09743],
        [74.27898, 15.09536],
        [74.28054, 15.06906],
        [74.2899, 15.06474],
        [74.29545, 15.04556],
        [74.30299, 15.05145],
        [74.30881, 15.04722],
        [74.31934, 15.03996],
        [74.3165, 15.03524],
        [74.31941, 15.02561]
      ]
    ]
  }
}
