{
  "type": "Feature",
  "id": "CG-AC-18",
  "properties": {
    "stateName": "CHHATTISGARH",
    "stateCode": "CG",
    "districtName": "RAIGARH",
    "acNo": 18,
    "acName": "Kharsia",
    "seatType": null,
    "pcNo": 2,
    "pcName": "RAIGARH (ST)",
    "quality": "unverified",
    "sources": [
      "TBD"
    ]
  },
  "geometry": {
    "type": "Polygon",
    "coordinates": [
      [
        [83.07164, 22.1809],
        [83.08767, 22.17724],
        [83.08997, 22.161],
        [83.10848, 22.13711],
        [83.11615, 22.11796],
        [83.10777, 22.10676],
        [83.11232, 22.08796],
        [83.13659, 22.06396],
        [83.15901, 22.08214],
        [83.17302, 22.08021],
        [83.18571, 22.07184],
        [83.20234, 22.08371],
        [83.21223, 22.07204],
        [83.2262, 22.08598],
        [83.23472, 22.07636],
        [83.253, 22.08433],
        [83.25199, 22.0683],
        [83.25616, 22.06358],
        [83.27082, 22.0548],
        [83.29056, 22.02291],
        [83.29029, 22.01568],
        [83.26635, 22.01921],
        [83.23852, 22.03057],
        [83.22335, 22.02583],
        [83.22513, 22.01833],
        [83.27187, 22.00825],
        [83.28411, 22.00161],
        [83.29103, 22.00295],
        [83.31229, 21.98771],
        [83.32332, 22.00169],
        [83.3368, 22.00304],
        [83.37138, 21.96837],
        [83.39037, 21.95939],
        [83.405, 21.93363],
        [83.40231, 21.92602],
        [83.40816, 21.92321],
        [83.41627, 21.89941],
        [83.39219, 21.91388],
        [83.37795, 21.91341],
        [83.33874, 21.9247],
        [83.33399, 21.91618],
        [83.3348, 21.89236],
        [83.35004, 21.8993],
        [83.36178, 21.89624],
        [83.3651, 21.87689],
        [83.37093, 21.87285],
        [83.35471, 21.86644],
        [83.36423, 21.85494],
        [83.35958, 21.84838],
        [83.34089, 21.85961],
        [83.33835, 21.86708],
        [83.32434, 21.85201],
        [83.33243, 21.84562],
        [83.32651, 21.8317],
        [83.32821, 21.81953],
        [83.31519, 21.80795],
        [83.3321, 21.80118],
        [83.32266, 21.78966],
        [83.33346, 21.77383],
        [83.32255, 21.75982],
        [83.31454, 21.76153],
        [83.30358, 21.7563],
        [83.30742, 21.75266],
        [83.30551, 21.73001],
        [83.31496, 21.73589],
        [83.32553, 21.72954],
        [83.32252, 21.72471],
        [83.32614, 21.70504],
        [83.31443, 21.70368],
        [83.31361, 21.69804],
        [83.30874, 21.7053],
        [83.28117, 21.70821],
        [83.26442, 21.71472],
        [83.26436, 21.72517],
        [83.25733, 21.72864],
        [83.26674, 21.73573],
        [83.26614, 21.7409],
        [83.25848, 21.75051],
        [83.24595, 21.75262],
        [83.23647, 21.77324],
        [83.23706, 21.79002],
        [83.2216, 21.79327],
        [83.21952, 21.80271],
        [83.20637, 21.81156],
        [83.20609, 21.82204],
        [83.22075, 21.83517],
        [83.21341, 21.84116],
        [83.182, 21.8458],
        [83.17907, 21.85046],
        [83.18436, 21.86065],
        [83.20283, 21.86775],
        [83.20449, 21.88152],
        [83.2152, 21.88348],
        [83.21494, 21.90647],
        [83.20101, 21.91406],
        [83.19972, 21.92029],
        [83.18137, 21.92663],
        [83.17252, 21.917],
        [83.15921, 21.92017],
        [83.14683, 21.91573],
        [83.13539, 21.9303],
        [83.11744, 21.93148],
        [83.09179, 21.97497],
        [83.06277, 21.97659],
        [83.06009, 21.96983],
        [83.05073, 21.96654],
        [83.04061, 21.96787],
        [83.03361, 21.96375],
        [83.01876, 21.97012],
        [83.00512, 21.96469],
        [82.99928, 21.97991],
        [82.99565, 21.98387],
        [82.99703, 21.98875],
        [83.01166, 21.98665],
        [83.01466, 21.99336],
        [83.02045, 21.99467],
        [83.02014, 22.00591],
        [83.01251, 22.01081],
        [83.01813, 22.02107],
        [83.00516, 22.02801],
        [83.02392, 22.04256],
        [83.02196, 22.04544],
        [83.03115, 22.05066],
        [83.03322, 22.05699],
        [83.02873, 22.06112],
        [83.0149, 22.05463],
        [83.01444, 22.07719],
        [82.96844, 22.09932],
        [82.93716, 22.12213],
        [82.94426, 22.14702],
        [82.96066, 22.14363],
        [82.96282, 22.1566],
        [82.97005, 22.16513],
        [82.99024, 22.16346],
        [83.01395, 22.16985],
        [83.03028, 22.16887],
        [83.03841, 22.18815],
        [83.05062, 22.19417],
        [83.0485, 22.20264],
        [83.06014, 22.19704],
        [83.07164, 22.1809]
      ]
    ]
  }
}
