{
  "type": "Feature",
  "id": "CG-AC-24",
  "properties": {
    "stateName": "CHHATTISGARH",
    "stateCode": "CG",
    "districtName": "BILASPUR",
    "acNo": 24,
    "acName": "Marwahi (ST)",
    "seatType": null,
    "pcNo": 4,
    "pcName": "KORBA",
    "quality": "unverified",
    "sources": [
      "TBD"
    ]
  },
  "geometry": {
    "type": "Polygon",
    "coordinates": [
      [
        [81.7943, 22.7665],
        [81.7943, 22.76651],
        [81.7943, 22.76651],
        [81.79305, 22.76796],
        [81.7835, 22.7792],
        [81.782, 22.8106],
        [81.7696, 22.8276],
        [81.7616, 22.8301],
        [81.77311, 22.84663],
        [81.77311, 22.84663],
        [81.77648, 22.85147],
        [81.77648, 22.85147],
        [81.7765, 22.8515],
        [81.77623, 22.85927],
        [81.7757, 22.8742],
        [81.817, 22.8821],
        [81.8335, 22.8807],
        [81.842, 22.8876],
        [81.85916, 22.88891],
        [81.86158, 22.8891],
        [81.8616, 22.8891],
        [81.8694, 22.8943],
        [81.86761, 22.90588],
        [81.86757, 22.90613],
        [81.8661, 22.91567],
        [81.8661, 22.9157],
        [81.8782, 22.9096],
        [81.89292, 22.92287],
        [81.9196, 22.9469],
        [81.9463, 22.9568],
        [81.94853, 22.97093],
        [81.9504, 22.9828],
        [81.9446, 22.989],
        [81.9366, 23.0176],
        [81.93, 23.0211],
        [81.932, 23.0261],
        [81.925, 23.031],
        [81.92313, 23.03966],
        [81.9226, 23.0421],
        [81.9295, 23.0498],
        [81.9295, 23.04983],
        [81.92951, 23.04984],
        [81.92964, 23.05149],
        [81.9305, 23.0615],
        [81.9436, 23.064],
        [81.946, 23.0746],
        [81.9429, 23.0784],
        [81.94925, 23.07702],
        [81.9622, 23.0742],
        [81.9684, 23.0804],
        [81.9817, 23.08],
        [81.98613, 23.08269],
        [81.9914, 23.0859],
        [82.0077, 23.0793],
        [82.01859, 23.0842],
        [82.0186, 23.0842],
        [82.02247, 23.07963],
        [82.0225, 23.0796],
        [82.03293, 23.08055],
        [82.0357, 23.0808],
        [82.0357, 23.0808],
        [82.03671, 23.08217],
        [82.0549, 23.1069],
        [82.0715, 23.1181],
        [82.0935, 23.1088],
        [82.09353, 23.1088],
        [82.09353, 23.1088],
        [82.0939, 23.10881],
        [82.11, 23.1092],
        [82.1215, 23.1041],
        [82.1224, 23.1039],
        [82.12241, 23.10391],
        [82.14801, 23.07809],
        [82.15884, 23.05468],
        [82.16625, 23.04644],
        [82.17512, 23.04498],
        [82.18026, 23.03506],
        [82.18494, 23.01464],
        [82.18067, 22.99572],
        [82.17361, 22.98855],
        [82.17709, 22.97011],
        [82.19913, 22.95139],
        [82.21574, 22.94494],
        [82.20816, 22.92573],
        [82.19339, 22.91734],
        [82.19231, 22.90998],
        [82.17836, 22.90023],
        [82.17284, 22.88956],
        [82.15857, 22.88478],
        [82.15264, 22.86437],
        [82.14116, 22.86267],
        [82.13408, 22.8529],
        [82.13891, 22.84196],
        [82.15528, 22.83808],
        [82.15227, 22.81595],
        [82.15887, 22.81484],
        [82.15903, 22.78776],
        [82.15567, 22.78649],
        [82.15587, 22.76392],
        [82.14871, 22.74142],
        [82.16624, 22.72444],
        [82.16656, 22.69658],
        [82.17223, 22.69352],
        [82.17317, 22.6662],
        [82.18777, 22.67022],
        [82.20212, 22.66662],
        [82.20197, 22.66056],
        [82.22323, 22.66105],
        [82.23945, 22.65406],
        [82.2383, 22.61017],
        [82.23326, 22.59131],
        [82.20753, 22.596],
        [82.18103, 22.56014],
        [82.16644, 22.55551],
        [82.16735, 22.5478],
        [82.15636, 22.54419],
        [82.1488, 22.58797],
        [82.13195, 22.61308],
        [82.08325, 22.62091],
        [82.07647, 22.61456],
        [82.07251, 22.58657],
        [82.06689, 22.58531],
        [81.99623, 22.59588],
        [81.976, 22.60695],
        [81.99075, 22.61457],
        [82.00705, 22.63073],
        [81.99635, 22.63755],
        [81.99251, 22.64943],
        [81.98021, 22.65685],
        [81.98937, 22.68321],
        [81.97754, 22.68677],
        [81.97474, 22.68005],
        [81.95514, 22.68177],
        [81.9628, 22.69237],
        [81.96613, 22.7223],
        [81.95414, 22.73122],
        [81.94174, 22.76207],
        [81.93279, 22.76602],
        [81.93585, 22.77227],
        [81.94713, 22.77581],
        [81.94623, 22.7794],
        [81.93907, 22.78981],
        [81.92619, 22.7873],
        [81.91136, 22.78979],
        [81.88958, 22.75042],
        [81.76911, 22.74182],
        [81.76944, 22.74254],
        [81.7731, 22.7505],
        [81.7801, 22.7512],
        [81.7943, 22.7665]
      ]
    ]
  }
}
