{
  "type": "Feature",
  "id": "CG-AC-34",
  "properties": {
    "stateName": "CHHATTISGARH",
    "stateCode": "CG",
    "districtName": "JANJGIR - CHAMPA",
    "acNo": 34,
    "acName": "Janjgir-Champa",
    "seatType": null,
    "pcNo": 3,
    "pcName": "JANJGIR-CHAMPA (SC",
    "quality": "unverified",
    "sources": [
      "TBD"
    ]
  },
  "geometry": {
    "type": "Polygon",
    "coordinates": [
      [
        [82.64207, 22.04436],
        [82.65042, 22.03844],
        [82.66863, 22.04274],
        [82.67429, 22.03472],
        [82.67576, 22.00927],
        [82.65768, 22.00057],
        [82.65562, 21.9944],
        [82.66723, 21.98103],
        [82.68815, 21.93958],
        [82.69762, 21.93125],
        [82.71379, 21.89386],
        [82.71719, 21.83225],
        [82.72381, 21.82142],
        [82.7197, 21.8153],
        [82.699, 21.80766],
        [82.68074, 21.81022],
        [82.68134, 21.78765],
        [82.65914, 21.78945],
        [82.65698, 21.7976],
        [82.6496, 21.79849],
        [82.63589, 21.78956],
        [82.62384, 21.79046],
        [82.62727, 21.80163],
        [82.62184, 21.80295],
        [82.60864, 21.82059],
        [82.60098, 21.81968],
        [82.5878, 21.82788],
        [82.58385, 21.84187],
        [82.58912, 21.85129],
        [82.58644, 21.86069],
        [82.55064, 21.86918],
        [82.5492, 21.8846],
        [82.52502, 21.89167],
        [82.51323, 21.91477],
        [82.51952, 21.95851],
        [82.51411, 21.99821],
        [82.52144, 22.01007],
        [82.51054, 22.01278],
        [82.50207, 22.00768],
        [82.51364, 22.0424],
        [82.51089, 22.05333],
        [82.52404, 22.06757],
        [82.53922, 22.06767],
        [82.54779, 22.06259],
        [82.59722, 22.07868],
        [82.61331, 22.06675],
        [82.62543, 22.06552],
        [82.63117, 22.04264],
        [82.64207, 22.04436]
      ]
    ]
  }
}
