{
  "type": "Feature",
  "id": "CG-AC-39",
  "properties": {
    "stateName": "CHHATTISGARH",
    "stateCode": "CG",
    "districtName": "MAHASAMUND",
    "acNo": 39,
    "acName": "Saraipali (SC)",
    "seatType": null,
    "pcNo": 9,
    "pcName": "MAHASAMUND",
    "quality": "unverified",
    "sources": [
      "TBD"
    ]
  },
  "geometry": {
    "type": "Polygon",
    "coordinates": [
      [
        [83.1126, 21.1128],
        [83.0779, 21.112],
        [83.07788, 21.11201],
        [83.0524, 21.1262],
        [83.04545, 21.12391],
        [83.0454, 21.1239],
        [83.0339, 21.132],
        [83.03428, 21.13362],
        [83.035, 21.1367],
        [83.03496, 21.1367],
        [83.0233, 21.1366],
        [83.01989, 21.14129],
        [83.0161, 21.1465],
        [83.0043, 21.1368],
        [82.9905, 21.1397],
        [82.986, 21.1512],
        [82.9935, 21.1619],
        [83.0038, 21.1668],
        [83.00227, 21.16906],
        [83.0013, 21.1705],
        [82.9805, 21.1702],
        [82.98849, 21.18279],
        [82.9885, 21.1828],
        [82.9755, 21.1822],
        [82.9656, 21.1755],
        [82.9651, 21.1933],
        [82.963, 21.19178],
        [82.94415, 21.17814],
        [82.9441, 21.1781],
        [82.948, 21.162],
        [82.9401, 21.161],
        [82.9377, 21.1699],
        [82.9329, 21.1631],
        [82.92137, 21.16239],
        [82.9151, 21.162],
        [82.9027, 21.1672],
        [82.89998, 21.16463],
        [82.89727, 21.16211],
        [82.89436, 21.16744],
        [82.89843, 21.16961],
        [82.89051, 21.18845],
        [82.8775, 21.20364],
        [82.89349, 21.21015],
        [82.89591, 21.2257],
        [82.91419, 21.23456],
        [82.91669, 21.24742],
        [82.93718, 21.24432],
        [82.9332, 21.26137],
        [82.95272, 21.2624],
        [82.949, 21.28105],
        [82.95237, 21.30504],
        [82.9352, 21.30257],
        [82.93298, 21.31739],
        [82.92116, 21.31602],
        [82.92468, 21.33333],
        [82.9136, 21.32848],
        [82.91364, 21.33877],
        [82.8884, 21.3416],
        [82.87604, 21.34766],
        [82.86816, 21.36011],
        [82.86263, 21.38391],
        [82.87492, 21.40837],
        [82.85918, 21.41288],
        [82.84042, 21.39895],
        [82.83731, 21.4157],
        [82.84549, 21.42287],
        [82.84228, 21.4318],
        [82.8333, 21.44218],
        [82.82773, 21.44161],
        [82.82122, 21.4578],
        [82.8122, 21.45698],
        [82.81273, 21.46795],
        [82.79809, 21.46478],
        [82.79776, 21.51014],
        [82.82516, 21.50452],
        [82.82917, 21.51452],
        [82.82067, 21.53144],
        [82.82812, 21.5286],
        [82.83554, 21.54115],
        [82.87584, 21.55652],
        [82.89704, 21.53566],
        [82.92192, 21.48989],
        [82.93441, 21.49583],
        [82.94504, 21.49232],
        [82.95451, 21.49642],
        [82.96271, 21.48777],
        [82.96555, 21.47154],
        [82.97771, 21.47804],
        [82.98682, 21.46603],
        [82.99847, 21.45981],
        [83.00538, 21.46046],
        [83.01466, 21.47175],
        [83.01563, 21.49018],
        [83.04597, 21.48261],
        [83.05423, 21.46144],
        [83.05097, 21.44497],
        [83.05919, 21.43625],
        [83.08762, 21.43379],
        [83.09464, 21.4284],
        [83.10778, 21.42892],
        [83.12267, 21.42271],
        [83.12361, 21.41532],
        [83.11758, 21.41669],
        [83.11421, 21.41177],
        [83.11893, 21.40228],
        [83.13012, 21.39823],
        [83.13099, 21.37922],
        [83.14312, 21.36305],
        [83.15081, 21.36632],
        [83.15344, 21.3759],
        [83.17351, 21.38969],
        [83.17971, 21.40232],
        [83.18927, 21.3959],
        [83.18829, 21.38194],
        [83.20136, 21.39966],
        [83.21792, 21.39548],
        [83.22193, 21.38311],
        [83.26879, 21.37842],
        [83.26885, 21.37841],
        [83.2688, 21.3784],
        [83.274, 21.3772],
        [83.2744, 21.3636],
        [83.2687, 21.3458],
        [83.26869, 21.34579],
        [83.2581, 21.3367],
        [83.2581, 21.3367],
        [83.25808, 21.33668],
        [83.25788, 21.33572],
        [83.2574, 21.3336],
        [83.25743, 21.33359],
        [83.2664, 21.3308],
        [83.26636, 21.33075],
        [83.26541, 21.32967],
        [83.2572, 21.3203],
        [83.2621, 21.3075],
        [83.27485, 21.30262],
        [83.27614, 21.30212],
        [83.2762, 21.3021],
        [83.27666, 21.29941],
        [83.2784, 21.2892],
        [83.2708, 21.2723],
        [83.2672, 21.2776],
        [83.26389, 21.27847],
        [83.25, 21.2821],
        [83.2363, 21.2695],
        [83.2296, 21.2722],
        [83.222, 21.266],
        [83.2173, 21.2547],
        [83.22019, 21.24006],
        [83.2224, 21.2289],
        [83.22238, 21.22889],
        [83.22015, 21.22834],
        [83.2184, 21.2279],
        [83.2171, 21.2138],
        [83.21596, 21.21226],
        [83.2103, 21.2046],
        [83.2145, 21.1949],
        [83.2114, 21.19023],
        [83.2028, 21.1773],
        [83.2043, 21.1658],
        [83.1983, 21.1636],
        [83.1981, 21.1456],
        [83.1917, 21.1387],
        [83.1769, 21.1356],
        [83.1667, 21.1384],
        [83.1316, 21.1058],
        [83.1126, 21.1128]
      ]
    ]
  }
}
