{
  "type": "Feature",
  "id": "CG-AC-62",
  "properties": {
    "stateName": "CHHATTISGARH",
    "stateCode": "CG",
    "districtName": "DURG",
    "acNo": 62,
    "acName": "Patan",
    "seatType": null,
    "pcNo": 7,
    "pcName": "DURG",
    "quality": "unverified",
    "sources": [
      "TBD"
    ]
  },
  "geometry": {
    "type": "Polygon",
    "coordinates": [
      [
        [81.54251, 21.24753],
        [81.5514, 21.23972],
        [81.56213, 21.24118],
        [81.57469, 21.22267],
        [81.60165, 21.2073],
        [81.60575, 21.19231],
        [81.62534, 21.16138],
        [81.60269, 21.15866],
        [81.60463, 21.14737],
        [81.59361, 21.14201],
        [81.58161, 21.1237],
        [81.57491, 21.08993],
        [81.57728, 21.07404],
        [81.59241, 21.06698],
        [81.60347, 21.06786],
        [81.60796, 21.05949],
        [81.58582, 21.04575],
        [81.61086, 21.02717],
        [81.60712, 21.0177],
        [81.62177, 20.99056],
        [81.60953, 20.98024],
        [81.61333, 20.96598],
        [81.60732, 20.95751],
        [81.59052, 20.9515],
        [81.58909, 20.94057],
        [81.54037, 20.92989],
        [81.5289, 20.91748],
        [81.52398, 20.89713],
        [81.51772, 20.89264],
        [81.49858, 20.89438],
        [81.48584, 20.87069],
        [81.47251, 20.87089],
        [81.47421, 20.86557],
        [81.45889, 20.86115],
        [81.45932, 20.84771],
        [81.44972, 20.84351],
        [81.41844, 20.84414],
        [81.40203, 20.84972],
        [81.39496, 20.87453],
        [81.40111, 20.88159],
        [81.3931, 20.89574],
        [81.40985, 20.89516],
        [81.40607, 20.91923],
        [81.41076, 20.9377],
        [81.43139, 20.95509],
        [81.40891, 20.97102],
        [81.4095, 20.97794],
        [81.42386, 20.98533],
        [81.42512, 20.99349],
        [81.42141, 21.00321],
        [81.40873, 21.00541],
        [81.39869, 21.01459],
        [81.39082, 21.05583],
        [81.38879, 21.07965],
        [81.40237, 21.08998],
        [81.39235, 21.10245],
        [81.40582, 21.12226],
        [81.39876, 21.13405],
        [81.40456, 21.14105],
        [81.39669, 21.15887],
        [81.4015, 21.17646],
        [81.40702, 21.17984],
        [81.39434, 21.21458],
        [81.39108, 21.2343],
        [81.41918, 21.22796],
        [81.43103, 21.23545],
        [81.4439, 21.23115],
        [81.44482, 21.23803],
        [81.47798, 21.22621],
        [81.48108, 21.2317],
        [81.49419, 21.23281],
        [81.49827, 21.245],
        [81.48403, 21.26197],
        [81.5042, 21.27419],
        [81.51127, 21.26813],
        [81.52118, 21.27014],
        [81.52959, 21.28632],
        [81.53755, 21.28788],
        [81.54584, 21.27045],
        [81.54251, 21.24753]
      ]
    ]
  }
}
