{
  "type": "Feature",
  "id": "HR-AC-1",
  "properties": {
    "stateName": "HARYANA",
    "stateCode": "HR",
    "districtName": "PANCHKULA",
    "acNo": 1,
    "acName": "Kalka",
    "seatType": null,
    "pcNo": 1,
    "pcName": "AMBALA (SC)",
    "quality": "unverified",
    "sources": [
      "TBD"
    ]
  },
  "geometry": {
    "type": "Polygon",
    "coordinates": [
      [
        [76.84744, 30.78008],
        [76.8552, 30.78805],
        [76.84877, 30.79],
        [76.85768, 30.79481],
        [76.84481, 30.80637],
        [76.84951, 30.8174],
        [76.84774, 30.83471],
        [76.81487, 30.84292],
        [76.8132, 30.8539],
        [76.78126, 30.87867],
        [76.77414, 30.90707],
        [76.78823, 30.91455],
        [76.79438, 30.91265],
        [76.82322, 30.92939],
        [76.82971, 30.91821],
        [76.82701, 30.91276],
        [76.84189, 30.89064],
        [76.85034, 30.89035],
        [76.87108, 30.87347],
        [76.87791, 30.87687],
        [76.87613, 30.88189],
        [76.92307, 30.90149],
        [76.93611, 30.88255],
        [76.93065, 30.87552],
        [76.93582, 30.87443],
        [76.94456, 30.85357],
        [76.9499, 30.85242],
        [76.94324, 30.84236],
        [76.9599, 30.83384],
        [76.96644, 30.81085],
        [76.98431, 30.81103],
        [76.99103, 30.80515],
        [76.98896, 30.80042],
        [77.00034, 30.81253],
        [77.00892, 30.81364],
        [77.01281, 30.809],
        [77.01622, 30.79576],
        [77.01064, 30.78174],
        [76.99697, 30.7732],
        [77.01615, 30.76737],
        [77.01486, 30.7541],
        [77.01995, 30.74903],
        [77.01784, 30.74329],
        [77.02745, 30.73699],
        [77.04267, 30.73951],
        [77.04137, 30.75006],
        [77.04843, 30.75295],
        [77.05583, 30.74452],
        [77.09453, 30.74035],
        [77.11668, 30.72599],
        [77.1132, 30.71798],
        [77.12533, 30.7203],
        [77.14065, 30.70036],
        [77.16643, 30.68456],
        [77.15872, 30.68128],
        [77.16838, 30.66894],
        [77.16258, 30.65034],
        [77.17671, 30.6344],
        [77.16975, 30.61473],
        [77.17397, 30.59963],
        [77.1631, 30.59435],
        [77.16545, 30.59089],
        [77.16005, 30.58511],
        [77.14837, 30.57697],
        [77.14011, 30.57768],
        [77.13446, 30.56975],
        [77.129, 30.57576],
        [77.10562, 30.58175],
        [77.08881, 30.57359],
        [77.03909, 30.62872],
        [77.03467, 30.63229],
        [77.03005, 30.62799],
        [77.02367, 30.62816],
        [77.0287, 30.66234],
        [77.00772, 30.66875],
        [77.01009, 30.67317],
        [76.98837, 30.67131],
        [76.98255, 30.67775],
        [76.97702, 30.66915],
        [76.96666, 30.66899],
        [76.95846, 30.67788],
        [76.94727, 30.66566],
        [76.96027, 30.70291],
        [76.94436, 30.70604],
        [76.90569, 30.68355],
        [76.88784, 30.68372],
        [76.88667, 30.68636],
        [76.90494, 30.69053],
        [76.9049, 30.69705],
        [76.88017, 30.69746],
        [76.89581, 30.70301],
        [76.89776, 30.70873],
        [76.87769, 30.70916],
        [76.90325, 30.74059],
        [76.89342, 30.7507],
        [76.88086, 30.74648],
        [76.8717, 30.74872],
        [76.84744, 30.78008]
      ]
    ]
  }
}
