{
  "type": "Feature",
  "id": "HR-AC-21",
  "properties": {
    "stateName": "HARYANA",
    "stateCode": "HR",
    "districtName": "KARNAL",
    "acNo": 21,
    "acName": "Karnal",
    "seatType": null,
    "pcNo": 5,
    "pcName": "KARNAL",
    "quality": "unverified",
    "sources": [
      "TBD"
    ]
  },
  "geometry": {
    "type": "Polygon",
    "coordinates": [
      [
        [76.96671, 29.75121],
        [76.98173, 29.73023],
        [76.97746, 29.72308],
        [76.98135, 29.71781],
        [76.98999, 29.71645],
        [76.99187, 29.72089],
        [77.00534, 29.7128],
        [76.99718, 29.6787],
        [77.00289, 29.67369],
        [77.01414, 29.67515],
        [77.01578, 29.68254],
        [77.05194, 29.6655],
        [77.05421, 29.6606],
        [77.05035, 29.65485],
        [77.05306, 29.64924],
        [77.01569, 29.61349],
        [77.00606, 29.62821],
        [76.99773, 29.61535],
        [76.98323, 29.6117],
        [76.97228, 29.61527],
        [76.96484, 29.63196],
        [76.9503, 29.61539],
        [76.93064, 29.62915],
        [76.9224, 29.62748],
        [76.9189, 29.6372],
        [76.90904, 29.64337],
        [76.9107, 29.65795],
        [76.92164, 29.66535],
        [76.91621, 29.66961],
        [76.91003, 29.66631],
        [76.89872, 29.67105],
        [76.90443, 29.67802],
        [76.89896, 29.68962],
        [76.88831, 29.69045],
        [76.90176, 29.70436],
        [76.8905, 29.70336],
        [76.88525, 29.71026],
        [76.86677, 29.71129],
        [76.85918, 29.74916],
        [76.85965, 29.75418],
        [76.87954, 29.75989],
        [76.90031, 29.77571],
        [76.90871, 29.76686],
        [76.90618, 29.75442],
        [76.9123, 29.74468],
        [76.92083, 29.74809],
        [76.93, 29.7395],
        [76.96671, 29.75121]
      ]
    ]
  }
}
