{
  "type": "Feature",
  "id": "HR-AC-24",
  "properties": {
    "stateName": "HARYANA",
    "stateCode": "HR",
    "districtName": "PANIPAT",
    "acNo": 24,
    "acName": "Panipat Rural",
    "seatType": null,
    "pcNo": 5,
    "pcName": "KARNAL",
    "quality": "unverified",
    "sources": [
      "TBD"
    ]
  },
  "geometry": {
    "type": "Polygon",
    "coordinates": [
      [
        [76.85079, 29.47491],
        [76.85436, 29.47492],
        [76.84765, 29.48061],
        [76.85809, 29.4894],
        [76.88088, 29.49192],
        [76.90759, 29.46711],
        [76.91673, 29.48214],
        [76.92795, 29.48142],
        [76.95637, 29.45782],
        [76.96929, 29.45513],
        [76.98399, 29.46345],
        [77.00003, 29.45092],
        [77.00894, 29.44983],
        [77.00941, 29.4456],
        [77.01777, 29.44833],
        [77.02285, 29.44528],
        [77.03746, 29.45185],
        [77.05237, 29.4501],
        [77.06598, 29.43974],
        [77.07497, 29.44419],
        [77.06371, 29.43452],
        [77.05069, 29.43755],
        [77.05269, 29.42464],
        [77.04151, 29.41338],
        [77.04594, 29.39476],
        [77.0429, 29.38736],
        [77.03428, 29.38838],
        [77.03835, 29.37448],
        [77.01035, 29.36467],
        [77.00836, 29.34518],
        [77.01385, 29.32773],
        [76.99308, 29.31318],
        [76.99361, 29.30279],
        [76.98411, 29.28438],
        [76.97481, 29.28259],
        [76.96357, 29.28711],
        [76.94242, 29.28261],
        [76.92788, 29.30401],
        [76.92154, 29.30183],
        [76.91181, 29.33288],
        [76.9055, 29.32901],
        [76.87957, 29.33015],
        [76.86714, 29.30835],
        [76.84394, 29.31202],
        [76.82474, 29.33954],
        [76.82595, 29.34754],
        [76.85768, 29.35462],
        [76.8629, 29.34596],
        [76.90083, 29.35668],
        [76.89867, 29.37422],
        [76.91729, 29.37719],
        [76.9218, 29.38355],
        [76.91294, 29.38856],
        [76.90621, 29.41385],
        [76.89065, 29.4203],
        [76.86384, 29.42016],
        [76.86915, 29.42982],
        [76.84044, 29.43974],
        [76.84172, 29.46876],
        [76.85079, 29.47491]
      ],
      [
        [76.97514, 29.40119],
        [76.97107, 29.40349],
        [76.97281, 29.41297],
        [76.96019, 29.41316],
        [76.95954, 29.39907],
        [76.94942, 29.40227],
        [76.93946, 29.39891],
        [76.94972, 29.37729],
        [76.94122, 29.36192],
        [76.95931, 29.35584],
        [76.97924, 29.35743],
        [76.9772, 29.37625],
        [76.99158, 29.37915],
        [76.99673, 29.38621],
        [76.9716, 29.38726],
        [76.97514, 29.40119]
      ]
    ]
  }
}
