{
  "type": "Feature",
  "id": "HR-AC-26",
  "properties": {
    "stateName": "HARYANA",
    "stateCode": "HR",
    "districtName": "PANIPAT",
    "acNo": 26,
    "acName": "Israna (SC)",
    "seatType": null,
    "pcNo": 5,
    "pcName": "KARNAL",
    "quality": "unverified",
    "sources": [
      "TBD"
    ]
  },
  "geometry": {
    "type": "Polygon",
    "coordinates": [
      [
        [76.76269, 29.46661],
        [76.77531, 29.47433],
        [76.79532, 29.46627],
        [76.80568, 29.48489],
        [76.83244, 29.46735],
        [76.85079, 29.47491],
        [76.84172, 29.46876],
        [76.84044, 29.43974],
        [76.86915, 29.42982],
        [76.86384, 29.42016],
        [76.89065, 29.4203],
        [76.90621, 29.41385],
        [76.91294, 29.38856],
        [76.9218, 29.38355],
        [76.91729, 29.37719],
        [76.89867, 29.37422],
        [76.90083, 29.35668],
        [76.8629, 29.34596],
        [76.85768, 29.35462],
        [76.82595, 29.34754],
        [76.82474, 29.33954],
        [76.84394, 29.31202],
        [76.86714, 29.30835],
        [76.87957, 29.33015],
        [76.9055, 29.32901],
        [76.91181, 29.33288],
        [76.92154, 29.30183],
        [76.92788, 29.30401],
        [76.94242, 29.28261],
        [76.93525, 29.26707],
        [76.94308, 29.25344],
        [76.93184, 29.21351],
        [76.91806, 29.22012],
        [76.89775, 29.21258],
        [76.88695, 29.19482],
        [76.87896, 29.19112],
        [76.85988, 29.19973],
        [76.85511, 29.20574],
        [76.83904, 29.20617],
        [76.81822, 29.21457],
        [76.81023, 29.22224],
        [76.80209, 29.22769],
        [76.79347, 29.25064],
        [76.79617, 29.27228],
        [76.78217, 29.27668],
        [76.77914, 29.28178],
        [76.76968, 29.27977],
        [76.75127, 29.26151],
        [76.72653, 29.25627],
        [76.71789, 29.25046],
        [76.71317, 29.25119],
        [76.71161, 29.25839],
        [76.68153, 29.26925],
        [76.67706, 29.28024],
        [76.6436, 29.28828],
        [76.63706, 29.29803],
        [76.64164, 29.30523],
        [76.63142, 29.31377],
        [76.64709, 29.33407],
        [76.64834, 29.36594],
        [76.65195, 29.37027],
        [76.68554, 29.37754],
        [76.68857, 29.38355],
        [76.70945, 29.38265],
        [76.73466, 29.38894],
        [76.73984, 29.40707],
        [76.73078, 29.41345],
        [76.76269, 29.46661]
      ]
    ]
  }
}
