{
  "type": "Feature",
  "id": "HR-AC-27",
  "properties": {
    "stateName": "HARYANA",
    "stateCode": "HR",
    "districtName": "PANIPAT",
    "acNo": 27,
    "acName": "Samalkha",
    "seatType": null,
    "pcNo": 5,
    "pcName": "KARNAL",
    "quality": "unverified",
    "sources": [
      "TBD"
    ]
  },
  "geometry": {
    "type": "Polygon",
    "coordinates": [
      [
        [77.13526, 29.44711],
        [77.14534, 29.44481],
        [77.14903, 29.4347],
        [77.13326, 29.41846],
        [77.13369, 29.40135],
        [77.14786, 29.38852],
        [77.1533, 29.39126],
        [77.15798, 29.38665],
        [77.14251, 29.37681],
        [77.12787, 29.37426],
        [77.12413, 29.36756],
        [77.12949, 29.35632],
        [77.12563, 29.35118],
        [77.13186, 29.34089],
        [77.15189, 29.34099],
        [77.16046, 29.33619],
        [77.15664, 29.31924],
        [77.16079, 29.31215],
        [77.15243, 29.29755],
        [77.13938, 29.26804],
        [77.14971, 29.25156],
        [77.15005, 29.233],
        [77.13347, 29.22351],
        [77.1315, 29.2175],
        [77.14233, 29.20354],
        [77.14021, 29.19215],
        [77.14716, 29.18049],
        [77.14336, 29.16724],
        [77.11221, 29.16896],
        [77.09702, 29.16179],
        [77.07893, 29.17932],
        [77.05946, 29.17272],
        [77.05152, 29.17601],
        [77.05, 29.18409],
        [77.0291, 29.17738],
        [77.00575, 29.18906],
        [76.99882, 29.18461],
        [76.99049, 29.19029],
        [76.97423, 29.18996],
        [76.96258, 29.19379],
        [76.96615, 29.19706],
        [76.95836, 29.20509],
        [76.93184, 29.21351],
        [76.94308, 29.25344],
        [76.93525, 29.26707],
        [76.94242, 29.28261],
        [76.96357, 29.28711],
        [76.97481, 29.28259],
        [76.98411, 29.28438],
        [76.99361, 29.30279],
        [76.99308, 29.31318],
        [77.01385, 29.32773],
        [77.00836, 29.34518],
        [77.01035, 29.36467],
        [77.03835, 29.37448],
        [77.03428, 29.38838],
        [77.0429, 29.38736],
        [77.04594, 29.39476],
        [77.04151, 29.41338],
        [77.05269, 29.42464],
        [77.05069, 29.43755],
        [77.06371, 29.43452],
        [77.07497, 29.44419],
        [77.08652, 29.45781],
        [77.11903, 29.47091],
        [77.13109, 29.48621],
        [77.13365, 29.47956],
        [77.1229, 29.46964],
        [77.12277, 29.4595],
        [77.13526, 29.44711]
      ]
    ]
  }
}
