{
  "type": "Feature",
  "id": "HR-AC-3",
  "properties": {
    "stateName": "HARYANA",
    "stateCode": "HR",
    "districtName": "AMBALA",
    "acNo": 3,
    "acName": "Naraingarh",
    "seatType": null,
    "pcNo": 1,
    "pcName": "AMBALA (SC)",
    "quality": "unverified",
    "sources": [
      "TBD"
    ]
  },
  "geometry": {
    "type": "Polygon",
    "coordinates": [
      [
        [77.0137, 30.60297],
        [77.03303, 30.61289],
        [77.03005, 30.62799],
        [77.03467, 30.63229],
        [77.03909, 30.62872],
        [77.08881, 30.57359],
        [77.10562, 30.58175],
        [77.129, 30.57576],
        [77.13446, 30.56975],
        [77.12105, 30.5628],
        [77.13606, 30.54263],
        [77.14714, 30.53551],
        [77.16423, 30.53444],
        [77.1942, 30.52378],
        [77.2119, 30.49772],
        [77.20091, 30.47848],
        [77.19335, 30.48043],
        [77.17889, 30.45905],
        [77.17244, 30.45733],
        [77.17234, 30.44265],
        [77.16789, 30.44145],
        [77.17316, 30.42601],
        [77.16911, 30.42157],
        [77.17637, 30.40435],
        [77.18565, 30.39665],
        [77.18251, 30.38462],
        [77.18633, 30.38258],
        [77.18012, 30.37532],
        [77.1797, 30.36339],
        [77.17139, 30.36878],
        [77.16071, 30.36073],
        [77.16092, 30.35558],
        [77.14974, 30.35123],
        [77.13145, 30.35607],
        [77.12713, 30.35233],
        [77.13123, 30.34506],
        [77.12307, 30.34401],
        [77.1262, 30.33678],
        [77.11224, 30.33892],
        [77.09118, 30.32437],
        [77.08651, 30.33815],
        [77.06937, 30.34906],
        [77.06415, 30.3425],
        [77.05422, 30.34231],
        [77.04031, 30.33321],
        [77.02525, 30.34967],
        [77.01086, 30.35252],
        [77.0068, 30.36016],
        [76.995, 30.35251],
        [76.97333, 30.36568],
        [76.96552, 30.35295],
        [76.95498, 30.35032],
        [76.95288, 30.33907],
        [76.93276, 30.31994],
        [76.93233, 30.30782],
        [76.92198, 30.30757],
        [76.90711, 30.29654],
        [76.88829, 30.30891],
        [76.87975, 30.32595],
        [76.89747, 30.34314],
        [76.8994, 30.36004],
        [76.91666, 30.36401],
        [76.94172, 30.39373],
        [76.93283, 30.40168],
        [76.91211, 30.40053],
        [76.91894, 30.40678],
        [76.91357, 30.42236],
        [76.9171, 30.42702],
        [76.89747, 30.43793],
        [76.90533, 30.44396],
        [76.89876, 30.44879],
        [76.91385, 30.46859],
        [76.89817, 30.48536],
        [76.91102, 30.49419],
        [76.91916, 30.48931],
        [76.9316, 30.501],
        [76.92864, 30.50728],
        [76.9325, 30.52263],
        [76.92793, 30.5241],
        [76.9496, 30.54397],
        [76.96661, 30.57095],
        [76.98704, 30.5789],
        [77.00376, 30.56735],
        [77.0295, 30.58095],
        [77.0302, 30.58935],
        [77.0137, 30.60297]
      ]
    ]
  }
}
