{
  "type": "Feature",
  "id": "HR-AC-51",
  "properties": {
    "stateName": "HARYANA",
    "stateCode": "HR",
    "districtName": "HISAR",
    "acNo": 51,
    "acName": "Barwala",
    "seatType": null,
    "pcNo": 4,
    "pcName": "HISAR",
    "quality": "unverified",
    "sources": [
      "TBD"
    ]
  },
  "geometry": {
    "type": "Polygon",
    "coordinates": [
      [
        [75.92462, 29.31368],
        [75.91145, 29.30009],
        [75.90975, 29.28274],
        [75.90083, 29.26918],
        [75.865, 29.25821],
        [75.85069, 29.22399],
        [75.87179, 29.21942],
        [75.88675, 29.20974],
        [75.89294, 29.20152],
        [75.89003, 29.19662],
        [75.8988, 29.18785],
        [75.89659, 29.16448],
        [75.89114, 29.1622],
        [75.89854, 29.15898],
        [75.90623, 29.14432],
        [75.904, 29.12008],
        [75.86583, 29.08953],
        [75.87481, 29.07818],
        [75.87142, 29.0646],
        [75.83483, 29.05689],
        [75.82693, 29.06114],
        [75.78688, 29.06102],
        [75.78446, 29.06767],
        [75.75518, 29.08996],
        [75.73915, 29.08135],
        [75.73892, 29.06397],
        [75.73576, 29.06559],
        [75.71436, 29.09304],
        [75.73613, 29.09722],
        [75.74673, 29.10783],
        [75.74831, 29.1042],
        [75.7576, 29.10482],
        [75.7578, 29.1129],
        [75.78347, 29.12715],
        [75.78028, 29.13682],
        [75.78549, 29.16081],
        [75.79538, 29.17116],
        [75.78028, 29.18882],
        [75.76628, 29.1894],
        [75.7739, 29.21528],
        [75.74982, 29.21263],
        [75.74846, 29.21571],
        [75.74983, 29.27487],
        [75.75605, 29.28296],
        [75.77204, 29.28807],
        [75.7633, 29.30175],
        [75.77894, 29.31085],
        [75.79491, 29.34199],
        [75.81596, 29.34946],
        [75.8253, 29.36135],
        [75.84235, 29.36986],
        [75.85772, 29.36296],
        [75.89878, 29.37795],
        [75.91079, 29.3776],
        [75.91948, 29.36985],
        [75.93702, 29.3697],
        [75.94978, 29.35097],
        [75.92462, 29.31368]
      ]
    ]
  }
}
