{
  "type": "Feature",
  "id": "HR-AC-56",
  "properties": {
    "stateName": "HARYANA",
    "stateCode": "HR",
    "districtName": "BHIWANI",
    "acNo": 56,
    "acName": "Dadri",
    "seatType": null,
    "pcNo": 8,
    "pcName": "BHIWANI-MAHENDRAGARH",
    "quality": "unverified",
    "sources": [
      "TBD"
    ]
  },
  "geometry": {
    "type": "Polygon",
    "coordinates": [
      [
        [76.29487, 28.78125],
        [76.34177, 28.7673],
        [76.38433, 28.78273],
        [76.38642, 28.7704],
        [76.40588, 28.75581],
        [76.39965, 28.73357],
        [76.38984, 28.72802],
        [76.37927, 28.70455],
        [76.40627, 28.68259],
        [76.40158, 28.66639],
        [76.4364, 28.66547],
        [76.44954, 28.66073],
        [76.44765, 28.64425],
        [76.43847, 28.64144],
        [76.4645, 28.61543],
        [76.44807, 28.59834],
        [76.43468, 28.60258],
        [76.4282, 28.59114],
        [76.42131, 28.55125],
        [76.40985, 28.54876],
        [76.40383, 28.55125],
        [76.40248, 28.59532],
        [76.36961, 28.60149],
        [76.35999, 28.60713],
        [76.35728, 28.6167],
        [76.34605, 28.60198],
        [76.34292, 28.57981],
        [76.3347, 28.58228],
        [76.3426, 28.55931],
        [76.32688, 28.49579],
        [76.31876, 28.49258],
        [76.31113, 28.49828],
        [76.29123, 28.49846],
        [76.28235, 28.47823],
        [76.28528, 28.47543],
        [76.25676, 28.47838],
        [76.25424, 28.48373],
        [76.26309, 28.50794],
        [76.25081, 28.50731],
        [76.25227, 28.51131],
        [76.24272, 28.51445],
        [76.24508, 28.5198],
        [76.24029, 28.52805],
        [76.19869, 28.54677],
        [76.19185, 28.574],
        [76.18625, 28.57815],
        [76.17313, 28.57758],
        [76.15625, 28.56899],
        [76.14331, 28.57023],
        [76.13546, 28.58768],
        [76.12778, 28.5882],
        [76.12448, 28.59525],
        [76.11017, 28.59794],
        [76.10457, 28.6098],
        [76.09705, 28.61434],
        [76.07704, 28.61323],
        [76.08394, 28.63021],
        [76.06475, 28.62881],
        [76.05561, 28.63067],
        [76.07565, 28.645],
        [76.087, 28.64459],
        [76.09352, 28.65634],
        [76.10127, 28.65538],
        [76.10759, 28.64248],
        [76.1266, 28.64278],
        [76.12545, 28.65748],
        [76.12992, 28.65683],
        [76.13081, 28.66422],
        [76.1258, 28.67097],
        [76.1305, 28.67821],
        [76.16928, 28.65889],
        [76.17207, 28.66164],
        [76.18466, 28.65643],
        [76.18882, 28.65079],
        [76.20001, 28.66265],
        [76.22639, 28.6534],
        [76.23129, 28.65751],
        [76.23346, 28.67222],
        [76.24461, 28.67466],
        [76.23823, 28.6894],
        [76.24838, 28.68464],
        [76.24708, 28.6936],
        [76.26546, 28.719],
        [76.26882, 28.70764],
        [76.27943, 28.72925],
        [76.28073, 28.75055],
        [76.29099, 28.76061],
        [76.30119, 28.76326],
        [76.29487, 28.78125]
      ]
    ]
  }
}
