{
  "type": "Feature",
  "id": "KL-AC-119",
  "properties": {
    "stateName": "KERALA",
    "stateCode": "KL",
    "districtName": "KOLLAM",
    "acNo": 119,
    "acName": "Kottarakkara",
    "seatType": null,
    "pcNo": 16,
    "pcName": "MAVELIKKARA (SC)",
    "quality": "unverified",
    "sources": [
      "TBD"
    ]
  },
  "geometry": {
    "type": "Polygon",
    "coordinates": [
      [
        [76.73517, 9.08292],
        [76.74018, 9.0877],
        [76.74903, 9.08299],
        [76.75479, 9.08874],
        [76.75825, 9.07288],
        [76.7711, 9.07516],
        [76.77204, 9.06818],
        [76.78045, 9.06079],
        [76.78653, 9.06244],
        [76.79904, 9.05573],
        [76.8066, 9.05841],
        [76.8059, 9.04412],
        [76.80009, 9.03874],
        [76.80466, 9.03706],
        [76.80582, 9.02789],
        [76.79757, 9.02364],
        [76.80186, 9.01656],
        [76.79473, 9.00957],
        [76.8012, 9.00624],
        [76.80687, 9.0084],
        [76.78952, 8.99972],
        [76.78793, 8.99211],
        [76.79483, 8.98503],
        [76.79195, 8.97517],
        [76.80274, 8.97766],
        [76.80341, 8.97046],
        [76.81683, 8.96081],
        [76.83128, 8.96865],
        [76.84348, 8.95898],
        [76.8551, 8.93152],
        [76.85611, 8.90317],
        [76.83878, 8.90977],
        [76.83419, 8.92345],
        [76.8092, 8.93779],
        [76.80061, 8.93283],
        [76.79908, 8.92708],
        [76.79174, 8.92942],
        [76.79439, 8.91825],
        [76.7875, 8.91469],
        [76.78713, 8.906],
        [76.7711, 8.90819],
        [76.75852, 8.91685],
        [76.73941, 8.91197],
        [76.73721, 8.91429],
        [76.7411, 8.91703],
        [76.72987, 8.90914],
        [76.72754, 8.92105],
        [76.7073, 8.93668],
        [76.70335, 8.94279],
        [76.70474, 8.95029],
        [76.69738, 8.95224],
        [76.69379, 8.97011],
        [76.70663, 8.98004],
        [76.70602, 8.98546],
        [76.69557, 8.98694],
        [76.68425, 8.99699],
        [76.70739, 9.00687],
        [76.72816, 9.00637],
        [76.7077, 9.01881],
        [76.7062, 9.02596],
        [76.69796, 9.03285],
        [76.70102, 9.0538],
        [76.70871, 9.05985],
        [76.71247, 9.05838],
        [76.71637, 9.06622],
        [76.72404, 9.06561],
        [76.71247, 9.08417],
        [76.71136, 9.0864],
        [76.73517, 9.08292]
      ]
    ]
  }
}
