{
  "type": "Feature",
  "id": "KL-AC-122",
  "properties": {
    "stateName": "KERALA",
    "stateCode": "KL",
    "districtName": "KOLLAM",
    "acNo": 122,
    "acName": "Chadayamangalam",
    "seatType": null,
    "pcNo": 18,
    "pcName": "KOLLAM",
    "quality": "unverified",
    "sources": [
      "TBD"
    ]
  },
  "geometry": {
    "type": "Polygon",
    "coordinates": [
      [
        [76.83878, 8.90977],
        [76.85611, 8.90317],
        [76.84603, 8.88755],
        [76.8657, 8.87848],
        [76.8629, 8.88982],
        [76.86542, 8.88824],
        [76.87355, 8.89762],
        [76.87017, 8.90382],
        [76.87857, 8.90997],
        [76.8811, 8.90691],
        [76.91463, 8.91207],
        [76.91758, 8.91701],
        [76.91266, 8.91881],
        [76.91259, 8.92838],
        [76.92916, 8.92955],
        [76.93382, 8.91555],
        [76.93958, 8.91603],
        [76.93884, 8.90619],
        [76.94436, 8.90747],
        [76.9445, 8.90212],
        [76.9555, 8.91337],
        [76.95215, 8.92339],
        [76.95518, 8.92768],
        [76.97898, 8.91575],
        [76.98308, 8.91695],
        [76.98179, 8.92206],
        [76.98839, 8.92086],
        [77.00377, 8.88394],
        [77.01885, 8.87235],
        [77.04839, 8.86031],
        [77.04785, 8.84641],
        [77.03249, 8.84293],
        [77.01982, 8.82824],
        [77.02097, 8.81714],
        [77.00878, 8.81325],
        [77.01113, 8.79593],
        [77.02487, 8.77557],
        [77.00309, 8.77133],
        [76.99363, 8.78672],
        [76.97983, 8.78967],
        [76.97267, 8.77542],
        [76.96357, 8.77129],
        [76.94667, 8.77138],
        [76.93331, 8.76176],
        [76.91535, 8.77691],
        [76.91518, 8.78196],
        [76.92129, 8.78656],
        [76.90018, 8.81152],
        [76.8903, 8.81154],
        [76.88287, 8.80577],
        [76.85288, 8.81775],
        [76.84564, 8.82812],
        [76.8481, 8.83466],
        [76.83261, 8.84363],
        [76.82489, 8.84373],
        [76.8164, 8.8597],
        [76.81153, 8.85493],
        [76.80683, 8.8574],
        [76.80145, 8.84873],
        [76.79457, 8.85661],
        [76.78958, 8.8534],
        [76.78323, 8.86244],
        [76.7809, 8.86047],
        [76.76647, 8.85472],
        [76.76398, 8.85878],
        [76.78191, 8.8914],
        [76.78893, 8.89694],
        [76.78713, 8.906],
        [76.7875, 8.91469],
        [76.79439, 8.91825],
        [76.79174, 8.92942],
        [76.79908, 8.92708],
        [76.80061, 8.93283],
        [76.8092, 8.93779],
        [76.83419, 8.92345],
        [76.83878, 8.90977]
      ]
    ]
  }
}
