{
  "type": "Feature",
  "id": "KL-AC-124",
  "properties": {
    "stateName": "KERALA",
    "stateCode": "KL",
    "districtName": "KOLLAM",
    "acNo": 124,
    "acName": "Kollam",
    "seatType": null,
    "pcNo": 18,
    "pcName": "KOLLAM",
    "quality": "unverified",
    "sources": [
      "TBD"
    ]
  },
  "geometry": {
    "type": "Polygon",
    "coordinates": [
      [
        [76.63313, 8.94079],
        [76.62762, 8.9379],
        [76.63914, 8.92815],
        [76.63207, 8.91524],
        [76.62124, 8.90373],
        [76.59341, 8.88695],
        [76.59108, 8.87533],
        [76.57186, 8.88342],
        [76.56763, 8.88094],
        [76.566, 8.88],
        [76.55536, 8.89313],
        [76.55453, 8.89417],
        [76.56873, 8.89484],
        [76.56758, 8.91295],
        [76.56104, 8.92537],
        [76.56963, 8.92893],
        [76.56778, 8.94126],
        [76.58583, 8.96369],
        [76.58528, 8.977],
        [76.60668, 8.97738],
        [76.60346, 8.97481],
        [76.60637, 8.97084],
        [76.61589, 8.97428],
        [76.61763, 8.97945],
        [76.62478, 8.97785],
        [76.62531, 8.97208],
        [76.62728, 8.9482],
        [76.63313, 8.94079]
      ]
    ]
  }
}
