{
  "type": "Feature",
  "id": "KL-AC-128",
  "properties": {
    "stateName": "KERALA",
    "stateCode": "KL",
    "districtName": "THIRUVANANTHAPURAM",
    "acNo": 128,
    "acName": "Attingal (SC)",
    "seatType": null,
    "pcNo": 19,
    "pcName": "ATTINGAL",
    "quality": "unverified",
    "sources": [
      "TBD"
    ]
  },
  "geometry": {
    "type": "Polygon",
    "coordinates": [
      [
        [76.8903, 8.81154],
        [76.90018, 8.81152],
        [76.92129, 8.78656],
        [76.91518, 8.78196],
        [76.91535, 8.77691],
        [76.93331, 8.76176],
        [76.93196, 8.75597],
        [76.89627, 8.72741],
        [76.89158, 8.71869],
        [76.87854, 8.72969],
        [76.8704, 8.71759],
        [76.8668, 8.72252],
        [76.862, 8.71706],
        [76.85701, 8.72399],
        [76.84403, 8.7039],
        [76.84943, 8.69838],
        [76.84857, 8.69156],
        [76.82276, 8.68783],
        [76.82241, 8.68027],
        [76.81817, 8.68381],
        [76.80622, 8.68325],
        [76.78612, 8.67826],
        [76.78608, 8.68663],
        [76.78079, 8.69028],
        [76.75777, 8.67909],
        [76.74709, 8.68912],
        [76.74602, 8.69917],
        [76.7401, 8.69969],
        [76.74254, 8.73475],
        [76.7807, 8.76062],
        [76.79703, 8.76785],
        [76.81321, 8.76786],
        [76.81597, 8.77574],
        [76.82503, 8.77941],
        [76.82221, 8.78349],
        [76.82498, 8.79284],
        [76.83565, 8.79398],
        [76.83833, 8.80818],
        [76.84275, 8.80771],
        [76.85288, 8.81775],
        [76.88287, 8.80577],
        [76.8903, 8.81154]
      ]
    ]
  }
}
