{
  "type": "Feature",
  "id": "KL-AC-139",
  "properties": {
    "stateName": "KERALA",
    "stateCode": "KL",
    "districtName": "THIRUVANANTHAPURAM",
    "acNo": 139,
    "acName": "Kovalam",
    "seatType": null,
    "pcNo": 20,
    "pcName": "THIRUVANANTHAPURA",
    "quality": "unverified",
    "sources": [
      "TBD"
    ]
  },
  "geometry": {
    "type": "Polygon",
    "coordinates": [
      [
        [77.0974, 8.2924],
        [77.0974, 8.2923],
        [77.0814, 8.3045],
        [77.01, 8.3572],
        [77.00997, 8.35722],
        [77.00997, 8.35723],
        [76.99773, 8.37495],
        [76.99155, 8.37817],
        [76.98648, 8.3758],
        [76.9715, 8.39189],
        [76.97077, 8.40235],
        [76.97468, 8.40378],
        [76.97329, 8.398],
        [76.97681, 8.39776],
        [76.99113, 8.41774],
        [76.9883, 8.42287],
        [76.97876, 8.42082],
        [76.97364, 8.42425],
        [76.97056, 8.43656],
        [76.98248, 8.44668],
        [76.98972, 8.44352],
        [77.01021, 8.45002],
        [77.0101, 8.44904],
        [77.0092, 8.44197],
        [77.01647, 8.44439],
        [77.02369, 8.43074],
        [77.04414, 8.42644],
        [77.05377, 8.42012],
        [77.05102, 8.41241],
        [77.05539, 8.39551],
        [77.04091, 8.37543],
        [77.05264, 8.37227],
        [77.05984, 8.36487],
        [77.06054, 8.35187],
        [77.0899, 8.34885],
        [77.09118, 8.34198],
        [77.07419, 8.31625],
        [77.08144, 8.30454],
        [77.09745, 8.29275],
        [77.0974, 8.2926],
        [77.0973, 8.2925],
        [77.0974, 8.2924]
      ]
    ]
  }
}
