{
  "type": "Feature",
  "id": "KL-AC-42",
  "properties": {
    "stateName": "KERALA",
    "stateCode": "KL",
    "districtName": "MALAPPURAM",
    "acNo": 42,
    "acName": "Vallikunnu",
    "seatType": null,
    "pcNo": 6,
    "pcName": "MALAPPURAM",
    "quality": "unverified",
    "sources": [
      "TBD"
    ]
  },
  "geometry": {
    "type": "Polygon",
    "coordinates": [
      [
        [75.90318, 11.17217],
        [75.91768, 11.15124],
        [75.92193, 11.15249],
        [75.92344, 11.14424],
        [75.93282, 11.14886],
        [75.93017, 11.15165],
        [75.93393, 11.15902],
        [75.93961, 11.15926],
        [75.95131, 11.13722],
        [75.96546, 11.13358],
        [75.96308, 11.1179],
        [75.95075, 11.10073],
        [75.9518, 11.08925],
        [75.9351, 11.08116],
        [75.92672, 11.08269],
        [75.92058, 11.07743],
        [75.9155, 11.08229],
        [75.91034, 11.08042],
        [75.90386, 11.06845],
        [75.91346, 11.06502],
        [75.91619, 11.05295],
        [75.88597, 11.04998],
        [75.87487, 11.03891],
        [75.87355, 11.04301],
        [75.88042, 11.05235],
        [75.8768, 11.05919],
        [75.88451, 11.06606],
        [75.87708, 11.06582],
        [75.87478, 11.07417],
        [75.86339, 11.08376],
        [75.85682, 11.08349],
        [75.84671, 11.07838],
        [75.84131, 11.08246],
        [75.8413, 11.0825],
        [75.82611, 11.12447],
        [75.84847, 11.14275],
        [75.8612, 11.13686],
        [75.85236, 11.15443],
        [75.85915, 11.15823],
        [75.86498, 11.17173],
        [75.87025, 11.17258],
        [75.87587, 11.1643],
        [75.88194, 11.17219],
        [75.88704, 11.17093],
        [75.88819, 11.17866],
        [75.89466, 11.17283],
        [75.90318, 11.17217]
      ]
    ]
  }
}
