{
  "type": "Feature",
  "id": "KL-AC-56",
  "properties": {
    "stateName": "KERALA",
    "stateCode": "KL",
    "districtName": "PALAKKAD",
    "acNo": 56,
    "acName": "Palakkad",
    "seatType": null,
    "pcNo": 8,
    "pcName": "PALAKKAD",
    "quality": "unverified",
    "sources": [
      "TBD"
    ]
  },
  "geometry": {
    "type": "Polygon",
    "coordinates": [
      [
        [76.67818, 10.79912],
        [76.66909, 10.78154],
        [76.66905, 10.7749],
        [76.67398, 10.77275],
        [76.6705, 10.75613],
        [76.67563, 10.74861],
        [76.67169, 10.75023],
        [76.6703, 10.73913],
        [76.67514, 10.73399],
        [76.68573, 10.7357],
        [76.68421, 10.7392],
        [76.68877, 10.73706],
        [76.69226, 10.73179],
        [76.68884, 10.73122],
        [76.69176, 10.72958],
        [76.68895, 10.72447],
        [76.69557, 10.72007],
        [76.6677, 10.7164],
        [76.65715, 10.72152],
        [76.65599, 10.72723],
        [76.65148, 10.72613],
        [76.64314, 10.7285],
        [76.63734, 10.72534],
        [76.63757, 10.72826],
        [76.62104, 10.71362],
        [76.61461, 10.7364],
        [76.60594, 10.74477],
        [76.60067, 10.74201],
        [76.59512, 10.72556],
        [76.57725, 10.72322],
        [76.56888, 10.72815],
        [76.54886, 10.73533],
        [76.5546, 10.74114],
        [76.55178, 10.74541],
        [76.56078, 10.74916],
        [76.55831, 10.75575],
        [76.56774, 10.76772],
        [76.56392, 10.77936],
        [76.56578, 10.7837],
        [76.57535, 10.77734],
        [76.58197, 10.77975],
        [76.58989, 10.78786],
        [76.59024, 10.7993],
        [76.62625, 10.78483],
        [76.64203, 10.79036],
        [76.64548, 10.80344],
        [76.6478, 10.79655],
        [76.6528, 10.80328],
        [76.6674, 10.80783],
        [76.66981, 10.80496],
        [76.66933, 10.80115],
        [76.67818, 10.79912]
      ]
    ]
  }
}
