{
  "type": "Feature",
  "id": "KL-AC-82",
  "properties": {
    "stateName": "KERALA",
    "stateCode": "KL",
    "districtName": "ERNAKULAM",
    "acNo": 82,
    "acName": "Ernakulam",
    "seatType": null,
    "pcNo": 12,
    "pcName": "ERNAKULAM",
    "quality": "unverified",
    "sources": [
      "TBD"
    ]
  },
  "geometry": {
    "type": "Polygon",
    "coordinates": [
      [
        [76.28744, 10.0387],
        [76.29035, 10.03029],
        [76.28249, 10.02193],
        [76.29264, 9.99461],
        [76.29097, 9.98241],
        [76.29815, 9.97208],
        [76.3001, 9.95408],
        [76.29682, 9.95373],
        [76.2981, 9.94618],
        [76.28975, 9.94314],
        [76.26961, 9.98355],
        [76.27373, 10.00136],
        [76.26784, 10.02178],
        [76.25977, 10.02111],
        [76.25779, 10.02639],
        [76.2687, 10.0327],
        [76.26775, 10.04581],
        [76.27973, 10.04785],
        [76.28076, 10.06411],
        [76.28149, 10.07309],
        [76.29434, 10.06566],
        [76.29284, 10.05768],
        [76.29841, 10.04878],
        [76.28744, 10.0387]
      ]
    ]
  }
}
