{
  "type": "Feature",
  "id": "KL-AC-97",
  "properties": {
    "stateName": "KERALA",
    "stateCode": "KL",
    "districtName": "KOTTAYAM",
    "acNo": 97,
    "acName": "Kottayam",
    "seatType": null,
    "pcNo": 14,
    "pcName": "KOTTAYAM",
    "quality": "unverified",
    "sources": [
      "TBD"
    ]
  },
  "geometry": {
    "type": "Polygon",
    "coordinates": [
      [
        [76.56458, 9.6123],
        [76.57231, 9.60551],
        [76.56977, 9.60069],
        [76.57496, 9.58679],
        [76.56704, 9.57731],
        [76.56384, 9.56259],
        [76.55316, 9.55837],
        [76.54887, 9.54806],
        [76.55006, 9.5425],
        [76.5626, 9.53663],
        [76.56381, 9.52466],
        [76.55755, 9.51446],
        [76.55388, 9.49421],
        [76.53906, 9.50977],
        [76.51886, 9.50951],
        [76.50964, 9.51753],
        [76.49338, 9.51641],
        [76.48947, 9.5069],
        [76.47939, 9.50647],
        [76.47968, 9.5362],
        [76.4651, 9.54126],
        [76.46366, 9.56048],
        [76.48998, 9.57105],
        [76.48964, 9.58713],
        [76.49366, 9.5925],
        [76.49927, 9.59076],
        [76.5042, 9.59831],
        [76.51207, 9.59788],
        [76.50841, 9.6026],
        [76.51271, 9.61062],
        [76.50813, 9.61045],
        [76.51729, 9.61546],
        [76.5214, 9.63212],
        [76.52826, 9.63747],
        [76.53417, 9.63895],
        [76.54679, 9.62697],
        [76.56267, 9.62727],
        [76.56753, 9.622],
        [76.56458, 9.6123]
      ]
    ]
  }
}
