{
  "type": "Feature",
  "id": "HP-AC-14",
  "properties": {
    "stateName": "HIMACHAL PRADESH",
    "stateCode": "HP",
    "districtName": "KANGRA",
    "acNo": 14,
    "acName": "SULLAH",
    "seatType": null,
    "pcNo": null,
    "pcName": null,
    "quality": "unverified",
    "sources": [
      "TBD"
    ]
  },
  "geometry": {
    "type": "Polygon",
    "coordinates": [
      [
        [76.44435, 32.11253],
        [76.44482, 32.11217],
        [76.4454, 32.1114],
        [76.4462, 32.11065],
        [76.44676, 32.1099],
        [76.44726, 32.109],
        [76.44741, 32.10823],
        [76.44751, 32.10754],
        [76.44766, 32.10696],
        [76.44799, 32.10647],
        [76.44826, 32.10595],
        [76.44859, 32.10544],
        [76.44902, 32.10486],
        [76.44937, 32.10428],
        [76.4497, 32.1038],
        [76.4504, 32.10295],
        [76.45111, 32.10217],
        [76.45184, 32.10149],
        [76.45222, 32.10098],
        [76.45246, 32.1002],
        [76.45319, 32.09865],
        [76.45372, 32.09715],
        [76.45405, 32.09672],
        [76.45455, 32.09606],
        [76.45472, 32.09505],
        [76.45465, 32.0941],
        [76.45465, 32.0932],
        [76.45523, 32.09252],
        [76.45542, 32.09234],
        [76.45852, 32.08844],
        [76.46092, 32.08535],
        [76.46176, 32.08449],
        [76.46477, 32.08242],
        [76.46572, 32.08167],
        [76.46601, 32.08086],
        [76.46715, 32.08447],
        [76.46869, 32.08561],
        [76.46921, 32.08623],
        [76.46948, 32.08665],
        [76.46973, 32.08724],
        [76.46998, 32.08777],
        [76.47022, 32.08835],
        [76.47029, 32.0887],
        [76.47057, 32.09072],
        [76.4706, 32.09313],
        [76.4706, 32.09336],
        [76.47108, 32.09504],
        [76.47191, 32.09695],
        [76.47257, 32.09828],
        [76.47294, 32.09937],
        [76.47313, 32.10019],
        [76.47547, 32.09974],
        [76.47575, 32.09998],
        [76.47795, 32.10218],
        [76.47807, 32.10237],
        [76.47889, 32.10444],
        [76.47976, 32.10584],
        [76.4803, 32.10651],
        [76.48072, 32.10706],
        [76.48116, 32.10767],
        [76.48152, 32.10804],
        [76.48239, 32.10862],
        [76.48343, 32.10924],
        [76.48453, 32.10972],
        [76.48524, 32.10982],
        [76.48623, 32.10991],
        [76.48677, 32.11003],
        [76.48747, 32.11032],
        [76.4882, 32.11068],
        [76.4887, 32.11111],
        [76.48907, 32.11135],
        [76.48927, 32.11147],
        [76.48977, 32.11156],
        [76.49058, 32.11174],
        [76.49141, 32.11201],
        [76.49186, 32.1121],
        [76.49206, 32.11149],
        [76.49223, 32.10968],
        [76.493, 32.10812],
        [76.49357, 32.10759],
        [76.49459, 32.10693],
        [76.49623, 32.1064],
        [76.49734, 32.10633],
        [76.4984, 32.10571],
        [76.49872, 32.10514],
        [76.49894, 32.10487],
        [76.49906, 32.10416],
        [76.49884, 32.10352],
        [76.49845, 32.10296],
        [76.49813, 32.10246],
        [76.49809, 32.10242],
        [76.49806, 32.1024],
        [76.49802, 32.10236],
        [76.49799, 32.10232],
        [76.49787, 32.10219],
        [76.49771, 32.10203],
        [76.49752, 32.10189],
        [76.49739, 32.10179],
        [76.49726, 32.1017],
        [76.49714, 32.10163],
        [76.49695, 32.10157],
        [76.49677, 32.1015],
        [76.49659, 32.10145],
        [76.49641, 32.10142],
        [76.49622, 32.10141],
        [76.49604, 32.10139],
        [76.49586, 32.10137],
        [76.49568, 32.10135],
        [76.49549, 32.10131],
        [76.49531, 32.10126],
        [76.49512, 32.1012],
        [76.49494, 32.1011],
        [76.49476, 32.10102],
        [76.4946, 32.10093],
        [76.49446, 32.10083],
        [76.49432, 32.10073],
        [76.49417, 32.10064],
        [76.49402, 32.10054],
        [76.49387, 32.10046],
        [76.49369, 32.10036],
        [76.49352, 32.10026],
        [76.49336, 32.10016],
        [76.49318, 32.10008],
        [76.493, 32.10003],
        [76.49282, 32.09998],
        [76.49263, 32.09994],
        [76.49245, 32.0999],
        [76.49227, 32.09989],
        [76.49218, 32.09987],
        [76.4913, 32.1],
        [76.49062, 32.10009],
        [76.48965, 32.10008],
        [76.48858, 32.10021],
        [76.48812, 32.10052],
        [76.48738, 32.10106],
        [76.48612, 32.10149],
        [76.48473, 32.10177],
        [76.48421, 32.10182],
        [76.4837, 32.10156],
        [76.48296, 32.10078],
        [76.48259, 32.10002],
        [76.48219, 32.09876],
        [76.48213, 32.09795],
        [76.48194, 32.0968],
        [76.48176, 32.09594],
        [76.48136, 32.09513],
        [76.48086, 32.09472],
        [76.48119, 32.09467],
        [76.4823, 32.09332],
        [76.48308, 32.0938],
        [76.48557, 32.09578],
        [76.4873, 32.09756],
        [76.48791, 32.09777],
        [76.4893, 32.09686],
        [76.48969, 32.09626],
        [76.4896, 32.09618],
        [76.48946, 32.09599],
        [76.48934, 32.09584],
        [76.48917, 32.09571],
        [76.48911, 32.09569],
        [76.48904, 32.09562],
        [76.48897, 32.09558],
        [76.48882, 32.09548],
        [76.48866, 32.09537],
        [76.48801, 32.09436],
        [76.48788, 32.09426],
        [76.4877, 32.09417],
        [76.48753, 32.09407],
        [76.48729, 32.09385],
        [76.48678, 32.09351],
        [76.48637, 32.09313],
        [76.4855, 32.0925],
        [76.49045, 32.09069],
        [76.49326, 32.08988],
        [76.49689, 32.08835],
        [76.49748, 32.08868],
        [76.49831, 32.08919],
        [76.49857, 32.08934],
        [76.49887, 32.08947],
        [76.49983, 32.08988],
        [76.49984, 32.08988],
        [76.49986, 32.08989],
        [76.50024, 32.08999],
        [76.50065, 32.08999],
        [76.50115, 32.08975],
        [76.50187, 32.08888],
        [76.50245, 32.08822],
        [76.50329, 32.08688],
        [76.50343, 32.08657],
        [76.50372, 32.08582],
        [76.50403, 32.08515],
        [76.50414, 32.0849],
        [76.50424, 32.08467],
        [76.50473, 32.08379],
        [76.50496, 32.08344],
        [76.50622, 32.08278],
        [76.50758, 32.08221],
        [76.50837, 32.08213],
        [76.50957, 32.0822],
        [76.51029, 32.08225],
        [76.51095, 32.08218],
        [76.51147, 32.08203],
        [76.51161, 32.08196],
        [76.51148, 32.08162],
        [76.51148, 32.08122],
        [76.51136, 32.0806],
        [76.51126, 32.07976],
        [76.51077, 32.07894],
        [76.51025, 32.07771],
        [76.51018, 32.07737],
        [76.51, 32.07643],
        [76.50969, 32.07552],
        [76.50928, 32.07494],
        [76.50886, 32.07432],
        [76.50858, 32.0736],
        [76.50845, 32.0729],
        [76.50807, 32.07236],
        [76.5077, 32.07221],
        [76.50906, 32.07121],
        [76.51155, 32.06973],
        [76.51082, 32.06742],
        [76.51071, 32.06625],
        [76.51018, 32.06563],
        [76.50926, 32.06428],
        [76.50901, 32.06361],
        [76.50926, 32.06261],
        [76.50957, 32.0622],
        [76.51001, 32.06223],
        [76.51127, 32.06282],
        [76.51151, 32.06264],
        [76.51195, 32.06247],
        [76.51226, 32.06226],
        [76.51231, 32.06207],
        [76.5122, 32.06177],
        [76.51204, 32.06156],
        [76.51166, 32.061],
        [76.5113, 32.06047],
        [76.51118, 32.06029],
        [76.51098, 32.05959],
        [76.51094, 32.05889],
        [76.51088, 32.05853],
        [76.51069, 32.05681],
        [76.51076, 32.05592],
        [76.51078, 32.05458],
        [76.51092, 32.05375],
        [76.51107, 32.05293],
        [76.51118, 32.05266],
        [76.51134, 32.05208],
        [76.51141, 32.05178],
        [76.51141, 32.05112],
        [76.51126, 32.05053],
        [76.51106, 32.04994],
        [76.5109, 32.04972],
        [76.51075, 32.04949],
        [76.51066, 32.04924],
        [76.51035, 32.04894],
        [76.51017, 32.04866],
        [76.51009, 32.04839],
        [76.51002, 32.04813],
        [76.50993, 32.04766],
        [76.50991, 32.04717],
        [76.50986, 32.04648],
        [76.50975, 32.04607],
        [76.50927, 32.04533],
        [76.50893, 32.04457],
        [76.50855, 32.0441],
        [76.50837, 32.04392],
        [76.50818, 32.04374],
        [76.50807, 32.04338],
        [76.508, 32.04298],
        [76.5082, 32.04223],
        [76.5082, 32.04155],
        [76.50834, 32.04105],
        [76.50835, 32.04075],
        [76.50841, 32.04013],
        [76.50836, 32.03973],
        [76.50836, 32.03938],
        [76.50836, 32.03903],
        [76.50832, 32.03837],
        [76.50807, 32.03789],
        [76.50794, 32.03761],
        [76.50785, 32.03723],
        [76.50772, 32.0369],
        [76.50759, 32.03656],
        [76.50748, 32.03614],
        [76.50746, 32.03563],
        [76.5075, 32.03514],
        [76.50764, 32.03466],
        [76.50786, 32.0343],
        [76.50814, 32.03389],
        [76.50835, 32.03352],
        [76.50828, 32.03321],
        [76.50808, 32.03246],
        [76.50793, 32.03197],
        [76.5079, 32.03163],
        [76.50803, 32.03129],
        [76.50824, 32.03089],
        [76.50868, 32.03036],
        [76.50902, 32.03004],
        [76.50923, 32.02964],
        [76.50926, 32.0293],
        [76.50915, 32.02892],
        [76.511, 32.02693],
        [76.51198, 32.02571],
        [76.51344, 32.02457],
        [76.5151, 32.02313],
        [76.51529, 32.02319],
        [76.51598, 32.0235],
        [76.51719, 32.02412],
        [76.51783, 32.02447],
        [76.51851, 32.02486],
        [76.51947, 32.02517],
        [76.52022, 32.02546],
        [76.52076, 32.02551],
        [76.52131, 32.02546],
        [76.5216, 32.02543],
        [76.52192, 32.02539],
        [76.52223, 32.0253],
        [76.52254, 32.02521],
        [76.52316, 32.02514],
        [76.52368, 32.02516],
        [76.5242, 32.02538],
        [76.52456, 32.0257],
        [76.5248, 32.02622],
        [76.52543, 32.02542],
        [76.52516, 32.0247],
        [76.52374, 32.02372],
        [76.52322, 32.02319],
        [76.52277, 32.0226],
        [76.52283, 32.02229],
        [76.52427, 32.02176],
        [76.52516, 32.02149],
        [76.52555, 32.02142],
        [76.5268, 32.02144],
        [76.52874, 32.02233],
        [76.52975, 32.02324],
        [76.53032, 32.02429],
        [76.53049, 32.02507],
        [76.53197, 32.02589],
        [76.53374, 32.02683],
        [76.53562, 32.02812],
        [76.53651, 32.02871],
        [76.53842, 32.02987],
        [76.53924, 32.03037],
        [76.54107, 32.03089],
        [76.54282, 32.03115],
        [76.54456, 32.03188],
        [76.54541, 32.03221],
        [76.54577, 32.03239],
        [76.54704, 32.03139],
        [76.54797, 32.0304],
        [76.54827, 32.02939],
        [76.54821, 32.0286],
        [76.54831, 32.02791],
        [76.54862, 32.02732],
        [76.54886, 32.02662],
        [76.54903, 32.02604],
        [76.54903, 32.02563],
        [76.54886, 32.02531],
        [76.54835, 32.02487],
        [76.5482, 32.02475],
        [76.54805, 32.02464],
        [76.54776, 32.0244],
        [76.54749, 32.02403],
        [76.54742, 32.02365],
        [76.54749, 32.02324],
        [76.54758, 32.02303],
        [76.54766, 32.02283],
        [76.54787, 32.02198],
        [76.54792, 32.02153],
        [76.54798, 32.02108],
        [76.54794, 32.02082],
        [76.54753, 32.02069],
        [76.54725, 32.02059],
        [76.54696, 32.02048],
        [76.54657, 32.02027],
        [76.54613, 32.02003],
        [76.5459, 32.01982],
        [76.54579, 32.01959],
        [76.54584, 32.01923],
        [76.546, 32.01878],
        [76.54612, 32.01834],
        [76.54597, 32.01785],
        [76.54556, 32.01724],
        [76.5453, 32.01694],
        [76.54494, 32.01663],
        [76.54458, 32.01632],
        [76.54419, 32.01606],
        [76.544, 32.0157],
        [76.54407, 32.01559],
        [76.54407, 32.0153],
        [76.54386, 32.01496],
        [76.54358, 32.0147],
        [76.5432, 32.01451],
        [76.54285, 32.01452],
        [76.54247, 32.01471],
        [76.54215, 32.01495],
        [76.54191, 32.01488],
        [76.54167, 32.0148],
        [76.54124, 32.01452],
        [76.54122, 32.01429],
        [76.5412, 32.01367],
        [76.54141, 32.01355],
        [76.54272, 32.01343],
        [76.54394, 32.01339],
        [76.54507, 32.01323],
        [76.54554, 32.01319],
        [76.54675, 32.0126],
        [76.54754, 32.01208],
        [76.54824, 32.01153],
        [76.54936, 32.0108],
        [76.5499, 32.01049],
        [76.55028, 32.01047],
        [76.55065, 32.01066],
        [76.55159, 32.01102],
        [76.55194, 32.01116],
        [76.55246, 32.01105],
        [76.553, 32.01094],
        [76.55342, 32.01084],
        [76.55385, 32.01075],
        [76.55459, 32.01074],
        [76.55511, 32.01103],
        [76.55542, 32.0111],
        [76.55622, 32.0111],
        [76.55691, 32.01132],
        [76.55718, 32.01136],
        [76.55728, 32.01039],
        [76.55719, 32.00918],
        [76.55559, 32.00831],
        [76.55254, 32.00695],
        [76.55177, 32.00771],
        [76.55105, 32.0084],
        [76.55041, 32.00862],
        [76.54936, 32.00837],
        [76.54822, 32.008],
        [76.54809, 32.00719],
        [76.54795, 32.00626],
        [76.5478, 32.00576],
        [76.54733, 32.00533],
        [76.54692, 32.00504],
        [76.54651, 32.00475],
        [76.54613, 32.0045],
        [76.54608, 32.00459],
        [76.54577, 32.00494],
        [76.54498, 32.00642],
        [76.54394, 32.00758],
        [76.54305, 32.00798],
        [76.54249, 32.00799],
        [76.54228, 32.00772],
        [76.54229, 32.00722],
        [76.54226, 32.00632],
        [76.54238, 32.00525],
        [76.54201, 32.00407],
        [76.54042, 32.00312],
        [76.53944, 32.0023],
        [76.53854, 32.00126],
        [76.53777, 31.99978],
        [76.53697, 31.99886],
        [76.53646, 31.99811],
        [76.53631, 31.99706],
        [76.53684, 31.99661],
        [76.53725, 31.9964],
        [76.53812, 31.99589],
        [76.53946, 31.99464],
        [76.53885, 31.99449],
        [76.53844, 31.99438],
        [76.53807, 31.99436],
        [76.53771, 31.99433],
        [76.53707, 31.99459],
        [76.53652, 31.99498],
        [76.53627, 31.99511],
        [76.53612, 31.99519],
        [76.53551, 31.99501],
        [76.53519, 31.99478],
        [76.53487, 31.99456],
        [76.53447, 31.99415],
        [76.53383, 31.99383],
        [76.53328, 31.99362],
        [76.53307, 31.99347],
        [76.53247, 31.993],
        [76.53213, 31.99297],
        [76.53145, 31.99307],
        [76.53096, 31.99331],
        [76.53072, 31.99359],
        [76.53049, 31.99393],
        [76.53052, 31.99439],
        [76.53054, 31.99504],
        [76.53044, 31.99571],
        [76.53024, 31.9962],
        [76.52975, 31.99692],
        [76.52913, 31.99743],
        [76.52843, 31.99784],
        [76.52758, 31.99831],
        [76.52652, 31.999],
        [76.52611, 31.99924],
        [76.5236, 31.99895],
        [76.52154, 31.99915],
        [76.51919, 31.99934],
        [76.51663, 31.99934],
        [76.51628, 31.99926],
        [76.51526, 31.99842],
        [76.51404, 31.99733],
        [76.51351, 31.99711],
        [76.51329, 31.99698],
        [76.51299, 31.99668],
        [76.51274, 31.99649],
        [76.51255, 31.99574],
        [76.51255, 31.995],
        [76.51256, 31.99475],
        [76.51247, 31.99398],
        [76.51258, 31.99266],
        [76.51278, 31.99208],
        [76.51215, 31.99126],
        [76.51177, 31.99086],
        [76.51157, 31.99047],
        [76.51299, 31.99035],
        [76.51385, 31.99012],
        [76.51439, 31.98976],
        [76.51484, 31.98927],
        [76.5144, 31.98806],
        [76.51418, 31.98576],
        [76.51405, 31.98385],
        [76.51394, 31.9828],
        [76.51415, 31.98155],
        [76.51448, 31.97954],
        [76.51463, 31.97886],
        [76.51508, 31.97752],
        [76.515, 31.97626],
        [76.51515, 31.97467],
        [76.51471, 31.97372],
        [76.51508, 31.97308],
        [76.51568, 31.97207],
        [76.51596, 31.97046],
        [76.51575, 31.96956],
        [76.51567, 31.96905],
        [76.5156, 31.9681],
        [76.51538, 31.96727],
        [76.5162, 31.96594],
        [76.51635, 31.96473],
        [76.51598, 31.96283],
        [76.51568, 31.96173],
        [76.51566, 31.96154],
        [76.51568, 31.9614],
        [76.51567, 31.96128],
        [76.51565, 31.96112],
        [76.51562, 31.96099],
        [76.51552, 31.96088],
        [76.51519, 31.96058],
        [76.51495, 31.96027],
        [76.51494, 31.96008],
        [76.51499, 31.95971],
        [76.51516, 31.95934],
        [76.51515, 31.95903],
        [76.51496, 31.95878],
        [76.51492, 31.95874],
        [76.51476, 31.95867],
        [76.51458, 31.95859],
        [76.51449, 31.95852],
        [76.51442, 31.95832],
        [76.51442, 31.95711],
        [76.51504, 31.95667],
        [76.51449, 31.95616],
        [76.51431, 31.95528],
        [76.51389, 31.95548],
        [76.51296, 31.95603],
        [76.51204, 31.95672],
        [76.51196, 31.9568],
        [76.51128, 31.95737],
        [76.51047, 31.95825],
        [76.50941, 31.95984],
        [76.50819, 31.96051],
        [76.50815, 31.95967],
        [76.50813, 31.95888],
        [76.50826, 31.95725],
        [76.50875, 31.95678],
        [76.50905, 31.95672],
        [76.5092, 31.95446],
        [76.50916, 31.95432],
        [76.509, 31.95355],
        [76.50849, 31.95262],
        [76.50862, 31.95187],
        [76.50918, 31.9512],
        [76.50914, 31.95062],
        [76.50909, 31.95008],
        [76.50888, 31.9494],
        [76.50869, 31.94857],
        [76.50858, 31.94825],
        [76.50853, 31.94799],
        [76.50879, 31.94674],
        [76.50925, 31.9459],
        [76.50811, 31.94506],
        [76.50788, 31.94455],
        [76.50762, 31.94354],
        [76.50677, 31.94256],
        [76.50649, 31.94231],
        [76.50618, 31.942],
        [76.50638, 31.94156],
        [76.50756, 31.94051],
        [76.50767, 31.94041],
        [76.50897, 31.93927],
        [76.50897, 31.93888],
        [76.5088, 31.93832],
        [76.50864, 31.93775],
        [76.50832, 31.93701],
        [76.50816, 31.93669],
        [76.50808, 31.93643],
        [76.50797, 31.93619],
        [76.50802, 31.9361],
        [76.50756, 31.93599],
        [76.50705, 31.9361],
        [76.50665, 31.93625],
        [76.50642, 31.93633],
        [76.5057, 31.93616],
        [76.50532, 31.93606],
        [76.50449, 31.93599],
        [76.50362, 31.93586],
        [76.50325, 31.93565],
        [76.50287, 31.93545],
        [76.50208, 31.93545],
        [76.50186, 31.93556],
        [76.50164, 31.93569],
        [76.50135, 31.93582],
        [76.50106, 31.93596],
        [76.50066, 31.93585],
        [76.50052, 31.93569],
        [76.49973, 31.93539],
        [76.4993, 31.93516],
        [76.49888, 31.93483],
        [76.49858, 31.93469],
        [76.49847, 31.93445],
        [76.49854, 31.93332],
        [76.49854, 31.93221],
        [76.49846, 31.93071],
        [76.49846, 31.92952],
        [76.49863, 31.92832],
        [76.49871, 31.92743],
        [76.49853, 31.92653],
        [76.49811, 31.9251],
        [76.49775, 31.92407],
        [76.49736, 31.92358],
        [76.49683, 31.92313],
        [76.49654, 31.92287],
        [76.49607, 31.92262],
        [76.49568, 31.92227],
        [76.49552, 31.92195],
        [76.49541, 31.92126],
        [76.49525, 31.92062],
        [76.49523, 31.91995],
        [76.49497, 31.91968],
        [76.4948, 31.9192],
        [76.49451, 31.91879],
        [76.49436, 31.91855],
        [76.49421, 31.91816],
        [76.49407, 31.91761],
        [76.49386, 31.91701],
        [76.49345, 31.91625],
        [76.49342, 31.91607],
        [76.49302, 31.91538],
        [76.4928, 31.91491],
        [76.4927, 31.91458],
        [76.4927, 31.91447],
        [76.49261, 31.91388],
        [76.49264, 31.91336],
        [76.49283, 31.91292],
        [76.49294, 31.91264],
        [76.49302, 31.91241],
        [76.49295, 31.91208],
        [76.49279, 31.91152],
        [76.49274, 31.91136],
        [76.49272, 31.91113],
        [76.49228, 31.91086],
        [76.49196, 31.91041],
        [76.49183, 31.9102],
        [76.49171, 31.90993],
        [76.49154, 31.90973],
        [76.49139, 31.90954],
        [76.49112, 31.90922],
        [76.49076, 31.90886],
        [76.49032, 31.9086],
        [76.48962, 31.90822],
        [76.48898, 31.90792],
        [76.48883, 31.90781],
        [76.48821, 31.90754],
        [76.48786, 31.90727],
        [76.48762, 31.90703],
        [76.48755, 31.90678],
        [76.48737, 31.90643],
        [76.48739, 31.90597],
        [76.48751, 31.90509],
        [76.48756, 31.90437],
        [76.48765, 31.90381],
        [76.48765, 31.90348],
        [76.48743, 31.90307],
        [76.48727, 31.90266],
        [76.48711, 31.9022],
        [76.48701, 31.90144],
        [76.487, 31.90096],
        [76.48697, 31.90039],
        [76.48701, 31.89966],
        [76.48725, 31.89906],
        [76.48751, 31.89865],
        [76.48798, 31.89834],
        [76.48872, 31.89777],
        [76.48901, 31.89749],
        [76.48916, 31.89707],
        [76.48938, 31.89692],
        [76.48986, 31.8966],
        [76.49016, 31.89628],
        [76.49063, 31.896],
        [76.49107, 31.89574],
        [76.49183, 31.89534],
        [76.49232, 31.8952],
        [76.49267, 31.89522],
        [76.49311, 31.89524],
        [76.49367, 31.89534],
        [76.49402, 31.89538],
        [76.49437, 31.8953],
        [76.49474, 31.89523],
        [76.49503, 31.8951],
        [76.49511, 31.89493],
        [76.49507, 31.89462],
        [76.49498, 31.89428],
        [76.49503, 31.89399],
        [76.49495, 31.89377],
        [76.49469, 31.89351],
        [76.49468, 31.8935],
        [76.49455, 31.89337],
        [76.49485, 31.89335],
        [76.49497, 31.89332],
        [76.49505, 31.89331],
        [76.49518, 31.89333],
        [76.49534, 31.89336],
        [76.49553, 31.89339],
        [76.49576, 31.89345],
        [76.49598, 31.89353],
        [76.4962, 31.89361],
        [76.4964, 31.89372],
        [76.49663, 31.89386],
        [76.49681, 31.894],
        [76.497, 31.89414],
        [76.4971, 31.89408],
        [76.49716, 31.89405],
        [76.4973, 31.894],
        [76.49753, 31.89398],
        [76.49772, 31.89398],
        [76.4979, 31.89399],
        [76.49817, 31.89403],
        [76.49845, 31.89402],
        [76.49871, 31.89393],
        [76.49886, 31.89396],
        [76.50119, 31.89326],
        [76.50227, 31.89268],
        [76.50138, 31.89109],
        [76.5002, 31.88855],
        [76.49984, 31.88703],
        [76.49984, 31.88591],
        [76.5002, 31.88429],
        [76.50116, 31.88296],
        [76.50151, 31.88225],
        [76.50127, 31.88185],
        [76.50028, 31.88089],
        [76.4996, 31.88088],
        [76.49886, 31.881],
        [76.49725, 31.88123],
        [76.49628, 31.88127],
        [76.4953, 31.8816],
        [76.49394, 31.88203],
        [76.49335, 31.88217],
        [76.49292, 31.88206],
        [76.49218, 31.8817],
        [76.4914, 31.88137],
        [76.48984, 31.88034],
        [76.48888, 31.87989],
        [76.489, 31.87953],
        [76.48889, 31.87913],
        [76.48867, 31.87869],
        [76.48832, 31.87839],
        [76.48796, 31.87815],
        [76.48769, 31.87787],
        [76.48756, 31.87773],
        [76.48751, 31.87757],
        [76.48766, 31.8772],
        [76.48774, 31.87687],
        [76.48777, 31.87658],
        [76.48766, 31.87646],
        [76.48755, 31.87638],
        [76.48736, 31.87633],
        [76.4871, 31.87623],
        [76.48687, 31.8762],
        [76.48673, 31.8761],
        [76.48665, 31.87602],
        [76.48656, 31.87591],
        [76.48519, 31.87656],
        [76.48421, 31.87699],
        [76.48355, 31.87743],
        [76.48299, 31.87802],
        [76.48257, 31.87863],
        [76.48223, 31.87924],
        [76.482, 31.8796],
        [76.48188, 31.87997],
        [76.48146, 31.87943],
        [76.48095, 31.87917],
        [76.48078, 31.87921],
        [76.48064, 31.87924],
        [76.48047, 31.87924],
        [76.48031, 31.87927],
        [76.48015, 31.87929],
        [76.47999, 31.8793],
        [76.47983, 31.87935],
        [76.47967, 31.87939],
        [76.47952, 31.8794],
        [76.47937, 31.87942],
        [76.47919, 31.87942],
        [76.47903, 31.87944],
        [76.47889, 31.87947],
        [76.47875, 31.8795],
        [76.47864, 31.87953],
        [76.47854, 31.87955],
        [76.47838, 31.87956],
        [76.47823, 31.87956],
        [76.47809, 31.87956],
        [76.47794, 31.87957],
        [76.47782, 31.87959],
        [76.47763, 31.87965],
        [76.47748, 31.8797],
        [76.47741, 31.87977],
        [76.4773, 31.87984],
        [76.4772, 31.8799],
        [76.4771, 31.87992],
        [76.47699, 31.87993],
        [76.47685, 31.87995],
        [76.47672, 31.87996],
        [76.47661, 31.88],
        [76.47649, 31.88001],
        [76.47637, 31.88],
        [76.47627, 31.87998],
        [76.47614, 31.87996],
        [76.476, 31.87994],
        [76.47576, 31.87992],
        [76.47556, 31.8799],
        [76.47534, 31.87989],
        [76.47512, 31.87989],
        [76.475, 31.87987],
        [76.47487, 31.87984],
        [76.47474, 31.87984],
        [76.47462, 31.87982],
        [76.47451, 31.87982],
        [76.47436, 31.87984],
        [76.47424, 31.87986],
        [76.47409, 31.87993],
        [76.474, 31.87998],
        [76.47386, 31.88004],
        [76.47375, 31.8801],
        [76.47361, 31.88022],
        [76.4735, 31.88032],
        [76.47336, 31.88042],
        [76.47324, 31.88055],
        [76.47313, 31.88071],
        [76.47303, 31.88088],
        [76.47296, 31.88096],
        [76.47292, 31.88104],
        [76.47287, 31.88111],
        [76.47276, 31.88125],
        [76.47268, 31.88138],
        [76.47255, 31.88165],
        [76.47247, 31.88184],
        [76.47242, 31.88199],
        [76.4723, 31.88225],
        [76.47225, 31.88233],
        [76.47216, 31.88243],
        [76.47206, 31.88251],
        [76.47203, 31.88254],
        [76.47199, 31.88261],
        [76.47192, 31.8827],
        [76.47181, 31.88278],
        [76.47165, 31.88291],
        [76.4715, 31.88301],
        [76.47141, 31.88308],
        [76.47137, 31.88313],
        [76.47134, 31.88319],
        [76.47134, 31.88323],
        [76.47134, 31.8833],
        [76.47137, 31.88338],
        [76.47139, 31.88346],
        [76.47144, 31.88354],
        [76.47148, 31.88363],
        [76.47149, 31.88375],
        [76.47149, 31.88384],
        [76.47143, 31.88393],
        [76.47138, 31.88401],
        [76.47134, 31.88406],
        [76.47131, 31.88417],
        [76.47126, 31.88427],
        [76.47119, 31.88435],
        [76.47108, 31.88443],
        [76.47099, 31.88449],
        [76.47091, 31.88452],
        [76.47083, 31.88453],
        [76.47076, 31.88454],
        [76.47065, 31.88454],
        [76.47057, 31.88452],
        [76.47049, 31.88447],
        [76.47038, 31.88443],
        [76.47024, 31.88441],
        [76.47011, 31.88436],
        [76.46997, 31.88433],
        [76.46981, 31.88433],
        [76.46969, 31.88436],
        [76.46957, 31.88441],
        [76.46947, 31.88443],
        [76.46938, 31.88442],
        [76.46932, 31.88439],
        [76.46922, 31.88437],
        [76.46914, 31.88433],
        [76.46902, 31.88432],
        [76.46887, 31.88431],
        [76.46876, 31.88431],
        [76.46866, 31.88435],
        [76.4686, 31.88443],
        [76.46854, 31.88452],
        [76.46843, 31.88465],
        [76.4683, 31.88477],
        [76.46819, 31.88483],
        [76.46811, 31.88485],
        [76.46804, 31.88485],
        [76.46792, 31.88484],
        [76.46786, 31.88483],
        [76.46777, 31.88482],
        [76.46751, 31.88476],
        [76.46732, 31.88472],
        [76.46709, 31.88465],
        [76.46693, 31.88459],
        [76.46669, 31.8845],
        [76.46651, 31.88442],
        [76.46631, 31.88435],
        [76.46606, 31.88427],
        [76.46583, 31.88421],
        [76.46564, 31.88416],
        [76.46546, 31.88412],
        [76.46529, 31.88409],
        [76.46514, 31.88408],
        [76.465, 31.88409],
        [76.46485, 31.88411],
        [76.46469, 31.88413],
        [76.46454, 31.88414],
        [76.46436, 31.88418],
        [76.46412, 31.88424],
        [76.46408, 31.88426],
        [76.46398, 31.8843],
        [76.46384, 31.88435],
        [76.46365, 31.88441],
        [76.46349, 31.88449],
        [76.46323, 31.88467],
        [76.46305, 31.88479],
        [76.46283, 31.88489],
        [76.46261, 31.88497],
        [76.46241, 31.88504],
        [76.46208, 31.88513],
        [76.46196, 31.88517],
        [76.46182, 31.88519],
        [76.46174, 31.88523],
        [76.46153, 31.88533],
        [76.4614, 31.88545],
        [76.46126, 31.88555],
        [76.46117, 31.88563],
        [76.46099, 31.88588],
        [76.46079, 31.88611],
        [76.46061, 31.88636],
        [76.46045, 31.88652],
        [76.46027, 31.88663],
        [76.46015, 31.88668],
        [76.46002, 31.88669],
        [76.45993, 31.88667],
        [76.4598, 31.88663],
        [76.4597, 31.88659],
        [76.4596, 31.88656],
        [76.45952, 31.88654],
        [76.45942, 31.88649],
        [76.45932, 31.88641],
        [76.45918, 31.8863],
        [76.45902, 31.88619],
        [76.45885, 31.88609],
        [76.45863, 31.88599],
        [76.45841, 31.88591],
        [76.45817, 31.88586],
        [76.45795, 31.88585],
        [76.45772, 31.88588],
        [76.4575, 31.88591],
        [76.45731, 31.88593],
        [76.45713, 31.88598],
        [76.45679, 31.88607],
        [76.45656, 31.88614],
        [76.45643, 31.88616],
        [76.45635, 31.8862],
        [76.45624, 31.88625],
        [76.45588, 31.88642],
        [76.45564, 31.88653],
        [76.45535, 31.88667],
        [76.45504, 31.88681],
        [76.45482, 31.88688],
        [76.45455, 31.88696],
        [76.45434, 31.88702],
        [76.45419, 31.88706],
        [76.45403, 31.88715],
        [76.45377, 31.88726],
        [76.45341, 31.88743],
        [76.45311, 31.88756],
        [76.45287, 31.88764],
        [76.45264, 31.88767],
        [76.45242, 31.88767],
        [76.45221, 31.88766],
        [76.452, 31.88764],
        [76.45181, 31.88761],
        [76.45159, 31.88756],
        [76.45138, 31.88752],
        [76.45092, 31.88738],
        [76.45059, 31.88767],
        [76.45015, 31.88796],
        [76.44965, 31.88834],
        [76.4492, 31.88866],
        [76.44883, 31.88891],
        [76.44839, 31.88906],
        [76.44784, 31.88928],
        [76.44704, 31.8898],
        [76.44665, 31.89012],
        [76.44616, 31.89025],
        [76.44564, 31.89034],
        [76.44522, 31.89056],
        [76.44491, 31.89099],
        [76.44476, 31.89136],
        [76.4445, 31.89156],
        [76.44416, 31.89163],
        [76.44367, 31.89194],
        [76.44317, 31.89237],
        [76.44299, 31.89281],
        [76.44277, 31.89337],
        [76.44238, 31.89378],
        [76.44166, 31.8939],
        [76.4411, 31.894],
        [76.44064, 31.89412],
        [76.44028, 31.89443],
        [76.43995, 31.89497],
        [76.43961, 31.89559],
        [76.43926, 31.89601],
        [76.43911, 31.89611],
        [76.43873, 31.8964],
        [76.43815, 31.89675],
        [76.43752, 31.89706],
        [76.43726, 31.89739],
        [76.43699, 31.89754],
        [76.43671, 31.8977],
        [76.43639, 31.89805],
        [76.43637, 31.89834],
        [76.43634, 31.89874],
        [76.4362, 31.89932],
        [76.43597, 31.89984],
        [76.43569, 31.90023],
        [76.43519, 31.90067],
        [76.43461, 31.90107],
        [76.43411, 31.90167],
        [76.43367, 31.90233],
        [76.43328, 31.90278],
        [76.43294, 31.90297],
        [76.4323, 31.90339],
        [76.43183, 31.90388],
        [76.43164, 31.90421],
        [76.43145, 31.90454],
        [76.43114, 31.90509],
        [76.4306, 31.90583],
        [76.43012, 31.90636],
        [76.42957, 31.90689],
        [76.42928, 31.90736],
        [76.42895, 31.90779],
        [76.42865, 31.90843],
        [76.42834, 31.909],
        [76.42791, 31.90977],
        [76.42739, 31.91035],
        [76.42679, 31.91102],
        [76.42615, 31.91184],
        [76.42575, 31.91241],
        [76.42532, 31.91306],
        [76.42488, 31.91367],
        [76.42475, 31.91391],
        [76.42462, 31.91415],
        [76.42421, 31.91506],
        [76.42395, 31.91581],
        [76.42385, 31.91629],
        [76.42381, 31.9167],
        [76.42377, 31.91716],
        [76.42353, 31.91752],
        [76.42321, 31.91791],
        [76.42303, 31.91844],
        [76.42312, 31.91895],
        [76.4232, 31.91946],
        [76.42319, 31.91979],
        [76.4231, 31.92022],
        [76.42268, 31.92057],
        [76.42222, 31.92074],
        [76.42147, 31.92096],
        [76.42087, 31.92114],
        [76.4204, 31.92133],
        [76.41998, 31.92183],
        [76.4196, 31.92224],
        [76.41934, 31.92279],
        [76.41912, 31.92331],
        [76.41896, 31.92387],
        [76.41858, 31.92448],
        [76.41824, 31.92524],
        [76.41792, 31.9258],
        [76.41761, 31.92632],
        [76.41746, 31.92681],
        [76.41739, 31.92735],
        [76.41727, 31.92789],
        [76.41705, 31.92817],
        [76.41667, 31.92848],
        [76.41638, 31.92892],
        [76.41634, 31.92899],
        [76.41633, 31.92931],
        [76.41624, 31.92957],
        [76.41583, 31.9301],
        [76.41575, 31.93053],
        [76.41576, 31.93108],
        [76.41575, 31.93183],
        [76.41573, 31.93266],
        [76.41561, 31.93344],
        [76.41525, 31.93397],
        [76.41496, 31.9345],
        [76.41471, 31.93507],
        [76.41456, 31.93553],
        [76.41456, 31.936],
        [76.41465, 31.93673],
        [76.41471, 31.93739],
        [76.41482, 31.93809],
        [76.41482, 31.93856],
        [76.41497, 31.93886],
        [76.41494, 31.93931],
        [76.41505, 31.93975],
        [76.41528, 31.94018],
        [76.41552, 31.9406],
        [76.41554, 31.94082],
        [76.41554, 31.94113],
        [76.41554, 31.94114],
        [76.41545, 31.94141],
        [76.41522, 31.94178],
        [76.41514, 31.94199],
        [76.41511, 31.94236],
        [76.41521, 31.94285],
        [76.41525, 31.94333],
        [76.41539, 31.94378],
        [76.41559, 31.9444],
        [76.41566, 31.94469],
        [76.41586, 31.94494],
        [76.416, 31.94512],
        [76.41615, 31.94531],
        [76.41633, 31.94563],
        [76.41645, 31.94583],
        [76.41656, 31.94602],
        [76.41665, 31.94618],
        [76.41669, 31.94627],
        [76.41674, 31.94647],
        [76.4168, 31.94668],
        [76.41685, 31.94693],
        [76.4169, 31.9471],
        [76.41694, 31.9473],
        [76.41697, 31.94741],
        [76.41702, 31.94751],
        [76.41707, 31.94763],
        [76.41715, 31.94773],
        [76.41725, 31.94784],
        [76.41738, 31.94797],
        [76.41748, 31.94805],
        [76.4176, 31.94812],
        [76.41773, 31.9482],
        [76.41785, 31.9483],
        [76.41792, 31.94838],
        [76.418, 31.94845],
        [76.41805, 31.94853],
        [76.41808, 31.94862],
        [76.41817, 31.94866],
        [76.41827, 31.94873],
        [76.41839, 31.94883],
        [76.4185, 31.94888],
        [76.41861, 31.94895],
        [76.41873, 31.94898],
        [76.41884, 31.94905],
        [76.41892, 31.9491],
        [76.419, 31.94918],
        [76.41906, 31.9493],
        [76.41912, 31.9494],
        [76.41922, 31.94949],
        [76.41928, 31.94957],
        [76.41937, 31.94963],
        [76.41945, 31.94966],
        [76.41955, 31.94966],
        [76.41967, 31.94964],
        [76.41976, 31.94959],
        [76.41992, 31.94952],
        [76.42014, 31.94946],
        [76.42034, 31.94942],
        [76.42055, 31.94939],
        [76.42072, 31.94936],
        [76.42095, 31.94935],
        [76.42108, 31.94936],
        [76.42118, 31.94938],
        [76.4213, 31.94942],
        [76.42144, 31.94949],
        [76.42154, 31.94954],
        [76.42164, 31.94957],
        [76.42176, 31.9496],
        [76.42191, 31.94963],
        [76.42207, 31.94968],
        [76.42222, 31.94975],
        [76.42239, 31.94987],
        [76.42248, 31.94998],
        [76.42256, 31.95011],
        [76.42261, 31.95024],
        [76.42265, 31.95039],
        [76.42268, 31.95046],
        [76.42281, 31.95063],
        [76.42293, 31.95073],
        [76.42305, 31.95085],
        [76.42308, 31.95088],
        [76.42321, 31.951],
        [76.42338, 31.9512],
        [76.42348, 31.95132],
        [76.42358, 31.95145],
        [76.42365, 31.95161],
        [76.4235, 31.95166],
        [76.42328, 31.95176],
        [76.42306, 31.95184],
        [76.42293, 31.95186],
        [76.4228, 31.95184],
        [76.42252, 31.95176],
        [76.42223, 31.9517],
        [76.42197, 31.95165],
        [76.42181, 31.95164],
        [76.42162, 31.95163],
        [76.42141, 31.95159],
        [76.4213, 31.95152],
        [76.42122, 31.95141],
        [76.42118, 31.95128],
        [76.42112, 31.95118],
        [76.42102, 31.95117],
        [76.4209, 31.95118],
        [76.42079, 31.95124],
        [76.42068, 31.95134],
        [76.42061, 31.95154],
        [76.42054, 31.95178],
        [76.42046, 31.95203],
        [76.42032, 31.95231],
        [76.42019, 31.95247],
        [76.42005, 31.95257],
        [76.41989, 31.95263],
        [76.41972, 31.95264],
        [76.41952, 31.95259],
        [76.4193, 31.95251],
        [76.41906, 31.9524],
        [76.41885, 31.95231],
        [76.41869, 31.95227],
        [76.41856, 31.95227],
        [76.41838, 31.95231],
        [76.41827, 31.9524],
        [76.41816, 31.95254],
        [76.41814, 31.95266],
        [76.41808, 31.95279],
        [76.41799, 31.95292],
        [76.41788, 31.95299],
        [76.41775, 31.95307],
        [76.41764, 31.95309],
        [76.41748, 31.95311],
        [76.41716, 31.95314],
        [76.41703, 31.95322],
        [76.41684, 31.95338],
        [76.41672, 31.95341],
        [76.41669, 31.95357],
        [76.41668, 31.95362],
        [76.41661, 31.95395],
        [76.41641, 31.95423],
        [76.41612, 31.95461],
        [76.41583, 31.955],
        [76.41558, 31.95538],
        [76.41547, 31.95551],
        [76.41535, 31.95568],
        [76.41521, 31.9559],
        [76.41508, 31.95601],
        [76.41491, 31.95613],
        [76.4147, 31.95622],
        [76.41456, 31.95623],
        [76.41442, 31.95624],
        [76.4143, 31.95629],
        [76.41423, 31.95644],
        [76.41408, 31.95664],
        [76.41396, 31.9568],
        [76.41386, 31.95691],
        [76.41378, 31.957],
        [76.41363, 31.95713],
        [76.41348, 31.95721],
        [76.41334, 31.95728],
        [76.41307, 31.95738],
        [76.41281, 31.95749],
        [76.41262, 31.95757],
        [76.41247, 31.95768],
        [76.41236, 31.9578],
        [76.4123, 31.95792],
        [76.41224, 31.95808],
        [76.41219, 31.95823],
        [76.41212, 31.95837],
        [76.41204, 31.95846],
        [76.41193, 31.95854],
        [76.41175, 31.95866],
        [76.41163, 31.95874],
        [76.41148, 31.95881],
        [76.41133, 31.95892],
        [76.41126, 31.95904],
        [76.41124, 31.95912],
        [76.41122, 31.95925],
        [76.41121, 31.9594],
        [76.41117, 31.95951],
        [76.41111, 31.95958],
        [76.41102, 31.95961],
        [76.41093, 31.95961],
        [76.41085, 31.95958],
        [76.41076, 31.95954],
        [76.41069, 31.95949],
        [76.41062, 31.95942],
        [76.41048, 31.95947],
        [76.41038, 31.95952],
        [76.41028, 31.95958],
        [76.41016, 31.95964],
        [76.41009, 31.9597],
        [76.40998, 31.95985],
        [76.4099, 31.95999],
        [76.40981, 31.96014],
        [76.40972, 31.96029],
        [76.40963, 31.96046],
        [76.40954, 31.9606],
        [76.40944, 31.96074],
        [76.40937, 31.96088],
        [76.40926, 31.96109],
        [76.40914, 31.96126],
        [76.40902, 31.96145],
        [76.40885, 31.96158],
        [76.40848, 31.96225],
        [76.40829, 31.96293],
        [76.40828, 31.96325],
        [76.40821, 31.9635],
        [76.40815, 31.96379],
        [76.40801, 31.96407],
        [76.40791, 31.96433],
        [76.40778, 31.96466],
        [76.40771, 31.96481],
        [76.40759, 31.96494],
        [76.40766, 31.96507],
        [76.40782, 31.96538],
        [76.408, 31.96558],
        [76.40812, 31.96578],
        [76.40827, 31.96593],
        [76.40854, 31.96614],
        [76.40858, 31.96618],
        [76.4087, 31.96637],
        [76.40886, 31.96659],
        [76.40906, 31.96698],
        [76.4091, 31.96709],
        [76.40909, 31.9673],
        [76.40905, 31.96749],
        [76.40891, 31.96778],
        [76.40888, 31.96782],
        [76.40888, 31.96786],
        [76.40885, 31.96798],
        [76.40886, 31.96808],
        [76.40893, 31.96816],
        [76.40901, 31.96823],
        [76.40913, 31.96827],
        [76.40928, 31.96829],
        [76.40944, 31.9683],
        [76.40964, 31.96836],
        [76.40975, 31.96841],
        [76.4099, 31.96854],
        [76.40996, 31.96865],
        [76.40998, 31.9687],
        [76.40998, 31.96871],
        [76.41003, 31.96883],
        [76.4101, 31.96912],
        [76.41013, 31.96929],
        [76.41018, 31.96939],
        [76.41025, 31.96947],
        [76.4104, 31.96957],
        [76.41057, 31.96967],
        [76.41069, 31.96977],
        [76.41082, 31.96995],
        [76.41085, 31.97007],
        [76.41088, 31.97025],
        [76.41087, 31.97054],
        [76.41096, 31.97067],
        [76.41111, 31.97079],
        [76.41134, 31.97084],
        [76.41162, 31.97082],
        [76.41193, 31.97077],
        [76.41209, 31.97076],
        [76.41246, 31.97073],
        [76.41253, 31.97071],
        [76.41266, 31.97067],
        [76.41289, 31.97057],
        [76.41316, 31.97047],
        [76.4135, 31.97039],
        [76.41378, 31.97037],
        [76.41419, 31.97038],
        [76.41454, 31.97041],
        [76.4148, 31.97039],
        [76.41491, 31.97038],
        [76.41505, 31.9704],
        [76.41522, 31.97024],
        [76.4155, 31.97016],
        [76.41573, 31.97016],
        [76.41575, 31.97015],
        [76.41595, 31.97022],
        [76.41659, 31.97037],
        [76.41737, 31.97064],
        [76.41819, 31.97087],
        [76.41862, 31.97113],
        [76.4188, 31.9715],
        [76.4188, 31.97197],
        [76.41846, 31.97237],
        [76.41802, 31.97266],
        [76.41756, 31.97299],
        [76.41751, 31.97319],
        [76.41752, 31.9734],
        [76.41769, 31.97358],
        [76.41803, 31.97376],
        [76.41837, 31.97387],
        [76.41877, 31.97391],
        [76.41934, 31.97373],
        [76.42005, 31.97347],
        [76.42058, 31.97316],
        [76.42107, 31.97298],
        [76.4217, 31.97294],
        [76.42225, 31.97305],
        [76.42267, 31.97323],
        [76.4229, 31.97342],
        [76.42302, 31.97359],
        [76.423, 31.9737],
        [76.42266, 31.97395],
        [76.42216, 31.9743],
        [76.42164, 31.97454],
        [76.42098, 31.97477],
        [76.4204, 31.97495],
        [76.42011, 31.97522],
        [76.41996, 31.97554],
        [76.41994, 31.97586],
        [76.42001, 31.97622],
        [76.42012, 31.9765],
        [76.42048, 31.97692],
        [76.42056, 31.97732],
        [76.4206, 31.97748],
        [76.42048, 31.97757],
        [76.42031, 31.97762],
        [76.42002, 31.97762],
        [76.41967, 31.97768],
        [76.41937, 31.978],
        [76.41902, 31.97839],
        [76.41897, 31.97876],
        [76.41894, 31.97912],
        [76.41878, 31.97955],
        [76.41868, 31.98022],
        [76.41873, 31.98075],
        [76.4186, 31.98157],
        [76.41849, 31.982],
        [76.41828, 31.98249],
        [76.41821, 31.98299],
        [76.41822, 31.98365],
        [76.41818, 31.98394],
        [76.41796, 31.98407],
        [76.41765, 31.9841],
        [76.41727, 31.98418],
        [76.41689, 31.98439],
        [76.41667, 31.98479],
        [76.41666, 31.98519],
        [76.41671, 31.98563],
        [76.41667, 31.98578],
        [76.41657, 31.98621],
        [76.41632, 31.98681],
        [76.41625, 31.98715],
        [76.41609, 31.98749],
        [76.41566, 31.98789],
        [76.41537, 31.98813],
        [76.41522, 31.98842],
        [76.41517, 31.98877],
        [76.41528, 31.9892],
        [76.41536, 31.98962],
        [76.4152, 31.98983],
        [76.4148, 31.99042],
        [76.41436, 31.99139],
        [76.414, 31.99189],
        [76.41344, 31.99319],
        [76.41289, 31.99432],
        [76.41218, 31.99554],
        [76.41194, 31.99615],
        [76.41177, 31.99655],
        [76.41138, 31.997],
        [76.41104, 31.99731],
        [76.4105, 31.9979],
        [76.40993, 31.99844],
        [76.40949, 31.99878],
        [76.40893, 31.99912],
        [76.40869, 31.99942],
        [76.40845, 31.9998],
        [76.4082, 32.00032],
        [76.40823, 32.00048],
        [76.40792, 32.00129],
        [76.4074, 32.00217],
        [76.40568, 32.00313],
        [76.40471, 32.00383],
        [76.40392, 32.00452],
        [76.4029, 32.0057],
        [76.40246, 32.00599],
        [76.40139, 32.00623],
        [76.40012, 32.00668],
        [76.3993, 32.00673],
        [76.39908, 32.00741],
        [76.39854, 32.00826],
        [76.39769, 32.00884],
        [76.39552, 32.00891],
        [76.39388, 32.00925],
        [76.39316, 32.00938],
        [76.39253, 32.00964],
        [76.39191, 32.0099],
        [76.39035, 32.01031],
        [76.38984, 32.01033],
        [76.38904, 32.01037],
        [76.38793, 32.01053],
        [76.38705, 32.01042],
        [76.38575, 32.01016],
        [76.38473, 32.00977],
        [76.38431, 32.0099],
        [76.383, 32.01028],
        [76.38226, 32.00937],
        [76.38126, 32.00881],
        [76.3807, 32.00874],
        [76.37766, 32.00906],
        [76.37666, 32.00882],
        [76.37592, 32.00877],
        [76.37549, 32.00892],
        [76.37432, 32.00961],
        [76.37366, 32.00976],
        [76.37288, 32.0098],
        [76.3722, 32.00969],
        [76.37138, 32.00935],
        [76.37061, 32.00915],
        [76.37056, 32.00918],
        [76.3694, 32.0098],
        [76.36785, 32.01048],
        [76.36716, 32.01087],
        [76.36709, 32.011],
        [76.36708, 32.01132],
        [76.36708, 32.0124],
        [76.36709, 32.01334],
        [76.36716, 32.01395],
        [76.36735, 32.0146],
        [76.36754, 32.01522],
        [76.36758, 32.01554],
        [76.36762, 32.01638],
        [76.36756, 32.01634],
        [76.36726, 32.01634],
        [76.36622, 32.01621],
        [76.36497, 32.01601],
        [76.36402, 32.01598],
        [76.36326, 32.01621],
        [76.36296, 32.01653],
        [76.36239, 32.01725],
        [76.36178, 32.01828],
        [76.36216, 32.01893],
        [76.36231, 32.01945],
        [76.36238, 32.02049],
        [76.36265, 32.02101],
        [76.36292, 32.02162],
        [76.36298, 32.02243],
        [76.36284, 32.02357],
        [76.36301, 32.02417],
        [76.36362, 32.02476],
        [76.36369, 32.02513],
        [76.36273, 32.02616],
        [76.36202, 32.02673],
        [76.36101, 32.02727],
        [76.35897, 32.02773],
        [76.35829, 32.02785],
        [76.35946, 32.02853],
        [76.36013, 32.02894],
        [76.36097, 32.02924],
        [76.36146, 32.02941],
        [76.36203, 32.02948],
        [76.36277, 32.02929],
        [76.36353, 32.02908],
        [76.36417, 32.02872],
        [76.36461, 32.02858],
        [76.36509, 32.02863],
        [76.36539, 32.02879],
        [76.36564, 32.02917],
        [76.36587, 32.02986],
        [76.36611, 32.03015],
        [76.36636, 32.0304],
        [76.36678, 32.03069],
        [76.36754, 32.03095],
        [76.3682, 32.03107],
        [76.36878, 32.03111],
        [76.36901, 32.03104],
        [76.37002, 32.03186],
        [76.37118, 32.03285],
        [76.37167, 32.03332],
        [76.37265, 32.03447],
        [76.37328, 32.03505],
        [76.37422, 32.03581],
        [76.37502, 32.03631],
        [76.37568, 32.0366],
        [76.37663, 32.03709],
        [76.37735, 32.03771],
        [76.3777, 32.03856],
        [76.37813, 32.03917],
        [76.37907, 32.03992],
        [76.37949, 32.04037],
        [76.37956, 32.04058],
        [76.37961, 32.04074],
        [76.38022, 32.0413],
        [76.38053, 32.04147],
        [76.38124, 32.04148],
        [76.38167, 32.04131],
        [76.38201, 32.04107],
        [76.38237, 32.04095],
        [76.38284, 32.04083],
        [76.38343, 32.04093],
        [76.38385, 32.04105],
        [76.38426, 32.04109],
        [76.38471, 32.04093],
        [76.38571, 32.04019],
        [76.38652, 32.03986],
        [76.38694, 32.03989],
        [76.38744, 32.04014],
        [76.38772, 32.04026],
        [76.38808, 32.04043],
        [76.3883, 32.04078],
        [76.38861, 32.041],
        [76.38883, 32.04114],
        [76.38958, 32.04111],
        [76.39042, 32.04105],
        [76.39106, 32.04112],
        [76.39195, 32.04166],
        [76.39311, 32.0423],
        [76.39367, 32.04256],
        [76.39392, 32.04301],
        [76.39412, 32.04363],
        [76.39409, 32.04396],
        [76.3937, 32.04479],
        [76.39292, 32.046],
        [76.39275, 32.0464],
        [76.39276, 32.04679],
        [76.39289, 32.04752],
        [76.39336, 32.04819],
        [76.39383, 32.04861],
        [76.395, 32.04952],
        [76.39542, 32.05002],
        [76.39565, 32.05054],
        [76.39587, 32.05108],
        [76.39615, 32.05229],
        [76.39637, 32.05296],
        [76.39651, 32.05345],
        [76.39696, 32.05433],
        [76.39745, 32.05531],
        [76.39776, 32.05573],
        [76.39818, 32.05613],
        [76.39921, 32.05717],
        [76.3997, 32.05781],
        [76.39956, 32.05845],
        [76.39949, 32.05878],
        [76.39952, 32.05925],
        [76.40084, 32.05962],
        [76.40061, 32.06021],
        [76.4005, 32.06097],
        [76.40037, 32.06174],
        [76.40024, 32.06288],
        [76.40016, 32.0637],
        [76.39951, 32.0651],
        [76.39928, 32.0653],
        [76.39887, 32.06555],
        [76.39848, 32.06581],
        [76.39817, 32.06638],
        [76.39807, 32.0668],
        [76.39765, 32.06768],
        [76.39744, 32.06889],
        [76.39716, 32.06962],
        [76.39644, 32.07048],
        [76.39525, 32.07141],
        [76.39481, 32.07182],
        [76.3945, 32.07239],
        [76.39437, 32.07286],
        [76.39435, 32.07318],
        [76.39434, 32.07345],
        [76.39465, 32.07405],
        [76.39501, 32.07451],
        [76.3957, 32.075],
        [76.39607, 32.0752],
        [76.39635, 32.07538],
        [76.3965, 32.0757],
        [76.39682, 32.07633],
        [76.39749, 32.07736],
        [76.39813, 32.07824],
        [76.39832, 32.07857],
        [76.39925, 32.07989],
        [76.39949, 32.08036],
        [76.40008, 32.08152],
        [76.40073, 32.08291],
        [76.40119, 32.0828],
        [76.40222, 32.08245],
        [76.4036, 32.08216],
        [76.40484, 32.08205],
        [76.40622, 32.08205],
        [76.40679, 32.08205],
        [76.40785, 32.08227],
        [76.40803, 32.0817],
        [76.40857, 32.08069],
        [76.40915, 32.07958],
        [76.40966, 32.07795],
        [76.40989, 32.077],
        [76.41118, 32.07557],
        [76.41178, 32.07491],
        [76.41315, 32.07401],
        [76.41411, 32.0733],
        [76.41576, 32.0729],
        [76.41728, 32.07291],
        [76.41803, 32.07355],
        [76.4182, 32.07374],
        [76.41855, 32.07412],
        [76.41901, 32.07522],
        [76.41935, 32.07608],
        [76.41959, 32.07678],
        [76.41977, 32.07764],
        [76.41998, 32.07879],
        [76.42047, 32.0796],
        [76.4208, 32.08084],
        [76.42132, 32.08271],
        [76.42155, 32.08339],
        [76.42232, 32.08533],
        [76.42216, 32.08586],
        [76.42244, 32.08649],
        [76.42255, 32.0872],
        [76.42253, 32.08775],
        [76.42253, 32.08843],
        [76.42222, 32.08914],
        [76.42185, 32.09189],
        [76.42188, 32.09273],
        [76.42201, 32.09328],
        [76.42219, 32.09416],
        [76.4224, 32.095],
        [76.42279, 32.09611],
        [76.42328, 32.09803],
        [76.42338, 32.09916],
        [76.42312, 32.09992],
        [76.42281, 32.10116],
        [76.42263, 32.10195],
        [76.42263, 32.10259],
        [76.42276, 32.1031],
        [76.42325, 32.10367],
        [76.42344, 32.10396],
        [76.42385, 32.1042],
        [76.42419, 32.10413],
        [76.42437, 32.10446],
        [76.4252, 32.10477],
        [76.42641, 32.10539],
        [76.42706, 32.10574],
        [76.42776, 32.106],
        [76.42838, 32.1062],
        [76.4291, 32.1066],
        [76.4297, 32.10675],
        [76.43027, 32.10686],
        [76.4306, 32.10688],
        [76.43115, 32.10697],
        [76.43192, 32.10717],
        [76.43226, 32.10737],
        [76.43259, 32.10778],
        [76.43308, 32.10741],
        [76.43368, 32.1068],
        [76.43429, 32.10629],
        [76.43443, 32.10641],
        [76.43534, 32.1073],
        [76.43608, 32.10811],
        [76.43632, 32.10854],
        [76.43632, 32.10901],
        [76.43621, 32.10946],
        [76.43613, 32.10975],
        [76.43635, 32.10997],
        [76.43686, 32.11017],
        [76.43735, 32.11038],
        [76.43852, 32.11074],
        [76.43933, 32.11111],
        [76.43975, 32.11124],
        [76.44087, 32.11137],
        [76.4416, 32.11135],
        [76.44279, 32.11127],
        [76.44352, 32.11122],
        [76.44378, 32.11132],
        [76.44419, 32.11151],
        [76.44444, 32.11173],
        [76.44446, 32.1121],
        [76.44435, 32.11253]
      ]
    ]
  }
}
