{
  "type": "Feature",
  "id": "HP-AC-25",
  "properties": {
    "stateName": "HIMACHAL PRADESH",
    "stateCode": "HP",
    "districtName": "KULLU",
    "acNo": 25,
    "acName": "ANNI",
    "seatType": null,
    "pcNo": null,
    "pcName": null,
    "quality": "unverified",
    "sources": [
      "TBD"
    ]
  },
  "geometry": {
    "type": "Polygon",
    "coordinates": [
      [
        [77.64598, 31.65733],
        [77.64593, 31.657],
        [77.64595, 31.65632],
        [77.64622, 31.65403],
        [77.6468, 31.65202],
        [77.64709, 31.65174],
        [77.64724, 31.65164],
        [77.64752, 31.65159],
        [77.64777, 31.65164],
        [77.64811, 31.65174],
        [77.64841, 31.65202],
        [77.64867, 31.65212],
        [77.64898, 31.65215],
        [77.64939, 31.65204],
        [77.65032, 31.65124],
        [77.65104, 31.64996],
        [77.65124, 31.64887],
        [77.65128, 31.64842],
        [77.65134, 31.64798],
        [77.65143, 31.64745],
        [77.65319, 31.64492],
        [77.65436, 31.64329],
        [77.65671, 31.6414],
        [77.65757, 31.6406],
        [77.65782, 31.64033],
        [77.65799, 31.6399],
        [77.65812, 31.63942],
        [77.65837, 31.6388],
        [77.65871, 31.63846],
        [77.65903, 31.63835],
        [77.6596, 31.63829],
        [77.66007, 31.63812],
        [77.66037, 31.63793],
        [77.66054, 31.63759],
        [77.66069, 31.63723],
        [77.66124, 31.63606],
        [77.66209, 31.63439],
        [77.66253, 31.63368],
        [77.66256, 31.63353],
        [77.66232, 31.63343],
        [77.6609, 31.63258],
        [77.65988, 31.63182],
        [77.65959, 31.63163],
        [77.65931, 31.63144],
        [77.65903, 31.63133],
        [77.65869, 31.63124],
        [77.65732, 31.63099],
        [77.65451, 31.63015],
        [77.65283, 31.62977],
        [77.65185, 31.6295],
        [77.65105, 31.62912],
        [77.65043, 31.6288],
        [77.65014, 31.62848],
        [77.64986, 31.62797],
        [77.64967, 31.62742],
        [77.64958, 31.62719],
        [77.64948, 31.62698],
        [77.64948, 31.62683],
        [77.64952, 31.62653],
        [77.64956, 31.62632],
        [77.64963, 31.62594],
        [77.64971, 31.6253],
        [77.64967, 31.62473],
        [77.64963, 31.62426],
        [77.64954, 31.62388],
        [77.64948, 31.62324],
        [77.64942, 31.6225],
        [77.64943, 31.62136],
        [77.64928, 31.62087],
        [77.64913, 31.62034],
        [77.64905, 31.62002],
        [77.6489, 31.61981],
        [77.64877, 31.61941],
        [77.64865, 31.61911],
        [77.6485, 31.61882],
        [77.64833, 31.61865],
        [77.64803, 31.61852],
        [77.64778, 31.61835],
        [77.64756, 31.61822],
        [77.64729, 31.61807],
        [77.64703, 31.61793],
        [77.64689, 31.61774],
        [77.64684, 31.61752],
        [77.64678, 31.61697],
        [77.64667, 31.61657],
        [77.6465, 31.61617],
        [77.64608, 31.61574],
        [77.64593, 31.61542],
        [77.64583, 31.61521],
        [77.6458, 31.61496],
        [77.64589, 31.61458],
        [77.64599, 31.61441],
        [77.64612, 31.61426],
        [77.6465, 31.61377],
        [77.64661, 31.61364],
        [77.64659, 31.6133],
        [77.64653, 31.61267],
        [77.64623, 31.61159],
        [77.6461, 31.61126],
        [77.64599, 31.61087],
        [77.64593, 31.61068],
        [77.64593, 31.61036],
        [77.64599, 31.61007],
        [77.64608, 31.60986],
        [77.64618, 31.60966],
        [77.64621, 31.6095],
        [77.64623, 31.60928],
        [77.64623, 31.60909],
        [77.64623, 31.6089],
        [77.64618, 31.60875],
        [77.6461, 31.6086],
        [77.64597, 31.60839],
        [77.64584, 31.60827],
        [77.64565, 31.60803],
        [77.64551, 31.60788],
        [77.64508, 31.60761],
        [77.64487, 31.60744],
        [77.64474, 31.60733],
        [77.64463, 31.60725],
        [77.64449, 31.60714],
        [77.64442, 31.60697],
        [77.64442, 31.60682],
        [77.64445, 31.60668],
        [77.64453, 31.60653],
        [77.64485, 31.60604],
        [77.64527, 31.60482],
        [77.64552, 31.60308],
        [77.64622, 31.60053],
        [77.64654, 31.59899],
        [77.64709, 31.59805],
        [77.64862, 31.59634],
        [77.64877, 31.59613],
        [77.64883, 31.59585],
        [77.6489, 31.59518],
        [77.64886, 31.59452],
        [77.64826, 31.59303],
        [77.6478, 31.59197],
        [77.64767, 31.59166],
        [77.64763, 31.59132],
        [77.64763, 31.59115],
        [77.64773, 31.5907],
        [77.64824, 31.58992],
        [77.64833, 31.58966],
        [77.64835, 31.58932],
        [77.64833, 31.58915],
        [77.64833, 31.58892],
        [77.64839, 31.58871],
        [77.64841, 31.58852],
        [77.64843, 31.58818],
        [77.64841, 31.58788],
        [77.64829, 31.58765],
        [77.64816, 31.58731],
        [77.64812, 31.58701],
        [77.64812, 31.58661],
        [77.64818, 31.58575],
        [77.64822, 31.58524],
        [77.64831, 31.58467],
        [77.64839, 31.58428],
        [77.64848, 31.58399],
        [77.6486, 31.58354],
        [77.64907, 31.58276],
        [77.64954, 31.58208],
        [77.6503, 31.58136],
        [77.65083, 31.58104],
        [77.65138, 31.58032],
        [77.65174, 31.57983],
        [77.65285, 31.57907],
        [77.65532, 31.57734],
        [77.6571, 31.57615],
        [77.65731, 31.57604],
        [77.65795, 31.57594],
        [77.65897, 31.57585],
        [77.65954, 31.57575],
        [77.65971, 31.57558],
        [77.65992, 31.57528],
        [77.66115, 31.57371],
        [77.6619, 31.57312],
        [77.66219, 31.57293],
        [77.6624, 31.57274],
        [77.66257, 31.57253],
        [77.66323, 31.57127],
        [77.66339, 31.57071],
        [77.66386, 31.57022],
        [77.6642, 31.56988],
        [77.66451, 31.56971],
        [77.66483, 31.56956],
        [77.66509, 31.56941],
        [77.66534, 31.56929],
        [77.66564, 31.56918],
        [77.66587, 31.5691],
        [77.66619, 31.56897],
        [77.66627, 31.56884],
        [77.66632, 31.56865],
        [77.66632, 31.56833],
        [77.66628, 31.56793],
        [77.66625, 31.56753],
        [77.66623, 31.56696],
        [77.66625, 31.56638],
        [77.66657, 31.56604],
        [77.66681, 31.56579],
        [77.6677, 31.5649],
        [77.66861, 31.5636],
        [77.66895, 31.56333],
        [77.66916, 31.56316],
        [77.66939, 31.56303],
        [77.66984, 31.56297],
        [77.67022, 31.56291],
        [77.67088, 31.56284],
        [77.6726, 31.56284],
        [77.67317, 31.5628],
        [77.6737, 31.56269],
        [77.67502, 31.56227],
        [77.67736, 31.56105],
        [77.67944, 31.56003],
        [77.68014, 31.55982],
        [77.68048, 31.55974],
        [77.68078, 31.55965],
        [77.68088, 31.5595],
        [77.68095, 31.55938],
        [77.68097, 31.5591],
        [77.6809, 31.55895],
        [77.68063, 31.55883],
        [77.68014, 31.55868],
        [77.67957, 31.55855],
        [77.67929, 31.5584],
        [77.6791, 31.55827],
        [77.67897, 31.55808],
        [77.67889, 31.55774],
        [77.67893, 31.55743],
        [77.67908, 31.55711],
        [77.67927, 31.55696],
        [77.67948, 31.55671],
        [77.67967, 31.55637],
        [77.67993, 31.55579],
        [77.68012, 31.55478],
        [77.68012, 31.55425],
        [77.6801, 31.55391],
        [77.68008, 31.55351],
        [77.68008, 31.55334],
        [77.68027, 31.55323],
        [77.6804, 31.55306],
        [77.68057, 31.55294],
        [77.68072, 31.55277],
        [77.68082, 31.55258],
        [77.68084, 31.55236],
        [77.68072, 31.55211],
        [77.6801, 31.55183],
        [77.67999, 31.55166],
        [77.67997, 31.55147],
        [77.68004, 31.55128],
        [77.68016, 31.55099],
        [77.68038, 31.55086],
        [77.68082, 31.55071],
        [77.68112, 31.55061],
        [77.68139, 31.5505],
        [77.68159, 31.55033],
        [77.68184, 31.54993],
        [77.68207, 31.5495],
        [77.68237, 31.54912],
        [77.68388, 31.54776],
        [77.68554, 31.5461],
        [77.68707, 31.54436],
        [77.68766, 31.54421],
        [77.68849, 31.54419],
        [77.68906, 31.54417],
        [77.68953, 31.54421],
        [77.68978, 31.54428],
        [77.69133, 31.54506],
        [77.69167, 31.54517],
        [77.69205, 31.54521],
        [77.69248, 31.54523],
        [77.69282, 31.54523],
        [77.69322, 31.54517],
        [77.69449, 31.54474],
        [77.69519, 31.54428],
        [77.69534, 31.54411],
        [77.69551, 31.54387],
        [77.6956, 31.54366],
        [77.69562, 31.54351],
        [77.69572, 31.54332],
        [77.69598, 31.54322],
        [77.69731, 31.54298],
        [77.69779, 31.54285],
        [77.69828, 31.54262],
        [77.69888, 31.54218],
        [77.69926, 31.54126],
        [77.70015, 31.53955],
        [77.70036, 31.53839],
        [77.70032, 31.53771],
        [77.7003, 31.53711],
        [77.70032, 31.53675],
        [77.70036, 31.53652],
        [77.70045, 31.53618],
        [77.70055, 31.53601],
        [77.70068, 31.53584],
        [77.70104, 31.53546],
        [77.70144, 31.53519],
        [77.70172, 31.53502],
        [77.70189, 31.53489],
        [77.70202, 31.53474],
        [77.70217, 31.5344],
        [77.70221, 31.53419],
        [77.70215, 31.53394],
        [77.70193, 31.53247],
        [77.70187, 31.5322],
        [77.70183, 31.53203],
        [77.70181, 31.5316],
        [77.70181, 31.53126],
        [77.70181, 31.53101],
        [77.70189, 31.53073],
        [77.70219, 31.53033],
        [77.70231, 31.53008],
        [77.70234, 31.52982],
        [77.70229, 31.52963],
        [77.70217, 31.52946],
        [77.70181, 31.52925],
        [77.70153, 31.52908],
        [77.7014, 31.52885],
        [77.7013, 31.5286],
        [77.70119, 31.52828],
        [77.70106, 31.52806],
        [77.70085, 31.52764],
        [77.70064, 31.52743],
        [77.70043, 31.52724],
        [77.70019, 31.527],
        [77.70005, 31.52681],
        [77.69996, 31.52654],
        [77.69996, 31.52633],
        [77.69998, 31.52595],
        [77.69994, 31.52567],
        [77.69981, 31.5255],
        [77.69969, 31.52535],
        [77.6996, 31.52506],
        [77.69958, 31.52474],
        [77.69958, 31.52433],
        [77.69954, 31.52408],
        [77.69943, 31.52387],
        [77.69915, 31.52334],
        [77.69903, 31.52308],
        [77.69892, 31.52289],
        [77.69886, 31.52249],
        [77.69881, 31.52207],
        [77.69886, 31.52052],
        [77.69909, 31.51857],
        [77.69919, 31.51836],
        [77.6993, 31.51815],
        [77.69936, 31.51794],
        [77.69943, 31.5176],
        [77.69943, 31.51709],
        [77.69943, 31.51667],
        [77.69938, 31.51629],
        [77.69934, 31.5158],
        [77.6993, 31.51544],
        [77.69928, 31.51504],
        [77.69928, 31.51474],
        [77.69928, 31.51455],
        [77.69932, 31.51433],
        [77.6994, 31.51421],
        [77.69949, 31.51406],
        [77.69964, 31.51398],
        [77.7004, 31.51363],
        [77.70081, 31.51336],
        [77.70114, 31.51313],
        [77.70129, 31.51287],
        [77.70138, 31.51257],
        [77.70148, 31.51241],
        [77.70161, 31.5123],
        [77.70246, 31.51182],
        [77.70259, 31.51171],
        [77.70268, 31.51156],
        [77.70268, 31.51141],
        [77.70268, 31.5111],
        [77.70272, 31.51093],
        [77.70278, 31.51044],
        [77.70285, 31.51025],
        [77.70293, 31.51006],
        [77.70297, 31.50978],
        [77.70299, 31.50936],
        [77.70295, 31.50912],
        [77.70295, 31.50883],
        [77.70306, 31.50813],
        [77.70314, 31.5077],
        [77.70327, 31.50745],
        [77.7034, 31.5073],
        [77.70374, 31.50709],
        [77.70427, 31.50681],
        [77.70522, 31.50588],
        [77.70586, 31.50518],
        [77.70626, 31.50452],
        [77.70652, 31.50363],
        [77.70694, 31.50243],
        [77.70705, 31.50211],
        [77.70705, 31.50199],
        [77.70703, 31.50154],
        [77.70688, 31.50103],
        [77.7062, 31.49985],
        [77.70583, 31.49901],
        [77.70531, 31.49819],
        [77.70491, 31.49773],
        [77.7036, 31.49674],
        [77.70304, 31.49655],
        [77.70212, 31.49628],
        [77.70134, 31.49609],
        [77.7002, 31.49586],
        [77.6993, 31.49555],
        [77.69811, 31.49506],
        [77.69742, 31.49462],
        [77.69661, 31.49386],
        [77.6959, 31.49319],
        [77.69446, 31.49208],
        [77.69338, 31.49158],
        [77.69244, 31.49109],
        [77.69156, 31.49036],
        [77.68898, 31.48805],
        [77.68698, 31.48652],
        [77.68534, 31.48513],
        [77.6838, 31.48402],
        [77.68301, 31.48334],
        [77.68252, 31.48271],
        [77.68197, 31.48179],
        [77.68161, 31.48074],
        [77.68161, 31.47987],
        [77.68158, 31.47898],
        [77.68145, 31.47795],
        [77.68118, 31.47727],
        [77.68064, 31.47664],
        [77.67986, 31.47574],
        [77.67813, 31.47362],
        [77.67704, 31.47208],
        [77.67627, 31.47124],
        [77.67508, 31.46965],
        [77.67428, 31.46822],
        [77.67321, 31.46635],
        [77.67221, 31.46467],
        [77.67154, 31.46383],
        [77.67077, 31.4631],
        [77.67016, 31.46257],
        [77.66919, 31.46221],
        [77.66829, 31.46198],
        [77.66716, 31.46173],
        [77.66614, 31.46145],
        [77.66497, 31.46118],
        [77.66312, 31.46066],
        [77.66193, 31.46045],
        [77.66093, 31.46033],
        [77.66011, 31.46009],
        [77.6588, 31.45972],
        [77.65767, 31.45927],
        [77.65688, 31.45883],
        [77.65609, 31.4582],
        [77.65469, 31.45704],
        [77.65365, 31.45622],
        [77.65281, 31.45578],
        [77.65187, 31.45523],
        [77.65102, 31.455],
        [77.64975, 31.45472],
        [77.64856, 31.45457],
        [77.64741, 31.45472],
        [77.64639, 31.45491],
        [77.64528, 31.45516],
        [77.64397, 31.45579],
        [77.64301, 31.45608],
        [77.64238, 31.45619],
        [77.6416, 31.45629],
        [77.64072, 31.45617],
        [77.63982, 31.45596],
        [77.63884, 31.4556],
        [77.63807, 31.45522],
        [77.63721, 31.45463],
        [77.63671, 31.45398],
        [77.63613, 31.45322],
        [77.6355, 31.45272],
        [77.63507, 31.45253],
        [77.634, 31.45225],
        [77.63319, 31.45205],
        [77.63221, 31.45163],
        [77.63135, 31.4514],
        [77.63031, 31.45113],
        [77.62927, 31.45083],
        [77.62851, 31.45077],
        [77.6278, 31.45062],
        [77.62733, 31.4502],
        [77.62726, 31.44991],
        [77.62735, 31.44946],
        [77.62751, 31.44869],
        [77.6278, 31.44797],
        [77.62835, 31.44676],
        [77.62867, 31.44571],
        [77.62876, 31.44459],
        [77.62848, 31.44383],
        [77.62783, 31.44296],
        [77.62693, 31.44161],
        [77.62623, 31.44062],
        [77.62541, 31.43963],
        [77.6243, 31.4385],
        [77.62288, 31.43693],
        [77.62249, 31.43621],
        [77.62209, 31.43524],
        [77.62185, 31.4341],
        [77.62186, 31.43269],
        [77.62192, 31.43155],
        [77.62192, 31.43029],
        [77.62161, 31.42908],
        [77.62111, 31.42802],
        [77.62066, 31.42697],
        [77.62063, 31.42613],
        [77.62097, 31.42492],
        [77.62098, 31.42414],
        [77.62099, 31.42307],
        [77.62128, 31.42042],
        [77.62126, 31.41958],
        [77.6213, 31.41883],
        [77.62134, 31.41767],
        [77.62145, 31.41657],
        [77.62157, 31.4157],
        [77.62182, 31.41488],
        [77.62216, 31.4141],
        [77.62334, 31.41269],
        [77.62489, 31.41112],
        [77.62635, 31.40998],
        [77.62766, 31.40878],
        [77.62868, 31.40758],
        [77.62939, 31.4066],
        [77.62999, 31.40578],
        [77.63047, 31.40486],
        [77.63095, 31.40421],
        [77.63154, 31.40345],
        [77.63211, 31.40269],
        [77.63266, 31.40181],
        [77.63342, 31.4007],
        [77.63362, 31.3998],
        [77.63365, 31.39883],
        [77.63325, 31.39792],
        [77.6329, 31.39723],
        [77.63266, 31.39641],
        [77.63235, 31.39549],
        [77.63198, 31.39463],
        [77.63164, 31.39357],
        [77.63108, 31.39257],
        [77.63077, 31.39211],
        [77.63012, 31.39131],
        [77.62952, 31.3906],
        [77.62879, 31.38984],
        [77.62814, 31.38921],
        [77.62735, 31.38862],
        [77.62662, 31.38841],
        [77.62516, 31.38811],
        [77.6241, 31.38797],
        [77.62303, 31.38782],
        [77.6218, 31.38805],
        [77.62063, 31.38826],
        [77.61982, 31.38839],
        [77.61867, 31.38881],
        [77.61769, 31.38912],
        [77.61584, 31.38989],
        [77.61452, 31.39044],
        [77.6135, 31.39101],
        [77.61277, 31.39149],
        [77.61223, 31.39217],
        [77.61123, 31.39349],
        [77.61037, 31.39452],
        [77.60966, 31.3952],
        [77.60875, 31.39618],
        [77.60766, 31.39689],
        [77.60687, 31.39731],
        [77.60572, 31.39761],
        [77.6047, 31.39792],
        [77.60366, 31.3979],
        [77.60165, 31.39799],
        [77.60055, 31.39822],
        [77.59934, 31.39837],
        [77.59847, 31.3983],
        [77.59713, 31.39839],
        [77.59602, 31.39847],
        [77.59506, 31.39847],
        [77.59386, 31.39862],
        [77.59256, 31.39883],
        [77.59165, 31.3987],
        [77.59062, 31.39824],
        [77.58962, 31.39803],
        [77.5887, 31.39788],
        [77.58776, 31.39777],
        [77.58662, 31.39748],
        [77.58531, 31.39707],
        [77.58441, 31.39696],
        [77.58344, 31.39692],
        [77.58241, 31.39686],
        [77.5814, 31.39667],
        [77.57997, 31.39637],
        [77.57894, 31.39618],
        [77.57798, 31.39589],
        [77.57738, 31.39536],
        [77.57648, 31.39461],
        [77.57577, 31.3936],
        [77.57548, 31.39276],
        [77.57529, 31.39215],
        [77.57523, 31.39154],
        [77.57559, 31.39057],
        [77.57579, 31.39011],
        [77.57569, 31.38944],
        [77.57546, 31.38919],
        [77.57511, 31.38904],
        [77.57418, 31.38872],
        [77.57292, 31.38851],
        [77.57206, 31.38855],
        [77.57108, 31.38876],
        [77.56943, 31.38906],
        [77.56781, 31.38919],
        [77.56687, 31.3891],
        [77.56614, 31.389],
        [77.56491, 31.3887],
        [77.56349, 31.38845],
        [77.56251, 31.38847],
        [77.56103, 31.38866],
        [77.55971, 31.389],
        [77.55867, 31.38931],
        [77.5575, 31.38971],
        [77.55642, 31.39009],
        [77.55559, 31.39003],
        [77.55482, 31.38994],
        [77.55423, 31.38978],
        [77.55358, 31.38938],
        [77.55327, 31.38895],
        [77.55269, 31.38818],
        [77.55212, 31.38736],
        [77.55148, 31.38684],
        [77.55068, 31.38629],
        [77.55002, 31.38568],
        [77.54974, 31.38528],
        [77.54951, 31.38463],
        [77.54902, 31.384],
        [77.54835, 31.3832],
        [77.54749, 31.38251],
        [77.54649, 31.38184],
        [77.54576, 31.38108],
        [77.54562, 31.37999],
        [77.5453, 31.37848],
        [77.54484, 31.3765],
        [77.54423, 31.37444],
        [77.54386, 31.37361],
        [77.54311, 31.37247],
        [77.54182, 31.37096],
        [77.54102, 31.37011],
        [77.54025, 31.36911],
        [77.53923, 31.36764],
        [77.53775, 31.36579],
        [77.5369, 31.36432],
        [77.53661, 31.36365],
        [77.53592, 31.36272],
        [77.53548, 31.36201],
        [77.53477, 31.36127],
        [77.53388, 31.36043],
        [77.53323, 31.35981],
        [77.53187, 31.35842],
        [77.53075, 31.35695],
        [77.52964, 31.35581],
        [77.52799, 31.35409],
        [77.52674, 31.35317],
        [77.5248, 31.35178],
        [77.52292, 31.35048],
        [77.52219, 31.35003],
        [77.52172, 31.34972],
        [77.52005, 31.34846],
        [77.51896, 31.34804],
        [77.5178, 31.34773],
        [77.51677, 31.34779],
        [77.51569, 31.34802],
        [77.51442, 31.34859],
        [77.51337, 31.34899],
        [77.51239, 31.34905],
        [77.51114, 31.34916],
        [77.51006, 31.34899],
        [77.50928, 31.34871],
        [77.50831, 31.34834],
        [77.50709, 31.34783],
        [77.50601, 31.34756],
        [77.50472, 31.34756],
        [77.5039, 31.34781],
        [77.50332, 31.34842],
        [77.50271, 31.34911],
        [77.50215, 31.34996],
        [77.50194, 31.35058],
        [77.50144, 31.35163],
        [77.50065, 31.35271],
        [77.49978, 31.354],
        [77.49872, 31.35564],
        [77.49801, 31.35572],
        [77.49684, 31.35572],
        [77.49597, 31.35559],
        [77.49478, 31.35527],
        [77.49383, 31.35516],
        [77.49293, 31.35508],
        [77.4917, 31.35478],
        [77.48956, 31.35486],
        [77.48837, 31.35495],
        [77.48698, 31.35491],
        [77.48605, 31.35469],
        [77.48486, 31.35463],
        [77.48308, 31.35476],
        [77.48153, 31.35484],
        [77.48068, 31.35455],
        [77.48026, 31.3542],
        [77.47964, 31.35317],
        [77.47923, 31.35234],
        [77.47881, 31.35185],
        [77.47735, 31.35078],
        [77.47495, 31.34932],
        [77.47376, 31.34889],
        [77.47296, 31.34881],
        [77.47217, 31.34894],
        [77.47132, 31.34934],
        [77.46977, 31.35024],
        [77.46847, 31.35093],
        [77.46756, 31.3512],
        [77.46656, 31.35138],
        [77.46575, 31.35127],
        [77.46461, 31.35084],
        [77.46389, 31.35054],
        [77.4617, 31.34996],
        [77.46076, 31.34998],
        [77.45945, 31.35037],
        [77.45849, 31.35078],
        [77.45732, 31.35123],
        [77.45641, 31.3512],
        [77.45554, 31.35086],
        [77.45491, 31.35022],
        [77.4544, 31.34949],
        [77.45389, 31.34838],
        [77.45393, 31.34761],
        [77.45399, 31.34622],
        [77.45386, 31.34566],
        [77.45334, 31.34511],
        [77.45276, 31.34453],
        [77.45231, 31.34429],
        [77.45147, 31.34414],
        [77.45055, 31.34421],
        [77.44909, 31.34433],
        [77.44758, 31.34444],
        [77.4459, 31.34453],
        [77.4451, 31.34468],
        [77.44397, 31.34487],
        [77.44289, 31.34525],
        [77.44174, 31.34523],
        [77.4396, 31.345],
        [77.43754, 31.34448],
        [77.43588, 31.34431],
        [77.43488, 31.34399],
        [77.43459, 31.34367],
        [77.43433, 31.34324],
        [77.43416, 31.34228],
        [77.43407, 31.3417],
        [77.43384, 31.34127],
        [77.43356, 31.3408],
        [77.4332, 31.34048],
        [77.43233, 31.34037],
        [77.43102, 31.34033],
        [77.42974, 31.3404],
        [77.42843, 31.34069],
        [77.42792, 31.34093],
        [77.42722, 31.34142],
        [77.42692, 31.34196],
        [77.42687, 31.34275],
        [77.42679, 31.34393],
        [77.42656, 31.34467],
        [77.4257, 31.34525],
        [77.425, 31.34589],
        [77.42401, 31.34656],
        [77.42286, 31.34731],
        [77.42142, 31.3481],
        [77.42085, 31.34827],
        [77.4196, 31.34874],
        [77.41879, 31.3487],
        [77.41792, 31.34842],
        [77.41709, 31.34776],
        [77.41607, 31.34697],
        [77.41475, 31.34639],
        [77.41377, 31.3463],
        [77.41267, 31.34667],
        [77.41197, 31.34712],
        [77.41155, 31.34795],
        [77.4112, 31.34908],
        [77.41099, 31.34983],
        [77.41074, 31.35071],
        [77.41042, 31.35172],
        [77.40985, 31.35281],
        [77.40908, 31.35358],
        [77.40846, 31.35401],
        [77.40675, 31.35506],
        [77.40562, 31.35602],
        [77.40469, 31.35662],
        [77.40362, 31.35728],
        [77.40282, 31.35771],
        [77.40131, 31.35882],
        [77.4002, 31.35979],
        [77.3998, 31.36023],
        [77.3993, 31.36101],
        [77.39868, 31.36178],
        [77.39817, 31.36208],
        [77.39783, 31.3622],
        [77.39727, 31.3621],
        [77.39702, 31.36184],
        [77.39649, 31.36124],
        [77.396, 31.3604],
        [77.39526, 31.35867],
        [77.39488, 31.35801],
        [77.39394, 31.35617],
        [77.39358, 31.35568],
        [77.39282, 31.35512],
        [77.39231, 31.35497],
        [77.39156, 31.35527],
        [77.39076, 31.35593],
        [77.39001, 31.35688],
        [77.38936, 31.35754],
        [77.38859, 31.35816],
        [77.3881, 31.35865],
        [77.38721, 31.35959],
        [77.38589, 31.36026],
        [77.38502, 31.36051],
        [77.38424, 31.36051],
        [77.38361, 31.36051],
        [77.38396, 31.36115],
        [77.38484, 31.36218],
        [77.38515, 31.36283],
        [77.38521, 31.36409],
        [77.38507, 31.36585],
        [77.38515, 31.36762],
        [77.3854, 31.36897],
        [77.38589, 31.37002],
        [77.38702, 31.37105],
        [77.38794, 31.37182],
        [77.38857, 31.37255],
        [77.38895, 31.37419],
        [77.38908, 31.37545],
        [77.38891, 31.37646],
        [77.38821, 31.37721],
        [77.38746, 31.37779],
        [77.38691, 31.37879],
        [77.38683, 31.37954],
        [77.38681, 31.38044],
        [77.38715, 31.38237],
        [77.38736, 31.38329],
        [77.38749, 31.38419],
        [77.38745, 31.38526],
        [77.38713, 31.38703],
        [77.38696, 31.38782],
        [77.38662, 31.38808],
        [77.38613, 31.38825],
        [77.38515, 31.38868],
        [77.38492, 31.38909],
        [77.38494, 31.3896],
        [77.38509, 31.39037],
        [77.38537, 31.39142],
        [77.38551, 31.39211],
        [77.38528, 31.39255],
        [77.3849, 31.39277],
        [77.38428, 31.39283],
        [77.38315, 31.39277],
        [77.38228, 31.39288],
        [77.38187, 31.39328],
        [77.38146, 31.39395],
        [77.38128, 31.39446],
        [77.38108, 31.39583],
        [77.38131, 31.39675],
        [77.38173, 31.39778],
        [77.38171, 31.39861],
        [77.38174, 31.39953],
        [77.38209, 31.4003],
        [77.38258, 31.40088],
        [77.38286, 31.40155],
        [77.38282, 31.40201],
        [77.38244, 31.4024],
        [77.38169, 31.40266],
        [77.38095, 31.40294],
        [77.38033, 31.40317],
        [77.38001, 31.40339],
        [77.37995, 31.40369],
        [77.38, 31.40403],
        [77.38025, 31.40428],
        [77.38093, 31.40497],
        [77.38135, 31.40589],
        [77.38157, 31.40687],
        [77.3819, 31.40771],
        [77.38256, 31.4085],
        [77.38343, 31.40906],
        [77.38434, 31.40957],
        [77.38513, 31.41013],
        [77.38572, 31.41109],
        [77.38588, 31.41175],
        [77.38611, 31.41252],
        [77.38613, 31.41285],
        [77.38559, 31.41329],
        [77.38494, 31.41394],
        [77.38431, 31.41436],
        [77.38366, 31.41464],
        [77.38303, 31.41488],
        [77.3819, 31.41505],
        [77.38059, 31.41503],
        [77.37957, 31.41497],
        [77.37914, 31.41499],
        [77.37878, 31.4152],
        [77.37859, 31.41539],
        [77.37842, 31.41556],
        [77.37838, 31.41578],
        [77.37825, 31.41618],
        [77.37832, 31.41672],
        [77.37829, 31.41725],
        [77.37823, 31.41764],
        [77.37813, 31.41809],
        [77.378, 31.41854],
        [77.37784, 31.4189],
        [77.37759, 31.41914],
        [77.37717, 31.4195],
        [77.3767, 31.41999],
        [77.37607, 31.42038],
        [77.37551, 31.42055],
        [77.37502, 31.42076],
        [77.37453, 31.42096],
        [77.37394, 31.42104],
        [77.37263, 31.42108],
        [77.37186, 31.42119],
        [77.37112, 31.42132],
        [77.37041, 31.42151],
        [77.36976, 31.42175],
        [77.36959, 31.42216],
        [77.36948, 31.42269],
        [77.36941, 31.42299],
        [77.36912, 31.42344],
        [77.36878, 31.42363],
        [77.36825, 31.4238],
        [77.36778, 31.42391],
        [77.36742, 31.42408],
        [77.36702, 31.42444],
        [77.36674, 31.42485],
        [77.366, 31.42517],
        [77.36528, 31.42543],
        [77.36451, 31.42552],
        [77.36379, 31.42551],
        [77.36326, 31.4256],
        [77.36266, 31.42575],
        [77.36233, 31.4259],
        [77.36224, 31.42609],
        [77.36222, 31.42654],
        [77.36226, 31.42706],
        [77.3623, 31.42731],
        [77.36224, 31.42766],
        [77.36203, 31.42793],
        [77.36184, 31.4283],
        [77.36166, 31.42851],
        [77.36154, 31.42868],
        [77.36133, 31.42877],
        [77.36116, 31.42922],
        [77.36099, 31.42956],
        [77.36084, 31.42984],
        [77.36065, 31.43022],
        [77.36033, 31.43054],
        [77.35999, 31.43089],
        [77.35952, 31.43116],
        [77.35918, 31.43142],
        [77.35859, 31.4317],
        [77.3581, 31.43196],
        [77.35732, 31.43221],
        [77.35685, 31.43249],
        [77.35653, 31.43285],
        [77.3564, 31.43326],
        [77.35621, 31.43392],
        [77.35585, 31.43495],
        [77.35545, 31.43564],
        [77.35494, 31.43617],
        [77.35442, 31.43639],
        [77.35366, 31.43649],
        [77.35303, 31.43669],
        [77.35264, 31.43681],
        [77.3523, 31.43707],
        [77.35179, 31.43752],
        [77.35139, 31.43789],
        [77.35044, 31.43853],
        [77.34989, 31.43891],
        [77.34965, 31.43921],
        [77.34933, 31.4396],
        [77.3491, 31.43996],
        [77.3488, 31.4402],
        [77.34835, 31.44045],
        [77.34805, 31.44062],
        [77.34753, 31.44097],
        [77.34716, 31.44142],
        [77.34708, 31.44184],
        [77.34708, 31.44251],
        [77.34719, 31.44358],
        [77.34718, 31.44413],
        [77.34714, 31.44465],
        [77.34693, 31.44501],
        [77.34665, 31.44518],
        [77.34602, 31.44544],
        [77.34551, 31.4455],
        [77.34485, 31.44548],
        [77.34428, 31.44548],
        [77.34358, 31.44565],
        [77.3426, 31.44602],
        [77.3419, 31.44653],
        [77.34122, 31.44702],
        [77.34046, 31.44722],
        [77.33967, 31.44724],
        [77.3394, 31.44722],
        [77.33848, 31.44754],
        [77.33803, 31.44786],
        [77.33759, 31.44818],
        [77.33712, 31.44837],
        [77.33676, 31.44882],
        [77.33644, 31.44891],
        [77.3361, 31.44901],
        [77.33548, 31.4497],
        [77.335, 31.45013],
        [77.33472, 31.45036],
        [77.33455, 31.45062],
        [77.33417, 31.45096],
        [77.33381, 31.45107],
        [77.33326, 31.45111],
        [77.33271, 31.45115],
        [77.33245, 31.45137],
        [77.33232, 31.45154],
        [77.33226, 31.45162],
        [77.33213, 31.45182],
        [77.33211, 31.45218],
        [77.33209, 31.45252],
        [77.33209, 31.45272],
        [77.33204, 31.45297],
        [77.332, 31.45338],
        [77.33196, 31.45363],
        [77.3319, 31.45379],
        [77.33173, 31.45396],
        [77.3313, 31.45426],
        [77.33107, 31.45434],
        [77.33049, 31.45473],
        [77.33007, 31.45511],
        [77.32988, 31.45539],
        [77.32986, 31.45569],
        [77.32975, 31.45603],
        [77.32973, 31.45633],
        [77.32971, 31.45644],
        [77.32965, 31.45753],
        [77.32959, 31.45813],
        [77.32943, 31.45843],
        [77.3292, 31.4589],
        [77.32852, 31.45995],
        [77.32782, 31.46115],
        [77.3271, 31.46216],
        [77.32704, 31.46256],
        [77.32684, 31.46301],
        [77.3267, 31.46342],
        [77.32661, 31.46397],
        [77.32637, 31.46455],
        [77.32623, 31.46492],
        [77.32585, 31.46537],
        [77.32548, 31.46607],
        [77.32538, 31.46654],
        [77.32523, 31.46705],
        [77.32498, 31.46748],
        [77.32485, 31.46785],
        [77.32472, 31.46817],
        [77.32461, 31.46851],
        [77.32466, 31.46904],
        [77.32474, 31.46962],
        [77.32448, 31.47078],
        [77.32423, 31.47161],
        [77.32385, 31.47245],
        [77.32338, 31.4733],
        [77.323, 31.47401],
        [77.32272, 31.47455],
        [77.32239, 31.47523],
        [77.32225, 31.47544],
        [77.32192, 31.47615],
        [77.32179, 31.47679],
        [77.32177, 31.47711],
        [77.3219, 31.47775],
        [77.32223, 31.47836],
        [77.32266, 31.47932],
        [77.32293, 31.48002],
        [77.32306, 31.48047],
        [77.32293, 31.48092],
        [77.32283, 31.48144],
        [77.32279, 31.48191],
        [77.32279, 31.48247],
        [77.32287, 31.483],
        [77.32325, 31.48377],
        [77.32355, 31.48418],
        [77.32366, 31.48446],
        [77.32368, 31.48469],
        [77.32387, 31.48531],
        [77.32396, 31.48606],
        [77.32396, 31.48634],
        [77.32383, 31.48666],
        [77.32357, 31.48696],
        [77.32338, 31.48726],
        [77.32319, 31.48752],
        [77.32315, 31.48805],
        [77.32311, 31.48829],
        [77.323, 31.48856],
        [77.32281, 31.48886],
        [77.32249, 31.48914],
        [77.32222, 31.48942],
        [77.32196, 31.4897],
        [77.32166, 31.49011],
        [77.32145, 31.49049],
        [77.32135, 31.49085],
        [77.32124, 31.4912],
        [77.32111, 31.49167],
        [77.321, 31.4921],
        [77.32087, 31.49244],
        [77.32075, 31.49272],
        [77.32046, 31.49299],
        [77.32017, 31.49321],
        [77.3199, 31.4934],
        [77.31973, 31.49359],
        [77.31968, 31.494],
        [77.31962, 31.49486],
        [77.31959, 31.49565],
        [77.31958, 31.49633],
        [77.31943, 31.49691],
        [77.31929, 31.4976],
        [77.31911, 31.49819],
        [77.31897, 31.49856],
        [77.31878, 31.4989],
        [77.31856, 31.49933],
        [77.31832, 31.49983],
        [77.31795, 31.50047],
        [77.31788, 31.50056],
        [77.31783, 31.50066],
        [77.31778, 31.50076],
        [77.31775, 31.50086],
        [77.31772, 31.50097],
        [77.31771, 31.50108],
        [77.31771, 31.50119],
        [77.31772, 31.5013],
        [77.31773, 31.50141],
        [77.31776, 31.50153],
        [77.31778, 31.50165],
        [77.31778, 31.50178],
        [77.31776, 31.5019],
        [77.31773, 31.50202],
        [77.31769, 31.50214],
        [77.31763, 31.50225],
        [77.31756, 31.50235],
        [77.31748, 31.50244],
        [77.31744, 31.50253],
        [77.31741, 31.50262],
        [77.31739, 31.50271],
        [77.31737, 31.5028],
        [77.31735, 31.50289],
        [77.31733, 31.50299],
        [77.31732, 31.50308],
        [77.31732, 31.50317],
        [77.31731, 31.50326],
        [77.31734, 31.50339],
        [77.31735, 31.50353],
        [77.31734, 31.50366],
        [77.31733, 31.50379],
        [77.3173, 31.50392],
        [77.31725, 31.50404],
        [77.31719, 31.50416],
        [77.31712, 31.50428],
        [77.31704, 31.50438],
        [77.31674, 31.50461],
        [77.3161, 31.50534],
        [77.31479, 31.5064],
        [77.31459, 31.50663],
        [77.31443, 31.50689],
        [77.3143, 31.50717],
        [77.31422, 31.50747],
        [77.31418, 31.50777],
        [77.31419, 31.50808],
        [77.31424, 31.50838],
        [77.31433, 31.50868],
        [77.31446, 31.50895],
        [77.31457, 31.50908],
        [77.31467, 31.50921],
        [77.31476, 31.50935],
        [77.31484, 31.50949],
        [77.3149, 31.50964],
        [77.31495, 31.5098],
        [77.31499, 31.50996],
        [77.31501, 31.51013],
        [77.31502, 31.51029],
        [77.315, 31.51126],
        [77.31505, 31.51145],
        [77.31508, 31.51164],
        [77.31509, 31.51183],
        [77.31508, 31.51203],
        [77.31504, 31.51221],
        [77.31499, 31.5124],
        [77.31492, 31.51258],
        [77.31483, 31.51275],
        [77.31472, 31.51291],
        [77.31432, 31.51345],
        [77.31427, 31.5136],
        [77.31424, 31.51375],
        [77.31421, 31.5139],
        [77.31418, 31.51405],
        [77.31416, 31.51421],
        [77.31415, 31.51436],
        [77.31415, 31.51452],
        [77.31415, 31.51467],
        [77.31415, 31.51483],
        [77.31414, 31.51498],
        [77.31411, 31.51514],
        [77.31408, 31.51529],
        [77.31404, 31.51544],
        [77.31398, 31.51558],
        [77.31392, 31.51572],
        [77.31385, 31.51586],
        [77.31377, 31.51599],
        [77.31368, 31.51612],
        [77.31355, 31.51643],
        [77.31345, 31.51675],
        [77.31338, 31.51708],
        [77.31334, 31.51741],
        [77.31334, 31.51775],
        [77.31336, 31.51808],
        [77.31342, 31.51841],
        [77.31351, 31.51873],
        [77.31364, 31.51905],
        [77.31374, 31.5193],
        [77.31382, 31.51955],
        [77.31389, 31.51981],
        [77.31395, 31.52007],
        [77.31398, 31.52034],
        [77.314, 31.52061],
        [77.314, 31.52088],
        [77.31398, 31.52115],
        [77.31394, 31.52142],
        [77.31382, 31.52254],
        [77.3138, 31.52269],
        [77.31378, 31.52284],
        [77.31378, 31.523],
        [77.31378, 31.52315],
        [77.3138, 31.5233],
        [77.31383, 31.52345],
        [77.31387, 31.5236],
        [77.31393, 31.52374],
        [77.31399, 31.52388],
        [77.31439, 31.52454],
        [77.31505, 31.52617],
        [77.31554, 31.52755],
        [77.31639, 31.52882],
        [77.31648, 31.52894],
        [77.31656, 31.52906],
        [77.31663, 31.52919],
        [77.3167, 31.52933],
        [77.31675, 31.52946],
        [77.31679, 31.5296],
        [77.31682, 31.52975],
        [77.31684, 31.5299],
        [77.31685, 31.53002],
        [77.31732, 31.52989],
        [77.31783, 31.53001],
        [77.31859, 31.53043],
        [77.31902, 31.53062],
        [77.31912, 31.53062],
        [77.31932, 31.53049],
        [77.31958, 31.53023],
        [77.32004, 31.5301],
        [77.32047, 31.53001],
        [77.3209, 31.53003],
        [77.32161, 31.53019],
        [77.32222, 31.53034],
        [77.32288, 31.53064],
        [77.3239, 31.53088],
        [77.32478, 31.53112],
        [77.32569, 31.53131],
        [77.32697, 31.53168],
        [77.32749, 31.53179],
        [77.3277, 31.53199],
        [77.32841, 31.53286],
        [77.32886, 31.53332],
        [77.32925, 31.53343],
        [77.33031, 31.53336],
        [77.33102, 31.53344],
        [77.3318, 31.53373],
        [77.33243, 31.53395],
        [77.33308, 31.53401],
        [77.33465, 31.53388],
        [77.33589, 31.53386],
        [77.33692, 31.53369],
        [77.33768, 31.53327],
        [77.33822, 31.53305],
        [77.33915, 31.53287],
        [77.3404, 31.53283],
        [77.34122, 31.53287],
        [77.34148, 31.5329],
        [77.34187, 31.53307],
        [77.34263, 31.53379],
        [77.34353, 31.5345],
        [77.34431, 31.53483],
        [77.34506, 31.53539],
        [77.34584, 31.53568],
        [77.34671, 31.5357],
        [77.34732, 31.5356],
        [77.34794, 31.53555],
        [77.34907, 31.53553],
        [77.34975, 31.53557],
        [77.35056, 31.53566],
        [77.35126, 31.53586],
        [77.35163, 31.53585],
        [77.352, 31.53584],
        [77.35261, 31.53566],
        [77.3533, 31.53548],
        [77.35397, 31.53525],
        [77.35446, 31.53499],
        [77.35494, 31.53474],
        [77.35531, 31.5344],
        [77.35589, 31.53371],
        [77.35659, 31.53335],
        [77.35738, 31.53328],
        [77.35836, 31.53349],
        [77.35908, 31.53384],
        [77.3598, 31.53419],
        [77.36065, 31.53443],
        [77.36158, 31.5347],
        [77.36201, 31.5349],
        [77.36252, 31.53515],
        [77.3636, 31.53572],
        [77.36427, 31.53632],
        [77.36495, 31.53692],
        [77.3656, 31.53736],
        [77.36627, 31.53781],
        [77.36726, 31.53819],
        [77.36824, 31.53858],
        [77.36916, 31.53868],
        [77.37008, 31.53879],
        [77.37071, 31.53852],
        [77.37209, 31.5378],
        [77.37324, 31.5369],
        [77.37375, 31.53697],
        [77.37427, 31.53706],
        [77.37478, 31.53688],
        [77.3756, 31.53646],
        [77.37584, 31.53622],
        [77.37651, 31.53598],
        [77.37699, 31.53633],
        [77.37747, 31.53668],
        [77.37814, 31.53687],
        [77.37959, 31.53709],
        [77.38058, 31.53731],
        [77.38242, 31.53738],
        [77.38304, 31.53742],
        [77.38453, 31.53774],
        [77.38592, 31.53822],
        [77.38679, 31.53855],
        [77.38749, 31.53902],
        [77.3882, 31.53949],
        [77.38922, 31.53977],
        [77.39007, 31.53997],
        [77.39091, 31.54018],
        [77.39137, 31.54033],
        [77.39183, 31.54049],
        [77.39318, 31.54112],
        [77.39472, 31.5416],
        [77.39696, 31.54162],
        [77.39847, 31.54193],
        [77.3992, 31.54244],
        [77.40074, 31.54172],
        [77.4018, 31.54096],
        [77.40285, 31.5402],
        [77.40562, 31.54014],
        [77.40728, 31.5401],
        [77.40969, 31.5403],
        [77.41018, 31.54026],
        [77.41164, 31.54017],
        [77.41256, 31.54035],
        [77.41466, 31.54037],
        [77.41536, 31.54015],
        [77.41606, 31.53921],
        [77.41677, 31.53827],
        [77.41798, 31.53774],
        [77.4192, 31.53787],
        [77.42046, 31.53827],
        [77.42167, 31.53815],
        [77.42291, 31.5379],
        [77.42416, 31.53765],
        [77.42572, 31.53757],
        [77.42728, 31.5375],
        [77.42902, 31.53755],
        [77.43025, 31.53784],
        [77.43079, 31.5385],
        [77.43134, 31.53916],
        [77.43166, 31.53967],
        [77.43199, 31.54019],
        [77.43203, 31.54068],
        [77.43203, 31.54151],
        [77.4319, 31.54252],
        [77.43211, 31.54308],
        [77.43251, 31.54364],
        [77.43292, 31.54418],
        [77.43353, 31.54553],
        [77.4336, 31.54592],
        [77.43338, 31.54629],
        [77.43356, 31.54697],
        [77.43364, 31.54766],
        [77.43373, 31.54836],
        [77.43471, 31.54915],
        [77.4357, 31.54994],
        [77.4362, 31.55126],
        [77.43671, 31.55258],
        [77.43733, 31.55481],
        [77.43796, 31.55702],
        [77.43797, 31.55893],
        [77.43797, 31.56084],
        [77.43782, 31.56095],
        [77.43874, 31.56132],
        [77.43949, 31.56146],
        [77.44095, 31.56211],
        [77.44179, 31.56211],
        [77.44264, 31.56211],
        [77.44395, 31.56216],
        [77.44455, 31.56231],
        [77.44515, 31.56246],
        [77.44666, 31.56235],
        [77.44741, 31.56201],
        [77.44841, 31.56179],
        [77.45062, 31.56125],
        [77.45224, 31.56076],
        [77.45387, 31.56026],
        [77.45578, 31.56111],
        [77.45741, 31.56186],
        [77.45904, 31.56261],
        [77.45988, 31.56277],
        [77.46073, 31.56295],
        [77.46148, 31.56277],
        [77.46224, 31.5626],
        [77.46341, 31.56155],
        [77.46423, 31.56071],
        [77.46507, 31.56054],
        [77.46679, 31.56017],
        [77.46935, 31.55964],
        [77.47173, 31.5593],
        [77.47374, 31.5591],
        [77.47697, 31.5588],
        [77.47746, 31.5586],
        [77.47814, 31.55839],
        [77.47931, 31.55824],
        [77.48051, 31.55797],
        [77.48205, 31.55736],
        [77.4827, 31.55691],
        [77.48447, 31.5561],
        [77.48509, 31.55557],
        [77.48572, 31.55481],
        [77.48624, 31.55425],
        [77.48671, 31.55383],
        [77.48786, 31.55358],
        [77.48903, 31.55311],
        [77.48997, 31.55228],
        [77.49038, 31.55181],
        [77.49059, 31.55157],
        [77.49122, 31.55127],
        [77.49177, 31.55076],
        [77.49299, 31.55029],
        [77.49357, 31.55075],
        [77.4952, 31.5514],
        [77.49609, 31.55202],
        [77.49711, 31.55298],
        [77.49795, 31.55383],
        [77.49865, 31.55511],
        [77.49936, 31.55712],
        [77.4991, 31.55779],
        [77.49904, 31.55836],
        [77.4992, 31.55929],
        [77.50048, 31.5607],
        [77.50126, 31.56195],
        [77.50235, 31.56386],
        [77.50282, 31.56501],
        [77.50343, 31.56598],
        [77.50391, 31.56731],
        [77.50453, 31.56802],
        [77.50557, 31.56874],
        [77.50688, 31.56992],
        [77.50868, 31.57169],
        [77.50949, 31.57266],
        [77.50982, 31.57364],
        [77.51016, 31.57382],
        [77.51076, 31.57387],
        [77.51204, 31.57362],
        [77.5128, 31.57342],
        [77.51366, 31.57351],
        [77.51444, 31.57419],
        [77.51539, 31.57481],
        [77.51679, 31.57501],
        [77.51904, 31.5747],
        [77.51969, 31.57441],
        [77.51985, 31.57385],
        [77.52068, 31.57285],
        [77.52155, 31.57233],
        [77.5227, 31.57211],
        [77.52387, 31.57193],
        [77.52455, 31.57169],
        [77.52513, 31.57124],
        [77.52602, 31.57019],
        [77.52719, 31.56945],
        [77.52779, 31.57034],
        [77.52891, 31.57144],
        [77.52965, 31.57167],
        [77.5303, 31.57187],
        [77.53137, 31.57247],
        [77.5316, 31.57297],
        [77.53134, 31.57352],
        [77.53105, 31.57449],
        [77.53118, 31.57565],
        [77.53162, 31.57665],
        [77.53207, 31.57742],
        [77.53222, 31.57814],
        [77.53285, 31.57923],
        [77.53306, 31.57984],
        [77.53311, 31.58132],
        [77.53274, 31.58219],
        [77.53251, 31.58324],
        [77.53193, 31.58346],
        [77.53233, 31.58402],
        [77.5324, 31.58465],
        [77.53344, 31.58727],
        [77.53402, 31.58769],
        [77.53428, 31.58839],
        [77.53423, 31.58957],
        [77.53441, 31.58995],
        [77.53514, 31.59038],
        [77.53618, 31.59097],
        [77.53696, 31.59116],
        [77.5379, 31.59108],
        [77.53854, 31.59081],
        [77.53979, 31.59038],
        [77.5407, 31.59101],
        [77.54165, 31.59148],
        [77.54237, 31.59163],
        [77.54381, 31.59235],
        [77.54457, 31.59314],
        [77.54514, 31.59383],
        [77.54559, 31.59428],
        [77.54624, 31.59555],
        [77.54694, 31.5962],
        [77.54746, 31.59654],
        [77.54851, 31.59652],
        [77.54924, 31.59643],
        [77.55063, 31.59645],
        [77.55117, 31.59685],
        [77.55175, 31.59751],
        [77.55245, 31.59775],
        [77.55324, 31.59777],
        [77.55362, 31.59771],
        [77.55564, 31.5986],
        [77.55679, 31.59883],
        [77.55841, 31.59905],
        [77.55861, 31.59937],
        [77.55916, 31.60017],
        [77.56008, 31.60091],
        [77.56131, 31.60196],
        [77.56146, 31.60241],
        [77.5619, 31.60317],
        [77.5619, 31.60378],
        [77.56214, 31.60594],
        [77.56247, 31.60627],
        [77.56389, 31.60737],
        [77.56512, 31.60815],
        [77.56548, 31.6088],
        [77.56525, 31.61032],
        [77.56498, 31.61146],
        [77.56459, 31.61202],
        [77.56305, 31.61307],
        [77.56206, 31.61357],
        [77.56158, 31.61366],
        [77.5603, 31.61558],
        [77.55952, 31.61701],
        [77.55993, 31.61824],
        [77.56003, 31.62095],
        [77.55988, 31.62218],
        [77.55972, 31.6246],
        [77.56019, 31.6256],
        [77.56181, 31.62679],
        [77.56231, 31.62744],
        [77.56332, 31.62822],
        [77.56573, 31.62907],
        [77.56578, 31.62977],
        [77.56596, 31.63037],
        [77.56696, 31.63172],
        [77.56808, 31.63216],
        [77.56891, 31.63268],
        [77.56978, 31.63366],
        [77.57095, 31.63478],
        [77.57229, 31.63568],
        [77.57367, 31.63629],
        [77.57622, 31.6359],
        [77.58023, 31.63661],
        [77.58599, 31.63714],
        [77.58794, 31.63666],
        [77.59044, 31.63587],
        [77.59351, 31.6358],
        [77.59547, 31.63539],
        [77.59625, 31.63558],
        [77.59705, 31.63594],
        [77.59852, 31.63687],
        [77.60491, 31.63942],
        [77.60774, 31.64097],
        [77.60901, 31.64105],
        [77.6113, 31.64213],
        [77.61333, 31.64342],
        [77.61522, 31.64373],
        [77.61706, 31.6447],
        [77.61776, 31.64576],
        [77.61793, 31.64704],
        [77.61961, 31.64906],
        [77.62167, 31.65267],
        [77.62357, 31.65211],
        [77.62515, 31.65124],
        [77.62707, 31.65172],
        [77.62984, 31.65177],
        [77.63086, 31.65267],
        [77.6326, 31.65409],
        [77.63529, 31.65699],
        [77.63688, 31.65743],
        [77.64598, 31.65733]
      ]
    ]
  }
}
