{
  "type": "Feature",
  "id": "HP-AC-31",
  "properties": {
    "stateName": "HIMACHAL PRADESH",
    "stateCode": "HP",
    "districtName": "MANDI",
    "acNo": 31,
    "acName": "JOGINDERNAGAR",
    "seatType": null,
    "pcNo": null,
    "pcName": null,
    "quality": "unverified",
    "sources": [
      "TBD"
    ]
  },
  "geometry": {
    "type": "Polygon",
    "coordinates": [
      [
        [76.74885, 32.04355],
        [76.74988, 32.04436],
        [76.75129, 32.04541],
        [76.75194, 32.0458],
        [76.75226, 32.04592],
        [76.75256, 32.04601],
        [76.75278, 32.04609],
        [76.75295, 32.04618],
        [76.75326, 32.04637],
        [76.75348, 32.04655],
        [76.7542, 32.04757],
        [76.75492, 32.0484],
        [76.75585, 32.04946],
        [76.75629, 32.05],
        [76.75653, 32.05025],
        [76.75715, 32.0507],
        [76.75814, 32.05104],
        [76.75878, 32.05111],
        [76.75902, 32.05114],
        [76.75924, 32.05118],
        [76.75938, 32.05121],
        [76.75966, 32.05148],
        [76.75985, 32.0517],
        [76.75995, 32.05187],
        [76.76005, 32.05208],
        [76.76031, 32.05271],
        [76.76055, 32.05374],
        [76.76074, 32.05398],
        [76.76098, 32.05415],
        [76.76129, 32.05436],
        [76.76142, 32.05446],
        [76.76149, 32.05461],
        [76.76156, 32.05478],
        [76.76161, 32.05494],
        [76.76165, 32.05506],
        [76.76213, 32.05662],
        [76.76225, 32.05685],
        [76.76238, 32.05702],
        [76.76261, 32.05733],
        [76.76286, 32.0577],
        [76.76357, 32.05875],
        [76.76375, 32.05905],
        [76.76396, 32.05931],
        [76.76432, 32.05972],
        [76.76465, 32.06003],
        [76.7663, 32.06114],
        [76.7678, 32.06227],
        [76.76851, 32.06256],
        [76.76876, 32.06261],
        [76.76897, 32.06265],
        [76.76924, 32.06263],
        [76.76967, 32.06263],
        [76.77007, 32.06266],
        [76.77041, 32.0627],
        [76.77079, 32.06262],
        [76.77098, 32.06263],
        [76.77108, 32.06265],
        [76.77122, 32.06277],
        [76.77129, 32.06287],
        [76.77136, 32.06303],
        [76.77144, 32.06322],
        [76.77149, 32.06332],
        [76.77153, 32.06347],
        [76.77194, 32.06394],
        [76.773, 32.06493],
        [76.77335, 32.06524],
        [76.77417, 32.06589],
        [76.77509, 32.06674],
        [76.77537, 32.06702],
        [76.77561, 32.06722],
        [76.77575, 32.06734],
        [76.77588, 32.06733],
        [76.77597, 32.0671],
        [76.77616, 32.0663],
        [76.77629, 32.06606],
        [76.7765, 32.06582],
        [76.77681, 32.06553],
        [76.7772, 32.06529],
        [76.77818, 32.06465],
        [76.77852, 32.06447],
        [76.77878, 32.06436],
        [76.77888, 32.06435],
        [76.78064, 32.06153],
        [76.78145, 32.0612],
        [76.78298, 32.06107],
        [76.78468, 32.06043],
        [76.78549, 32.06054],
        [76.78591, 32.06043],
        [76.788, 32.05871],
        [76.78859, 32.05756],
        [76.78854, 32.05181],
        [76.78888, 32.05168],
        [76.79016, 32.05108],
        [76.79257, 32.04913],
        [76.7952, 32.04788],
        [76.7955, 32.04774],
        [76.79843, 32.04635],
        [76.80088, 32.04611],
        [76.80221, 32.04611],
        [76.80337, 32.04584],
        [76.80415, 32.04521],
        [76.80504, 32.04491],
        [76.80642, 32.04397],
        [76.80813, 32.04273],
        [76.80906, 32.0423],
        [76.81014, 32.04182],
        [76.81263, 32.04082],
        [76.81332, 32.04039],
        [76.814, 32.03994],
        [76.81455, 32.03909],
        [76.81503, 32.03694],
        [76.81575, 32.0366],
        [76.81913, 32.0357],
        [76.82136, 32.03527],
        [76.82253, 32.03471],
        [76.82289, 32.03453],
        [76.8237, 32.03306],
        [76.82405, 32.03263],
        [76.82444, 32.03171],
        [76.82554, 32.03042],
        [76.82868, 32.02708],
        [76.82915, 32.02482],
        [76.82901, 32.0246],
        [76.8291, 32.0244],
        [76.82932, 32.02419],
        [76.82941, 32.02396],
        [76.82918, 32.02338],
        [76.82889, 32.02183],
        [76.82882, 32.02132],
        [76.8287, 32.02019],
        [76.82912, 32.0184],
        [76.83027, 32.01716],
        [76.83051, 32.01644],
        [76.83109, 32.01604],
        [76.83207, 32.01532],
        [76.8328, 32.0148],
        [76.83431, 32.01414],
        [76.83512, 32.0137],
        [76.83593, 32.01326],
        [76.83746, 32.01197],
        [76.83804, 32.01157],
        [76.84027, 32.01062],
        [76.84081, 32.01012],
        [76.8426, 32.00947],
        [76.84333, 32.00891],
        [76.8438, 32.0083],
        [76.84522, 32.00645],
        [76.84585, 32.00567],
        [76.8461, 32.00464],
        [76.84563, 32.00326],
        [76.84548, 32.00276],
        [76.84575, 32.00123],
        [76.84656, 32.00016],
        [76.8467, 31.99985],
        [76.84668, 31.99973],
        [76.84656, 31.99919],
        [76.84664, 31.9989],
        [76.84667, 31.9988],
        [76.84671, 31.99865],
        [76.84683, 31.99838],
        [76.84739, 31.99794],
        [76.84744, 31.99791],
        [76.84779, 31.9977],
        [76.84826, 31.99741],
        [76.8483, 31.99708],
        [76.84835, 31.99664],
        [76.84842, 31.99641],
        [76.84857, 31.99595],
        [76.84873, 31.99567],
        [76.849, 31.99522],
        [76.84956, 31.9945],
        [76.85043, 31.99384],
        [76.85133, 31.99339],
        [76.85297, 31.99191],
        [76.85424, 31.99075],
        [76.85461, 31.99017],
        [76.85489, 31.98959],
        [76.85529, 31.98904],
        [76.85655, 31.9878],
        [76.85782, 31.98656],
        [76.8589, 31.98564],
        [76.85953, 31.98481],
        [76.85971, 31.98458],
        [76.8606, 31.9836],
        [76.86261, 31.98125],
        [76.86385, 31.98004],
        [76.86493, 31.97917],
        [76.86561, 31.97835],
        [76.86707, 31.97618],
        [76.86727, 31.97587],
        [76.86737, 31.97539],
        [76.86759, 31.97431],
        [76.86839, 31.97283],
        [76.86931, 31.97117],
        [76.86955, 31.97074],
        [76.86988, 31.97014],
        [76.87002, 31.96953],
        [76.87034, 31.96808],
        [76.87154, 31.96539],
        [76.87244, 31.96457],
        [76.8737, 31.9636],
        [76.87503, 31.96254],
        [76.87574, 31.96183],
        [76.87648, 31.96101],
        [76.87655, 31.96085],
        [76.8767, 31.96045],
        [76.87623, 31.96054],
        [76.87447, 31.96128],
        [76.87366, 31.96172],
        [76.87116, 31.96194],
        [76.86868, 31.9626],
        [76.86727, 31.96276],
        [76.86696, 31.96263],
        [76.86662, 31.96223],
        [76.86649, 31.96165],
        [76.86649, 31.9615],
        [76.86649, 31.9613],
        [76.86671, 31.96093],
        [76.86711, 31.96048],
        [76.86726, 31.9602],
        [76.86733, 31.96009],
        [76.86739, 31.9599],
        [76.86723, 31.95974],
        [76.86683, 31.95964],
        [76.8663, 31.95956],
        [76.86618, 31.95917],
        [76.86612, 31.95898],
        [76.86603, 31.95774],
        [76.86621, 31.9566],
        [76.86623, 31.95644],
        [76.86624, 31.95628],
        [76.86618, 31.95612],
        [76.86606, 31.95602],
        [76.86568, 31.95602],
        [76.8655, 31.95595],
        [76.86547, 31.95594],
        [76.86538, 31.95562],
        [76.86555, 31.95433],
        [76.86557, 31.9542],
        [76.86563, 31.95343],
        [76.86569, 31.95267],
        [76.86563, 31.95227],
        [76.86549, 31.95209],
        [76.86541, 31.95198],
        [76.86541, 31.95188],
        [76.86588, 31.9514],
        [76.86625, 31.95092],
        [76.86665, 31.95074],
        [76.86702, 31.9504],
        [76.86721, 31.95013],
        [76.86832, 31.9499],
        [76.86934, 31.94995],
        [76.86989, 31.95011],
        [76.87051, 31.95024],
        [76.87094, 31.95035],
        [76.87135, 31.95043],
        [76.87243, 31.95042],
        [76.87286, 31.95037],
        [76.87305, 31.95024],
        [76.87283, 31.94972],
        [76.87267, 31.94928],
        [76.87265, 31.94924],
        [76.87242, 31.94881],
        [76.87224, 31.94846],
        [76.87192, 31.9481],
        [76.8717, 31.94755],
        [76.87168, 31.94745],
        [76.87161, 31.94719],
        [76.87157, 31.94702],
        [76.87155, 31.94678],
        [76.87177, 31.9463],
        [76.87194, 31.94589],
        [76.87197, 31.94558],
        [76.87199, 31.94544],
        [76.872, 31.94533],
        [76.87198, 31.94519],
        [76.87195, 31.94486],
        [76.87192, 31.94471],
        [76.8719, 31.94458],
        [76.87189, 31.94456],
        [76.87171, 31.94424],
        [76.87166, 31.94414],
        [76.87162, 31.94408],
        [76.87143, 31.94342],
        [76.87147, 31.94327],
        [76.87152, 31.943],
        [76.87159, 31.94287],
        [76.87184, 31.94253],
        [76.87215, 31.94149],
        [76.87227, 31.94109],
        [76.87225, 31.94085],
        [76.87224, 31.94075],
        [76.87224, 31.94074],
        [76.87219, 31.94054],
        [76.87217, 31.94043],
        [76.87156, 31.94055],
        [76.87106, 31.94061],
        [76.87051, 31.94058],
        [76.87014, 31.94047],
        [76.86979, 31.94037],
        [76.86936, 31.94026],
        [76.86905, 31.94008],
        [76.86868, 31.93995],
        [76.86809, 31.93995],
        [76.86769, 31.94005],
        [76.86754, 31.94005],
        [76.86741, 31.93992],
        [76.86739, 31.93966],
        [76.86738, 31.9396],
        [76.86742, 31.93934],
        [76.86776, 31.93844],
        [76.8681, 31.93794],
        [76.86844, 31.93757],
        [76.86866, 31.93725],
        [76.86866, 31.93696],
        [76.86862, 31.9369],
        [76.86838, 31.93654],
        [76.86736, 31.93541],
        [76.86699, 31.93517],
        [76.86652, 31.93519],
        [76.86587, 31.93541],
        [76.86532, 31.93556],
        [76.86479, 31.9357],
        [76.86457, 31.93573],
        [76.86435, 31.93562],
        [76.86435, 31.93559],
        [76.8643, 31.93541],
        [76.86423, 31.93506],
        [76.86427, 31.93451],
        [76.86433, 31.93414],
        [76.86454, 31.9338],
        [76.86495, 31.93316],
        [76.86496, 31.93313],
        [76.86532, 31.93255],
        [76.8656, 31.93203],
        [76.86569, 31.93173],
        [76.86579, 31.93143],
        [76.86581, 31.93137],
        [76.86582, 31.93135],
        [76.86587, 31.93113],
        [76.86595, 31.93103],
        [76.86615, 31.93074],
        [76.86628, 31.93052],
        [76.86646, 31.93023],
        [76.86665, 31.92987],
        [76.86674, 31.9297],
        [76.86702, 31.92909],
        [76.86745, 31.92818],
        [76.8677, 31.92799],
        [76.86789, 31.92789],
        [76.86828, 31.92767],
        [76.86831, 31.92766],
        [76.86832, 31.92764],
        [76.86849, 31.92748],
        [76.86856, 31.92741],
        [76.86857, 31.92699],
        [76.86838, 31.9262],
        [76.86832, 31.92575],
        [76.86835, 31.92543],
        [76.8682, 31.92529],
        [76.86767, 31.92525],
        [76.86739, 31.92538],
        [76.86702, 31.92559],
        [76.86683, 31.9258],
        [76.86676, 31.92598],
        [76.86659, 31.92635],
        [76.86658, 31.92637],
        [76.86622, 31.92685],
        [76.866, 31.92721],
        [76.86597, 31.92725],
        [76.86585, 31.92736],
        [76.8657, 31.92749],
        [76.86547, 31.92772],
        [76.86539, 31.9278],
        [76.86517, 31.92792],
        [76.86498, 31.92801],
        [76.86486, 31.92812],
        [76.86474, 31.92823],
        [76.86448, 31.92837],
        [76.86435, 31.92844],
        [76.86409, 31.92863],
        [76.86394, 31.92873],
        [76.86374, 31.92888],
        [76.86325, 31.92931],
        [76.86304, 31.92949],
        [76.86205, 31.93026],
        [76.86155, 31.93063],
        [76.86091, 31.93118],
        [76.86084, 31.93124],
        [76.86037, 31.93153],
        [76.85997, 31.93179],
        [76.85984, 31.93191],
        [76.85975, 31.93198],
        [76.85892, 31.9325],
        [76.85842, 31.9327],
        [76.85755, 31.93306],
        [76.85612, 31.93385],
        [76.85534, 31.93369],
        [76.85508, 31.93357],
        [76.85461, 31.93354],
        [76.85426, 31.93352],
        [76.85348, 31.93327],
        [76.85196, 31.93213],
        [76.84833, 31.92965],
        [76.8459, 31.92847],
        [76.84467, 31.9279],
        [76.84443, 31.9274],
        [76.84493, 31.92632],
        [76.84543, 31.92473],
        [76.84573, 31.92402],
        [76.84617, 31.92305],
        [76.84651, 31.92191],
        [76.84725, 31.92064],
        [76.84759, 31.92006],
        [76.84778, 31.91975],
        [76.84823, 31.91907],
        [76.84831, 31.91896],
        [76.84833, 31.91856],
        [76.84834, 31.91822],
        [76.84868, 31.91774],
        [76.84886, 31.91748],
        [76.84895, 31.91741],
        [76.84906, 31.91733],
        [76.84936, 31.91711],
        [76.85001, 31.91676],
        [76.8506, 31.91647],
        [76.851, 31.91602],
        [76.85134, 31.91571],
        [76.8517, 31.91527],
        [76.85171, 31.91526],
        [76.85178, 31.91506],
        [76.85196, 31.91452],
        [76.85224, 31.9138],
        [76.8523, 31.91362],
        [76.8523, 31.91357],
        [76.85221, 31.91267],
        [76.85211, 31.9118],
        [76.85202, 31.91142],
        [76.85193, 31.91104],
        [76.85165, 31.91048],
        [76.85139, 31.91007],
        [76.85128, 31.9099],
        [76.85122, 31.9094],
        [76.85122, 31.90935],
        [76.85122, 31.90933],
        [76.85119, 31.90879],
        [76.85119, 31.90819],
        [76.85094, 31.90763],
        [76.85082, 31.907],
        [76.85075, 31.9066],
        [76.85057, 31.90562],
        [76.85023, 31.90465],
        [76.85021, 31.90453],
        [76.84989, 31.90294],
        [76.84989, 31.90248],
        [76.84989, 31.90238],
        [76.84961, 31.90214],
        [76.8485, 31.90201],
        [76.84698, 31.90153],
        [76.8446, 31.90079],
        [76.84302, 31.90021],
        [76.84207, 31.89975],
        [76.84187, 31.89966],
        [76.84213, 31.89924],
        [76.84214, 31.89921],
        [76.84255, 31.89749],
        [76.84249, 31.89644],
        [76.84248, 31.89559],
        [76.84242, 31.89409],
        [76.84202, 31.89327],
        [76.84085, 31.89237],
        [76.83933, 31.89092],
        [76.83735, 31.88941],
        [76.83596, 31.88812],
        [76.83466, 31.88698],
        [76.83432, 31.88658],
        [76.83448, 31.88622],
        [76.83473, 31.88566],
        [76.83521, 31.88501],
        [76.83559, 31.8845],
        [76.83621, 31.88344],
        [76.83629, 31.88325],
        [76.83661, 31.88254],
        [76.83699, 31.88188],
        [76.83729, 31.88146],
        [76.83748, 31.8813],
        [76.83782, 31.88132],
        [76.83807, 31.88157],
        [76.83816, 31.88212],
        [76.83819, 31.88289],
        [76.83819, 31.8836],
        [76.838, 31.88481],
        [76.83794, 31.88574],
        [76.83782, 31.88651],
        [76.83769, 31.88698],
        [76.83769, 31.88732],
        [76.83779, 31.88762],
        [76.8381, 31.88777],
        [76.83904, 31.88809],
        [76.83954, 31.88785],
        [76.84003, 31.88742],
        [76.8409, 31.88669],
        [76.84152, 31.88629],
        [76.84229, 31.88576],
        [76.84344, 31.88518],
        [76.84387, 31.88495],
        [76.84446, 31.88465],
        [76.84501, 31.88455],
        [76.84598, 31.88426],
        [76.84666, 31.88426],
        [76.84761, 31.88418],
        [76.84839, 31.88391],
        [76.84888, 31.88378],
        [76.84947, 31.88363],
        [76.8499, 31.88349],
        [76.85054, 31.8832],
        [76.85105, 31.88287],
        [76.85129, 31.88271],
        [76.85138, 31.88263],
        [76.85215, 31.88199],
        [76.85287, 31.88143],
        [76.85345, 31.88105],
        [76.85356, 31.88097],
        [76.85373, 31.88085],
        [76.85432, 31.88051],
        [76.8553, 31.87993],
        [76.85567, 31.8798],
        [76.85604, 31.87967],
        [76.85601, 31.87904],
        [76.85602, 31.87832],
        [76.85623, 31.87771],
        [76.85634, 31.87736],
        [76.85639, 31.87721],
        [76.85678, 31.87614],
        [76.85685, 31.87595],
        [76.85701, 31.87569],
        [76.85712, 31.87551],
        [76.85756, 31.87481],
        [76.85802, 31.87402],
        [76.85934, 31.87336],
        [76.86005, 31.87323],
        [76.86055, 31.87328],
        [76.86132, 31.87344],
        [76.86206, 31.87362],
        [76.86262, 31.87383],
        [76.86321, 31.87399],
        [76.86404, 31.87431],
        [76.86456, 31.8745],
        [76.86494, 31.8746],
        [76.86531, 31.87469],
        [76.86571, 31.87471],
        [76.86614, 31.87434],
        [76.86651, 31.87394],
        [76.86689, 31.87373],
        [76.86698, 31.87368],
        [76.86704, 31.8736],
        [76.8672, 31.87343],
        [76.86724, 31.8734],
        [76.86671, 31.87304],
        [76.86626, 31.87265],
        [76.86623, 31.87263],
        [76.86621, 31.87261],
        [76.8661, 31.87249],
        [76.86591, 31.87228],
        [76.86566, 31.87201],
        [76.86551, 31.87185],
        [76.86544, 31.87177],
        [76.86522, 31.87149],
        [76.86513, 31.87137],
        [76.8648, 31.87101],
        [76.86475, 31.87096],
        [76.86471, 31.8709],
        [76.86446, 31.87057],
        [76.86424, 31.8703],
        [76.86422, 31.87028],
        [76.86404, 31.87008],
        [76.86397, 31.87],
        [76.86393, 31.86996],
        [76.86382, 31.86986],
        [76.86361, 31.8697],
        [76.8636, 31.86969],
        [76.86323, 31.86962],
        [76.86316, 31.86962],
        [76.86297, 31.86963],
        [76.8628, 31.86964],
        [76.86213, 31.86971],
        [76.86206, 31.86971],
        [76.86167, 31.86972],
        [76.86163, 31.86972],
        [76.86157, 31.86972],
        [76.86123, 31.86968],
        [76.8611, 31.86967],
        [76.86098, 31.86962],
        [76.86071, 31.86952],
        [76.86066, 31.86951],
        [76.86063, 31.86948],
        [76.86045, 31.86938],
        [76.86029, 31.86926],
        [76.86018, 31.86919],
        [76.86002, 31.86895],
        [76.85997, 31.86881],
        [76.85993, 31.86872],
        [76.85989, 31.8686],
        [76.85983, 31.86821],
        [76.85976, 31.86789],
        [76.85975, 31.86757],
        [76.85975, 31.86742],
        [76.85975, 31.86716],
        [76.85975, 31.8671],
        [76.85976, 31.867],
        [76.85978, 31.86658],
        [76.85978, 31.86655],
        [76.85979, 31.86653],
        [76.85978, 31.86648],
        [76.85974, 31.86625],
        [76.85974, 31.86621],
        [76.85967, 31.866],
        [76.85965, 31.86597],
        [76.85955, 31.86586],
        [76.85952, 31.86584],
        [76.85926, 31.86563],
        [76.85925, 31.86562],
        [76.85875, 31.86532],
        [76.85873, 31.86531],
        [76.85868, 31.86525],
        [76.8586, 31.86517],
        [76.85857, 31.86514],
        [76.85846, 31.86508],
        [76.8583, 31.86499],
        [76.85817, 31.86492],
        [76.85817, 31.86491],
        [76.85814, 31.8648],
        [76.85812, 31.86471],
        [76.85801, 31.86454],
        [76.85779, 31.864],
        [76.85769, 31.86377],
        [76.85753, 31.86337],
        [76.85752, 31.86335],
        [76.85749, 31.86332],
        [76.85718, 31.86297],
        [76.85714, 31.86292],
        [76.8571, 31.8629],
        [76.8568, 31.8627],
        [76.85657, 31.86264],
        [76.85632, 31.86257],
        [76.85627, 31.86258],
        [76.85619, 31.86259],
        [76.8559, 31.86262],
        [76.85548, 31.86267],
        [76.85537, 31.8627],
        [76.85524, 31.86273],
        [76.85514, 31.86274],
        [76.85479, 31.86278],
        [76.85457, 31.86272],
        [76.85454, 31.86271],
        [76.85417, 31.86262],
        [76.85414, 31.86261],
        [76.8541, 31.86257],
        [76.854, 31.86245],
        [76.8539, 31.86234],
        [76.8539, 31.86223],
        [76.85392, 31.86212],
        [76.85392, 31.8621],
        [76.85393, 31.86205],
        [76.85395, 31.86194],
        [76.85397, 31.86191],
        [76.85454, 31.8609],
        [76.85457, 31.86083],
        [76.8547, 31.86051],
        [76.85475, 31.86044],
        [76.85478, 31.8604],
        [76.8548, 31.86035],
        [76.85484, 31.86029],
        [76.85494, 31.86003],
        [76.85501, 31.85988],
        [76.85505, 31.8598],
        [76.85505, 31.85978],
        [76.85506, 31.85977],
        [76.85506, 31.85976],
        [76.85508, 31.8596],
        [76.85509, 31.85957],
        [76.85509, 31.85956],
        [76.85509, 31.85954],
        [76.85508, 31.85947],
        [76.85507, 31.85938],
        [76.85506, 31.85931],
        [76.85505, 31.85927],
        [76.85498, 31.85912],
        [76.85495, 31.85902],
        [76.85492, 31.85895],
        [76.85487, 31.85881],
        [76.85469, 31.85865],
        [76.85456, 31.85853],
        [76.85453, 31.85851],
        [76.85452, 31.8585],
        [76.85441, 31.85846],
        [76.85428, 31.85841],
        [76.85406, 31.85832],
        [76.85404, 31.85831],
        [76.85401, 31.85831],
        [76.85397, 31.85831],
        [76.8538, 31.85829],
        [76.85313, 31.85823],
        [76.85248, 31.85815],
        [76.85223, 31.85815],
        [76.85211, 31.85812],
        [76.85193, 31.8581],
        [76.85153, 31.85811],
        [76.85141, 31.8581],
        [76.85137, 31.8581],
        [76.85111, 31.85807],
        [76.85079, 31.858],
        [76.85058, 31.85798],
        [76.84915, 31.85776],
        [76.84898, 31.85771],
        [76.84897, 31.8577],
        [76.84884, 31.85762],
        [76.84872, 31.85755],
        [76.8485, 31.85739],
        [76.84832, 31.85718],
        [76.84826, 31.85691],
        [76.84831, 31.85681],
        [76.84841, 31.8566],
        [76.8489, 31.85593],
        [76.84912, 31.85556],
        [76.8494, 31.85509],
        [76.84958, 31.85456],
        [76.84971, 31.85404],
        [76.84971, 31.85366],
        [76.84961, 31.8534],
        [76.84952, 31.85304],
        [76.84915, 31.85253],
        [76.8486, 31.85192],
        [76.84822, 31.85142],
        [76.84804, 31.85108],
        [76.84797, 31.85077],
        [76.84795, 31.85045],
        [76.84804, 31.85018],
        [76.84816, 31.84981],
        [76.84863, 31.84881],
        [76.84881, 31.84799],
        [76.84903, 31.84768],
        [76.84909, 31.84678],
        [76.84906, 31.84546],
        [76.84888, 31.84464],
        [76.84875, 31.84403],
        [76.84887, 31.84343],
        [76.84888, 31.84289],
        [76.84879, 31.8426],
        [76.84872, 31.84226],
        [76.84838, 31.8414],
        [76.84841, 31.84097],
        [76.84817, 31.84044],
        [76.84798, 31.84005],
        [76.84758, 31.83954],
        [76.84736, 31.83918],
        [76.84733, 31.83865],
        [76.84736, 31.8382],
        [76.84755, 31.83796],
        [76.84804, 31.83749],
        [76.84863, 31.83709],
        [76.84907, 31.83672],
        [76.84934, 31.83619],
        [76.84956, 31.83591],
        [76.84981, 31.83524],
        [76.8499, 31.83464],
        [76.84996, 31.83387],
        [76.85, 31.83321],
        [76.85009, 31.83271],
        [76.85009, 31.83194],
        [76.85011, 31.83146],
        [76.85017, 31.83122],
        [76.85028, 31.83078],
        [76.8503, 31.83071],
        [76.8507, 31.83015],
        [76.85098, 31.82978],
        [76.85107, 31.82959],
        [76.85135, 31.82902],
        [76.8516, 31.82838],
        [76.85196, 31.82779],
        [76.85197, 31.82777],
        [76.85201, 31.82773],
        [76.85244, 31.8273],
        [76.85246, 31.82721],
        [76.85259, 31.82679],
        [76.85278, 31.82643],
        [76.85281, 31.82637],
        [76.85282, 31.82631],
        [76.85287, 31.82582],
        [76.85309, 31.82532],
        [76.85318, 31.82522],
        [76.85355, 31.82487],
        [76.85368, 31.82481],
        [76.85396, 31.8247],
        [76.85457, 31.82445],
        [76.855, 31.82445],
        [76.8547, 31.82409],
        [76.85337, 31.82345],
        [76.85249, 31.82346],
        [76.85187, 31.82361],
        [76.85074, 31.82409],
        [76.84941, 31.82498],
        [76.84818, 31.82571],
        [76.84757, 31.8261],
        [76.84574, 31.82718],
        [76.84466, 31.82781],
        [76.84345, 31.82843],
        [76.84197, 31.82911],
        [76.8412, 31.82948],
        [76.84052, 31.82932],
        [76.84002, 31.82887],
        [76.83994, 31.82812],
        [76.84016, 31.82731],
        [76.84066, 31.82604],
        [76.84077, 31.82542],
        [76.84048, 31.82468],
        [76.83991, 31.82428],
        [76.83914, 31.82418],
        [76.83867, 31.82401],
        [76.83716, 31.82342],
        [76.83672, 31.82325],
        [76.83543, 31.82302],
        [76.83336, 31.823],
        [76.8301, 31.823],
        [76.82871, 31.82284],
        [76.82748, 31.82269],
        [76.825, 31.8221],
        [76.8225, 31.82113],
        [76.82108, 31.82057],
        [76.81907, 31.81964],
        [76.81679, 31.81875],
        [76.81385, 31.81813],
        [76.81164, 31.81801],
        [76.80932, 31.81788],
        [76.80861, 31.81791],
        [76.80789, 31.81793],
        [76.80572, 31.81825],
        [76.80427, 31.81851],
        [76.80323, 31.81932],
        [76.80207, 31.82048],
        [76.80107, 31.82133],
        [76.79992, 31.82204],
        [76.79956, 31.82234],
        [76.7989, 31.82287],
        [76.7977, 31.82372],
        [76.79641, 31.82451],
        [76.79519, 31.8252],
        [76.79365, 31.82565],
        [76.79233, 31.82613],
        [76.79047, 31.82738],
        [76.79019, 31.82788],
        [76.79008, 31.82892],
        [76.79015, 31.8298],
        [76.78968, 31.83101],
        [76.78865, 31.83176],
        [76.788, 31.83202],
        [76.78641, 31.83194],
        [76.78556, 31.8317],
        [76.78484, 31.83134],
        [76.78334, 31.82997],
        [76.78208, 31.82848],
        [76.78096, 31.82605],
        [76.78043, 31.82433],
        [76.77951, 31.82114],
        [76.77938, 31.82086],
        [76.77863, 31.81923],
        [76.77711, 31.81784],
        [76.77567, 31.8177],
        [76.77468, 31.81756],
        [76.77332, 31.81806],
        [76.77285, 31.81847],
        [76.77271, 31.81915],
        [76.77282, 31.81974],
        [76.77291, 31.82115],
        [76.77264, 31.82231],
        [76.77194, 31.82361],
        [76.77075, 31.82478],
        [76.77049, 31.82501],
        [76.76987, 31.82555],
        [76.76861, 31.82625],
        [76.76803, 31.82666],
        [76.76745, 31.82707],
        [76.76621, 31.8279],
        [76.76504, 31.82844],
        [76.76243, 31.82973],
        [76.75969, 31.83143],
        [76.75573, 31.83492],
        [76.75413, 31.83693],
        [76.75323, 31.83805],
        [76.75293, 31.83843],
        [76.75268, 31.83899],
        [76.75202, 31.84123],
        [76.75154, 31.84256],
        [76.75124, 31.84328],
        [76.75115, 31.84399],
        [76.7516, 31.84463],
        [76.7526, 31.84569],
        [76.75307, 31.84617],
        [76.75397, 31.8472],
        [76.75413, 31.84731],
        [76.75527, 31.84816],
        [76.75793, 31.85046],
        [76.75869, 31.85097],
        [76.75878, 31.85242],
        [76.75699, 31.85403],
        [76.75652, 31.85425],
        [76.75631, 31.85434],
        [76.75605, 31.85446],
        [76.75487, 31.85508],
        [76.75369, 31.85552],
        [76.75248, 31.85533],
        [76.75116, 31.85515],
        [76.74881, 31.85456],
        [76.7469, 31.85424],
        [76.74613, 31.85429],
        [76.74529, 31.85447],
        [76.74448, 31.85482],
        [76.74327, 31.85563],
        [76.74268, 31.85601],
        [76.74172, 31.85668],
        [76.7414, 31.85712],
        [76.74054, 31.85781],
        [76.74019, 31.85825],
        [76.74007, 31.85873],
        [76.73986, 31.85914],
        [76.73951, 31.85958],
        [76.73884, 31.86013],
        [76.73817, 31.86075],
        [76.73769, 31.86098],
        [76.73731, 31.86126],
        [76.73707, 31.86149],
        [76.73666, 31.86174],
        [76.73502, 31.86168],
        [76.73346, 31.86175],
        [76.73217, 31.86193],
        [76.72954, 31.86324],
        [76.72752, 31.8646],
        [76.72682, 31.86508],
        [76.72585, 31.8655],
        [76.72453, 31.86656],
        [76.72357, 31.86701],
        [76.72219, 31.86819],
        [76.72112, 31.86932],
        [76.7207, 31.86989],
        [76.72029, 31.87047],
        [76.71983, 31.87143],
        [76.71908, 31.87336],
        [76.71903, 31.87405],
        [76.719, 31.87448],
        [76.71903, 31.8749],
        [76.71925, 31.87554],
        [76.71987, 31.87628],
        [76.72038, 31.87722],
        [76.72081, 31.8782],
        [76.721, 31.87859],
        [76.72095, 31.87896],
        [76.72119, 31.87977],
        [76.72095, 31.88016],
        [76.72049, 31.88096],
        [76.71996, 31.88138],
        [76.71931, 31.88161],
        [76.71891, 31.88181],
        [76.71866, 31.88216],
        [76.71694, 31.88282],
        [76.71555, 31.88264],
        [76.71447, 31.88216],
        [76.71315, 31.88133],
        [76.71178, 31.88039],
        [76.71129, 31.87995],
        [76.71029, 31.87862],
        [76.70946, 31.87789],
        [76.70898, 31.87759],
        [76.70844, 31.87748],
        [76.70731, 31.8773],
        [76.70658, 31.87739],
        [76.70602, 31.87767],
        [76.70521, 31.87826],
        [76.70459, 31.87891],
        [76.7043, 31.87934],
        [76.70408, 31.87985],
        [76.70384, 31.88026],
        [76.70344, 31.88063],
        [76.7029, 31.88089],
        [76.70201, 31.88095],
        [76.70056, 31.88098],
        [76.69914, 31.88089],
        [76.69755, 31.88121],
        [76.69585, 31.88158],
        [76.69515, 31.88163],
        [76.69403, 31.88167],
        [76.69282, 31.88165],
        [76.69158, 31.8816],
        [76.6914, 31.88164],
        [76.69056, 31.88181],
        [76.69003, 31.8799],
        [76.68967, 31.87857],
        [76.68889, 31.87694],
        [76.68786, 31.87476],
        [76.68736, 31.87395],
        [76.68686, 31.87394],
        [76.68626, 31.87357],
        [76.68543, 31.87308],
        [76.68456, 31.87257],
        [76.68375, 31.87222],
        [76.68315, 31.87191],
        [76.68249, 31.87167],
        [76.68196, 31.87152],
        [76.6819, 31.87152],
        [76.68056, 31.87179],
        [76.6815, 31.87326],
        [76.68107, 31.87455],
        [76.67704, 31.87743],
        [76.67359, 31.88113],
        [76.67349, 31.88259],
        [76.67359, 31.88375],
        [76.67378, 31.88423],
        [76.67402, 31.88514],
        [76.67421, 31.88586],
        [76.67464, 31.88658],
        [76.67532, 31.8872],
        [76.67561, 31.8874],
        [76.67685, 31.88764],
        [76.67761, 31.88773],
        [76.67733, 31.88999],
        [76.67733, 31.89205],
        [76.67733, 31.89263],
        [76.67555, 31.89505],
        [76.67522, 31.89597],
        [76.67532, 31.89693],
        [76.67541, 31.89736],
        [76.67565, 31.89779],
        [76.67603, 31.89798],
        [76.67641, 31.89798],
        [76.67714, 31.89798],
        [76.67728, 31.89784],
        [76.67761, 31.89731],
        [76.67838, 31.89688],
        [76.67867, 31.8963],
        [76.67905, 31.89597],
        [76.67953, 31.89568],
        [76.68001, 31.89549],
        [76.68063, 31.89688],
        [76.68063, 31.89769],
        [76.67834, 31.90033],
        [76.6758, 31.90271],
        [76.67517, 31.90391],
        [76.67445, 31.90449],
        [76.67421, 31.90492],
        [76.67416, 31.90545],
        [76.67441, 31.90636],
        [76.67474, 31.9067],
        [76.67532, 31.90689],
        [76.67613, 31.90698],
        [76.67675, 31.90708],
        [76.67733, 31.90722],
        [76.67824, 31.90742],
        [76.67862, 31.90756],
        [76.67929, 31.90785],
        [76.67953, 31.90833],
        [76.6812, 31.91207],
        [76.68322, 31.91277],
        [76.68394, 31.91339],
        [76.68427, 31.91373],
        [76.68456, 31.91474],
        [76.68513, 31.91575],
        [76.68494, 31.91824],
        [76.68466, 31.91944],
        [76.68466, 31.92011],
        [76.68471, 31.92079],
        [76.6849, 31.92156],
        [76.68509, 31.92213],
        [76.68519, 31.92271],
        [76.68792, 31.92575],
        [76.6883, 31.927],
        [76.68849, 31.92758],
        [76.68868, 31.92806],
        [76.68902, 31.92883],
        [76.68935, 31.9295],
        [76.69208, 31.93056],
        [76.69333, 31.93103],
        [76.69429, 31.93176],
        [76.69458, 31.93195],
        [76.69496, 31.93252],
        [76.69549, 31.93329],
        [76.69563, 31.93605],
        [76.69515, 31.93745],
        [76.69448, 31.93831],
        [76.69391, 31.93874],
        [76.6929, 31.93941],
        [76.69179, 31.93994],
        [76.69055, 31.94042],
        [76.68883, 31.94148],
        [76.68839, 31.94182],
        [76.68772, 31.94239],
        [76.68767, 31.94306],
        [76.68763, 31.94321],
        [76.68873, 31.94491],
        [76.68882, 31.94549],
        [76.68925, 31.94616],
        [76.68964, 31.94693],
        [76.68973, 31.94808],
        [76.68959, 31.9487],
        [76.68935, 31.9489],
        [76.68921, 31.94947],
        [76.68954, 31.95269],
        [76.68921, 31.95435],
        [76.68772, 31.95732],
        [76.68677, 31.95915],
        [76.68471, 31.96073],
        [76.68432, 31.96155],
        [76.68408, 31.96164],
        [76.68408, 31.96179],
        [76.68547, 31.96546],
        [76.68586, 31.96628],
        [76.68652, 31.96613],
        [76.68719, 31.96603],
        [76.68792, 31.96599],
        [76.68859, 31.9658],
        [76.68883, 31.9658],
        [76.68906, 31.9658],
        [76.68916, 31.96623],
        [76.68825, 31.96767],
        [76.68767, 31.96892],
        [76.68734, 31.97031],
        [76.68725, 31.97141],
        [76.68643, 31.97242],
        [76.68547, 31.97343],
        [76.68475, 31.97367],
        [76.68446, 31.97381],
        [76.68494, 31.97533],
        [76.68494, 31.97585],
        [76.68475, 31.97643],
        [76.68471, 31.97691],
        [76.68452, 31.97753],
        [76.68427, 31.97825],
        [76.68403, 31.97873],
        [76.6838, 31.97917],
        [76.68351, 31.97955],
        [76.68227, 31.98032],
        [76.68059, 31.98301],
        [76.67996, 31.98411],
        [76.67905, 31.98697],
        [76.67737, 31.98922],
        [76.67689, 31.99033],
        [76.67622, 31.99186],
        [76.67455, 31.99364],
        [76.67345, 31.99407],
        [76.67206, 31.99465],
        [76.67124, 31.99465],
        [76.67029, 31.99621],
        [76.67, 31.99741],
        [76.66971, 31.99808],
        [76.66971, 31.9987],
        [76.66899, 31.99928],
        [76.6688, 31.99978],
        [76.66872, 32.00067],
        [76.66864, 32.00113],
        [76.66857, 32.00136],
        [76.66796, 32.00232],
        [76.6674, 32.00337],
        [76.66689, 32.00434],
        [76.66669, 32.00466],
        [76.66653, 32.00492],
        [76.66639, 32.00523],
        [76.66622, 32.00564],
        [76.66613, 32.00587],
        [76.66603, 32.00613],
        [76.666, 32.0069],
        [76.6658, 32.00755],
        [76.6651, 32.00864],
        [76.66431, 32.00978],
        [76.6632, 32.01111],
        [76.66264, 32.0122],
        [76.66245, 32.0126],
        [76.6623, 32.01364],
        [76.66216, 32.01499],
        [76.6622, 32.0174],
        [76.66216, 32.01762],
        [76.66212, 32.01792],
        [76.66215, 32.01804],
        [76.66219, 32.01811],
        [76.66223, 32.0182],
        [76.66226, 32.01833],
        [76.66226, 32.0186],
        [76.66189, 32.01919],
        [76.66153, 32.01962],
        [76.66145, 32.01972],
        [76.6614, 32.01982],
        [76.66141, 32.01991],
        [76.6615, 32.01997],
        [76.66164, 32.02003],
        [76.66179, 32.02007],
        [76.66196, 32.02014],
        [76.66216, 32.02033],
        [76.66236, 32.02075],
        [76.66243, 32.02142],
        [76.6624, 32.02168],
        [76.6623, 32.02211],
        [76.66214, 32.02245],
        [76.662, 32.02268],
        [76.66193, 32.02288],
        [76.66186, 32.02299],
        [76.66173, 32.02317],
        [76.66162, 32.02338],
        [76.66158, 32.02423],
        [76.6619, 32.02509],
        [76.662, 32.02535],
        [76.66204, 32.02554],
        [76.66209, 32.02575],
        [76.6621, 32.02596],
        [76.66212, 32.02614],
        [76.66211, 32.02633],
        [76.66211, 32.02652],
        [76.66209, 32.0267],
        [76.66201, 32.02691],
        [76.6619, 32.02708],
        [76.66174, 32.02728],
        [76.66148, 32.02783],
        [76.66109, 32.02815],
        [76.66064, 32.02849],
        [76.66025, 32.02876],
        [76.65994, 32.02895],
        [76.65985, 32.02902],
        [76.65978, 32.02912],
        [76.65978, 32.02924],
        [76.65989, 32.02941],
        [76.661, 32.03033],
        [76.66227, 32.0315],
        [76.66278, 32.03211],
        [76.66389, 32.03328],
        [76.66509, 32.03446],
        [76.66611, 32.0354],
        [76.66669, 32.03565],
        [76.66676, 32.03576],
        [76.66718, 32.03619],
        [76.66741, 32.03647],
        [76.66756, 32.0367],
        [76.66767, 32.03696],
        [76.66784, 32.03752],
        [76.66793, 32.03788],
        [76.66789, 32.0381],
        [76.66782, 32.03827],
        [76.66779, 32.03837],
        [76.66779, 32.03853],
        [76.66783, 32.03901],
        [76.66799, 32.03942],
        [76.66808, 32.03951],
        [76.66842, 32.03968],
        [76.67058, 32.0397],
        [76.67155, 32.03969],
        [76.67207, 32.03963],
        [76.67243, 32.03949],
        [76.67265, 32.03941],
        [76.67274, 32.03923],
        [76.6728, 32.03918],
        [76.67287, 32.03915],
        [76.67301, 32.03917],
        [76.67314, 32.03926],
        [76.67362, 32.04023],
        [76.67411, 32.0414],
        [76.67441, 32.04273],
        [76.67458, 32.04507],
        [76.6746, 32.04593],
        [76.6746, 32.04616],
        [76.67466, 32.04638],
        [76.67473, 32.04651],
        [76.67673, 32.04703],
        [76.67803, 32.0475],
        [76.68013, 32.04901],
        [76.68063, 32.04926],
        [76.68262, 32.04984],
        [76.68396, 32.05049],
        [76.68498, 32.05122],
        [76.68555, 32.05173],
        [76.68576, 32.0519],
        [76.68601, 32.05206],
        [76.68612, 32.0521],
        [76.68644, 32.05218],
        [76.68669, 32.05217],
        [76.68694, 32.05218],
        [76.68756, 32.05195],
        [76.68803, 32.05149],
        [76.68826, 32.05117],
        [76.68852, 32.05091],
        [76.6887, 32.05078],
        [76.68893, 32.05065],
        [76.68927, 32.05049],
        [76.68939, 32.05046],
        [76.68961, 32.05045],
        [76.68985, 32.05045],
        [76.68994, 32.05049],
        [76.69018, 32.05058],
        [76.69074, 32.05077],
        [76.69087, 32.05097],
        [76.69138, 32.05201],
        [76.69154, 32.05225],
        [76.69162, 32.05237],
        [76.69174, 32.05245],
        [76.69196, 32.05235],
        [76.69217, 32.05221],
        [76.69299, 32.0513],
        [76.6942, 32.05044],
        [76.69533, 32.05016],
        [76.69611, 32.04991],
        [76.69643, 32.04957],
        [76.69662, 32.04935],
        [76.69672, 32.04912],
        [76.69678, 32.0488],
        [76.69679, 32.04789],
        [76.69676, 32.04771],
        [76.69676, 32.04742],
        [76.69682, 32.04722],
        [76.69693, 32.04702],
        [76.69706, 32.04689],
        [76.69807, 32.04649],
        [76.69929, 32.04606],
        [76.69984, 32.04606],
        [76.7, 32.04599],
        [76.70011, 32.04596],
        [76.70028, 32.04589],
        [76.7004, 32.0459],
        [76.70066, 32.04592],
        [76.70089, 32.04595],
        [76.70106, 32.04602],
        [76.70124, 32.04609],
        [76.70141, 32.04623],
        [76.70186, 32.04685],
        [76.70201, 32.04704],
        [76.70217, 32.04717],
        [76.7023, 32.0473],
        [76.70252, 32.04734],
        [76.70272, 32.04733],
        [76.70292, 32.04723],
        [76.70311, 32.04707],
        [76.70321, 32.04698],
        [76.70343, 32.04686],
        [76.70367, 32.04678],
        [76.70386, 32.04678],
        [76.70397, 32.04678],
        [76.70464, 32.04698],
        [76.70539, 32.04739],
        [76.70552, 32.04737],
        [76.70559, 32.04716],
        [76.70559, 32.04694],
        [76.70552, 32.04677],
        [76.70536, 32.04652],
        [76.70506, 32.04638],
        [76.70448, 32.04616],
        [76.70426, 32.04603],
        [76.70396, 32.04546],
        [76.70372, 32.04497],
        [76.70369, 32.04469],
        [76.70369, 32.04456],
        [76.70369, 32.04425],
        [76.70374, 32.04402],
        [76.70406, 32.04353],
        [76.70438, 32.04336],
        [76.70451, 32.04319],
        [76.70457, 32.04303],
        [76.70457, 32.04286],
        [76.70448, 32.04234],
        [76.70437, 32.04199],
        [76.70437, 32.04171],
        [76.70441, 32.0413],
        [76.70483, 32.04083],
        [76.70514, 32.04027],
        [76.70519, 32.04016],
        [76.70519, 32.04],
        [76.70499, 32.03993],
        [76.70437, 32.0398],
        [76.70418, 32.03964],
        [76.70389, 32.03936],
        [76.70386, 32.03918],
        [76.7039, 32.03908],
        [76.70418, 32.03884],
        [76.70458, 32.03863],
        [76.70467, 32.0386],
        [76.70471, 32.03849],
        [76.70479, 32.03815],
        [76.70487, 32.03749],
        [76.70507, 32.03659],
        [76.70531, 32.03626],
        [76.70538, 32.03614],
        [76.70581, 32.03612],
        [76.70712, 32.03633],
        [76.70843, 32.03639],
        [76.70904, 32.03623],
        [76.71019, 32.03575],
        [76.71158, 32.03532],
        [76.71293, 32.03476],
        [76.71347, 32.03438],
        [76.71454, 32.03368],
        [76.71572, 32.03302],
        [76.71653, 32.03268],
        [76.71758, 32.03251],
        [76.71783, 32.03235],
        [76.71836, 32.03183],
        [76.71938, 32.03121],
        [76.72011, 32.03081],
        [76.72075, 32.03072],
        [76.72154, 32.03076],
        [76.72239, 32.03091],
        [76.7237, 32.03079],
        [76.72503, 32.03078],
        [76.7256, 32.03092],
        [76.72664, 32.03144],
        [76.72718, 32.03171],
        [76.72749, 32.0318],
        [76.7277, 32.03177],
        [76.72838, 32.03153],
        [76.72911, 32.03102],
        [76.72914, 32.03076],
        [76.72875, 32.02999],
        [76.72841, 32.02928],
        [76.72842, 32.02909],
        [76.72849, 32.02889],
        [76.72896, 32.02822],
        [76.72968, 32.02762],
        [76.73005, 32.02736],
        [76.73034, 32.02723],
        [76.7304, 32.02721],
        [76.73096, 32.02719],
        [76.73158, 32.02734],
        [76.73229, 32.02783],
        [76.73238, 32.02802],
        [76.73239, 32.02822],
        [76.73235, 32.02845],
        [76.73232, 32.02861],
        [76.73236, 32.02881],
        [76.73245, 32.02888],
        [76.7326, 32.02891],
        [76.73281, 32.02887],
        [76.73343, 32.02832],
        [76.73359, 32.02822],
        [76.73366, 32.02821],
        [76.73376, 32.02824],
        [76.73382, 32.02831],
        [76.73386, 32.02851],
        [76.73383, 32.02899],
        [76.73387, 32.02904],
        [76.73396, 32.02912],
        [76.73412, 32.02917],
        [76.73436, 32.02909],
        [76.73503, 32.02883],
        [76.73544, 32.02875],
        [76.7357, 32.02874],
        [76.73608, 32.02894],
        [76.73699, 32.02957],
        [76.73753, 32.03033],
        [76.73774, 32.03091],
        [76.73808, 32.03164],
        [76.73868, 32.0324],
        [76.7392, 32.03343],
        [76.73981, 32.03423],
        [76.73999, 32.03463],
        [76.74013, 32.03505],
        [76.74011, 32.03565],
        [76.74005, 32.03581],
        [76.73995, 32.03598],
        [76.73992, 32.0361],
        [76.73991, 32.03623],
        [76.74027, 32.03651],
        [76.74213, 32.03692],
        [76.74318, 32.03746],
        [76.74396, 32.03808],
        [76.74473, 32.0386],
        [76.74551, 32.03889],
        [76.74569, 32.03909],
        [76.74574, 32.03953],
        [76.74614, 32.04046],
        [76.74621, 32.04069],
        [76.74634, 32.04098],
        [76.74652, 32.04146],
        [76.74668, 32.04167],
        [76.7474, 32.04245],
        [76.74825, 32.0432],
        [76.74885, 32.04355]
      ]
    ]
  }
}
