{
  "type": "Feature",
  "id": "HP-AC-32",
  "properties": {
    "stateName": "HIMACHAL PRADESH",
    "stateCode": "HP",
    "districtName": "MANDI",
    "acNo": 32,
    "acName": "DHARAMPUR",
    "seatType": null,
    "pcNo": null,
    "pcName": null,
    "quality": "unverified",
    "sources": [
      "TBD"
    ]
  },
  "geometry": {
    "type": "Polygon",
    "coordinates": [
      [
        [76.72081, 31.8782],
        [76.72038, 31.87722],
        [76.71987, 31.87628],
        [76.71925, 31.87554],
        [76.71903, 31.8749],
        [76.719, 31.87448],
        [76.71903, 31.87405],
        [76.71908, 31.87336],
        [76.71983, 31.87143],
        [76.72029, 31.87047],
        [76.7207, 31.86989],
        [76.72112, 31.86932],
        [76.72219, 31.86819],
        [76.72357, 31.86701],
        [76.72453, 31.86656],
        [76.72585, 31.8655],
        [76.72682, 31.86508],
        [76.72752, 31.8646],
        [76.72954, 31.86324],
        [76.73217, 31.86193],
        [76.73346, 31.86175],
        [76.73502, 31.86168],
        [76.73666, 31.86174],
        [76.73707, 31.86149],
        [76.73731, 31.86126],
        [76.73769, 31.86098],
        [76.73817, 31.86075],
        [76.73884, 31.86013],
        [76.73951, 31.85958],
        [76.73986, 31.85914],
        [76.74007, 31.85873],
        [76.74019, 31.85825],
        [76.74054, 31.85781],
        [76.7414, 31.85712],
        [76.74172, 31.85668],
        [76.74268, 31.85601],
        [76.74327, 31.85563],
        [76.74448, 31.85482],
        [76.74529, 31.85447],
        [76.74613, 31.85429],
        [76.7469, 31.85424],
        [76.74881, 31.85456],
        [76.75116, 31.85515],
        [76.75248, 31.85533],
        [76.75369, 31.85552],
        [76.75487, 31.85508],
        [76.75605, 31.85446],
        [76.75631, 31.85434],
        [76.75652, 31.85425],
        [76.75699, 31.85403],
        [76.75878, 31.85242],
        [76.75869, 31.85097],
        [76.75793, 31.85046],
        [76.75527, 31.84816],
        [76.75413, 31.84731],
        [76.75397, 31.8472],
        [76.75307, 31.84617],
        [76.7526, 31.84569],
        [76.7516, 31.84463],
        [76.75115, 31.84399],
        [76.75124, 31.84328],
        [76.75154, 31.84256],
        [76.75202, 31.84123],
        [76.75268, 31.83899],
        [76.75293, 31.83843],
        [76.75323, 31.83805],
        [76.75413, 31.83693],
        [76.75573, 31.83492],
        [76.75969, 31.83143],
        [76.76243, 31.82973],
        [76.76504, 31.82844],
        [76.76621, 31.8279],
        [76.76745, 31.82707],
        [76.76803, 31.82666],
        [76.76861, 31.82625],
        [76.76987, 31.82555],
        [76.77049, 31.82501],
        [76.77075, 31.82478],
        [76.77194, 31.82361],
        [76.77264, 31.82231],
        [76.77291, 31.82115],
        [76.77282, 31.81974],
        [76.77271, 31.81915],
        [76.77285, 31.81847],
        [76.77332, 31.81806],
        [76.77468, 31.81756],
        [76.77567, 31.8177],
        [76.77711, 31.81784],
        [76.77863, 31.81923],
        [76.77938, 31.82086],
        [76.77951, 31.82114],
        [76.78043, 31.82433],
        [76.78096, 31.82605],
        [76.78208, 31.82848],
        [76.78334, 31.82997],
        [76.78484, 31.83134],
        [76.78556, 31.8317],
        [76.78641, 31.83194],
        [76.788, 31.83202],
        [76.78865, 31.83176],
        [76.78968, 31.83101],
        [76.79015, 31.8298],
        [76.79008, 31.82892],
        [76.79019, 31.82788],
        [76.79047, 31.82738],
        [76.79233, 31.82613],
        [76.79365, 31.82565],
        [76.79519, 31.8252],
        [76.79641, 31.82451],
        [76.7977, 31.82372],
        [76.7989, 31.82287],
        [76.79956, 31.82234],
        [76.79992, 31.82204],
        [76.80107, 31.82133],
        [76.80207, 31.82048],
        [76.80323, 31.81932],
        [76.80427, 31.81851],
        [76.80572, 31.81825],
        [76.80789, 31.81793],
        [76.80861, 31.81791],
        [76.80932, 31.81788],
        [76.81164, 31.81801],
        [76.81385, 31.81813],
        [76.81392, 31.81784],
        [76.81405, 31.81744],
        [76.8143, 31.81712],
        [76.81559, 31.8151],
        [76.8173, 31.81299],
        [76.81758, 31.81248],
        [76.81838, 31.81105],
        [76.81874, 31.81054],
        [76.81922, 31.80999],
        [76.81914, 31.80934],
        [76.81899, 31.80884],
        [76.81858, 31.8083],
        [76.81824, 31.80768],
        [76.81788, 31.80721],
        [76.81759, 31.80654],
        [76.81726, 31.8054],
        [76.81708, 31.80486],
        [76.817, 31.80452],
        [76.81694, 31.80427],
        [76.81668, 31.80287],
        [76.81662, 31.80234],
        [76.81669, 31.80164],
        [76.81718, 31.80032],
        [76.81774, 31.7991],
        [76.81805, 31.79853],
        [76.8182, 31.79805],
        [76.81825, 31.79775],
        [76.81828, 31.79753],
        [76.81818, 31.79538],
        [76.81809, 31.79431],
        [76.81806, 31.7939],
        [76.81799, 31.79275],
        [76.81791, 31.7897],
        [76.81774, 31.78808],
        [76.81761, 31.78641],
        [76.81732, 31.78505],
        [76.81714, 31.78436],
        [76.81686, 31.78308],
        [76.81661, 31.78183],
        [76.81655, 31.78154],
        [76.8163, 31.78101],
        [76.81622, 31.78072],
        [76.81614, 31.78042],
        [76.81631, 31.77964],
        [76.81661, 31.77909],
        [76.81723, 31.77729],
        [76.81823, 31.77558],
        [76.81889, 31.77409],
        [76.81902, 31.77361],
        [76.81935, 31.77163],
        [76.81965, 31.77093],
        [76.81971, 31.77026],
        [76.81992, 31.76869],
        [76.82, 31.76844],
        [76.82035, 31.76794],
        [76.82048, 31.76727],
        [76.82122, 31.76615],
        [76.82172, 31.76484],
        [76.82199, 31.76439],
        [76.82223, 31.764],
        [76.8224, 31.76339],
        [76.82246, 31.76094],
        [76.82254, 31.76017],
        [76.82269, 31.7593],
        [76.82337, 31.7587],
        [76.82339, 31.75865],
        [76.82353, 31.75826],
        [76.82421, 31.75714],
        [76.82519, 31.75631],
        [76.82684, 31.75528],
        [76.82824, 31.75403],
        [76.8295, 31.75252],
        [76.83004, 31.75112],
        [76.83041, 31.74999],
        [76.83059, 31.74893],
        [76.83073, 31.74793],
        [76.83107, 31.74645],
        [76.83148, 31.74536],
        [76.83169, 31.74459],
        [76.83212, 31.74385],
        [76.83248, 31.74337],
        [76.8328, 31.74273],
        [76.83305, 31.74183],
        [76.8331, 31.74115],
        [76.83327, 31.74048],
        [76.83302, 31.73999],
        [76.8333, 31.73931],
        [76.8337, 31.73861],
        [76.83372, 31.73793],
        [76.83352, 31.73691],
        [76.83348, 31.73673],
        [76.83294, 31.73598],
        [76.83239, 31.73512],
        [76.83169, 31.73437],
        [76.83125, 31.73381],
        [76.83076, 31.7326],
        [76.83032, 31.73179],
        [76.83026, 31.73098],
        [76.83016, 31.73098],
        [76.82839, 31.73093],
        [76.82607, 31.73122],
        [76.82537, 31.73114],
        [76.82475, 31.73116],
        [76.824, 31.73123],
        [76.8236, 31.73147],
        [76.8232, 31.73168],
        [76.82278, 31.7319],
        [76.8219, 31.73233],
        [76.82129, 31.73248],
        [76.8208, 31.73293],
        [76.82044, 31.73329],
        [76.82011, 31.73341],
        [76.81977, 31.73367],
        [76.81937, 31.73389],
        [76.8188, 31.73409],
        [76.81835, 31.7341],
        [76.81795, 31.73436],
        [76.81704, 31.73491],
        [76.81631, 31.73547],
        [76.81574, 31.73566],
        [76.8137, 31.73591],
        [76.81243, 31.73596],
        [76.80878, 31.73571],
        [76.80843, 31.73567],
        [76.80807, 31.73543],
        [76.80751, 31.73533],
        [76.80708, 31.73521],
        [76.80638, 31.73492],
        [76.80578, 31.7348],
        [76.80497, 31.73478],
        [76.80408, 31.73485],
        [76.80377, 31.73501],
        [76.80338, 31.73493],
        [76.80294, 31.73511],
        [76.80263, 31.73521],
        [76.80199, 31.73518],
        [76.80158, 31.73497],
        [76.80109, 31.73475],
        [76.80029, 31.73449],
        [76.79979, 31.73442],
        [76.79905, 31.73432],
        [76.79837, 31.7341],
        [76.798, 31.73411],
        [76.79773, 31.73484],
        [76.79678, 31.7366],
        [76.79537, 31.73874],
        [76.79384, 31.74035],
        [76.79075, 31.74405],
        [76.7899, 31.7455],
        [76.78964, 31.74634],
        [76.78955, 31.74631],
        [76.78912, 31.74638],
        [76.78906, 31.7463],
        [76.78814, 31.74608],
        [76.78713, 31.74596],
        [76.78604, 31.74586],
        [76.78557, 31.74557],
        [76.78439, 31.74535],
        [76.78371, 31.74518],
        [76.7827, 31.74511],
        [76.78205, 31.74505],
        [76.78128, 31.74483],
        [76.78075, 31.74466],
        [76.78011, 31.74425],
        [76.77972, 31.74419],
        [76.77925, 31.74408],
        [76.77878, 31.74391],
        [76.77781, 31.74252],
        [76.77782, 31.74207],
        [76.77778, 31.7412],
        [76.77725, 31.74127],
        [76.77664, 31.74182],
        [76.77631, 31.74204],
        [76.77588, 31.74233],
        [76.77495, 31.7426],
        [76.77406, 31.74278],
        [76.77287, 31.74276],
        [76.77189, 31.74274],
        [76.77132, 31.74264],
        [76.76979, 31.74277],
        [76.76759, 31.74305],
        [76.76705, 31.7427],
        [76.76701, 31.74259],
        [76.76676, 31.74256],
        [76.76612, 31.74258],
        [76.76601, 31.7426],
        [76.76593, 31.74244],
        [76.76538, 31.74213],
        [76.76509, 31.74185],
        [76.76465, 31.74169],
        [76.76389, 31.74166],
        [76.76312, 31.74163],
        [76.76259, 31.74159],
        [76.76219, 31.74145],
        [76.76191, 31.74113],
        [76.76179, 31.74092],
        [76.75905, 31.74215],
        [76.75904, 31.74247],
        [76.75863, 31.7428],
        [76.75783, 31.74279],
        [76.75739, 31.74295],
        [76.75548, 31.74395],
        [76.75499, 31.74362],
        [76.75452, 31.74375],
        [76.75347, 31.74408],
        [76.75301, 31.74375],
        [76.75221, 31.74365],
        [76.75116, 31.7438],
        [76.74988, 31.74406],
        [76.74877, 31.74416],
        [76.74713, 31.7441],
        [76.74536, 31.74395],
        [76.74459, 31.74376],
        [76.74366, 31.74331],
        [76.7423, 31.74294],
        [76.74107, 31.74249],
        [76.73981, 31.74192],
        [76.7386, 31.74147],
        [76.73774, 31.74156],
        [76.73707, 31.74163],
        [76.7359, 31.74142],
        [76.73372, 31.74273],
        [76.73135, 31.744],
        [76.73056, 31.74435],
        [76.73041, 31.74456],
        [76.73043, 31.74487],
        [76.73051, 31.74511],
        [76.73055, 31.74528],
        [76.72975, 31.746],
        [76.72925, 31.7463],
        [76.72892, 31.7477],
        [76.72862, 31.74805],
        [76.72843, 31.74817],
        [76.72807, 31.74829],
        [76.72805, 31.7483],
        [76.72787, 31.74808],
        [76.72784, 31.74804],
        [76.72781, 31.748],
        [76.72778, 31.74796],
        [76.72775, 31.74792],
        [76.72772, 31.74788],
        [76.7277, 31.74784],
        [76.72767, 31.7478],
        [76.72764, 31.74776],
        [76.72761, 31.74772],
        [76.72759, 31.74767],
        [76.72756, 31.74764],
        [76.72754, 31.74759],
        [76.72752, 31.74755],
        [76.72749, 31.74751],
        [76.72747, 31.74747],
        [76.72745, 31.74742],
        [76.72674, 31.7461],
        [76.72673, 31.74609],
        [76.72663, 31.7459],
        [76.72665, 31.7459],
        [76.72665, 31.74465],
        [76.72664, 31.74464],
        [76.72647, 31.74383],
        [76.7265, 31.74295],
        [76.72635, 31.74262],
        [76.72633, 31.74241],
        [76.72609, 31.74207],
        [76.72609, 31.74206],
        [76.72532, 31.74079],
        [76.72517, 31.73976],
        [76.72483, 31.73924],
        [76.72479, 31.73895],
        [76.72469, 31.73818],
        [76.72438, 31.73791],
        [76.7238, 31.73772],
        [76.7229, 31.73743],
        [76.72202, 31.73703],
        [76.72202, 31.73705],
        [76.72109, 31.73693],
        [76.72004, 31.7366],
        [76.71968, 31.73637],
        [76.71959, 31.73604],
        [76.71958, 31.73591],
        [76.71958, 31.73587],
        [76.71958, 31.73583],
        [76.71958, 31.73579],
        [76.71958, 31.73574],
        [76.71959, 31.7357],
        [76.71959, 31.73565],
        [76.71959, 31.73561],
        [76.7196, 31.73557],
        [76.7196, 31.73552],
        [76.7196, 31.73548],
        [76.71961, 31.73543],
        [76.71961, 31.73539],
        [76.71962, 31.73535],
        [76.71963, 31.73531],
        [76.71963, 31.73526],
        [76.71964, 31.73522],
        [76.71965, 31.73515],
        [76.71993, 31.73468],
        [76.71996, 31.73462],
        [76.72, 31.73456],
        [76.72003, 31.73451],
        [76.72006, 31.73445],
        [76.72009, 31.73439],
        [76.72012, 31.73433],
        [76.72014, 31.73427],
        [76.72017, 31.73421],
        [76.72018, 31.73419],
        [76.7202, 31.73414],
        [76.72021, 31.7341],
        [76.72023, 31.73406],
        [76.72024, 31.73402],
        [76.72026, 31.73397],
        [76.72028, 31.73393],
        [76.72029, 31.73389],
        [76.7203, 31.73385],
        [76.72032, 31.7338],
        [76.72033, 31.73376],
        [76.72034, 31.73372],
        [76.72036, 31.73367],
        [76.72037, 31.73363],
        [76.72038, 31.73359],
        [76.72039, 31.73354],
        [76.72041, 31.7335],
        [76.72015, 31.73284],
        [76.71992, 31.7323],
        [76.71995, 31.73177],
        [76.72099, 31.72975],
        [76.721, 31.72975],
        [76.72109, 31.72932],
        [76.72109, 31.72847],
        [76.72111, 31.72847],
        [76.72123, 31.72801],
        [76.72135, 31.72761],
        [76.72121, 31.72715],
        [76.72137, 31.72668],
        [76.7214, 31.72604],
        [76.72119, 31.72543],
        [76.72074, 31.72378],
        [76.72072, 31.72306],
        [76.72107, 31.7226],
        [76.72243, 31.72123],
        [76.72255, 31.72091],
        [76.72258, 31.71925],
        [76.72276, 31.71885],
        [76.72449, 31.718],
        [76.72729, 31.71655],
        [76.72729, 31.71657],
        [76.7279, 31.71599],
        [76.72803, 31.71498],
        [76.72803, 31.71495],
        [76.72789, 31.71397],
        [76.72789, 31.71392],
        [76.72788, 31.71388],
        [76.72787, 31.71383],
        [76.72787, 31.71379],
        [76.72786, 31.71374],
        [76.72785, 31.7137],
        [76.72784, 31.71365],
        [76.72783, 31.71361],
        [76.72782, 31.71356],
        [76.72781, 31.71352],
        [76.7278, 31.71348],
        [76.72779, 31.71343],
        [76.72778, 31.71339],
        [76.72777, 31.71334],
        [76.72776, 31.7133],
        [76.72774, 31.71325],
        [76.72773, 31.71321],
        [76.72771, 31.71317],
        [76.7277, 31.71312],
        [76.72768, 31.71308],
        [76.72767, 31.71304],
        [76.72765, 31.71299],
        [76.72764, 31.71295],
        [76.72762, 31.71291],
        [76.7276, 31.71287],
        [76.72759, 31.71282],
        [76.72757, 31.71278],
        [76.72755, 31.71274],
        [76.72753, 31.71269],
        [76.72751, 31.71265],
        [76.72749, 31.71261],
        [76.72747, 31.71257],
        [76.72695, 31.71158],
        [76.72559, 31.70939],
        [76.72528, 31.70902],
        [76.72459, 31.70859],
        [76.72342, 31.70792],
        [76.72266, 31.70727],
        [76.72238, 31.70708],
        [76.72181, 31.70624],
        [76.72092, 31.70562],
        [76.72023, 31.70482],
        [76.71991, 31.70425],
        [76.71969, 31.70365],
        [76.71963, 31.70333],
        [76.71963, 31.70323],
        [76.71884, 31.70249],
        [76.71806, 31.70108],
        [76.71681, 31.69901],
        [76.71539, 31.69744],
        [76.71491, 31.69709],
        [76.71497, 31.69697],
        [76.71748, 31.69509],
        [76.71941, 31.6942],
        [76.72129, 31.69392],
        [76.7234, 31.69367],
        [76.72415, 31.69279],
        [76.72467, 31.69202],
        [76.72472, 31.69187],
        [76.72547, 31.69166],
        [76.72608, 31.69102],
        [76.72665, 31.69069],
        [76.72716, 31.69013],
        [76.72754, 31.68993],
        [76.72796, 31.68985],
        [76.7282, 31.68888],
        [76.72857, 31.68755],
        [76.72918, 31.68555],
        [76.72874, 31.68503],
        [76.72752, 31.68409],
        [76.72751, 31.68347],
        [76.73096, 31.68333],
        [76.73594, 31.68287],
        [76.73745, 31.68346],
        [76.74036, 31.68435],
        [76.74033, 31.68427],
        [76.74079, 31.68125],
        [76.74079, 31.6812],
        [76.7408, 31.68114],
        [76.74081, 31.68109],
        [76.74081, 31.68104],
        [76.74082, 31.68099],
        [76.74082, 31.68093],
        [76.74083, 31.68088],
        [76.74083, 31.68083],
        [76.74083, 31.68078],
        [76.74083, 31.68073],
        [76.74083, 31.68067],
        [76.74083, 31.68062],
        [76.74083, 31.68057],
        [76.74083, 31.68052],
        [76.74083, 31.68047],
        [76.74082, 31.68041],
        [76.74082, 31.68036],
        [76.74081, 31.68031],
        [76.74081, 31.68026],
        [76.7408, 31.6802],
        [76.7408, 31.68015],
        [76.74079, 31.6801],
        [76.74078, 31.68005],
        [76.74077, 31.68],
        [76.74076, 31.67995],
        [76.74075, 31.67989],
        [76.74074, 31.67984],
        [76.74073, 31.67979],
        [76.74072, 31.67974],
        [76.74071, 31.67969],
        [76.74069, 31.67964],
        [76.74068, 31.67959],
        [76.74066, 31.67952],
        [76.73981, 31.67855],
        [76.7377, 31.67755],
        [76.7377, 31.67758],
        [76.73722, 31.67712],
        [76.73678, 31.67511],
        [76.73447, 31.67554],
        [76.72758, 31.676],
        [76.72569, 31.6762],
        [76.72581, 31.67584],
        [76.72502, 31.67508],
        [76.72293, 31.67349],
        [76.72287, 31.67247],
        [76.72255, 31.67139],
        [76.72255, 31.67136],
        [76.72318, 31.6699],
        [76.7232, 31.66987],
        [76.72321, 31.66984],
        [76.72322, 31.66981],
        [76.72324, 31.66978],
        [76.72325, 31.66975],
        [76.72327, 31.66972],
        [76.72328, 31.66969],
        [76.7233, 31.66966],
        [76.72365, 31.66896],
        [76.72187, 31.66689],
        [76.72173, 31.66709],
        [76.71936, 31.66755],
        [76.71629, 31.66863],
        [76.71261, 31.66981],
        [76.71009, 31.67066],
        [76.70836, 31.67194],
        [76.70553, 31.6734],
        [76.70252, 31.67374],
        [76.69867, 31.6735],
        [76.69671, 31.67419],
        [76.69468, 31.67566],
        [76.69282, 31.67839],
        [76.69218, 31.68048],
        [76.69143, 31.68359],
        [76.69051, 31.68423],
        [76.68798, 31.68525],
        [76.68682, 31.68601],
        [76.68733, 31.68702],
        [76.6889, 31.68926],
        [76.68925, 31.6907],
        [76.68971, 31.69501],
        [76.69066, 31.69668],
        [76.6905, 31.6975],
        [76.68859, 31.69855],
        [76.68523, 31.69945],
        [76.68586, 31.70123],
        [76.68615, 31.70276],
        [76.68687, 31.70462],
        [76.68673, 31.7057],
        [76.6854, 31.70719],
        [76.68318, 31.7087],
        [76.68007, 31.71057],
        [76.67883, 31.7124],
        [76.67581, 31.71242],
        [76.67496, 31.71265],
        [76.67338, 31.71483],
        [76.67149, 31.71762],
        [76.67036, 31.71993],
        [76.67005, 31.72171],
        [76.67026, 31.72289],
        [76.67132, 31.72435],
        [76.67267, 31.72653],
        [76.67304, 31.72775],
        [76.67306, 31.72927],
        [76.67312, 31.73161],
        [76.67264, 31.73442],
        [76.67172, 31.73561],
        [76.6698, 31.73688],
        [76.66777, 31.73833],
        [76.66105, 31.73891],
        [76.65942, 31.74009],
        [76.65746, 31.73996],
        [76.65669, 31.74046],
        [76.65392, 31.74192],
        [76.65305, 31.74196],
        [76.65118, 31.74218],
        [76.64977, 31.74249],
        [76.64851, 31.74276],
        [76.64766, 31.74311],
        [76.64519, 31.74417],
        [76.64327, 31.74471],
        [76.64166, 31.74545],
        [76.63859, 31.74709],
        [76.63844, 31.7476],
        [76.63785, 31.74865],
        [76.63651, 31.74985],
        [76.63613, 31.75013],
        [76.63536, 31.75095],
        [76.63502, 31.75143],
        [76.63422, 31.75182],
        [76.63397, 31.75225],
        [76.63397, 31.75287],
        [76.63397, 31.75345],
        [76.63388, 31.75422],
        [76.63388, 31.7547],
        [76.63426, 31.755],
        [76.63435, 31.75553],
        [76.63469, 31.75678],
        [76.63469, 31.75697],
        [76.63412, 31.7576],
        [76.63388, 31.75841],
        [76.63393, 31.75976],
        [76.63407, 31.76038],
        [76.63412, 31.76115],
        [76.63407, 31.76182],
        [76.63407, 31.76264],
        [76.63445, 31.76351],
        [76.63407, 31.76521],
        [76.63388, 31.76535],
        [76.63364, 31.76593],
        [76.63306, 31.76684],
        [76.63268, 31.76737],
        [76.63187, 31.76804],
        [76.63172, 31.76876],
        [76.6309, 31.76934],
        [76.62952, 31.77025],
        [76.62904, 31.77058],
        [76.6288, 31.77073],
        [76.62832, 31.7714],
        [76.62775, 31.77179],
        [76.6276, 31.77227],
        [76.62741, 31.7726],
        [76.62722, 31.77318],
        [76.62698, 31.7738],
        [76.62703, 31.77438],
        [76.62664, 31.77546],
        [76.62664, 31.7757],
        [76.62664, 31.77627],
        [76.62674, 31.77671],
        [76.62674, 31.7769],
        [76.62674, 31.77781],
        [76.62674, 31.77848],
        [76.62655, 31.77978],
        [76.62655, 31.78002],
        [76.62655, 31.78079],
        [76.6265, 31.78156],
        [76.62645, 31.78204],
        [76.62617, 31.78232],
        [76.62569, 31.78271],
        [76.62444, 31.78324],
        [76.62367, 31.78362],
        [76.62338, 31.78376],
        [76.62271, 31.78439],
        [76.62247, 31.78458],
        [76.62209, 31.78633],
        [76.6219, 31.78801],
        [76.62219, 31.78864],
        [76.62252, 31.78964],
        [76.62267, 31.79065],
        [76.62252, 31.79137],
        [76.62238, 31.792],
        [76.62228, 31.79276],
        [76.62214, 31.79363],
        [76.62199, 31.79449],
        [76.62195, 31.79569],
        [76.62104, 31.79653],
        [76.6209, 31.79673],
        [76.62051, 31.79721],
        [76.62037, 31.7974],
        [76.62037, 31.79769],
        [76.62037, 31.79826],
        [76.62046, 31.7985],
        [76.62046, 31.79874],
        [76.62046, 31.79927],
        [76.62138, 31.80057],
        [76.62238, 31.80081],
        [76.62291, 31.80119],
        [76.62319, 31.80162],
        [76.62334, 31.80215],
        [76.62329, 31.80234],
        [76.62319, 31.80287],
        [76.62315, 31.8033],
        [76.62296, 31.80373],
        [76.62291, 31.80441],
        [76.6231, 31.80465],
        [76.62344, 31.80746],
        [76.62353, 31.80846],
        [76.62449, 31.80937],
        [76.62544, 31.81096],
        [76.62669, 31.8124],
        [76.62698, 31.81355],
        [76.62722, 31.81413],
        [76.62727, 31.81509],
        [76.6275, 31.81581],
        [76.62789, 31.81619],
        [76.6289, 31.81833],
        [76.62918, 31.81862],
        [76.63033, 31.82097],
        [76.63038, 31.82131],
        [76.63052, 31.82174],
        [76.63057, 31.82284],
        [76.63048, 31.82318],
        [76.63038, 31.82361],
        [76.63033, 31.82428],
        [76.62985, 31.82476],
        [76.62918, 31.82656],
        [76.6287, 31.82728],
        [76.62861, 31.82757],
        [76.62851, 31.82776],
        [76.62836, 31.82844],
        [76.62823, 31.82882],
        [76.62784, 31.82949],
        [76.62784, 31.8305],
        [76.62784, 31.83074],
        [76.62784, 31.83103],
        [76.62784, 31.83151],
        [76.62794, 31.83199],
        [76.62798, 31.83242],
        [76.62804, 31.8329],
        [76.62775, 31.83357],
        [76.62789, 31.83496],
        [76.62808, 31.83662],
        [76.62808, 31.83701],
        [76.62808, 31.83729],
        [76.62798, 31.83773],
        [76.62798, 31.83806],
        [76.62798, 31.8384],
        [76.62789, 31.84008],
        [76.62789, 31.84032],
        [76.62775, 31.84104],
        [76.62817, 31.84209],
        [76.62836, 31.84253],
        [76.62856, 31.84368],
        [76.6287, 31.84454],
        [76.6288, 31.84517],
        [76.62884, 31.84579],
        [76.62932, 31.84656],
        [76.63067, 31.84783],
        [76.63244, 31.85004],
        [76.63239, 31.85095],
        [76.63235, 31.85115],
        [76.6321, 31.85172],
        [76.6321, 31.85283],
        [76.63201, 31.8533],
        [76.6321, 31.85393],
        [76.63258, 31.85446],
        [76.63287, 31.85503],
        [76.63325, 31.85532],
        [76.63344, 31.85599],
        [76.63349, 31.85643],
        [76.63306, 31.85724],
        [76.6322, 31.8602],
        [76.63273, 31.86221],
        [76.63277, 31.8626],
        [76.6333, 31.8638],
        [76.63364, 31.86428],
        [76.63392, 31.86504],
        [76.6346, 31.86629],
        [76.63541, 31.8684],
        [76.63594, 31.86913],
        [76.63642, 31.87037],
        [76.6368, 31.87157],
        [76.63762, 31.87412],
        [76.64413, 31.87342],
        [76.64624, 31.8734],
        [76.6471, 31.87321],
        [76.6483, 31.87287],
        [76.64926, 31.87225],
        [76.65026, 31.87153],
        [76.65107, 31.8709],
        [76.65213, 31.87047],
        [76.65319, 31.86975],
        [76.65433, 31.86927],
        [76.65529, 31.86894],
        [76.65572, 31.86884],
        [76.65653, 31.86874],
        [76.65692, 31.86879],
        [76.65994, 31.87047],
        [76.66166, 31.87134],
        [76.66387, 31.87191],
        [76.66525, 31.87215],
        [76.66607, 31.87215],
        [76.6665, 31.87215],
        [76.66689, 31.87201],
        [76.67062, 31.8722],
        [76.67149, 31.87234],
        [76.67282, 31.8722],
        [76.67364, 31.87215],
        [76.67455, 31.87172],
        [76.67565, 31.87134],
        [76.6768, 31.87081],
        [76.67776, 31.87071],
        [76.6791, 31.87086],
        [76.68001, 31.87091],
        [76.68056, 31.87179],
        [76.6819, 31.87152],
        [76.68196, 31.87152],
        [76.68249, 31.87167],
        [76.68315, 31.87191],
        [76.68375, 31.87222],
        [76.68456, 31.87257],
        [76.68543, 31.87308],
        [76.68626, 31.87357],
        [76.68686, 31.87394],
        [76.68736, 31.87395],
        [76.68786, 31.87476],
        [76.68889, 31.87694],
        [76.68967, 31.87857],
        [76.69003, 31.8799],
        [76.69056, 31.88181],
        [76.6914, 31.88164],
        [76.69158, 31.8816],
        [76.69282, 31.88165],
        [76.69403, 31.88167],
        [76.69515, 31.88163],
        [76.69585, 31.88158],
        [76.69755, 31.88121],
        [76.69914, 31.88089],
        [76.70056, 31.88098],
        [76.70201, 31.88095],
        [76.7029, 31.88089],
        [76.70344, 31.88063],
        [76.70384, 31.88026],
        [76.70408, 31.87985],
        [76.7043, 31.87934],
        [76.70459, 31.87891],
        [76.70521, 31.87826],
        [76.70602, 31.87767],
        [76.70658, 31.87739],
        [76.70731, 31.8773],
        [76.70844, 31.87748],
        [76.70898, 31.87759],
        [76.70946, 31.87789],
        [76.71029, 31.87862],
        [76.71129, 31.87995],
        [76.71178, 31.88039],
        [76.71315, 31.88133],
        [76.71447, 31.88216],
        [76.71555, 31.88264],
        [76.71694, 31.88282],
        [76.71866, 31.88216],
        [76.71891, 31.88181],
        [76.71931, 31.88161],
        [76.71996, 31.88138],
        [76.72049, 31.88096],
        [76.72095, 31.88016],
        [76.72119, 31.87977],
        [76.72095, 31.87896],
        [76.721, 31.87859],
        [76.72081, 31.8782]
      ]
    ]
  }
}
