{
  "type": "Feature",
  "id": "HP-AC-33",
  "properties": {
    "stateName": "HIMACHAL PRADESH",
    "stateCode": "HP",
    "districtName": "MANDI",
    "acNo": 33,
    "acName": "MANDI",
    "seatType": null,
    "pcNo": null,
    "pcName": null,
    "quality": "unverified",
    "sources": [
      "TBD"
    ]
  },
  "geometry": {
    "type": "Polygon",
    "coordinates": [
      [
        [76.855, 31.82445],
        [76.85536, 31.82489],
        [76.85541, 31.82494],
        [76.85549, 31.82504],
        [76.8564, 31.82603],
        [76.85701, 31.82644],
        [76.85775, 31.8268],
        [76.85827, 31.82705],
        [76.85988, 31.82692],
        [76.86128, 31.82653],
        [76.86349, 31.82498],
        [76.86496, 31.82349],
        [76.86693, 31.82166],
        [76.86806, 31.82091],
        [76.86949, 31.82041],
        [76.87073, 31.81981],
        [76.87163, 31.81892],
        [76.87346, 31.8169],
        [76.8746, 31.81526],
        [76.87478, 31.81408],
        [76.87475, 31.81263],
        [76.87541, 31.81163],
        [76.87647, 31.81048],
        [76.87801, 31.80915],
        [76.8788, 31.80807],
        [76.87941, 31.80694],
        [76.87972, 31.80636],
        [76.87993, 31.80597],
        [76.88093, 31.80435],
        [76.88134, 31.8038],
        [76.88176, 31.80325],
        [76.88273, 31.80215],
        [76.88425, 31.80087],
        [76.88431, 31.80082],
        [76.88504, 31.80023],
        [76.88538, 31.79994],
        [76.88667, 31.79883],
        [76.88739, 31.79846],
        [76.88879, 31.79839],
        [76.8893, 31.79841],
        [76.89116, 31.79827],
        [76.8924, 31.79759],
        [76.8948, 31.79641],
        [76.89609, 31.79581],
        [76.89663, 31.79554],
        [76.89719, 31.79507],
        [76.89819, 31.79329],
        [76.89862, 31.79238],
        [76.89911, 31.79116],
        [76.89941, 31.79062],
        [76.89966, 31.79003],
        [76.89983, 31.7896],
        [76.90038, 31.78858],
        [76.90092, 31.7869],
        [76.9014, 31.78639],
        [76.90219, 31.78549],
        [76.90298, 31.78501],
        [76.9037, 31.78479],
        [76.90497, 31.78464],
        [76.90574, 31.78487],
        [76.90684, 31.78533],
        [76.90752, 31.78564],
        [76.90804, 31.7861],
        [76.90846, 31.78652],
        [76.9094, 31.78667],
        [76.91008, 31.78665],
        [76.91089, 31.78661],
        [76.91157, 31.78671],
        [76.91225, 31.78705],
        [76.91361, 31.78689],
        [76.91458, 31.78674],
        [76.91604, 31.78659],
        [76.9164, 31.78638],
        [76.91676, 31.7862],
        [76.91768, 31.78513],
        [76.91822, 31.78429],
        [76.91849, 31.78379],
        [76.91892, 31.783],
        [76.91951, 31.78164],
        [76.91984, 31.78111],
        [76.92033, 31.7809],
        [76.92132, 31.7806],
        [76.92232, 31.78038],
        [76.92342, 31.78015],
        [76.92444, 31.77976],
        [76.92538, 31.77935],
        [76.92626, 31.77889],
        [76.92673, 31.77854],
        [76.92724, 31.77784],
        [76.92744, 31.77687],
        [76.92755, 31.77597],
        [76.92809, 31.77521],
        [76.92818, 31.77475],
        [76.92858, 31.77327],
        [76.9289, 31.77267],
        [76.92937, 31.771],
        [76.9295, 31.7695],
        [76.9305, 31.76729],
        [76.93097, 31.76591],
        [76.93103, 31.76576],
        [76.93159, 31.76417],
        [76.93176, 31.76393],
        [76.93204, 31.76354],
        [76.93258, 31.763],
        [76.93322, 31.76279],
        [76.9341, 31.76262],
        [76.93519, 31.76252],
        [76.93601, 31.76253],
        [76.9373, 31.76246],
        [76.93811, 31.76238],
        [76.93861, 31.76207],
        [76.93917, 31.76099],
        [76.9394, 31.76026],
        [76.93944, 31.76013],
        [76.93952, 31.75932],
        [76.93957, 31.75759],
        [76.94004, 31.75651],
        [76.94007, 31.75521],
        [76.94011, 31.75391],
        [76.94019, 31.75289],
        [76.93991, 31.75147],
        [76.93925, 31.75027],
        [76.93839, 31.74912],
        [76.93739, 31.74617],
        [76.93724, 31.74592],
        [76.93678, 31.74513],
        [76.93586, 31.74408],
        [76.93512, 31.74299],
        [76.93501, 31.74234],
        [76.93517, 31.74126],
        [76.93513, 31.74017],
        [76.93502, 31.73947],
        [76.93474, 31.73816],
        [76.9342, 31.73696],
        [76.93379, 31.7356],
        [76.934, 31.73468],
        [76.93421, 31.73387],
        [76.9343, 31.73279],
        [76.93471, 31.73166],
        [76.93474, 31.73074],
        [76.93477, 31.72955],
        [76.9348, 31.7283],
        [76.93604, 31.72828],
        [76.93699, 31.7283],
        [76.93767, 31.72829],
        [76.93824, 31.72813],
        [76.93868, 31.72795],
        [76.93891, 31.72769],
        [76.93886, 31.72661],
        [76.93874, 31.72573],
        [76.93856, 31.72504],
        [76.93835, 31.72472],
        [76.93822, 31.72401],
        [76.93799, 31.72249],
        [76.93806, 31.72155],
        [76.93757, 31.72011],
        [76.93749, 31.71819],
        [76.93771, 31.71751],
        [76.93832, 31.71646],
        [76.93867, 31.71574],
        [76.93937, 31.71513],
        [76.94044, 31.71299],
        [76.94124, 31.71237],
        [76.94221, 31.71183],
        [76.94279, 31.71118],
        [76.94357, 31.70959],
        [76.94434, 31.70857],
        [76.94508, 31.70832],
        [76.94552, 31.708],
        [76.94673, 31.70786],
        [76.94713, 31.70756],
        [76.94845, 31.70758],
        [76.94955, 31.7074],
        [76.95114, 31.70713],
        [76.9528, 31.70664],
        [76.9534, 31.70661],
        [76.9553, 31.70632],
        [76.95575, 31.70585],
        [76.95637, 31.70556],
        [76.95708, 31.7054],
        [76.9578, 31.70521],
        [76.95842, 31.70498],
        [76.95926, 31.70472],
        [76.95998, 31.70396],
        [76.9604, 31.7037],
        [76.9608, 31.70355],
        [76.96128, 31.70349],
        [76.96153, 31.7033],
        [76.96236, 31.70297],
        [76.96329, 31.70291],
        [76.96391, 31.70283],
        [76.9641, 31.70281],
        [76.96488, 31.70296],
        [76.96525, 31.70308],
        [76.96549, 31.7031],
        [76.96596, 31.70311],
        [76.96619, 31.70311],
        [76.96682, 31.70334],
        [76.96732, 31.70355],
        [76.96825, 31.70327],
        [76.96914, 31.70312],
        [76.96979, 31.70301],
        [76.97034, 31.70286],
        [76.97096, 31.70268],
        [76.97131, 31.70252],
        [76.97196, 31.70225],
        [76.97244, 31.7015],
        [76.97241, 31.70072],
        [76.97264, 31.69966],
        [76.97267, 31.69924],
        [76.97294, 31.69828],
        [76.97318, 31.69759],
        [76.97323, 31.69648],
        [76.97327, 31.69604],
        [76.97328, 31.69589],
        [76.97377, 31.69591],
        [76.97479, 31.69582],
        [76.97538, 31.6956],
        [76.97659, 31.69539],
        [76.97714, 31.69523],
        [76.97773, 31.69501],
        [76.9782, 31.69492],
        [76.9786, 31.69489],
        [76.97903, 31.6948],
        [76.98035, 31.69502],
        [76.98279, 31.69564],
        [76.98428, 31.69563],
        [76.98479, 31.69551],
        [76.98542, 31.69519],
        [76.98601, 31.695],
        [76.98664, 31.69487],
        [76.98769, 31.69496],
        [76.98881, 31.69528],
        [76.98998, 31.69553],
        [76.99115, 31.69539],
        [76.99167, 31.69507],
        [76.99232, 31.6943],
        [76.99437, 31.69334],
        [76.99608, 31.69241],
        [76.99578, 31.69347],
        [76.99573, 31.69425],
        [76.99562, 31.69519],
        [76.99525, 31.69597],
        [76.99484, 31.69683],
        [76.99405, 31.69817],
        [76.99373, 31.69924],
        [76.99343, 31.70066],
        [76.99336, 31.70136],
        [76.99333, 31.70236],
        [76.99303, 31.70276],
        [76.99277, 31.70363],
        [76.99318, 31.70364],
        [76.99373, 31.70358],
        [76.99484, 31.70355],
        [76.9956, 31.70344],
        [76.99619, 31.70346],
        [76.99742, 31.70352],
        [76.99879, 31.70278],
        [76.99884, 31.70277],
        [76.99914, 31.70266],
        [76.99928, 31.70243],
        [76.99955, 31.70208],
        [76.99971, 31.70182],
        [77.0001, 31.70152],
        [77.00062, 31.70139],
        [77.00097, 31.70125],
        [77.00124, 31.70121],
        [77.00104, 31.70193],
        [77.00068, 31.70335],
        [77.00052, 31.7042],
        [77.00061, 31.70512],
        [77.00081, 31.70555],
        [77.00121, 31.70584],
        [77.00175, 31.70655],
        [77.00229, 31.70691],
        [77.00261, 31.70724],
        [77.00327, 31.70785],
        [77.0039, 31.70846],
        [77.00473, 31.70898],
        [77.00505, 31.70934],
        [77.00508, 31.71011],
        [77.00514, 31.71124],
        [77.00534, 31.71172],
        [77.0055, 31.71225],
        [77.0056, 31.71297],
        [77.00549, 31.7137],
        [77.00548, 31.71422],
        [77.00576, 31.71486],
        [77.00624, 31.71547],
        [77.00669, 31.7162],
        [77.00884, 31.71809],
        [77.00993, 31.71886],
        [77.01049, 31.71865],
        [77.01073, 31.71845],
        [77.0108, 31.71803],
        [77.01073, 31.71779],
        [77.01069, 31.71764],
        [77.01069, 31.71742],
        [77.01071, 31.71725],
        [77.01071, 31.71706],
        [77.01086, 31.71693],
        [77.0109, 31.71674],
        [77.01102, 31.71664],
        [77.01132, 31.71666],
        [77.0116, 31.71668],
        [77.01195, 31.71677],
        [77.01244, 31.71703],
        [77.01336, 31.71762],
        [77.01402, 31.71823],
        [77.01379, 31.71901],
        [77.01354, 31.71995],
        [77.01384, 31.72063],
        [77.01419, 31.72066],
        [77.01472, 31.72075],
        [77.01512, 31.72116],
        [77.01557, 31.72164],
        [77.01702, 31.72234],
        [77.01743, 31.72248],
        [77.01739, 31.72331],
        [77.01788, 31.72314],
        [77.01827, 31.7226],
        [77.0184, 31.72188],
        [77.01842, 31.72166],
        [77.01867, 31.72109],
        [77.01916, 31.72071],
        [77.01988, 31.72067],
        [77.02062, 31.72073],
        [77.02142, 31.72107],
        [77.02192, 31.72144],
        [77.02236, 31.72195],
        [77.02259, 31.72199],
        [77.02281, 31.72203],
        [77.02324, 31.72184],
        [77.02348, 31.72132],
        [77.02346, 31.71981],
        [77.02357, 31.71888],
        [77.02389, 31.71773],
        [77.02434, 31.71706],
        [77.02485, 31.71658],
        [77.02586, 31.71584],
        [77.0275, 31.71507],
        [77.02857, 31.7144],
        [77.02911, 31.71387],
        [77.02945, 31.71331],
        [77.02945, 31.71268],
        [77.02918, 31.71203],
        [77.02913, 31.71137],
        [77.02922, 31.71092],
        [77.02951, 31.71063],
        [77.03003, 31.71052],
        [77.03088, 31.71038],
        [77.03182, 31.71046],
        [77.03287, 31.71035],
        [77.03334, 31.71002],
        [77.03345, 31.7096],
        [77.03341, 31.70897],
        [77.03276, 31.70753],
        [77.03288, 31.70674],
        [77.03317, 31.70594],
        [77.03369, 31.70511],
        [77.03448, 31.70416],
        [77.03503, 31.70355],
        [77.03588, 31.70286],
        [77.03653, 31.70225],
        [77.03705, 31.70149],
        [77.03711, 31.70049],
        [77.03724, 31.69966],
        [77.03741, 31.69919],
        [77.03787, 31.69858],
        [77.03881, 31.6978],
        [77.03985, 31.69716],
        [77.04099, 31.69686],
        [77.04209, 31.69644],
        [77.04323, 31.69569],
        [77.04388, 31.69511],
        [77.04417, 31.69385],
        [77.04395, 31.69286],
        [77.04336, 31.6918],
        [77.04317, 31.6913],
        [77.04336, 31.69071],
        [77.04388, 31.6906],
        [77.0445, 31.69052],
        [77.04505, 31.69033],
        [77.04548, 31.69005],
        [77.04556, 31.68981],
        [77.04576, 31.68937],
        [77.04606, 31.6886],
        [77.04606, 31.68805],
        [77.04613, 31.68738],
        [77.04646, 31.6866],
        [77.04678, 31.68568],
        [77.04737, 31.68449],
        [77.04854, 31.68296],
        [77.04945, 31.68205],
        [77.05007, 31.68129],
        [77.0502, 31.6806],
        [77.05004, 31.67974],
        [77.04989, 31.6793],
        [77.04986, 31.67924],
        [77.04984, 31.67918],
        [77.04982, 31.67912],
        [77.0498, 31.67907],
        [77.04977, 31.67901],
        [77.04975, 31.67895],
        [77.04972, 31.67889],
        [77.04969, 31.67883],
        [77.04962, 31.67863],
        [77.04929, 31.67796],
        [77.049, 31.67715],
        [77.04887, 31.67623],
        [77.04887, 31.67515],
        [77.04887, 31.6749],
        [77.04903, 31.67415],
        [77.04969, 31.67357],
        [77.0504, 31.67326],
        [77.05125, 31.67326],
        [77.05248, 31.67326],
        [77.05349, 31.67326],
        [77.05377, 31.67322],
        [77.05407, 31.67315],
        [77.05475, 31.67293],
        [77.05544, 31.67224],
        [77.05583, 31.67157],
        [77.05619, 31.67085],
        [77.05655, 31.67048],
        [77.05674, 31.67001],
        [77.05703, 31.66949],
        [77.05752, 31.66846],
        [77.05761, 31.66796],
        [77.05755, 31.66743],
        [77.05752, 31.66709],
        [77.05729, 31.66741],
        [77.057, 31.66763],
        [77.05656, 31.66763],
        [77.05543, 31.66723],
        [77.05378, 31.66619],
        [77.05259, 31.66555],
        [77.05196, 31.66525],
        [77.05092, 31.66433],
        [77.04942, 31.66299],
        [77.04881, 31.66227],
        [77.0482, 31.6613],
        [77.04777, 31.66007],
        [77.04704, 31.65893],
        [77.04687, 31.6582],
        [77.04681, 31.65774],
        [77.04736, 31.65706],
        [77.04818, 31.65694],
        [77.04965, 31.65739],
        [77.05041, 31.65729],
        [77.05107, 31.6568],
        [77.0513, 31.65607],
        [77.05165, 31.65538],
        [77.05255, 31.65491],
        [77.05368, 31.65488],
        [77.05524, 31.65518],
        [77.05657, 31.65538],
        [77.05715, 31.6553],
        [77.05744, 31.65526],
        [77.05771, 31.65459],
        [77.05727, 31.65404],
        [77.05678, 31.65375],
        [77.05611, 31.65338],
        [77.05493, 31.65285],
        [77.05429, 31.65218],
        [77.05409, 31.65152],
        [77.05415, 31.65072],
        [77.0551, 31.65],
        [77.056, 31.64959],
        [77.05612, 31.64953],
        [77.05597, 31.64916],
        [77.05543, 31.64906],
        [77.05487, 31.64896],
        [77.05426, 31.64886],
        [77.05405, 31.64873],
        [77.05357, 31.64844],
        [77.05312, 31.6484],
        [77.05261, 31.64836],
        [77.05208, 31.64794],
        [77.0519, 31.64751],
        [77.05184, 31.64737],
        [77.05168, 31.64729],
        [77.05097, 31.64692],
        [77.05015, 31.64659],
        [77.05017, 31.64623],
        [77.05019, 31.6458],
        [77.05041, 31.64504],
        [77.04971, 31.64462],
        [77.04961, 31.64415],
        [77.04949, 31.64357],
        [77.04817, 31.64308],
        [77.04698, 31.64212],
        [77.04663, 31.64184],
        [77.04473, 31.64088],
        [77.04467, 31.6407],
        [77.04378, 31.63986],
        [77.04352, 31.63928],
        [77.04344, 31.63912],
        [77.0433, 31.63851],
        [77.04325, 31.63831],
        [77.04286, 31.63699],
        [77.04261, 31.63634],
        [77.04207, 31.63569],
        [77.04185, 31.63536],
        [77.04179, 31.63535],
        [77.04103, 31.63531],
        [77.04064, 31.63539],
        [77.03985, 31.63539],
        [77.03898, 31.63515],
        [77.03867, 31.63507],
        [77.03809, 31.63453],
        [77.03756, 31.63395],
        [77.03737, 31.63346],
        [77.03675, 31.63311],
        [77.03527, 31.63266],
        [77.03432, 31.63226],
        [77.03373, 31.63201],
        [77.03295, 31.63173],
        [77.03186, 31.63153],
        [77.03106, 31.63156],
        [77.03031, 31.63184],
        [77.02974, 31.63196],
        [77.02914, 31.63222],
        [77.02864, 31.63214],
        [77.02743, 31.63144],
        [77.02681, 31.63121],
        [77.02597, 31.63089],
        [77.0248, 31.63092],
        [77.0242, 31.63109],
        [77.02332, 31.63172],
        [77.02269, 31.63227],
        [77.02196, 31.6324],
        [77.02061, 31.6322],
        [77.0191, 31.63213],
        [77.01629, 31.63228],
        [77.01477, 31.63215],
        [77.01401, 31.63225],
        [77.01352, 31.63201],
        [77.01267, 31.63094],
        [77.01251, 31.63032],
        [77.01204, 31.62978],
        [77.01138, 31.62919],
        [77.01037, 31.62883],
        [77.00879, 31.62875],
        [77.00732, 31.62822],
        [77.00646, 31.62815],
        [77.00597, 31.62806],
        [77.00539, 31.62761],
        [77.00498, 31.62716],
        [77.00383, 31.627],
        [77.00323, 31.6268],
        [77.00249, 31.62644],
        [77.00139, 31.62532],
        [77.00081, 31.62449],
        [76.99953, 31.62356],
        [76.99917, 31.62349],
        [76.99914, 31.62352],
        [76.99879, 31.62377],
        [76.99869, 31.62377],
        [76.998, 31.62391],
        [76.99686, 31.62416],
        [76.99609, 31.62422],
        [76.99501, 31.6244],
        [76.99365, 31.6251],
        [76.99223, 31.62593],
        [76.99018, 31.6271],
        [76.98844, 31.62814],
        [76.98662, 31.62927],
        [76.98552, 31.62953],
        [76.98553, 31.62955],
        [76.99002, 31.63855],
        [76.98961, 31.64154],
        [76.99052, 31.64177],
        [76.99148, 31.64357],
        [76.99264, 31.64454],
        [76.99232, 31.64545],
        [76.99203, 31.64692],
        [76.99169, 31.64755],
        [76.99088, 31.64873],
        [76.99091, 31.64955],
        [76.98897, 31.65079],
        [76.98738, 31.65098],
        [76.98555, 31.65095],
        [76.98523, 31.65009],
        [76.984, 31.64942],
        [76.98269, 31.64833],
        [76.98106, 31.64709],
        [76.97947, 31.64713],
        [76.97774, 31.64667],
        [76.97542, 31.64655],
        [76.97511, 31.64655],
        [76.97453, 31.64684],
        [76.97421, 31.64722],
        [76.97405, 31.64803],
        [76.97357, 31.64868],
        [76.97342, 31.64909],
        [76.97343, 31.6497],
        [76.97325, 31.65009],
        [76.97278, 31.65052],
        [76.97237, 31.65095],
        [76.97187, 31.65163],
        [76.97154, 31.65211],
        [76.97132, 31.65294],
        [76.9711, 31.65369],
        [76.97111, 31.65445],
        [76.97142, 31.6548],
        [76.97158, 31.65536],
        [76.97155, 31.65636],
        [76.9714, 31.65678],
        [76.97135, 31.65751],
        [76.9713, 31.65824],
        [76.9711, 31.65843],
        [76.97087, 31.65862],
        [76.97093, 31.65946],
        [76.97115, 31.65973],
        [76.97147, 31.66004],
        [76.9718, 31.66034],
        [76.97193, 31.66069],
        [76.97175, 31.66117],
        [76.97134, 31.6616],
        [76.97106, 31.66187],
        [76.97075, 31.66197],
        [76.97055, 31.66273],
        [76.97081, 31.66314],
        [76.97085, 31.66386],
        [76.97089, 31.66416],
        [76.97074, 31.6648],
        [76.9707, 31.66529],
        [76.97074, 31.66596],
        [76.97067, 31.6666],
        [76.97031, 31.66688],
        [76.97007, 31.6671],
        [76.96984, 31.66708],
        [76.96851, 31.66739],
        [76.96831, 31.66747],
        [76.96786, 31.66765],
        [76.96677, 31.668],
        [76.96604, 31.66851],
        [76.96492, 31.66919],
        [76.96414, 31.67028],
        [76.96352, 31.67064],
        [76.96296, 31.67026],
        [76.96204, 31.66998],
        [76.96153, 31.66999],
        [76.96084, 31.67016],
        [76.96044, 31.67034],
        [76.96014, 31.6711],
        [76.95979, 31.67192],
        [76.95941, 31.67295],
        [76.959, 31.67371],
        [76.95841, 31.67428],
        [76.95807, 31.67498],
        [76.95807, 31.67575],
        [76.95693, 31.67606],
        [76.95523, 31.67662],
        [76.9549, 31.67707],
        [76.95409, 31.67788],
        [76.95351, 31.6783],
        [76.95293, 31.67835],
        [76.95107, 31.67832],
        [76.95009, 31.67876],
        [76.94922, 31.67905],
        [76.94832, 31.67943],
        [76.94777, 31.6795],
        [76.947, 31.6799],
        [76.94712, 31.67942],
        [76.94715, 31.67841],
        [76.94733, 31.67783],
        [76.94735, 31.67713],
        [76.94729, 31.67626],
        [76.94709, 31.67532],
        [76.94667, 31.67403],
        [76.94593, 31.6729],
        [76.94545, 31.67208],
        [76.94505, 31.67113],
        [76.94476, 31.67016],
        [76.94447, 31.66947],
        [76.9439, 31.66843],
        [76.94388, 31.66797],
        [76.94385, 31.66704],
        [76.94342, 31.66688],
        [76.94273, 31.66688],
        [76.94214, 31.66712],
        [76.94154, 31.66734],
        [76.94077, 31.66747],
        [76.9394, 31.66751],
        [76.93799, 31.66753],
        [76.93721, 31.66774],
        [76.93637, 31.66816],
        [76.93568, 31.66828],
        [76.93479, 31.6684],
        [76.93448, 31.66826],
        [76.93404, 31.66654],
        [76.93413, 31.66602],
        [76.93441, 31.66554],
        [76.93423, 31.66527],
        [76.93335, 31.66518],
        [76.9329, 31.66495],
        [76.93245, 31.66412],
        [76.93207, 31.66322],
        [76.93216, 31.66267],
        [76.93218, 31.66199],
        [76.93206, 31.66132],
        [76.93177, 31.66022],
        [76.93157, 31.65981],
        [76.93068, 31.65911],
        [76.92982, 31.65843],
        [76.92969, 31.65822],
        [76.93002, 31.65766],
        [76.92965, 31.65744],
        [76.92962, 31.65674],
        [76.92955, 31.6563],
        [76.92918, 31.65604],
        [76.92861, 31.65542],
        [76.92803, 31.65493],
        [76.92562, 31.65245],
        [76.92521, 31.65187],
        [76.92533, 31.65065],
        [76.92451, 31.64977],
        [76.92463, 31.64912],
        [76.92461, 31.6491],
        [76.92474, 31.64884],
        [76.92477, 31.64794],
        [76.92438, 31.64682],
        [76.92383, 31.64688],
        [76.92274, 31.64716],
        [76.92047, 31.6451],
        [76.92004, 31.64455],
        [76.91912, 31.6441],
        [76.91864, 31.64345],
        [76.91811, 31.64312],
        [76.91747, 31.64215],
        [76.91675, 31.64117],
        [76.91622, 31.64092],
        [76.91501, 31.64082],
        [76.9137, 31.64094],
        [76.91348, 31.64095],
        [76.9134, 31.64134],
        [76.91295, 31.6421],
        [76.91288, 31.64258],
        [76.91267, 31.64348],
        [76.91226, 31.64408],
        [76.91202, 31.64468],
        [76.91178, 31.6448],
        [76.91063, 31.64567],
        [76.90983, 31.64627],
        [76.90905, 31.64707],
        [76.9083, 31.6479],
        [76.90777, 31.64831],
        [76.90707, 31.64855],
        [76.90684, 31.64888],
        [76.90666, 31.64923],
        [76.90652, 31.64967],
        [76.90624, 31.64966],
        [76.904, 31.6495],
        [76.9037, 31.6495],
        [76.90309, 31.64984],
        [76.90205, 31.65052],
        [76.90127, 31.65116],
        [76.90064, 31.65092],
        [76.90051, 31.65073],
        [76.90007, 31.64978],
        [76.89946, 31.64907],
        [76.8989, 31.64833],
        [76.89847, 31.64818],
        [76.89797, 31.64819],
        [76.89729, 31.64825],
        [76.89685, 31.64822],
        [76.89577, 31.64735],
        [76.89548, 31.64719],
        [76.89479, 31.64713],
        [76.89427, 31.64697],
        [76.89393, 31.64669],
        [76.89293, 31.64594],
        [76.89201, 31.64587],
        [76.89136, 31.64623],
        [76.891, 31.64646],
        [76.89017, 31.64651],
        [76.88936, 31.64687],
        [76.88862, 31.64715],
        [76.88809, 31.64772],
        [76.88796, 31.64822],
        [76.88794, 31.64969],
        [76.88764, 31.64985],
        [76.88732, 31.65037],
        [76.8869, 31.65065],
        [76.88631, 31.65091],
        [76.88552, 31.65121],
        [76.88475, 31.65136],
        [76.88369, 31.65163],
        [76.88282, 31.65175],
        [76.88204, 31.65139],
        [76.88162, 31.65049],
        [76.88163, 31.64997],
        [76.88215, 31.64913],
        [76.88211, 31.64692],
        [76.88198, 31.64678],
        [76.88154, 31.64657],
        [76.88153, 31.64656],
        [76.88104, 31.64652],
        [76.88058, 31.64694],
        [76.87977, 31.6478],
        [76.87966, 31.64816],
        [76.87978, 31.64854],
        [76.87998, 31.64897],
        [76.88021, 31.64931],
        [76.88051, 31.64972],
        [76.88036, 31.65125],
        [76.88037, 31.65208],
        [76.88053, 31.65292],
        [76.88073, 31.6536],
        [76.88055, 31.65373],
        [76.88034, 31.65437],
        [76.87964, 31.65474],
        [76.87901, 31.65473],
        [76.87831, 31.65458],
        [76.87803, 31.65408],
        [76.87801, 31.65289],
        [76.87784, 31.6512],
        [76.87742, 31.65115],
        [76.87679, 31.65143],
        [76.87637, 31.65135],
        [76.8757, 31.65142],
        [76.8756, 31.65156],
        [76.87482, 31.65176],
        [76.87438, 31.65206],
        [76.87417, 31.65276],
        [76.87414, 31.65347],
        [76.87471, 31.65375],
        [76.87521, 31.65406],
        [76.87562, 31.65424],
        [76.87529, 31.65497],
        [76.875, 31.65522],
        [76.8745, 31.65492],
        [76.87383, 31.65532],
        [76.87252, 31.65592],
        [76.8721, 31.65631],
        [76.87135, 31.65669],
        [76.87093, 31.65696],
        [76.86993, 31.65824],
        [76.86939, 31.65922],
        [76.86891, 31.65988],
        [76.86876, 31.66031],
        [76.86842, 31.66098],
        [76.86836, 31.66145],
        [76.86812, 31.6618],
        [76.86811, 31.66239],
        [76.86814, 31.66303],
        [76.86794, 31.66373],
        [76.8676, 31.6642],
        [76.86726, 31.66479],
        [76.86692, 31.66545],
        [76.86667, 31.66631],
        [76.86642, 31.66682],
        [76.86609, 31.66737],
        [76.86603, 31.66768],
        [76.86638, 31.6684],
        [76.86621, 31.6697],
        [76.8659, 31.67116],
        [76.86587, 31.6723],
        [76.86567, 31.67281],
        [76.8656, 31.6736],
        [76.86544, 31.67447],
        [76.86542, 31.67541],
        [76.86531, 31.67608],
        [76.8652, 31.67659],
        [76.86504, 31.67734],
        [76.86483, 31.67832],
        [76.86608, 31.67835],
        [76.86742, 31.67837],
        [76.86871, 31.6784],
        [76.86972, 31.67845],
        [76.87102, 31.67852],
        [76.8722, 31.67913],
        [76.87322, 31.67965],
        [76.87321, 31.68074],
        [76.87249, 31.68249],
        [76.87199, 31.68369],
        [76.87145, 31.68503],
        [76.87067, 31.6867],
        [76.87002, 31.68731],
        [76.86909, 31.68766],
        [76.86796, 31.68776],
        [76.86703, 31.68797],
        [76.86634, 31.68844],
        [76.86611, 31.68883],
        [76.86534, 31.68916],
        [76.8651, 31.68974],
        [76.86491, 31.69073],
        [76.86467, 31.69122],
        [76.86466, 31.69174],
        [76.86484, 31.69208],
        [76.86532, 31.69253],
        [76.86552, 31.69272],
        [76.86472, 31.69324],
        [76.8639, 31.694],
        [76.86376, 31.69474],
        [76.8646, 31.69702],
        [76.86514, 31.69847],
        [76.86477, 31.70354],
        [76.86448, 31.70402],
        [76.86445, 31.70457],
        [76.86399, 31.70496],
        [76.86339, 31.70536],
        [76.86236, 31.70617],
        [76.8619, 31.70659],
        [76.86121, 31.70687],
        [76.85958, 31.70724],
        [76.85861, 31.70728],
        [76.85742, 31.70738],
        [76.85588, 31.70755],
        [76.85429, 31.70758],
        [76.85323, 31.70766],
        [76.85173, 31.70781],
        [76.85031, 31.7078],
        [76.84964, 31.70773],
        [76.84773, 31.70792],
        [76.84637, 31.70795],
        [76.84635, 31.70798],
        [76.84599, 31.70792],
        [76.84557, 31.70785],
        [76.84535, 31.70832],
        [76.84494, 31.70921],
        [76.84454, 31.70971],
        [76.84418, 31.71015],
        [76.84367, 31.71074],
        [76.84317, 31.71125],
        [76.84303, 31.71244],
        [76.84304, 31.7135],
        [76.84309, 31.71401],
        [76.84307, 31.71425],
        [76.84305, 31.71448],
        [76.84213, 31.71477],
        [76.84175, 31.71488],
        [76.84138, 31.71499],
        [76.84051, 31.716],
        [76.83972, 31.71694],
        [76.83913, 31.71789],
        [76.83901, 31.71843],
        [76.83904, 31.71844],
        [76.83887, 31.71866],
        [76.83898, 31.71915],
        [76.83898, 31.72068],
        [76.83889, 31.72069],
        [76.83884, 31.721],
        [76.83851, 31.72196],
        [76.83829, 31.72262],
        [76.83787, 31.72317],
        [76.83728, 31.72381],
        [76.83625, 31.7246],
        [76.83556, 31.72498],
        [76.83474, 31.7255],
        [76.83362, 31.7261],
        [76.83252, 31.72664],
        [76.83171, 31.72716],
        [76.83134, 31.72752],
        [76.8308, 31.7282],
        [76.83048, 31.72886],
        [76.83034, 31.72944],
        [76.83024, 31.73032],
        [76.83016, 31.73098],
        [76.83026, 31.73098],
        [76.83032, 31.73179],
        [76.83076, 31.7326],
        [76.83125, 31.73381],
        [76.83169, 31.73437],
        [76.83239, 31.73512],
        [76.83294, 31.73598],
        [76.83348, 31.73673],
        [76.83352, 31.73691],
        [76.83372, 31.73793],
        [76.8337, 31.73861],
        [76.8333, 31.73931],
        [76.83302, 31.73999],
        [76.83327, 31.74048],
        [76.8331, 31.74115],
        [76.83305, 31.74183],
        [76.8328, 31.74273],
        [76.83248, 31.74337],
        [76.83212, 31.74385],
        [76.83169, 31.74459],
        [76.83148, 31.74536],
        [76.83107, 31.74645],
        [76.83073, 31.74793],
        [76.83059, 31.74893],
        [76.83041, 31.74999],
        [76.83004, 31.75112],
        [76.8295, 31.75252],
        [76.82824, 31.75403],
        [76.82684, 31.75528],
        [76.82519, 31.75631],
        [76.82421, 31.75714],
        [76.82353, 31.75826],
        [76.82339, 31.75865],
        [76.82337, 31.7587],
        [76.82269, 31.7593],
        [76.82254, 31.76017],
        [76.82246, 31.76094],
        [76.8224, 31.76339],
        [76.82223, 31.764],
        [76.82199, 31.76439],
        [76.82172, 31.76484],
        [76.82122, 31.76615],
        [76.82048, 31.76727],
        [76.82035, 31.76794],
        [76.82, 31.76844],
        [76.81992, 31.76869],
        [76.81971, 31.77026],
        [76.81965, 31.77093],
        [76.81935, 31.77163],
        [76.81902, 31.77361],
        [76.81889, 31.77409],
        [76.81823, 31.77558],
        [76.81723, 31.77729],
        [76.81661, 31.77909],
        [76.81631, 31.77964],
        [76.81614, 31.78042],
        [76.81622, 31.78072],
        [76.8163, 31.78101],
        [76.81655, 31.78154],
        [76.81661, 31.78183],
        [76.81686, 31.78308],
        [76.81714, 31.78436],
        [76.81732, 31.78505],
        [76.81761, 31.78641],
        [76.81774, 31.78808],
        [76.81791, 31.7897],
        [76.81799, 31.79275],
        [76.81806, 31.7939],
        [76.81809, 31.79431],
        [76.81818, 31.79538],
        [76.81828, 31.79753],
        [76.81825, 31.79775],
        [76.8182, 31.79805],
        [76.81805, 31.79853],
        [76.81774, 31.7991],
        [76.81718, 31.80032],
        [76.81669, 31.80164],
        [76.81662, 31.80234],
        [76.81668, 31.80287],
        [76.81694, 31.80427],
        [76.817, 31.80452],
        [76.81708, 31.80486],
        [76.81726, 31.8054],
        [76.81759, 31.80654],
        [76.81788, 31.80721],
        [76.81824, 31.80768],
        [76.81858, 31.8083],
        [76.81899, 31.80884],
        [76.81914, 31.80934],
        [76.81922, 31.80999],
        [76.81874, 31.81054],
        [76.81838, 31.81105],
        [76.81758, 31.81248],
        [76.8173, 31.81299],
        [76.81559, 31.8151],
        [76.8143, 31.81712],
        [76.81405, 31.81744],
        [76.81392, 31.81784],
        [76.81385, 31.81813],
        [76.81679, 31.81875],
        [76.81907, 31.81964],
        [76.82108, 31.82057],
        [76.8225, 31.82113],
        [76.825, 31.8221],
        [76.82748, 31.82269],
        [76.82871, 31.82284],
        [76.8301, 31.823],
        [76.83336, 31.823],
        [76.83543, 31.82302],
        [76.83672, 31.82325],
        [76.83716, 31.82342],
        [76.83867, 31.82401],
        [76.83914, 31.82418],
        [76.83991, 31.82428],
        [76.84048, 31.82468],
        [76.84077, 31.82542],
        [76.84066, 31.82604],
        [76.84016, 31.82731],
        [76.83994, 31.82812],
        [76.84002, 31.82887],
        [76.84052, 31.82932],
        [76.8412, 31.82948],
        [76.84197, 31.82911],
        [76.84345, 31.82843],
        [76.84466, 31.82781],
        [76.84574, 31.82718],
        [76.84757, 31.8261],
        [76.84818, 31.82571],
        [76.84941, 31.82498],
        [76.85074, 31.82409],
        [76.85187, 31.82361],
        [76.85249, 31.82346],
        [76.85337, 31.82345],
        [76.8547, 31.82409],
        [76.855, 31.82445]
      ]
    ]
  }
}
