{
  "type": "Feature",
  "id": "HP-AC-38",
  "properties": {
    "stateName": "HIMACHAL PRADESH",
    "stateCode": "HP",
    "districtName": "HAMIRPUR",
    "acNo": 38,
    "acName": "HAMIRPUR",
    "seatType": null,
    "pcNo": null,
    "pcName": null,
    "quality": "unverified",
    "sources": [
      "TBD"
    ]
  },
  "geometry": {
    "type": "Polygon",
    "coordinates": [
      [
        [76.47568, 31.7445],
        [76.47656, 31.7439],
        [76.47732, 31.74401],
        [76.4781, 31.74487],
        [76.47881, 31.7447],
        [76.47958, 31.74442],
        [76.47932, 31.74326],
        [76.47902, 31.74157],
        [76.47955, 31.7391],
        [76.47977, 31.73794],
        [76.48027, 31.73632],
        [76.48038, 31.73592],
        [76.48047, 31.73479],
        [76.48101, 31.73419],
        [76.48135, 31.73365],
        [76.48223, 31.73206],
        [76.48241, 31.73123],
        [76.4827, 31.72996],
        [76.48331, 31.72913],
        [76.48455, 31.72878],
        [76.48536, 31.72802],
        [76.48526, 31.72718],
        [76.48481, 31.72612],
        [76.48651, 31.72568],
        [76.48729, 31.72525],
        [76.48755, 31.72462],
        [76.48774, 31.72375],
        [76.48819, 31.72305],
        [76.48871, 31.72236],
        [76.48879, 31.72192],
        [76.48811, 31.72127],
        [76.4875, 31.72032],
        [76.4874, 31.71938],
        [76.48722, 31.71877],
        [76.48668, 31.71775],
        [76.4854, 31.71595],
        [76.48478, 31.71491],
        [76.48499, 31.71444],
        [76.48658, 31.71346],
        [76.48716, 31.71277],
        [76.48728, 31.71208],
        [76.48684, 31.71073],
        [76.48672, 31.71003],
        [76.4871, 31.70945],
        [76.48788, 31.70872],
        [76.48849, 31.70791],
        [76.48855, 31.70723],
        [76.48849, 31.70673],
        [76.48779, 31.70594],
        [76.48748, 31.70521],
        [76.48764, 31.70444],
        [76.48772, 31.70397],
        [76.48876, 31.70333],
        [76.48954, 31.70244],
        [76.49033, 31.70129],
        [76.49102, 31.69973],
        [76.49246, 31.69948],
        [76.49429, 31.69926],
        [76.49601, 31.69935],
        [76.49887, 31.69928],
        [76.50073, 31.69859],
        [76.50236, 31.69864],
        [76.50394, 31.6999],
        [76.50451, 31.70164],
        [76.5057, 31.70285],
        [76.50779, 31.70353],
        [76.51008, 31.70372],
        [76.51023, 31.70356],
        [76.51097, 31.70281],
        [76.5117, 31.70257],
        [76.51209, 31.70223],
        [76.51339, 31.7016],
        [76.51481, 31.7001],
        [76.51581, 31.69943],
        [76.51763, 31.69914],
        [76.51921, 31.69851],
        [76.52087, 31.69968],
        [76.52731, 31.70089],
        [76.52944, 31.70139],
        [76.53126, 31.70149],
        [76.53132, 31.70149],
        [76.53565, 31.7027],
        [76.53626, 31.70306],
        [76.53711, 31.70401],
        [76.5391, 31.70552],
        [76.5422, 31.70844],
        [76.54381, 31.70713],
        [76.54613, 31.70537],
        [76.54691, 31.70522],
        [76.54815, 31.70561],
        [76.54914, 31.70559],
        [76.5499, 31.70549],
        [76.55152, 31.70499],
        [76.55291, 31.70482],
        [76.55317, 31.70579],
        [76.55431, 31.70632],
        [76.55454, 31.70649],
        [76.55592, 31.70547],
        [76.55793, 31.70405],
        [76.55961, 31.7011],
        [76.55986, 31.70112],
        [76.5638, 31.6956],
        [76.569, 31.69116],
        [76.5695, 31.69066],
        [76.56975, 31.68965],
        [76.57076, 31.68808],
        [76.57302, 31.68615],
        [76.57302, 31.686],
        [76.5727, 31.68432],
        [76.57813, 31.68597],
        [76.58023, 31.68641],
        [76.58198, 31.68605],
        [76.58346, 31.68477],
        [76.58428, 31.68597],
        [76.58433, 31.68609],
        [76.58428, 31.68633],
        [76.58426, 31.68643],
        [76.58425, 31.68651],
        [76.58423, 31.6866],
        [76.58422, 31.6867],
        [76.58421, 31.68678],
        [76.5842, 31.68687],
        [76.5842, 31.68697],
        [76.5842, 31.68706],
        [76.58418, 31.68733],
        [76.58418, 31.6874],
        [76.58418, 31.68747],
        [76.58418, 31.68754],
        [76.58417, 31.68761],
        [76.58415, 31.68772],
        [76.58413, 31.68785],
        [76.58408, 31.68814],
        [76.58407, 31.68821],
        [76.58406, 31.68827],
        [76.58404, 31.68836],
        [76.58398, 31.68893],
        [76.58397, 31.68901],
        [76.58396, 31.6891],
        [76.58396, 31.68918],
        [76.58395, 31.68927],
        [76.58395, 31.68935],
        [76.58395, 31.68943],
        [76.58396, 31.68952],
        [76.58396, 31.68961],
        [76.58397, 31.68981],
        [76.58469, 31.69024],
        [76.58483, 31.69038],
        [76.58488, 31.69043],
        [76.58496, 31.6905],
        [76.58502, 31.69057],
        [76.58508, 31.69061],
        [76.58568, 31.69116],
        [76.58591, 31.69159],
        [76.58588, 31.69207],
        [76.58587, 31.69214],
        [76.58587, 31.69221],
        [76.58587, 31.69228],
        [76.58587, 31.69235],
        [76.58587, 31.69242],
        [76.58587, 31.69249],
        [76.58587, 31.69256],
        [76.58588, 31.69263],
        [76.58589, 31.6927],
        [76.58589, 31.69277],
        [76.5859, 31.69284],
        [76.58591, 31.69291],
        [76.58592, 31.69298],
        [76.58593, 31.69305],
        [76.58595, 31.69312],
        [76.58596, 31.69319],
        [76.58604, 31.69353],
        [76.58709, 31.6937],
        [76.58722, 31.69372],
        [76.58735, 31.69374],
        [76.58748, 31.69377],
        [76.58761, 31.6938],
        [76.58773, 31.69382],
        [76.58786, 31.69387],
        [76.58799, 31.6939],
        [76.58811, 31.69395],
        [76.58823, 31.69399],
        [76.58835, 31.69404],
        [76.58847, 31.69409],
        [76.58859, 31.69414],
        [76.5887, 31.69419],
        [76.58882, 31.69424],
        [76.58893, 31.6943],
        [76.58905, 31.69436],
        [76.5899, 31.69483],
        [76.59092, 31.69488],
        [76.59145, 31.69503],
        [76.59181, 31.69539],
        [76.59198, 31.69552],
        [76.59313, 31.69607],
        [76.59438, 31.69577],
        [76.59489, 31.69584],
        [76.59604, 31.69631],
        [76.59644, 31.69624],
        [76.59814, 31.69503],
        [76.59823, 31.69495],
        [76.59834, 31.69488],
        [76.59846, 31.69481],
        [76.59856, 31.69474],
        [76.59867, 31.69468],
        [76.59878, 31.69461],
        [76.5989, 31.69455],
        [76.59902, 31.6945],
        [76.59975, 31.69415],
        [76.60004, 31.69418],
        [76.60015, 31.69419],
        [76.60024, 31.6942],
        [76.60032, 31.69421],
        [76.60042, 31.69423],
        [76.60102, 31.69431],
        [76.60154, 31.69471],
        [76.60251, 31.69466],
        [76.60284, 31.69454],
        [76.60295, 31.69449],
        [76.60308, 31.69445],
        [76.60319, 31.6944],
        [76.60331, 31.69436],
        [76.60341, 31.69432],
        [76.60349, 31.69429],
        [76.60356, 31.69425],
        [76.60364, 31.69422],
        [76.60371, 31.6942],
        [76.60379, 31.69417],
        [76.60386, 31.69414],
        [76.60394, 31.69411],
        [76.60402, 31.69409],
        [76.60414, 31.69405],
        [76.60441, 31.69409],
        [76.60449, 31.6941],
        [76.60456, 31.69411],
        [76.60465, 31.69413],
        [76.60473, 31.69414],
        [76.60481, 31.69416],
        [76.60489, 31.69418],
        [76.60497, 31.69419],
        [76.60505, 31.69421],
        [76.60513, 31.69423],
        [76.6052, 31.69425],
        [76.60528, 31.69427],
        [76.60536, 31.6943],
        [76.60543, 31.69432],
        [76.60551, 31.69434],
        [76.60558, 31.69437],
        [76.60567, 31.6944],
        [76.60574, 31.69442],
        [76.60582, 31.69445],
        [76.60589, 31.69448],
        [76.60597, 31.69451],
        [76.60605, 31.69453],
        [76.60613, 31.69455],
        [76.60621, 31.69458],
        [76.60629, 31.6946],
        [76.60637, 31.69462],
        [76.60702, 31.69478],
        [76.60709, 31.6948],
        [76.60716, 31.69482],
        [76.60724, 31.69484],
        [76.60732, 31.69486],
        [76.60739, 31.69488],
        [76.60746, 31.69491],
        [76.60754, 31.69493],
        [76.60761, 31.69496],
        [76.60788, 31.69505],
        [76.608, 31.69509],
        [76.60808, 31.69511],
        [76.60815, 31.69515],
        [76.60823, 31.69518],
        [76.60829, 31.69521],
        [76.60838, 31.69524],
        [76.60844, 31.69527],
        [76.60905, 31.69559],
        [76.60942, 31.69544],
        [76.60957, 31.69545],
        [76.60966, 31.69545],
        [76.60978, 31.69545],
        [76.60988, 31.69546],
        [76.60998, 31.69547],
        [76.61008, 31.69548],
        [76.61018, 31.69549],
        [76.61028, 31.69551],
        [76.61038, 31.69552],
        [76.61048, 31.69554],
        [76.61058, 31.69556],
        [76.61067, 31.69558],
        [76.61078, 31.6956],
        [76.61088, 31.69563],
        [76.61097, 31.69565],
        [76.61107, 31.69568],
        [76.61117, 31.6957],
        [76.61132, 31.69575],
        [76.6114, 31.69578],
        [76.61151, 31.69581],
        [76.6116, 31.69584],
        [76.61171, 31.69588],
        [76.6118, 31.69592],
        [76.61189, 31.69596],
        [76.61198, 31.696],
        [76.61207, 31.69604],
        [76.61256, 31.69627],
        [76.61358, 31.69552],
        [76.61366, 31.69547],
        [76.61372, 31.69542],
        [76.61379, 31.69536],
        [76.61385, 31.69532],
        [76.6141, 31.69508],
        [76.61543, 31.69438],
        [76.6155, 31.69435],
        [76.61556, 31.69432],
        [76.61563, 31.69427],
        [76.61742, 31.69315],
        [76.61948, 31.69382],
        [76.61958, 31.69362],
        [76.61963, 31.69352],
        [76.62001, 31.6928],
        [76.62033, 31.6921],
        [76.62056, 31.69173],
        [76.62103, 31.6911],
        [76.6206, 31.69109],
        [76.62018, 31.69109],
        [76.61965, 31.69098],
        [76.61929, 31.69085],
        [76.61854, 31.69035],
        [76.61822, 31.69005],
        [76.6179, 31.68972],
        [76.61757, 31.68953],
        [76.61523, 31.69107],
        [76.61392, 31.69177],
        [76.61324, 31.69246],
        [76.61225, 31.6924],
        [76.61103, 31.6919],
        [76.61053, 31.6911],
        [76.6104, 31.6905],
        [76.61014, 31.68964],
        [76.60955, 31.6887],
        [76.60932, 31.68862],
        [76.60905, 31.68832],
        [76.60826, 31.68717],
        [76.60749, 31.68689],
        [76.60691, 31.68652],
        [76.60637, 31.68597],
        [76.6056, 31.68536],
        [76.60377, 31.6844],
        [76.60172, 31.68344],
        [76.60108, 31.68328],
        [76.60051, 31.68329],
        [76.60016, 31.68312],
        [76.59996, 31.68292],
        [76.59871, 31.6813],
        [76.59789, 31.68066],
        [76.59762, 31.68063],
        [76.59673, 31.68006],
        [76.59658, 31.67958],
        [76.59626, 31.67865],
        [76.59577, 31.67792],
        [76.59535, 31.67683],
        [76.59484, 31.67616],
        [76.59431, 31.67484],
        [76.59248, 31.67274],
        [76.59216, 31.67197],
        [76.59224, 31.67149],
        [76.59224, 31.6704],
        [76.5919, 31.66925],
        [76.59489, 31.6693],
        [76.59662, 31.66926],
        [76.59777, 31.66832],
        [76.59929, 31.66719],
        [76.59952, 31.66618],
        [76.5985, 31.66322],
        [76.59833, 31.66232],
        [76.59865, 31.66193],
        [76.59948, 31.66218],
        [76.60058, 31.66303],
        [76.60205, 31.66407],
        [76.60324, 31.6642],
        [76.60368, 31.66416],
        [76.60283, 31.66357],
        [76.60285, 31.6627],
        [76.60276, 31.66172],
        [76.60435, 31.66124],
        [76.60484, 31.66118],
        [76.60529, 31.66086],
        [76.6056, 31.66043],
        [76.60579, 31.66017],
        [76.60546, 31.65998],
        [76.60509, 31.65966],
        [76.60456, 31.65909],
        [76.60387, 31.65828],
        [76.6028, 31.65731],
        [76.60246, 31.65694],
        [76.6023, 31.65668],
        [76.60215, 31.65624],
        [76.60191, 31.65585],
        [76.60148, 31.65529],
        [76.60093, 31.65472],
        [76.60042, 31.65435],
        [76.59986, 31.65396],
        [76.59919, 31.65351],
        [76.59847, 31.65324],
        [76.59769, 31.65289],
        [76.59732, 31.65285],
        [76.59679, 31.65284],
        [76.59601, 31.65275],
        [76.59467, 31.6522],
        [76.59567, 31.65111],
        [76.59595, 31.6507],
        [76.59618, 31.65031],
        [76.59627, 31.64984],
        [76.59626, 31.64938],
        [76.59625, 31.6485],
        [76.59618, 31.64804],
        [76.5961, 31.64707],
        [76.59607, 31.64656],
        [76.59596, 31.64613],
        [76.59578, 31.64528],
        [76.5956, 31.64431],
        [76.59549, 31.64388],
        [76.59474, 31.64424],
        [76.59434, 31.64446],
        [76.59404, 31.64407],
        [76.5944, 31.64318],
        [76.59491, 31.64236],
        [76.59554, 31.64151],
        [76.5959, 31.64109],
        [76.59622, 31.64062],
        [76.596, 31.64004],
        [76.59583, 31.63974],
        [76.59558, 31.6395],
        [76.59532, 31.63939],
        [76.59471, 31.63933],
        [76.59418, 31.63926],
        [76.59354, 31.6391],
        [76.59429, 31.63867],
        [76.59475, 31.63796],
        [76.59475, 31.63677],
        [76.59484, 31.63584],
        [76.59469, 31.63483],
        [76.59438, 31.63396],
        [76.59427, 31.63344],
        [76.59416, 31.63251],
        [76.59492, 31.63151],
        [76.59542, 31.63122],
        [76.59529, 31.63045],
        [76.59534, 31.6301],
        [76.59554, 31.62968],
        [76.59598, 31.62926],
        [76.5964, 31.62903],
        [76.59687, 31.62878],
        [76.59744, 31.62872],
        [76.59801, 31.62876],
        [76.59868, 31.62886],
        [76.5994, 31.62915],
        [76.60008, 31.6294],
        [76.60052, 31.62949],
        [76.60086, 31.63032],
        [76.60093, 31.63075],
        [76.60208, 31.6305],
        [76.60176, 31.63013],
        [76.60136, 31.62969],
        [76.60126, 31.62952],
        [76.60101, 31.62897],
        [76.60099, 31.6287],
        [76.60102, 31.62842],
        [76.6011, 31.6282],
        [76.60129, 31.62781],
        [76.6013, 31.62758],
        [76.60121, 31.62721],
        [76.60097, 31.6267],
        [76.60066, 31.62627],
        [76.60038, 31.62592],
        [76.60012, 31.62548],
        [76.59998, 31.62497],
        [76.59987, 31.62437],
        [76.5998, 31.62367],
        [76.59979, 31.62357],
        [76.59964, 31.62316],
        [76.59955, 31.62292],
        [76.59901, 31.62223],
        [76.59776, 31.622],
        [76.59671, 31.62182],
        [76.59629, 31.62161],
        [76.59583, 31.62116],
        [76.59552, 31.62081],
        [76.59508, 31.62063],
        [76.59396, 31.62082],
        [76.59319, 31.62096],
        [76.59258, 31.62112],
        [76.59194, 31.62166],
        [76.59142, 31.62236],
        [76.59102, 31.62266],
        [76.59039, 31.62274],
        [76.58998, 31.62254],
        [76.58953, 31.62222],
        [76.58893, 31.62196],
        [76.58901, 31.62187],
        [76.58933, 31.62166],
        [76.5895, 31.6214],
        [76.58972, 31.62114],
        [76.59044, 31.62083],
        [76.59072, 31.62073],
        [76.59102, 31.62081],
        [76.59123, 31.62082],
        [76.59171, 31.62048],
        [76.59211, 31.62014],
        [76.59215, 31.61977],
        [76.59221, 31.61952],
        [76.59238, 31.61912],
        [76.59256, 31.61859],
        [76.59223, 31.61795],
        [76.59214, 31.6176],
        [76.59212, 31.61659],
        [76.59225, 31.61612],
        [76.59236, 31.61575],
        [76.59239, 31.61528],
        [76.59234, 31.61467],
        [76.59223, 31.61446],
        [76.59208, 31.61407],
        [76.59208, 31.61362],
        [76.59216, 31.61335],
        [76.59271, 31.61274],
        [76.593, 31.61245],
        [76.59316, 31.61218],
        [76.5934, 31.61173],
        [76.59344, 31.61143],
        [76.59375, 31.61102],
        [76.59405, 31.61058],
        [76.59434, 31.61004],
        [76.59447, 31.60929],
        [76.5947, 31.60893],
        [76.59515, 31.60877],
        [76.59499, 31.60867],
        [76.59416, 31.60779],
        [76.59394, 31.60751],
        [76.59391, 31.60725],
        [76.59403, 31.60697],
        [76.59437, 31.60668],
        [76.59499, 31.6061],
        [76.59454, 31.6057],
        [76.59431, 31.60543],
        [76.59414, 31.60515],
        [76.59407, 31.605],
        [76.59405, 31.6042],
        [76.59381, 31.60399],
        [76.5936, 31.60378],
        [76.59353, 31.60364],
        [76.59341, 31.60313],
        [76.59331, 31.60297],
        [76.59323, 31.6028],
        [76.59316, 31.60229],
        [76.59291, 31.60209],
        [76.59284, 31.60199],
        [76.59271, 31.60159],
        [76.59296, 31.60106],
        [76.59301, 31.60069],
        [76.59324, 31.60034],
        [76.59333, 31.60006],
        [76.59328, 31.59942],
        [76.59317, 31.5988],
        [76.59289, 31.59827],
        [76.59246, 31.59756],
        [76.59251, 31.59698],
        [76.5924, 31.59598],
        [76.59245, 31.59495],
        [76.59274, 31.5945],
        [76.59251, 31.59422],
        [76.59247, 31.59403],
        [76.59247, 31.59369],
        [76.59248, 31.59324],
        [76.59233, 31.59296],
        [76.59237, 31.59234],
        [76.59234, 31.59224],
        [76.59173, 31.59149],
        [76.59094, 31.59053],
        [76.59132, 31.59047],
        [76.59139, 31.59047],
        [76.59161, 31.59043],
        [76.5918, 31.59041],
        [76.59236, 31.5905],
        [76.59287, 31.59074],
        [76.59326, 31.59093],
        [76.5942, 31.59128],
        [76.59474, 31.59113],
        [76.59585, 31.59064],
        [76.59678, 31.59013],
        [76.59772, 31.5898],
        [76.59778, 31.58966],
        [76.5978, 31.5896],
        [76.59802, 31.5893],
        [76.59819, 31.58911],
        [76.59831, 31.58899],
        [76.59853, 31.58879],
        [76.59882, 31.58855],
        [76.59941, 31.58797],
        [76.59954, 31.58787],
        [76.5997, 31.5878],
        [76.59982, 31.5878],
        [76.60012, 31.58788],
        [76.60015, 31.58819],
        [76.60057, 31.58812],
        [76.60118, 31.58899],
        [76.60206, 31.58943],
        [76.60323, 31.59032],
        [76.60415, 31.59098],
        [76.60427, 31.59041],
        [76.60432, 31.59034],
        [76.60512, 31.5897],
        [76.60542, 31.5893],
        [76.60586, 31.58909],
        [76.60645, 31.58886],
        [76.60722, 31.5887],
        [76.60819, 31.58837],
        [76.60887, 31.58816],
        [76.60891, 31.58784],
        [76.60893, 31.58776],
        [76.60914, 31.58749],
        [76.60944, 31.58715],
        [76.60994, 31.58679],
        [76.61087, 31.58666],
        [76.61138, 31.58666],
        [76.61181, 31.58657],
        [76.61217, 31.58666],
        [76.61263, 31.58676],
        [76.61317, 31.58669],
        [76.61396, 31.58622],
        [76.61431, 31.58589],
        [76.61495, 31.58552],
        [76.61517, 31.58541],
        [76.61571, 31.58613],
        [76.61614, 31.58676],
        [76.61643, 31.5866],
        [76.61689, 31.58662],
        [76.61733, 31.5865],
        [76.61776, 31.58636],
        [76.61808, 31.58615],
        [76.61851, 31.58591],
        [76.61894, 31.58561],
        [76.61954, 31.58497],
        [76.62026, 31.58432],
        [76.62064, 31.58394],
        [76.6218, 31.58307],
        [76.62023, 31.58218],
        [76.62008, 31.58222],
        [76.62008, 31.58213],
        [76.62009, 31.58147],
        [76.62008, 31.58139],
        [76.61995, 31.58125],
        [76.61987, 31.58113],
        [76.61983, 31.58097],
        [76.6198, 31.58056],
        [76.61981, 31.58014],
        [76.61988, 31.57963],
        [76.61992, 31.5795],
        [76.62003, 31.5792],
        [76.62009, 31.57894],
        [76.62018, 31.57867],
        [76.62025, 31.57834],
        [76.62032, 31.57807],
        [76.62049, 31.57763],
        [76.62054, 31.57752],
        [76.62064, 31.57728],
        [76.62064, 31.57717],
        [76.62062, 31.57693],
        [76.62037, 31.57571],
        [76.62115, 31.57461],
        [76.62054, 31.57394],
        [76.61943, 31.57146],
        [76.61832, 31.56969],
        [76.61788, 31.56864],
        [76.61703, 31.56826],
        [76.61674, 31.56683],
        [76.61629, 31.56615],
        [76.61539, 31.56469],
        [76.61515, 31.56348],
        [76.61524, 31.56222],
        [76.61691, 31.56015],
        [76.61812, 31.55893],
        [76.6184, 31.55701],
        [76.6178, 31.55392],
        [76.61696, 31.55175],
        [76.61679, 31.54921],
        [76.61622, 31.54742],
        [76.61524, 31.54648],
        [76.61514, 31.5451],
        [76.61417, 31.54435],
        [76.6137, 31.54402],
        [76.61289, 31.54367],
        [76.61248, 31.5437],
        [76.61217, 31.54382],
        [76.61163, 31.5441],
        [76.61144, 31.54448],
        [76.61124, 31.5449],
        [76.61115, 31.54525],
        [76.61139, 31.54552],
        [76.61172, 31.54581],
        [76.61171, 31.54608],
        [76.61153, 31.54632],
        [76.61133, 31.54656],
        [76.61119, 31.54662],
        [76.61057, 31.54682],
        [76.60989, 31.54704],
        [76.60935, 31.54711],
        [76.60857, 31.54729],
        [76.60797, 31.54725],
        [76.60696, 31.54731],
        [76.60616, 31.54784],
        [76.60543, 31.54847],
        [76.60526, 31.54855],
        [76.60463, 31.54864],
        [76.6045, 31.54868],
        [76.60402, 31.54888],
        [76.60401, 31.54934],
        [76.60386, 31.54968],
        [76.60364, 31.55032],
        [76.60322, 31.55109],
        [76.60309, 31.55123],
        [76.60267, 31.55133],
        [76.60245, 31.55147],
        [76.60212, 31.55173],
        [76.60158, 31.55215],
        [76.60171, 31.55249],
        [76.60173, 31.55258],
        [76.60207, 31.55295],
        [76.6025, 31.55328],
        [76.60277, 31.55377],
        [76.60304, 31.55429],
        [76.60341, 31.5551],
        [76.60348, 31.55535],
        [76.60343, 31.5557],
        [76.60336, 31.55601],
        [76.60328, 31.55628],
        [76.60285, 31.55684],
        [76.60251, 31.55712],
        [76.60197, 31.55739],
        [76.60164, 31.55775],
        [76.60101, 31.55825],
        [76.60061, 31.55867],
        [76.60042, 31.55902],
        [76.60029, 31.55955],
        [76.60009, 31.56],
        [76.59994, 31.56047],
        [76.59959, 31.56096],
        [76.59933, 31.56131],
        [76.59877, 31.56183],
        [76.59863, 31.56214],
        [76.59835, 31.56267],
        [76.5983, 31.56303],
        [76.59786, 31.56351],
        [76.59783, 31.56371],
        [76.59773, 31.56424],
        [76.59749, 31.56456],
        [76.59724, 31.56485],
        [76.59671, 31.56516],
        [76.59655, 31.56543],
        [76.59656, 31.56581],
        [76.5963, 31.56621],
        [76.59608, 31.56654],
        [76.59568, 31.56683],
        [76.59475, 31.567],
        [76.59475, 31.56778],
        [76.59475, 31.5684],
        [76.5948, 31.56862],
        [76.5951, 31.56914],
        [76.59509, 31.56932],
        [76.5948, 31.56975],
        [76.59467, 31.57017],
        [76.59443, 31.57079],
        [76.59441, 31.57156],
        [76.59442, 31.57222],
        [76.59422, 31.57268],
        [76.59394, 31.57311],
        [76.59357, 31.57333],
        [76.59316, 31.5734],
        [76.59274, 31.57374],
        [76.59262, 31.57403],
        [76.59239, 31.57461],
        [76.59226, 31.57509],
        [76.59185, 31.57555],
        [76.59148, 31.57603],
        [76.59101, 31.57651],
        [76.59041, 31.57692],
        [76.58978, 31.57783],
        [76.58901, 31.57944],
        [76.58872, 31.5803],
        [76.5882, 31.58153],
        [76.58786, 31.58239],
        [76.58635, 31.58228],
        [76.58587, 31.58237],
        [76.58496, 31.58253],
        [76.583, 31.58608],
        [76.58329, 31.58688],
        [76.58336, 31.5878],
        [76.58314, 31.58866],
        [76.58309, 31.58914],
        [76.5832, 31.58976],
        [76.58325, 31.59043],
        [76.58351, 31.59127],
        [76.58359, 31.59181],
        [76.58362, 31.59226],
        [76.58354, 31.59277],
        [76.58312, 31.59336],
        [76.5824, 31.59421],
        [76.58165, 31.59365],
        [76.581, 31.59393],
        [76.57991, 31.59434],
        [76.57896, 31.59506],
        [76.57798, 31.59572],
        [76.57687, 31.59716],
        [76.57652, 31.59769],
        [76.57583, 31.59847],
        [76.57572, 31.59896],
        [76.57559, 31.5996],
        [76.57514, 31.60027],
        [76.57435, 31.60097],
        [76.5741, 31.60134],
        [76.57389, 31.60153],
        [76.57368, 31.60221],
        [76.57321, 31.6029],
        [76.57294, 31.60331],
        [76.57229, 31.60354],
        [76.57154, 31.60398],
        [76.57079, 31.60418],
        [76.57056, 31.60492],
        [76.5705, 31.60573],
        [76.56931, 31.60716],
        [76.57, 31.60785],
        [76.56971, 31.60843],
        [76.56908, 31.60915],
        [76.56862, 31.60918],
        [76.5684, 31.61028],
        [76.56898, 31.61053],
        [76.5699, 31.61104],
        [76.5711, 31.61107],
        [76.57205, 31.61085],
        [76.57236, 31.61042],
        [76.57307, 31.60987],
        [76.57392, 31.60967],
        [76.57487, 31.60946],
        [76.57774, 31.60933],
        [76.57807, 31.60916],
        [76.57961, 31.60935],
        [76.58021, 31.60944],
        [76.58081, 31.60927],
        [76.58119, 31.60876],
        [76.58168, 31.60815],
        [76.58294, 31.6077],
        [76.58401, 31.60738],
        [76.58448, 31.60792],
        [76.58485, 31.60867],
        [76.58552, 31.6093],
        [76.58648, 31.60994],
        [76.58726, 31.61068],
        [76.58417, 31.61146],
        [76.58318, 31.61211],
        [76.58252, 31.61316],
        [76.58211, 31.61435],
        [76.58182, 31.61483],
        [76.58137, 31.61531],
        [76.5804, 31.61572],
        [76.57938, 31.61595],
        [76.57942, 31.61672],
        [76.57949, 31.61717],
        [76.57958, 31.61758],
        [76.57962, 31.61778],
        [76.57942, 31.61805],
        [76.57928, 31.61826],
        [76.57875, 31.61863],
        [76.5783, 31.61884],
        [76.57696, 31.61905],
        [76.57582, 31.6192],
        [76.57519, 31.6192],
        [76.57508, 31.61923],
        [76.57438, 31.61916],
        [76.57353, 31.6195],
        [76.57244, 31.61992],
        [76.57132, 31.62014],
        [76.57044, 31.62022],
        [76.56924, 31.61994],
        [76.5689, 31.61973],
        [76.56802, 31.61933],
        [76.56713, 31.6195],
        [76.56566, 31.62009],
        [76.5638, 31.62087],
        [76.56289, 31.62128],
        [76.56188, 31.62184],
        [76.5615, 31.6219],
        [76.56118, 31.62188],
        [76.55976, 31.62124],
        [76.55956, 31.6211],
        [76.55914, 31.62114],
        [76.55836, 31.62133],
        [76.558, 31.62159],
        [76.55758, 31.62212],
        [76.55741, 31.62236],
        [76.55722, 31.62338],
        [76.55722, 31.62379],
        [76.55731, 31.62412],
        [76.55761, 31.62503],
        [76.55758, 31.62539],
        [76.55724, 31.62606],
        [76.55683, 31.62655],
        [76.5567, 31.62695],
        [76.55684, 31.62758],
        [76.5569, 31.62781],
        [76.55677, 31.62836],
        [76.55644, 31.62898],
        [76.55629, 31.62955],
        [76.55613, 31.62999],
        [76.55608, 31.63043],
        [76.55614, 31.63126],
        [76.55605, 31.63157],
        [76.55581, 31.63197],
        [76.55555, 31.63229],
        [76.5553, 31.63246],
        [76.55437, 31.63281],
        [76.55316, 31.63334],
        [76.55206, 31.63385],
        [76.55179, 31.63402],
        [76.5512, 31.63459],
        [76.55063, 31.63545],
        [76.55021, 31.63592],
        [76.54915, 31.63674],
        [76.54872, 31.63711],
        [76.54813, 31.63793],
        [76.54791, 31.63837],
        [76.54734, 31.63896],
        [76.54681, 31.63934],
        [76.54594, 31.63965],
        [76.54497, 31.63988],
        [76.54392, 31.64009],
        [76.54285, 31.64035],
        [76.54201, 31.64054],
        [76.54177, 31.64076],
        [76.54173, 31.64098],
        [76.54196, 31.6413],
        [76.54269, 31.642],
        [76.54289, 31.64233],
        [76.5429, 31.64267],
        [76.54278, 31.64299],
        [76.54219, 31.64367],
        [76.54138, 31.6445],
        [76.54088, 31.64508],
        [76.54039, 31.64555],
        [76.53959, 31.64632],
        [76.53882, 31.64718],
        [76.53848, 31.64753],
        [76.53792, 31.64834],
        [76.53764, 31.64875],
        [76.53706, 31.64929],
        [76.53657, 31.64972],
        [76.53607, 31.65003],
        [76.53519, 31.65023],
        [76.53434, 31.65034],
        [76.53353, 31.65042],
        [76.53288, 31.65069],
        [76.53264, 31.65082],
        [76.53215, 31.65115],
        [76.5316, 31.6514],
        [76.53142, 31.65037],
        [76.53121, 31.65017],
        [76.53064, 31.6501],
        [76.53082, 31.64885],
        [76.53131, 31.64817],
        [76.53142, 31.64747],
        [76.53157, 31.64708],
        [76.53173, 31.64681],
        [76.5319, 31.64633],
        [76.53193, 31.64597],
        [76.53122, 31.64438],
        [76.5313, 31.64379],
        [76.53278, 31.64184],
        [76.53311, 31.64102],
        [76.53331, 31.64055],
        [76.53371, 31.63998],
        [76.53448, 31.63926],
        [76.53532, 31.63865],
        [76.53623, 31.63804],
        [76.53733, 31.63754],
        [76.53774, 31.63717],
        [76.53792, 31.63672],
        [76.53805, 31.63623],
        [76.53793, 31.63561],
        [76.53761, 31.63518],
        [76.53729, 31.63485],
        [76.53646, 31.63434],
        [76.53578, 31.63392],
        [76.53525, 31.6337],
        [76.53457, 31.63349],
        [76.53365, 31.63326],
        [76.53304, 31.63316],
        [76.53262, 31.63322],
        [76.53195, 31.63322],
        [76.53154, 31.63332],
        [76.53103, 31.63352],
        [76.53028, 31.63342],
        [76.5298, 31.63321],
        [76.52929, 31.6327],
        [76.52895, 31.63219],
        [76.52865, 31.63172],
        [76.52743, 31.63099],
        [76.52698, 31.63066],
        [76.52683, 31.63014],
        [76.52666, 31.62956],
        [76.52687, 31.62842],
        [76.5272, 31.62716],
        [76.52762, 31.62612],
        [76.52786, 31.62562],
        [76.52816, 31.62501],
        [76.52838, 31.62441],
        [76.52854, 31.62281],
        [76.52874, 31.62085],
        [76.52847, 31.62031],
        [76.52805, 31.61991],
        [76.52744, 31.61946],
        [76.52586, 31.6189],
        [76.52491, 31.61825],
        [76.52434, 31.61789],
        [76.52262, 31.61752],
        [76.52148, 31.61693],
        [76.52075, 31.61668],
        [76.51978, 31.61651],
        [76.51898, 31.61644],
        [76.5179, 31.61655],
        [76.51741, 31.61679],
        [76.51698, 31.61725],
        [76.5167, 31.6178],
        [76.51642, 31.61821],
        [76.51633, 31.61875],
        [76.51561, 31.61896],
        [76.51554, 31.61897],
        [76.5148, 31.61923],
        [76.51449, 31.61932],
        [76.51403, 31.61945],
        [76.51354, 31.61958],
        [76.51285, 31.61979],
        [76.51257, 31.61981],
        [76.51214, 31.61952],
        [76.51151, 31.61905],
        [76.51128, 31.61883],
        [76.51108, 31.61844],
        [76.51047, 31.61842],
        [76.50943, 31.61779],
        [76.50873, 31.61744],
        [76.50819, 31.61741],
        [76.50789, 31.61717],
        [76.5074, 31.61691],
        [76.5065, 31.6167],
        [76.50604, 31.61525],
        [76.50565, 31.61461],
        [76.50557, 31.6141],
        [76.50515, 31.61381],
        [76.50494, 31.61361],
        [76.50518, 31.61232],
        [76.50535, 31.61168],
        [76.50564, 31.61119],
        [76.50586, 31.61084],
        [76.50591, 31.61028],
        [76.50583, 31.60979],
        [76.50557, 31.60941],
        [76.50531, 31.60892],
        [76.5049, 31.60874],
        [76.50443, 31.6087],
        [76.50363, 31.60884],
        [76.50296, 31.60893],
        [76.50238, 31.60888],
        [76.50169, 31.60871],
        [76.50104, 31.6085],
        [76.50062, 31.60855],
        [76.50008, 31.60892],
        [76.49887, 31.60906],
        [76.49835, 31.60889],
        [76.49777, 31.60828],
        [76.49737, 31.60775],
        [76.49731, 31.60712],
        [76.49729, 31.60653],
        [76.49606, 31.60653],
        [76.49562, 31.60669],
        [76.49533, 31.60719],
        [76.4954, 31.6083],
        [76.4954, 31.6092],
        [76.49534, 31.60984],
        [76.49403, 31.61043],
        [76.49319, 31.6109],
        [76.49309, 31.61124],
        [76.49339, 31.61232],
        [76.49363, 31.61323],
        [76.49361, 31.61387],
        [76.49267, 31.61452],
        [76.4913, 31.61514],
        [76.4902, 31.61556],
        [76.49013, 31.61561],
        [76.48955, 31.61614],
        [76.48842, 31.61724],
        [76.4875, 31.61691],
        [76.48596, 31.6162],
        [76.48468, 31.61615],
        [76.48332, 31.61683],
        [76.48278, 31.61711],
        [76.48187, 31.61761],
        [76.48058, 31.61781],
        [76.47824, 31.61815],
        [76.4768, 31.61853],
        [76.47582, 31.61879],
        [76.47499, 31.61944],
        [76.47408, 31.62034],
        [76.4731, 31.62116],
        [76.47174, 31.62189],
        [76.47062, 31.62218],
        [76.46846, 31.62269],
        [76.46759, 31.6229],
        [76.46581, 31.62367],
        [76.46488, 31.6244],
        [76.46486, 31.62471],
        [76.46474, 31.62602],
        [76.46483, 31.62757],
        [76.46544, 31.62869],
        [76.46592, 31.63004],
        [76.46597, 31.63017],
        [76.466, 31.63025],
        [76.46543, 31.63085],
        [76.46182, 31.63525],
        [76.46011, 31.63648],
        [76.45851, 31.63756],
        [76.45793, 31.63841],
        [76.45792, 31.63948],
        [76.45772, 31.64031],
        [76.45745, 31.64125],
        [76.45737, 31.64191],
        [76.45701, 31.64245],
        [76.45638, 31.64296],
        [76.45558, 31.6438],
        [76.45452, 31.64504],
        [76.45378, 31.64593],
        [76.45309, 31.64699],
        [76.45286, 31.64803],
        [76.45197, 31.65125],
        [76.45167, 31.65219],
        [76.45109, 31.65311],
        [76.45002, 31.65441],
        [76.44943, 31.6555],
        [76.4494, 31.65663],
        [76.44985, 31.65732],
        [76.44982, 31.65793],
        [76.44968, 31.65852],
        [76.44979, 31.65955],
        [76.44988, 31.66014],
        [76.45012, 31.66088],
        [76.45045, 31.66193],
        [76.45063, 31.66289],
        [76.45026, 31.66346],
        [76.44974, 31.66418],
        [76.44922, 31.66519],
        [76.44919, 31.66571],
        [76.44898, 31.66687],
        [76.44873, 31.66772],
        [76.44868, 31.66831],
        [76.44921, 31.6691],
        [76.44938, 31.67041],
        [76.44916, 31.67119],
        [76.44857, 31.67185],
        [76.44849, 31.67188],
        [76.44794, 31.67232],
        [76.44735, 31.67343],
        [76.44708, 31.67449],
        [76.4472, 31.6754],
        [76.44753, 31.67645],
        [76.44857, 31.67745],
        [76.44882, 31.67823],
        [76.44919, 31.67908],
        [76.44938, 31.6802],
        [76.44905, 31.68181],
        [76.44817, 31.68355],
        [76.4471, 31.68454],
        [76.4461, 31.68474],
        [76.44436, 31.68521],
        [76.44383, 31.68574],
        [76.44404, 31.68644],
        [76.44496, 31.68785],
        [76.44587, 31.68914],
        [76.44915, 31.69246],
        [76.4495, 31.69337],
        [76.44963, 31.69411],
        [76.44993, 31.695],
        [76.45057, 31.69579],
        [76.4511, 31.69678],
        [76.45196, 31.69813],
        [76.45271, 31.69855],
        [76.4548, 31.69925],
        [76.45604, 31.69964],
        [76.4572, 31.69999],
        [76.45988, 31.70055],
        [76.46162, 31.7008],
        [76.46307, 31.70102],
        [76.4645, 31.70089],
        [76.46571, 31.70068],
        [76.46713, 31.7008],
        [76.46827, 31.70101],
        [76.46982, 31.70166],
        [76.47117, 31.70231],
        [76.4718, 31.70305],
        [76.47265, 31.70451],
        [76.47295, 31.70534],
        [76.47306, 31.70605],
        [76.47288, 31.70717],
        [76.47226, 31.70869],
        [76.47135, 31.70992],
        [76.46979, 31.71252],
        [76.46942, 31.71358],
        [76.46966, 31.71495],
        [76.46979, 31.71626],
        [76.46962, 31.71703],
        [76.46914, 31.71862],
        [76.46872, 31.71953],
        [76.46799, 31.72045],
        [76.46653, 31.72257],
        [76.46531, 31.72361],
        [76.4641, 31.72415],
        [76.46343, 31.72493],
        [76.46346, 31.72527],
        [76.46429, 31.72645],
        [76.46489, 31.72733],
        [76.46585, 31.72852],
        [76.46656, 31.72983],
        [76.46638, 31.73059],
        [76.46593, 31.73095],
        [76.46503, 31.73199],
        [76.46425, 31.73322],
        [76.46409, 31.73417],
        [76.46351, 31.7355],
        [76.46201, 31.73785],
        [76.46101, 31.7389],
        [76.46067, 31.73986],
        [76.46106, 31.74083],
        [76.46162, 31.74194],
        [76.46165, 31.74288],
        [76.46222, 31.74415],
        [76.46263, 31.7448],
        [76.46403, 31.74588],
        [76.4653, 31.74655],
        [76.46834, 31.74763],
        [76.4703, 31.74846],
        [76.47128, 31.74856],
        [76.47189, 31.74856],
        [76.47288, 31.74814],
        [76.47366, 31.74737],
        [76.4742, 31.74678],
        [76.47457, 31.74579],
        [76.47499, 31.74503],
        [76.47568, 31.7445]
      ]
    ]
  }
}
