{
  "type": "Feature",
  "id": "HP-AC-43",
  "properties": {
    "stateName": "HIMACHAL PRADESH",
    "stateCode": "HP",
    "districtName": "UNA",
    "acNo": 43,
    "acName": "HAROLI",
    "seatType": null,
    "pcNo": null,
    "pcName": null,
    "quality": "unverified",
    "sources": [
      "TBD"
    ]
  },
  "geometry": {
    "type": "Polygon",
    "coordinates": [
      [
        [76.17394, 31.55977],
        [76.17424, 31.55831],
        [76.17471, 31.55699],
        [76.17495, 31.5568],
        [76.17577, 31.55618],
        [76.1766, 31.55557],
        [76.17787, 31.55485],
        [76.17906, 31.55397],
        [76.18025, 31.55309],
        [76.18143, 31.55206],
        [76.18286, 31.55071],
        [76.18381, 31.54988],
        [76.18436, 31.55006],
        [76.18504, 31.55019],
        [76.18592, 31.55043],
        [76.18657, 31.55059],
        [76.18742, 31.55083],
        [76.18838, 31.55106],
        [76.18856, 31.55052],
        [76.18874, 31.54994],
        [76.18911, 31.54945],
        [76.18936, 31.54901],
        [76.18972, 31.54834],
        [76.18995, 31.54734],
        [76.18992, 31.5464],
        [76.19005, 31.5453],
        [76.19013, 31.54436],
        [76.19017, 31.54383],
        [76.19051, 31.54285],
        [76.19104, 31.54213],
        [76.19153, 31.54146],
        [76.19179, 31.54089],
        [76.19202, 31.54014],
        [76.19206, 31.53966],
        [76.1921, 31.53898],
        [76.19199, 31.53843],
        [76.19133, 31.53703],
        [76.19084, 31.53615],
        [76.19046, 31.53543],
        [76.19019, 31.53457],
        [76.19022, 31.53382],
        [76.19049, 31.53222],
        [76.19071, 31.53058],
        [76.1912, 31.52954],
        [76.19204, 31.52773],
        [76.19271, 31.52665],
        [76.19291, 31.52552],
        [76.19346, 31.52477],
        [76.19438, 31.52397],
        [76.19588, 31.52266],
        [76.19688, 31.52194],
        [76.19777, 31.52105],
        [76.19832, 31.52018],
        [76.19846, 31.51955],
        [76.19899, 31.51831],
        [76.19979, 31.5172],
        [76.20026, 31.51648],
        [76.20055, 31.51566],
        [76.20078, 31.51484],
        [76.20082, 31.51437],
        [76.2009, 31.51386],
        [76.20142, 31.51308],
        [76.20219, 31.51189],
        [76.20256, 31.51077],
        [76.20311, 31.51012],
        [76.20383, 31.50936],
        [76.20438, 31.50847],
        [76.20465, 31.50771],
        [76.20478, 31.50697],
        [76.20742, 31.50687],
        [76.21124, 31.50701],
        [76.21167, 31.50681],
        [76.21291, 31.50556],
        [76.21351, 31.50483],
        [76.2145, 31.50299],
        [76.21515, 31.50189],
        [76.2158, 31.49984],
        [76.21554, 31.49871],
        [76.2157, 31.49118],
        [76.21602, 31.48842],
        [76.21974, 31.48444],
        [76.22239, 31.48175],
        [76.22513, 31.481],
        [76.22891, 31.48014],
        [76.22847, 31.47956],
        [76.23021, 31.4786],
        [76.2335, 31.47591],
        [76.23698, 31.47288],
        [76.23824, 31.47205],
        [76.23879, 31.47173],
        [76.23899, 31.47161],
        [76.24011, 31.47097],
        [76.24071, 31.47061],
        [76.24123, 31.47034],
        [76.24273, 31.46945],
        [76.2447, 31.46798],
        [76.24545, 31.46606],
        [76.2441, 31.46547],
        [76.24355, 31.46524],
        [76.24341, 31.46517],
        [76.23881, 31.46316],
        [76.24049, 31.46318],
        [76.24232, 31.4631],
        [76.24374, 31.46218],
        [76.24501, 31.46071],
        [76.24675, 31.45825],
        [76.24837, 31.45638],
        [76.24876, 31.45612],
        [76.24893, 31.45605],
        [76.24942, 31.45453],
        [76.24978, 31.45351],
        [76.25012, 31.4524],
        [76.25062, 31.44969],
        [76.25125, 31.44688],
        [76.25183, 31.44598],
        [76.25248, 31.4446],
        [76.25256, 31.44444],
        [76.25316, 31.44327],
        [76.25358, 31.44189],
        [76.25392, 31.44101],
        [76.25433, 31.44018],
        [76.25505, 31.43864],
        [76.25575, 31.43784],
        [76.25708, 31.43673],
        [76.25773, 31.43618],
        [76.25845, 31.43545],
        [76.25885, 31.43438],
        [76.25875, 31.43327],
        [76.25824, 31.43228],
        [76.25745, 31.43139],
        [76.25683, 31.43038],
        [76.25669, 31.42977],
        [76.25716, 31.42853],
        [76.25871, 31.42648],
        [76.25901, 31.42566],
        [76.25894, 31.42524],
        [76.25857, 31.42445],
        [76.25832, 31.4241],
        [76.25751, 31.42358],
        [76.25634, 31.42273],
        [76.25595, 31.42228],
        [76.2555, 31.42153],
        [76.2553, 31.42084],
        [76.25524, 31.42063],
        [76.25546, 31.42018],
        [76.25576, 31.41979],
        [76.25643, 31.4192],
        [76.25772, 31.41784],
        [76.25832, 31.41678],
        [76.25847, 31.41623],
        [76.25837, 31.41562],
        [76.2578, 31.4143],
        [76.2574, 31.41348],
        [76.25692, 31.41259],
        [76.25692, 31.41218],
        [76.25715, 31.41177],
        [76.25759, 31.41106],
        [76.2579, 31.41041],
        [76.2591, 31.40923],
        [76.26025, 31.4084],
        [76.2623, 31.40676],
        [76.26299, 31.40607],
        [76.26428, 31.40485],
        [76.26461, 31.40432],
        [76.2648, 31.40366],
        [76.26543, 31.40317],
        [76.26656, 31.40256],
        [76.26794, 31.40202],
        [76.26938, 31.40174],
        [76.27037, 31.4013],
        [76.27269, 31.40046],
        [76.27395, 31.39991],
        [76.27457, 31.39946],
        [76.27515, 31.39868],
        [76.27575, 31.39759],
        [76.27637, 31.39688],
        [76.27687, 31.39598],
        [76.27727, 31.39536],
        [76.27843, 31.39463],
        [76.27994, 31.39451],
        [76.28078, 31.39446],
        [76.28123, 31.39436],
        [76.282, 31.39394],
        [76.28267, 31.39316],
        [76.2836, 31.39213],
        [76.2847, 31.39177],
        [76.28538, 31.39164],
        [76.28571, 31.39123],
        [76.28631, 31.39004],
        [76.28639, 31.38941],
        [76.28637, 31.38907],
        [76.28663, 31.38802],
        [76.2868, 31.3875],
        [76.28738, 31.38666],
        [76.28867, 31.38581],
        [76.29034, 31.38493],
        [76.29104, 31.38413],
        [76.29114, 31.38285],
        [76.29089, 31.38142],
        [76.29046, 31.37997],
        [76.29034, 31.37859],
        [76.29038, 31.3782],
        [76.29128, 31.37727],
        [76.2917, 31.37688],
        [76.29238, 31.37589],
        [76.29317, 31.37468],
        [76.29489, 31.37314],
        [76.29579, 31.37224],
        [76.29615, 31.37083],
        [76.29644, 31.36956],
        [76.29642, 31.36788],
        [76.29616, 31.36677],
        [76.29542, 31.36575],
        [76.2947, 31.36478],
        [76.29419, 31.36377],
        [76.29403, 31.36338],
        [76.2943, 31.36275],
        [76.29473, 31.36229],
        [76.29529, 31.36211],
        [76.29598, 31.3619],
        [76.29708, 31.36156],
        [76.29865, 31.3614],
        [76.30063, 31.36151],
        [76.30279, 31.3616],
        [76.30481, 31.36178],
        [76.30533, 31.36155],
        [76.30606, 31.3611],
        [76.30717, 31.36004],
        [76.30882, 31.35858],
        [76.3089, 31.3584],
        [76.30929, 31.35758],
        [76.30983, 31.35653],
        [76.31073, 31.35543],
        [76.31073, 31.35495],
        [76.31038, 31.35384],
        [76.31027, 31.35343],
        [76.31006, 31.3523],
        [76.31038, 31.35078],
        [76.31109, 31.34987],
        [76.31176, 31.34904],
        [76.31322, 31.34771],
        [76.31469, 31.34641],
        [76.3149, 31.3459],
        [76.31479, 31.34495],
        [76.31445, 31.34276],
        [76.31279, 31.3427],
        [76.30942, 31.34246],
        [76.30855, 31.3424],
        [76.30935, 31.34052],
        [76.31032, 31.33845],
        [76.31159, 31.33553],
        [76.31215, 31.33379],
        [76.31276, 31.33175],
        [76.31296, 31.33058],
        [76.31322, 31.32897],
        [76.31326, 31.32666],
        [76.31349, 31.32613],
        [76.31492, 31.32566],
        [76.32013, 31.32288],
        [76.32233, 31.32195],
        [76.32264, 31.32161],
        [76.32116, 31.32138],
        [76.31893, 31.32094],
        [76.31656, 31.32027],
        [76.31196, 31.31947],
        [76.31185, 31.31893],
        [76.31045, 31.31853],
        [76.31036, 31.31817],
        [76.30962, 31.31786],
        [76.30958, 31.31723],
        [76.30839, 31.31663],
        [76.30615, 31.31562],
        [76.30518, 31.31485],
        [76.30521, 31.31458],
        [76.30482, 31.31438],
        [76.30351, 31.31415],
        [76.30187, 31.31358],
        [76.30051, 31.31334],
        [76.29971, 31.31257],
        [76.29854, 31.3114],
        [76.29757, 31.3108],
        [76.29674, 31.3107],
        [76.2955, 31.3106],
        [76.29437, 31.3106],
        [76.29273, 31.30986],
        [76.292, 31.30963],
        [76.2907, 31.30943],
        [76.29, 31.30913],
        [76.2893, 31.30816],
        [76.28877, 31.30715],
        [76.28877, 31.30642],
        [76.28806, 31.30699],
        [76.28739, 31.30745],
        [76.28676, 31.30715],
        [76.28553, 31.30648],
        [76.28366, 31.30538],
        [76.28119, 31.30424],
        [76.27979, 31.3034],
        [76.27852, 31.30263],
        [76.27672, 31.30183],
        [76.27539, 31.30102],
        [76.27468, 31.3016],
        [76.27362, 31.30233],
        [76.27285, 31.30274],
        [76.27188, 31.30264],
        [76.27058, 31.30287],
        [76.27051, 31.3032],
        [76.27051, 31.30367],
        [76.27048, 31.30434],
        [76.27041, 31.30578],
        [76.27044, 31.30795],
        [76.27024, 31.30986],
        [76.26975, 31.31227],
        [76.26954, 31.31317],
        [76.26901, 31.31237],
        [76.26818, 31.3116],
        [76.26635, 31.31056],
        [76.26464, 31.31003],
        [76.2629, 31.30983],
        [76.26114, 31.31006],
        [76.2586, 31.31006],
        [76.25693, 31.30993],
        [76.25456, 31.30953],
        [76.25266, 31.30879],
        [76.25066, 31.30809],
        [76.24901, 31.30758],
        [76.24877, 31.30758],
        [76.2472, 31.30762],
        [76.24362, 31.30817],
        [76.24286, 31.30826],
        [76.24207, 31.30844],
        [76.24131, 31.30869],
        [76.24069, 31.30887],
        [76.24001, 31.30891],
        [76.2396, 31.30889],
        [76.23908, 31.30883],
        [76.23752, 31.30811],
        [76.23539, 31.30706],
        [76.23185, 31.30593],
        [76.22825, 31.30472],
        [76.22472, 31.30341],
        [76.22056, 31.3013],
        [76.21707, 31.30017],
        [76.21506, 31.29946],
        [76.21312, 31.29928],
        [76.21133, 31.29936],
        [76.20636, 31.29992],
        [76.20362, 31.30027],
        [76.19997, 31.30016],
        [76.1963, 31.30074],
        [76.19484, 31.30078],
        [76.19076, 31.30014],
        [76.18861, 31.29994],
        [76.18663, 31.30176],
        [76.18426, 31.30459],
        [76.18257, 31.30693],
        [76.18176, 31.30864],
        [76.18108, 31.31152],
        [76.18075, 31.31435],
        [76.18067, 31.31647],
        [76.18106, 31.32009],
        [76.18087, 31.32283],
        [76.18058, 31.32627],
        [76.18048, 31.32833],
        [76.18069, 31.32983],
        [76.18081, 31.33169],
        [76.18081, 31.33424],
        [76.18073, 31.33474],
        [76.18056, 31.33507],
        [76.17968, 31.33651],
        [76.1787, 31.33833],
        [76.17763, 31.33984],
        [76.17647, 31.34103],
        [76.17524, 31.342],
        [76.17425, 31.34231],
        [76.17068, 31.34268],
        [76.16718, 31.34305],
        [76.16265, 31.34342],
        [76.16073, 31.34342],
        [76.15976, 31.34361],
        [76.15875, 31.34431],
        [76.15797, 31.34536],
        [76.15691, 31.34719],
        [76.15661, 31.34752],
        [76.15514, 31.34919],
        [76.15324, 31.35055],
        [76.15153, 31.35339],
        [76.14975, 31.35567],
        [76.14843, 31.35794],
        [76.14829, 31.35828],
        [76.1481, 31.35878],
        [76.14812, 31.35909],
        [76.14843, 31.36041],
        [76.14841, 31.36088],
        [76.14833, 31.36123],
        [76.148, 31.3617],
        [76.14777, 31.36201],
        [76.14751, 31.36232],
        [76.14736, 31.36261],
        [76.14722, 31.3629],
        [76.14709, 31.36323],
        [76.14705, 31.3635],
        [76.14717, 31.36433],
        [76.14781, 31.36755],
        [76.14796, 31.37102],
        [76.14796, 31.37339],
        [76.14787, 31.37768],
        [76.14755, 31.37924],
        [76.14753, 31.37949],
        [76.14755, 31.37971],
        [76.14765, 31.38019],
        [76.1478, 31.3806],
        [76.14798, 31.38087],
        [76.14827, 31.38124],
        [76.14846, 31.3814],
        [76.14941, 31.3821],
        [76.15099, 31.38247],
        [76.15301, 31.38303],
        [76.15448, 31.38381],
        [76.15604, 31.38523],
        [76.15757, 31.38661],
        [76.15977, 31.38768],
        [76.16061, 31.38831],
        [76.1608, 31.3886],
        [76.16115, 31.38904],
        [76.16131, 31.38926],
        [76.16168, 31.38984],
        [76.16185, 31.39025],
        [76.16209, 31.39077],
        [76.16224, 31.39095],
        [76.16306, 31.39163],
        [76.1649, 31.39283],
        [76.16632, 31.39429],
        [76.16791, 31.39639],
        [76.16882, 31.39734],
        [76.1689, 31.39752],
        [76.16898, 31.39787],
        [76.16904, 31.39816],
        [76.16898, 31.39863],
        [76.16886, 31.399],
        [76.16876, 31.39935],
        [76.16851, 31.39995],
        [76.16795, 31.40115],
        [76.16694, 31.40265],
        [76.16624, 31.40395],
        [76.1662, 31.40479],
        [76.16618, 31.40526],
        [76.16624, 31.40565],
        [76.16639, 31.40606],
        [76.16711, 31.4079],
        [76.16731, 31.40837],
        [76.16742, 31.4087],
        [76.16752, 31.40903],
        [76.1676, 31.40934],
        [76.16762, 31.40961],
        [76.16758, 31.41006],
        [76.16725, 31.41107],
        [76.16623, 31.41246],
        [76.16527, 31.41308],
        [76.1637, 31.41382],
        [76.16209, 31.41483],
        [76.16036, 31.41593],
        [76.16019, 31.41621],
        [76.16007, 31.41648],
        [76.16007, 31.41696],
        [76.1617, 31.42016],
        [76.1624, 31.42181],
        [76.16061, 31.42389],
        [76.15865, 31.42589],
        [76.15684, 31.42872],
        [76.15552, 31.43015],
        [76.15393, 31.43173],
        [76.15113, 31.43404],
        [76.1508, 31.43418],
        [76.15022, 31.43412],
        [76.14921, 31.43375],
        [76.14785, 31.4335],
        [76.14686, 31.43367],
        [76.14631, 31.43385],
        [76.14602, 31.4341],
        [76.14585, 31.43445],
        [76.1455, 31.4355],
        [76.14546, 31.43585],
        [76.14517, 31.43638],
        [76.14492, 31.43677],
        [76.14455, 31.43743],
        [76.14434, 31.43772],
        [76.14412, 31.43805],
        [76.14391, 31.43826],
        [76.14368, 31.43848],
        [76.14255, 31.43949],
        [76.14119, 31.44178],
        [76.13976, 31.44466],
        [76.13923, 31.44629],
        [76.13896, 31.44835],
        [76.13888, 31.44864],
        [76.13879, 31.44901],
        [76.13859, 31.44934],
        [76.13836, 31.44954],
        [76.13801, 31.44975],
        [76.13772, 31.44995],
        [76.13593, 31.45076],
        [76.13541, 31.45109],
        [76.13508, 31.45148],
        [76.13479, 31.45191],
        [76.13455, 31.45228],
        [76.13412, 31.45405],
        [76.13416, 31.45617],
        [76.13418, 31.45675],
        [76.13424, 31.4571],
        [76.13436, 31.45737],
        [76.13461, 31.45774],
        [76.13568, 31.45846],
        [76.13595, 31.45875],
        [76.13611, 31.45907],
        [76.1362, 31.45928],
        [76.13624, 31.45969],
        [76.13622, 31.45994],
        [76.13607, 31.46015],
        [76.1356, 31.46035],
        [76.13438, 31.4609],
        [76.13195, 31.46168],
        [76.13069, 31.46238],
        [76.12869, 31.46335],
        [76.1284, 31.46381],
        [76.1283, 31.46407],
        [76.12817, 31.46459],
        [76.12819, 31.46488],
        [76.12826, 31.46515],
        [76.12844, 31.46572],
        [76.12894, 31.46702],
        [76.12978, 31.46823],
        [76.13117, 31.47048],
        [76.1313, 31.47083],
        [76.13132, 31.47126],
        [76.13117, 31.47146],
        [76.13092, 31.47167],
        [76.13059, 31.47186],
        [76.13014, 31.47214],
        [76.12979, 31.47237],
        [76.1294, 31.47274],
        [76.12913, 31.47309],
        [76.12897, 31.47338],
        [76.12876, 31.47369],
        [76.12855, 31.47423],
        [76.12841, 31.47497],
        [76.12822, 31.47548],
        [76.12808, 31.47569],
        [76.12779, 31.47593],
        [76.12478, 31.47688],
        [76.12313, 31.47758],
        [76.12187, 31.47846],
        [76.12168, 31.47869],
        [76.12139, 31.47902],
        [76.12111, 31.47947],
        [76.12073, 31.48015],
        [76.12045, 31.48034],
        [76.11898, 31.48096],
        [76.11869, 31.48112],
        [76.11836, 31.48143],
        [76.11809, 31.48176],
        [76.11789, 31.48215],
        [76.11774, 31.48258],
        [76.11772, 31.48306],
        [76.11777, 31.48339],
        [76.11789, 31.48368],
        [76.11873, 31.48526],
        [76.12001, 31.4873],
        [76.12059, 31.4889],
        [76.12092, 31.49063],
        [76.1209, 31.49082],
        [76.1209, 31.491],
        [76.12082, 31.49127],
        [76.12073, 31.49162],
        [76.12024, 31.49226],
        [76.11985, 31.49271],
        [76.11954, 31.49313],
        [76.1194, 31.49339],
        [76.11923, 31.49385],
        [76.11921, 31.49422],
        [76.11927, 31.49451],
        [76.11933, 31.49481],
        [76.12013, 31.49623],
        [76.1203, 31.49685],
        [76.12042, 31.4973],
        [76.12038, 31.49757],
        [76.12032, 31.49792],
        [76.12017, 31.49814],
        [76.12005, 31.49833],
        [76.11982, 31.49849],
        [76.11954, 31.49864],
        [76.11665, 31.49934],
        [76.11461, 31.49994],
        [76.11312, 31.50171],
        [76.11241, 31.50277],
        [76.11195, 31.50347],
        [76.11127, 31.50472],
        [76.11043, 31.50629],
        [76.11, 31.50714],
        [76.10967, 31.50752],
        [76.10935, 31.50779],
        [76.10837, 31.50839],
        [76.10791, 31.50872],
        [76.10743, 31.5093],
        [76.10715, 31.50971],
        [76.10706, 31.50999],
        [76.10711, 31.51042],
        [76.10713, 31.5118],
        [76.10702, 31.51237],
        [76.10679, 31.51301],
        [76.10649, 31.51349],
        [76.1058, 31.51448],
        [76.10502, 31.51556],
        [76.1046, 31.51611],
        [76.10419, 31.51703],
        [76.10403, 31.51746],
        [76.10399, 31.51817],
        [76.10385, 31.52001],
        [76.10376, 31.52026],
        [76.1035, 31.52054],
        [76.10307, 31.52093],
        [76.10282, 31.52146],
        [76.10275, 31.52215],
        [76.10279, 31.52377],
        [76.10275, 31.52448],
        [76.10261, 31.52541],
        [76.10245, 31.5257],
        [76.10176, 31.52688],
        [76.10126, 31.52809],
        [76.10038, 31.53],
        [76.10013, 31.53048],
        [76.0999, 31.53085],
        [76.09963, 31.53119],
        [76.09903, 31.53167],
        [76.09866, 31.53202],
        [76.09857, 31.5322],
        [76.09853, 31.53238],
        [76.09853, 31.53273],
        [76.09855, 31.53302],
        [76.09887, 31.53411],
        [76.09912, 31.53482],
        [76.09933, 31.53521],
        [76.0996, 31.53557],
        [76.09988, 31.53589],
        [76.09992, 31.53612],
        [76.09988, 31.53638],
        [76.09967, 31.5366],
        [76.09914, 31.53697],
        [76.09744, 31.53796],
        [76.09683, 31.53842],
        [76.09589, 31.5392],
        [76.09458, 31.54015],
        [76.094, 31.54049],
        [76.09327, 31.54086],
        [76.09304, 31.54099],
        [76.09288, 31.54113],
        [76.09267, 31.54136],
        [76.09251, 31.54166],
        [76.09235, 31.54216],
        [76.09189, 31.54315],
        [76.09153, 31.54363],
        [76.0912, 31.54393],
        [76.09091, 31.54411],
        [76.09033, 31.54443],
        [76.08943, 31.54494],
        [76.08923, 31.54512],
        [76.08909, 31.54533],
        [76.08907, 31.54567],
        [76.08898, 31.54643],
        [76.08882, 31.5468],
        [76.08865, 31.54698],
        [76.08831, 31.54719],
        [76.08785, 31.54735],
        [76.087, 31.54767],
        [76.08624, 31.54807],
        [76.08592, 31.5483],
        [76.08562, 31.54857],
        [76.08526, 31.54901],
        [76.08491, 31.54935],
        [76.08448, 31.54967],
        [76.08381, 31.55025],
        [76.08298, 31.55089],
        [76.08204, 31.55162],
        [76.08092, 31.55261],
        [76.08053, 31.553],
        [76.08023, 31.55336],
        [76.07986, 31.55387],
        [76.07941, 31.55467],
        [76.07915, 31.55522],
        [76.07902, 31.55568],
        [76.07895, 31.55628],
        [76.07856, 31.55763],
        [76.07823, 31.55823],
        [76.07789, 31.55873],
        [76.07741, 31.55947],
        [76.07672, 31.56037],
        [76.07619, 31.56086],
        [76.07731, 31.5613],
        [76.07818, 31.56109],
        [76.07936, 31.56082],
        [76.08065, 31.5602],
        [76.08201, 31.5598],
        [76.08255, 31.55973],
        [76.08328, 31.55993],
        [76.08434, 31.56039],
        [76.08509, 31.56069],
        [76.08563, 31.56083],
        [76.08637, 31.56075],
        [76.08784, 31.56068],
        [76.08905, 31.56087],
        [76.0901, 31.56142],
        [76.09071, 31.56193],
        [76.09154, 31.56254],
        [76.09207, 31.56292],
        [76.09259, 31.56295],
        [76.0931, 31.56281],
        [76.0938, 31.56233],
        [76.09494, 31.56177],
        [76.09691, 31.56046],
        [76.09835, 31.55973],
        [76.09972, 31.55954],
        [76.10068, 31.55947],
        [76.10222, 31.55948],
        [76.10317, 31.55965],
        [76.10443, 31.5596],
        [76.10559, 31.55934],
        [76.10691, 31.559],
        [76.10805, 31.55859],
        [76.10883, 31.55868],
        [76.10995, 31.55902],
        [76.11098, 31.559],
        [76.1121, 31.559],
        [76.11382, 31.55904],
        [76.11502, 31.5589],
        [76.11659, 31.55804],
        [76.11744, 31.5574],
        [76.11862, 31.55687],
        [76.12052, 31.55644],
        [76.12182, 31.55645],
        [76.12277, 31.55665],
        [76.12373, 31.55702],
        [76.12437, 31.55748],
        [76.12525, 31.55821],
        [76.12614, 31.55877],
        [76.12747, 31.55906],
        [76.12942, 31.55896],
        [76.13218, 31.55887],
        [76.13539, 31.55858],
        [76.13808, 31.55849],
        [76.13939, 31.55873],
        [76.14036, 31.55906],
        [76.14185, 31.55999],
        [76.14343, 31.5616],
        [76.14525, 31.56294],
        [76.15, 31.5658],
        [76.15316, 31.56778],
        [76.15473, 31.56887],
        [76.15684, 31.57015],
        [76.15775, 31.57072],
        [76.15874, 31.5713],
        [76.1594, 31.57161],
        [76.15988, 31.57118],
        [76.1635, 31.56893],
        [76.1651, 31.56821],
        [76.16663, 31.56752],
        [76.16808, 31.56688],
        [76.17046, 31.56528],
        [76.17154, 31.56415],
        [76.17202, 31.56358],
        [76.17233, 31.56321],
        [76.17346, 31.56098],
        [76.17394, 31.55977]
      ]
    ]
  }
}
