{
  "type": "Feature",
  "id": "HP-AC-46",
  "properties": {
    "stateName": "HIMACHAL PRADESH",
    "stateCode": "HP",
    "districtName": "BILASPUR",
    "acNo": 46,
    "acName": "JHANDUTA",
    "seatType": null,
    "pcNo": null,
    "pcName": null,
    "quality": "unverified",
    "sources": [
      "TBD"
    ]
  },
  "geometry": {
    "type": "Polygon",
    "coordinates": [
      [
        [76.49898, 31.46856],
        [76.50032, 31.46754],
        [76.50174, 31.46619],
        [76.50228, 31.46569],
        [76.50241, 31.46551],
        [76.50256, 31.46535],
        [76.50273, 31.4652],
        [76.50293, 31.46508],
        [76.50314, 31.46497],
        [76.50337, 31.4649],
        [76.50361, 31.46484],
        [76.50385, 31.46481],
        [76.50409, 31.46481],
        [76.50422, 31.46479],
        [76.50436, 31.46477],
        [76.50448, 31.46475],
        [76.50461, 31.46473],
        [76.50474, 31.46471],
        [76.50487, 31.46468],
        [76.505, 31.46466],
        [76.50513, 31.46463],
        [76.50526, 31.4646],
        [76.50541, 31.46453],
        [76.50556, 31.46444],
        [76.5057, 31.46434],
        [76.50582, 31.46424],
        [76.50594, 31.46412],
        [76.50604, 31.46399],
        [76.50612, 31.46386],
        [76.50619, 31.46372],
        [76.50625, 31.46358],
        [76.50714, 31.46196],
        [76.50727, 31.46175],
        [76.50742, 31.46154],
        [76.50758, 31.46134],
        [76.50776, 31.46115],
        [76.50794, 31.46097],
        [76.50814, 31.4608],
        [76.50836, 31.46064],
        [76.50858, 31.46049],
        [76.50881, 31.46036],
        [76.5091, 31.46025],
        [76.50939, 31.46016],
        [76.50969, 31.4601],
        [76.51, 31.46006],
        [76.51031, 31.46005],
        [76.51062, 31.46006],
        [76.51093, 31.46009],
        [76.51123, 31.46016],
        [76.51153, 31.46024],
        [76.51178, 31.46035],
        [76.51203, 31.46047],
        [76.51228, 31.4606],
        [76.51251, 31.46073],
        [76.51275, 31.46087],
        [76.51298, 31.46102],
        [76.5132, 31.46117],
        [76.51341, 31.46133],
        [76.51362, 31.4615],
        [76.51372, 31.46176],
        [76.51381, 31.46203],
        [76.51387, 31.46231],
        [76.51391, 31.46259],
        [76.51393, 31.46287],
        [76.51393, 31.46315],
        [76.51391, 31.46343],
        [76.51386, 31.46371],
        [76.5138, 31.46399],
        [76.51348, 31.46665],
        [76.51347, 31.46675],
        [76.51348, 31.46686],
        [76.51352, 31.46695],
        [76.51357, 31.46705],
        [76.51365, 31.46712],
        [76.51375, 31.46719],
        [76.51385, 31.46724],
        [76.51397, 31.46726],
        [76.51409, 31.46727],
        [76.51426, 31.46729],
        [76.51443, 31.46734],
        [76.51458, 31.46741],
        [76.51472, 31.46749],
        [76.51484, 31.4676],
        [76.51495, 31.46771],
        [76.51503, 31.46785],
        [76.51508, 31.46799],
        [76.51511, 31.46813],
        [76.51517, 31.46834],
        [76.51528, 31.46854],
        [76.51542, 31.46871],
        [76.5156, 31.46886],
        [76.51581, 31.46898],
        [76.51604, 31.46906],
        [76.51629, 31.46911],
        [76.51654, 31.46911],
        [76.51679, 31.46908],
        [76.51695, 31.46908],
        [76.5171, 31.46908],
        [76.51726, 31.46908],
        [76.51742, 31.46908],
        [76.51758, 31.46907],
        [76.51774, 31.46906],
        [76.51789, 31.46905],
        [76.51805, 31.46903],
        [76.51821, 31.46901],
        [76.51829, 31.46898],
        [76.51836, 31.46894],
        [76.51842, 31.46888],
        [76.51847, 31.46883],
        [76.51851, 31.46876],
        [76.51854, 31.46869],
        [76.51856, 31.46862],
        [76.51856, 31.46854],
        [76.51855, 31.46847],
        [76.51874, 31.46721],
        [76.51878, 31.46707],
        [76.51886, 31.46695],
        [76.51897, 31.46684],
        [76.5191, 31.46676],
        [76.51925, 31.4667],
        [76.51941, 31.46667],
        [76.51957, 31.46668],
        [76.51973, 31.46671],
        [76.51988, 31.46677],
        [76.52001, 31.46678],
        [76.52014, 31.46679],
        [76.52028, 31.4668],
        [76.52041, 31.46681],
        [76.52055, 31.46681],
        [76.52068, 31.46681],
        [76.52082, 31.4668],
        [76.52095, 31.46679],
        [76.52109, 31.46678],
        [76.52119, 31.46679],
        [76.5213, 31.46678],
        [76.5214, 31.46674],
        [76.52148, 31.46668],
        [76.52154, 31.46661],
        [76.52157, 31.46652],
        [76.52157, 31.46643],
        [76.52155, 31.46634],
        [76.5215, 31.46627],
        [76.52147, 31.46601],
        [76.52146, 31.46575],
        [76.52146, 31.46549],
        [76.52147, 31.46524],
        [76.5215, 31.46498],
        [76.52155, 31.46473],
        [76.52161, 31.46448],
        [76.52169, 31.46423],
        [76.52178, 31.46399],
        [76.52185, 31.46379],
        [76.52196, 31.4636],
        [76.52209, 31.46342],
        [76.52226, 31.46327],
        [76.52244, 31.46314],
        [76.52265, 31.46303],
        [76.52288, 31.46295],
        [76.52312, 31.4629],
        [76.52336, 31.46288],
        [76.52362, 31.46286],
        [76.52388, 31.46284],
        [76.52414, 31.46281],
        [76.5244, 31.46278],
        [76.52465, 31.46275],
        [76.52491, 31.46271],
        [76.52517, 31.46268],
        [76.52543, 31.46264],
        [76.52569, 31.4626],
        [76.52597, 31.46258],
        [76.52626, 31.46258],
        [76.52655, 31.46258],
        [76.52683, 31.46261],
        [76.52712, 31.46264],
        [76.5274, 31.4627],
        [76.52767, 31.46276],
        [76.52795, 31.46285],
        [76.52821, 31.46294],
        [76.52983, 31.46327],
        [76.53054, 31.46331],
        [76.53068, 31.46332],
        [76.53081, 31.46332],
        [76.53095, 31.4633],
        [76.53108, 31.46326],
        [76.5312, 31.4632],
        [76.53131, 31.46313],
        [76.5314, 31.46304],
        [76.53148, 31.46294],
        [76.53153, 31.46283],
        [76.53221, 31.46102],
        [76.53318, 31.45788],
        [76.53407, 31.45533],
        [76.535, 31.45256],
        [76.53521, 31.45215],
        [76.53609, 31.45184],
        [76.53819, 31.45143],
        [76.54035, 31.45113],
        [76.54139, 31.45061],
        [76.54313, 31.44934],
        [76.54486, 31.448],
        [76.54507, 31.44783],
        [76.54527, 31.44765],
        [76.54545, 31.44746],
        [76.54562, 31.44726],
        [76.54578, 31.44706],
        [76.54592, 31.44685],
        [76.54605, 31.44663],
        [76.54617, 31.4464],
        [76.54627, 31.44617],
        [76.54627, 31.44605],
        [76.5463, 31.44593],
        [76.54636, 31.44581],
        [76.54644, 31.44571],
        [76.54655, 31.44562],
        [76.54667, 31.44554],
        [76.5468, 31.44549],
        [76.54694, 31.44546],
        [76.54709, 31.44544],
        [76.54737, 31.44535],
        [76.54765, 31.44525],
        [76.54793, 31.44514],
        [76.54821, 31.44503],
        [76.54849, 31.44493],
        [76.54876, 31.44481],
        [76.54904, 31.4447],
        [76.54931, 31.44458],
        [76.54958, 31.44446],
        [76.55118, 31.44355],
        [76.55327, 31.44185],
        [76.55533, 31.44025],
        [76.55678, 31.43871],
        [76.55682, 31.43858],
        [76.55685, 31.43845],
        [76.55686, 31.43833],
        [76.55687, 31.4382],
        [76.55687, 31.43807],
        [76.55686, 31.43795],
        [76.55684, 31.43782],
        [76.55681, 31.4377],
        [76.55677, 31.43757],
        [76.55618, 31.43655],
        [76.55612, 31.4364],
        [76.55608, 31.43624],
        [76.55607, 31.43608],
        [76.55608, 31.43593],
        [76.55611, 31.43577],
        [76.55616, 31.43561],
        [76.55623, 31.43547],
        [76.55633, 31.43533],
        [76.55644, 31.4352],
        [76.55815, 31.4328],
        [76.55895, 31.4318],
        [76.56075, 31.42988],
        [76.56169, 31.42898],
        [76.56186, 31.42889],
        [76.56204, 31.42881],
        [76.56224, 31.42876],
        [76.56244, 31.42873],
        [76.56264, 31.42873],
        [76.56284, 31.42876],
        [76.56304, 31.4288],
        [76.56322, 31.42888],
        [76.56339, 31.42897],
        [76.56568, 31.42998],
        [76.56602, 31.43011],
        [76.56636, 31.43023],
        [76.56671, 31.43033],
        [76.56707, 31.43043],
        [76.56743, 31.43052],
        [76.56779, 31.43059],
        [76.56815, 31.43066],
        [76.56852, 31.43071],
        [76.56888, 31.43075],
        [76.56908, 31.43077],
        [76.56928, 31.43078],
        [76.56948, 31.43079],
        [76.56968, 31.4308],
        [76.56988, 31.4308],
        [76.57008, 31.43081],
        [76.57028, 31.43081],
        [76.57048, 31.43081],
        [76.57068, 31.43081],
        [76.57079, 31.4308],
        [76.57089, 31.43081],
        [76.571, 31.43083],
        [76.5711, 31.43086],
        [76.5712, 31.43089],
        [76.5713, 31.43094],
        [76.57138, 31.431],
        [76.57146, 31.43106],
        [76.57153, 31.43113],
        [76.5716, 31.43119],
        [76.57168, 31.43125],
        [76.57175, 31.43131],
        [76.57182, 31.43137],
        [76.5719, 31.43143],
        [76.57197, 31.43149],
        [76.57204, 31.43155],
        [76.57211, 31.43161],
        [76.57218, 31.43167],
        [76.57231, 31.43167],
        [76.57243, 31.43166],
        [76.57255, 31.43163],
        [76.57266, 31.43158],
        [76.57275, 31.43152],
        [76.57284, 31.43144],
        [76.57291, 31.43135],
        [76.57295, 31.43125],
        [76.57298, 31.43115],
        [76.5731, 31.43091],
        [76.57322, 31.43067],
        [76.57336, 31.43044],
        [76.5735, 31.43022],
        [76.57366, 31.43],
        [76.57382, 31.42978],
        [76.57399, 31.42956],
        [76.57417, 31.42936],
        [76.57436, 31.42916],
        [76.57445, 31.42887],
        [76.57456, 31.42859],
        [76.5747, 31.42832],
        [76.57486, 31.42805],
        [76.57503, 31.4278],
        [76.57523, 31.42755],
        [76.57544, 31.42732],
        [76.57568, 31.4271],
        [76.57592, 31.42689],
        [76.57609, 31.42661],
        [76.57627, 31.42633],
        [76.57648, 31.42606],
        [76.5767, 31.42581],
        [76.57694, 31.42557],
        [76.5772, 31.42534],
        [76.57747, 31.42512],
        [76.57776, 31.42492],
        [76.57806, 31.42474],
        [76.5783, 31.42444],
        [76.57855, 31.42414],
        [76.5788, 31.42385],
        [76.57906, 31.42356],
        [76.57931, 31.42327],
        [76.57957, 31.42298],
        [76.57984, 31.4227],
        [76.58011, 31.42242],
        [76.58038, 31.42214],
        [76.58051, 31.42203],
        [76.58066, 31.42193],
        [76.58081, 31.42184],
        [76.58097, 31.42177],
        [76.58114, 31.42171],
        [76.58132, 31.42166],
        [76.58149, 31.42163],
        [76.58168, 31.4216],
        [76.58186, 31.4216],
        [76.58462, 31.42134],
        [76.58673, 31.42139],
        [76.58703, 31.42141],
        [76.58732, 31.42146],
        [76.5876, 31.42153],
        [76.58788, 31.42162],
        [76.58815, 31.42173],
        [76.5884, 31.42186],
        [76.58864, 31.42202],
        [76.58886, 31.42219],
        [76.58906, 31.42237],
        [76.58924, 31.42258],
        [76.58944, 31.42276],
        [76.58967, 31.42292],
        [76.58992, 31.42306],
        [76.59018, 31.42317],
        [76.59046, 31.42326],
        [76.59075, 31.42332],
        [76.59105, 31.42334],
        [76.59134, 31.42334],
        [76.59167, 31.42327],
        [76.592, 31.42319],
        [76.59232, 31.4231],
        [76.59264, 31.423],
        [76.59296, 31.42289],
        [76.59327, 31.42276],
        [76.59357, 31.42263],
        [76.59387, 31.42249],
        [76.59416, 31.42234],
        [76.59448, 31.42215],
        [76.59479, 31.42196],
        [76.59511, 31.42177],
        [76.59543, 31.42158],
        [76.59575, 31.42139],
        [76.59607, 31.4212],
        [76.59638, 31.42102],
        [76.5967, 31.42083],
        [76.59702, 31.42064],
        [76.59729, 31.42046],
        [76.59759, 31.42032],
        [76.59791, 31.42022],
        [76.59824, 31.42015],
        [76.59857, 31.42012],
        [76.59891, 31.42014],
        [76.59925, 31.42019],
        [76.59957, 31.42028],
        [76.59987, 31.42041],
        [76.60023, 31.42057],
        [76.6006, 31.4207],
        [76.60097, 31.42083],
        [76.60135, 31.42094],
        [76.60174, 31.42103],
        [76.60213, 31.42111],
        [76.60252, 31.42117],
        [76.60292, 31.42122],
        [76.60332, 31.42125],
        [76.60365, 31.42132],
        [76.60399, 31.42137],
        [76.60433, 31.42138],
        [76.60467, 31.42138],
        [76.605, 31.42134],
        [76.60534, 31.42128],
        [76.60566, 31.42119],
        [76.60598, 31.42108],
        [76.60628, 31.42095],
        [76.60655, 31.42094],
        [76.60682, 31.42089],
        [76.60707, 31.4208],
        [76.60731, 31.42068],
        [76.60751, 31.42053],
        [76.60769, 31.42035],
        [76.60782, 31.42014],
        [76.60791, 31.41992],
        [76.60795, 31.41969],
        [76.60798, 31.41945],
        [76.60802, 31.41921],
        [76.60808, 31.41897],
        [76.60813, 31.41874],
        [76.60821, 31.4185],
        [76.60828, 31.41827],
        [76.60837, 31.41805],
        [76.60847, 31.41782],
        [76.60858, 31.4176],
        [76.60864, 31.41744],
        [76.60871, 31.41728],
        [76.60879, 31.41712],
        [76.60887, 31.41697],
        [76.60896, 31.41682],
        [76.60905, 31.41667],
        [76.60915, 31.41652],
        [76.60926, 31.41638],
        [76.60938, 31.41624],
        [76.60954, 31.4161],
        [76.60971, 31.41598],
        [76.60991, 31.41587],
        [76.61011, 31.41578],
        [76.61032, 31.41571],
        [76.61054, 31.41566],
        [76.61077, 31.41562],
        [76.611, 31.41561],
        [76.61122, 31.41562],
        [76.61148, 31.41569],
        [76.61174, 31.41576],
        [76.612, 31.41584],
        [76.61226, 31.41592],
        [76.61251, 31.41601],
        [76.61277, 31.41609],
        [76.61302, 31.41618],
        [76.61327, 31.41628],
        [76.61353, 31.41637],
        [76.61373, 31.41657],
        [76.61392, 31.41677],
        [76.61412, 31.41697],
        [76.61431, 31.41718],
        [76.61449, 31.41738],
        [76.61468, 31.41759],
        [76.61486, 31.4178],
        [76.61504, 31.41802],
        [76.61521, 31.41823],
        [76.61541, 31.41845],
        [76.61562, 31.41866],
        [76.61585, 31.41886],
        [76.6161, 31.41904],
        [76.61636, 31.41922],
        [76.61662, 31.41937],
        [76.6169, 31.41951],
        [76.6172, 31.41964],
        [76.61749, 31.41975],
        [76.61762, 31.41982],
        [76.61773, 31.41992],
        [76.61782, 31.42002],
        [76.61788, 31.42014],
        [76.61791, 31.42027],
        [76.61791, 31.4204],
        [76.61788, 31.42053],
        [76.61782, 31.42065],
        [76.61773, 31.42076],
        [76.61767, 31.42102],
        [76.6176, 31.42126],
        [76.61751, 31.42151],
        [76.61744, 31.42166],
        [76.61849, 31.42225],
        [76.61786, 31.42277],
        [76.61764, 31.42325],
        [76.61775, 31.42343],
        [76.61837, 31.42375],
        [76.61899, 31.42401],
        [76.61951, 31.42469],
        [76.62028, 31.42499],
        [76.62125, 31.42497],
        [76.62165, 31.42494],
        [76.62216, 31.42485],
        [76.62237, 31.42495],
        [76.6226, 31.42518],
        [76.62287, 31.42562],
        [76.62324, 31.42598],
        [76.62361, 31.42621],
        [76.62378, 31.42644],
        [76.62397, 31.42667],
        [76.62461, 31.42733],
        [76.62496, 31.42783],
        [76.62529, 31.42836],
        [76.62559, 31.42865],
        [76.62599, 31.42888],
        [76.62645, 31.42893],
        [76.62709, 31.4289],
        [76.62759, 31.42875],
        [76.62807, 31.42852],
        [76.62817, 31.42849],
        [76.62837, 31.42845],
        [76.6286, 31.42844],
        [76.62891, 31.42853],
        [76.6291, 31.4286],
        [76.62934, 31.4287],
        [76.62946, 31.42875],
        [76.62964, 31.42879],
        [76.62975, 31.42888],
        [76.62997, 31.429],
        [76.63019, 31.42921],
        [76.63035, 31.4294],
        [76.63044, 31.42951],
        [76.63069, 31.42972],
        [76.63108, 31.42974],
        [76.63159, 31.42975],
        [76.63196, 31.42984],
        [76.63235, 31.43],
        [76.63263, 31.4302],
        [76.633, 31.43052],
        [76.63338, 31.43078],
        [76.63392, 31.43103],
        [76.63438, 31.43115],
        [76.63477, 31.43101],
        [76.63509, 31.43089],
        [76.63542, 31.43072],
        [76.63592, 31.43051],
        [76.63655, 31.43054],
        [76.63706, 31.43051],
        [76.6374, 31.4305],
        [76.63769, 31.43051],
        [76.63807, 31.43062],
        [76.63837, 31.43061],
        [76.63846, 31.4306],
        [76.6388, 31.43067],
        [76.63898, 31.43075],
        [76.63934, 31.43106],
        [76.63963, 31.43126],
        [76.64, 31.43137],
        [76.64055, 31.4315],
        [76.64119, 31.43169],
        [76.64145, 31.43177],
        [76.64184, 31.43194],
        [76.64206, 31.43205],
        [76.64227, 31.43218],
        [76.64255, 31.43245],
        [76.64285, 31.43261],
        [76.64309, 31.43269],
        [76.64335, 31.43269],
        [76.64351, 31.43267],
        [76.64369, 31.43262],
        [76.64383, 31.43258],
        [76.64406, 31.43243],
        [76.64415, 31.43235],
        [76.64422, 31.4323],
        [76.6443, 31.43226],
        [76.64438, 31.43224],
        [76.64446, 31.43225],
        [76.64457, 31.43228],
        [76.64477, 31.43232],
        [76.64482, 31.43229],
        [76.64515, 31.43216],
        [76.64536, 31.43207],
        [76.64556, 31.43197],
        [76.64576, 31.43189],
        [76.64619, 31.43173],
        [76.64645, 31.43163],
        [76.64668, 31.4316],
        [76.64695, 31.43162],
        [76.64732, 31.43181],
        [76.64741, 31.43183],
        [76.64749, 31.43185],
        [76.64761, 31.43188],
        [76.64801, 31.43187],
        [76.64814, 31.43188],
        [76.64826, 31.43194],
        [76.64831, 31.43202],
        [76.64835, 31.43221],
        [76.64838, 31.43239],
        [76.64843, 31.43251],
        [76.64852, 31.4326],
        [76.64876, 31.43273],
        [76.64923, 31.43282],
        [76.64952, 31.43286],
        [76.64975, 31.43287],
        [76.65003, 31.43281],
        [76.6502, 31.43274],
        [76.6503, 31.43272],
        [76.65045, 31.43272],
        [76.6507, 31.43273],
        [76.65093, 31.43282],
        [76.65122, 31.43299],
        [76.65145, 31.43308],
        [76.65161, 31.43307],
        [76.65185, 31.43301],
        [76.65228, 31.433],
        [76.65251, 31.43303],
        [76.65268, 31.4331],
        [76.65284, 31.43318],
        [76.65299, 31.43328],
        [76.65313, 31.43346],
        [76.65315, 31.43364],
        [76.65313, 31.4338],
        [76.65304, 31.43393],
        [76.65295, 31.43409],
        [76.65294, 31.43418],
        [76.65296, 31.43426],
        [76.65307, 31.43444],
        [76.65321, 31.43455],
        [76.65341, 31.43467],
        [76.65358, 31.43479],
        [76.65367, 31.4349],
        [76.65368, 31.43497],
        [76.65362, 31.43502],
        [76.65346, 31.43507],
        [76.65317, 31.43512],
        [76.65305, 31.43516],
        [76.65299, 31.43527],
        [76.65299, 31.43552],
        [76.65304, 31.43565],
        [76.65311, 31.43594],
        [76.65316, 31.43614],
        [76.65302, 31.43667],
        [76.65298, 31.43691],
        [76.65303, 31.43708],
        [76.65316, 31.43723],
        [76.6537, 31.43747],
        [76.65425, 31.43771],
        [76.65431, 31.43773],
        [76.65452, 31.43774],
        [76.65497, 31.4379],
        [76.65529, 31.43799],
        [76.65566, 31.43792],
        [76.65593, 31.43771],
        [76.65609, 31.43735],
        [76.65609, 31.43708],
        [76.65601, 31.43664],
        [76.65603, 31.43635],
        [76.65605, 31.4358],
        [76.65614, 31.43531],
        [76.65633, 31.43508],
        [76.65661, 31.4349],
        [76.65688, 31.4348],
        [76.65724, 31.43473],
        [76.65742, 31.43459],
        [76.65756, 31.43436],
        [76.65768, 31.43404],
        [76.65789, 31.4338],
        [76.65805, 31.43371],
        [76.65816, 31.43371],
        [76.65849, 31.43391],
        [76.65876, 31.43409],
        [76.65901, 31.43377],
        [76.65934, 31.43359],
        [76.65957, 31.43352],
        [76.6598, 31.43351],
        [76.66016, 31.43356],
        [76.66033, 31.43349],
        [76.66058, 31.43339],
        [76.6605, 31.43316],
        [76.66047, 31.43304],
        [76.66041, 31.43259],
        [76.66041, 31.43218],
        [76.66045, 31.43182],
        [76.66049, 31.43147],
        [76.66066, 31.43118],
        [76.66135, 31.43157],
        [76.66142, 31.43169],
        [76.66148, 31.43196],
        [76.66164, 31.43228],
        [76.66185, 31.43249],
        [76.66215, 31.43269],
        [76.663, 31.43309],
        [76.6636, 31.43317],
        [76.66413, 31.43313],
        [76.6644, 31.43309],
        [76.66479, 31.4332],
        [76.66522, 31.43314],
        [76.6654, 31.43314],
        [76.66592, 31.43316],
        [76.66629, 31.43324],
        [76.66654, 31.43334],
        [76.66685, 31.43344],
        [76.66715, 31.43354],
        [76.66715, 31.43377],
        [76.6669, 31.43444],
        [76.6669, 31.43505],
        [76.667, 31.43529],
        [76.66739, 31.43547],
        [76.66793, 31.4357],
        [76.66918, 31.43661],
        [76.66977, 31.43715],
        [76.67012, 31.43732],
        [76.67035, 31.4371],
        [76.67063, 31.43652],
        [76.67092, 31.43571],
        [76.671, 31.43534],
        [76.67103, 31.43494],
        [76.67121, 31.43458],
        [76.67154, 31.43384],
        [76.67173, 31.43342],
        [76.67211, 31.43309],
        [76.67239, 31.43279],
        [76.67255, 31.43242],
        [76.67264, 31.43211],
        [76.67281, 31.43168],
        [76.67306, 31.43131],
        [76.67328, 31.43094],
        [76.67348, 31.43048],
        [76.67375, 31.43011],
        [76.67404, 31.42979],
        [76.67444, 31.4297],
        [76.67489, 31.42964],
        [76.67553, 31.42955],
        [76.67579, 31.42947],
        [76.67623, 31.4293],
        [76.67682, 31.42906],
        [76.67716, 31.42885],
        [76.67757, 31.42854],
        [76.67795, 31.42822],
        [76.67827, 31.42784],
        [76.6786, 31.42739],
        [76.67886, 31.42693],
        [76.67899, 31.42653],
        [76.67902, 31.42634],
        [76.67899, 31.42601],
        [76.6789, 31.42576],
        [76.67869, 31.4255],
        [76.67824, 31.42525],
        [76.67785, 31.42507],
        [76.67748, 31.42484],
        [76.67703, 31.42454],
        [76.67654, 31.42428],
        [76.67591, 31.42368],
        [76.67522, 31.423],
        [76.67482, 31.42242],
        [76.67459, 31.42206],
        [76.67452, 31.42189],
        [76.67455, 31.42158],
        [76.67465, 31.42129],
        [76.6748, 31.42091],
        [76.67496, 31.42058],
        [76.67511, 31.42004],
        [76.67539, 31.4198],
        [76.67562, 31.41945],
        [76.67595, 31.41939],
        [76.67638, 31.41939],
        [76.6768, 31.41944],
        [76.67831, 31.41962],
        [76.6789, 31.41968],
        [76.67942, 31.41964],
        [76.67989, 31.41946],
        [76.68025, 31.4193],
        [76.68079, 31.41907],
        [76.68121, 31.41897],
        [76.68153, 31.41866],
        [76.68186, 31.41835],
        [76.68222, 31.41804],
        [76.6826, 31.41782],
        [76.68327, 31.41749],
        [76.68376, 31.41716],
        [76.68432, 31.41681],
        [76.68499, 31.41667],
        [76.68542, 31.41672],
        [76.68586, 31.41676],
        [76.68647, 31.41685],
        [76.68761, 31.41727],
        [76.68821, 31.41738],
        [76.68923, 31.41767],
        [76.68974, 31.41785],
        [76.69022, 31.41788],
        [76.69047, 31.41786],
        [76.69061, 31.41783],
        [76.69112, 31.41729],
        [76.6913, 31.41707],
        [76.69174, 31.41671],
        [76.69211, 31.41648],
        [76.69221, 31.41628],
        [76.69208, 31.41584],
        [76.69125, 31.41554],
        [76.69076, 31.4154],
        [76.69019, 31.41535],
        [76.68972, 31.41529],
        [76.68923, 31.41526],
        [76.68868, 31.41524],
        [76.68807, 31.41527],
        [76.68709, 31.41528],
        [76.68644, 31.4152],
        [76.68612, 31.41511],
        [76.68588, 31.41498],
        [76.68569, 31.41466],
        [76.68562, 31.41431],
        [76.68573, 31.41391],
        [76.68595, 31.41362],
        [76.68637, 31.41302],
        [76.68709, 31.41207],
        [76.68754, 31.41157],
        [76.68807, 31.41102],
        [76.68843, 31.41021],
        [76.68857, 31.41021],
        [76.68889, 31.41022],
        [76.68907, 31.41021],
        [76.68939, 31.41019],
        [76.68956, 31.41012],
        [76.6897, 31.41],
        [76.68983, 31.40981],
        [76.69016, 31.40931],
        [76.69041, 31.40901],
        [76.69069, 31.40879],
        [76.69101, 31.40863],
        [76.69153, 31.40845],
        [76.69175, 31.40835],
        [76.69203, 31.40819],
        [76.69233, 31.40792],
        [76.69267, 31.40769],
        [76.69314, 31.40738],
        [76.69355, 31.40719],
        [76.69387, 31.4071],
        [76.69426, 31.40706],
        [76.69458, 31.40697],
        [76.69472, 31.40684],
        [76.69489, 31.40664],
        [76.69504, 31.40637],
        [76.69519, 31.40615],
        [76.69539, 31.40597],
        [76.69557, 31.40587],
        [76.69577, 31.40577],
        [76.69606, 31.40561],
        [76.69687, 31.40513],
        [76.69721, 31.40494],
        [76.69767, 31.40472],
        [76.69803, 31.40454],
        [76.69834, 31.40451],
        [76.69852, 31.40451],
        [76.69868, 31.40456],
        [76.69901, 31.40461],
        [76.69945, 31.40475],
        [76.69983, 31.40476],
        [76.70006, 31.40471],
        [76.7003, 31.40461],
        [76.70058, 31.40441],
        [76.70117, 31.40395],
        [76.7016, 31.4036],
        [76.70182, 31.40335],
        [76.70195, 31.40316],
        [76.70204, 31.40299],
        [76.70228, 31.40263],
        [76.7026, 31.40217],
        [76.70278, 31.40192],
        [76.703, 31.40169],
        [76.70318, 31.4015],
        [76.70349, 31.4012],
        [76.70362, 31.40106],
        [76.70389, 31.40094],
        [76.70441, 31.40072],
        [76.70473, 31.40052],
        [76.70507, 31.40023],
        [76.70533, 31.40002],
        [76.70556, 31.3999],
        [76.70514, 31.39943],
        [76.70505, 31.39929],
        [76.70482, 31.39889],
        [76.70473, 31.39854],
        [76.70479, 31.39811],
        [76.70481, 31.39783],
        [76.70492, 31.39739],
        [76.70496, 31.39693],
        [76.70475, 31.39652],
        [76.70449, 31.39629],
        [76.70424, 31.39588],
        [76.70408, 31.39549],
        [76.70407, 31.39532],
        [76.70424, 31.39509],
        [76.70455, 31.39493],
        [76.70501, 31.39476],
        [76.70533, 31.39456],
        [76.70566, 31.39444],
        [76.70589, 31.39436],
        [76.70598, 31.39438],
        [76.70612, 31.39503],
        [76.70624, 31.39545],
        [76.70635, 31.39576],
        [76.70658, 31.39596],
        [76.70675, 31.39595],
        [76.70708, 31.39587],
        [76.70745, 31.39587],
        [76.7077, 31.39579],
        [76.708, 31.39566],
        [76.70834, 31.3955],
        [76.70883, 31.39515],
        [76.70908, 31.39497],
        [76.70919, 31.39493],
        [76.70934, 31.39462],
        [76.70946, 31.39439],
        [76.70971, 31.3941],
        [76.70997, 31.39385],
        [76.71024, 31.39352],
        [76.71048, 31.39325],
        [76.71064, 31.39312],
        [76.7109, 31.39294],
        [76.71121, 31.39276],
        [76.71146, 31.3926],
        [76.71182, 31.39227],
        [76.71214, 31.39198],
        [76.71237, 31.39176],
        [76.71258, 31.3915],
        [76.7128, 31.39129],
        [76.71306, 31.39105],
        [76.71322, 31.39092],
        [76.71348, 31.39062],
        [76.71372, 31.39038],
        [76.71408, 31.39007],
        [76.7146, 31.38973],
        [76.71504, 31.38935],
        [76.71556, 31.38901],
        [76.71616, 31.38861],
        [76.7167, 31.38819],
        [76.71703, 31.38797],
        [76.71746, 31.3876],
        [76.71783, 31.38716],
        [76.71807, 31.38683],
        [76.7182, 31.38642],
        [76.71835, 31.38594],
        [76.71842, 31.38559],
        [76.71852, 31.38533],
        [76.71867, 31.38498],
        [76.71882, 31.38467],
        [76.71892, 31.38433],
        [76.71895, 31.38408],
        [76.71894, 31.38383],
        [76.71897, 31.38372],
        [76.71896, 31.38355],
        [76.719, 31.38348],
        [76.71859, 31.38327],
        [76.71826, 31.38317],
        [76.71768, 31.38285],
        [76.71719, 31.38267],
        [76.71669, 31.38236],
        [76.71616, 31.38216],
        [76.71614, 31.38203],
        [76.71612, 31.38172],
        [76.71591, 31.381],
        [76.71594, 31.38039],
        [76.71578, 31.37969],
        [76.7156, 31.3791],
        [76.71552, 31.37864],
        [76.71552, 31.37839],
        [76.71555, 31.37816],
        [76.71534, 31.37813],
        [76.715, 31.37806],
        [76.71468, 31.37794],
        [76.7144, 31.37788],
        [76.71429, 31.37788],
        [76.71409, 31.37797],
        [76.71382, 31.37814],
        [76.71346, 31.3784],
        [76.7132, 31.37863],
        [76.71291, 31.37893],
        [76.71263, 31.37911],
        [76.71242, 31.37927],
        [76.71218, 31.37935],
        [76.71197, 31.37944],
        [76.71186, 31.37948],
        [76.71157, 31.37966],
        [76.71136, 31.37976],
        [76.71126, 31.37989],
        [76.7111, 31.37969],
        [76.71102, 31.37961],
        [76.71101, 31.3795],
        [76.7111, 31.37916],
        [76.71135, 31.37868],
        [76.71172, 31.37819],
        [76.71181, 31.37802],
        [76.71184, 31.37788],
        [76.71184, 31.37776],
        [76.71178, 31.37772],
        [76.71165, 31.37772],
        [76.71151, 31.37772],
        [76.71132, 31.37775],
        [76.71119, 31.37776],
        [76.71105, 31.37779],
        [76.71084, 31.3778],
        [76.71059, 31.3778],
        [76.71038, 31.37779],
        [76.71023, 31.37775],
        [76.71011, 31.37769],
        [76.71049, 31.37746],
        [76.71099, 31.37695],
        [76.71137, 31.37673],
        [76.71164, 31.37641],
        [76.71176, 31.37616],
        [76.71203, 31.37573],
        [76.71219, 31.37548],
        [76.71274, 31.37492],
        [76.71308, 31.37466],
        [76.71341, 31.37447],
        [76.7137, 31.37421],
        [76.71404, 31.37391],
        [76.71436, 31.37367],
        [76.71466, 31.37329],
        [76.71505, 31.37262],
        [76.71507, 31.37224],
        [76.71494, 31.37178],
        [76.71482, 31.37143],
        [76.71484, 31.37095],
        [76.71459, 31.37067],
        [76.71434, 31.37021],
        [76.71422, 31.3696],
        [76.71378, 31.36916],
        [76.71348, 31.36895],
        [76.7133, 31.36885],
        [76.71303, 31.36873],
        [76.71332, 31.36848],
        [76.71352, 31.36801],
        [76.71359, 31.36765],
        [76.71359, 31.36757],
        [76.71363, 31.3671],
        [76.71345, 31.36665],
        [76.71327, 31.36631],
        [76.71306, 31.36581],
        [76.71281, 31.36528],
        [76.71256, 31.36485],
        [76.71227, 31.36451],
        [76.71206, 31.36434],
        [76.71168, 31.36417],
        [76.71131, 31.36386],
        [76.71113, 31.36367],
        [76.71099, 31.36354],
        [76.71124, 31.36352],
        [76.71134, 31.36354],
        [76.71164, 31.36366],
        [76.71185, 31.36379],
        [76.71208, 31.36381],
        [76.71223, 31.36377],
        [76.71254, 31.36361],
        [76.71287, 31.36338],
        [76.71303, 31.36315],
        [76.71309, 31.36296],
        [76.7131, 31.36278],
        [76.71316, 31.36261],
        [76.71352, 31.36259],
        [76.71413, 31.36257],
        [76.71447, 31.36257],
        [76.71461, 31.36261],
        [76.71477, 31.36268],
        [76.71496, 31.3628],
        [76.71521, 31.36292],
        [76.71549, 31.363],
        [76.71579, 31.36307],
        [76.71614, 31.36319],
        [76.71632, 31.36332],
        [76.71652, 31.36351],
        [76.71675, 31.36375],
        [76.71689, 31.36406],
        [76.717, 31.36438],
        [76.71717, 31.36454],
        [76.71747, 31.3648],
        [76.71766, 31.36498],
        [76.71787, 31.36517],
        [76.71817, 31.36518],
        [76.71831, 31.36519],
        [76.7185, 31.36519],
        [76.71887, 31.36508],
        [76.71896, 31.36485],
        [76.71904, 31.36479],
        [76.71924, 31.36462],
        [76.71945, 31.36454],
        [76.71992, 31.36448],
        [76.72022, 31.36469],
        [76.72043, 31.36485],
        [76.72076, 31.36484],
        [76.72122, 31.3646],
        [76.72136, 31.36456],
        [76.72144, 31.36451],
        [76.7215, 31.36434],
        [76.72161, 31.36433],
        [76.72168, 31.36433],
        [76.72191, 31.36455],
        [76.72217, 31.3648],
        [76.72225, 31.36482],
        [76.7223, 31.36476],
        [76.72238, 31.36457],
        [76.72234, 31.36437],
        [76.72234, 31.36425],
        [76.72242, 31.36408],
        [76.72259, 31.36398],
        [76.72284, 31.36392],
        [76.72305, 31.36382],
        [76.72345, 31.3638],
        [76.7239, 31.36373],
        [76.72382, 31.36327],
        [76.72405, 31.36171],
        [76.72415, 31.36153],
        [76.72427, 31.36126],
        [76.72435, 31.36094],
        [76.72451, 31.36067],
        [76.72484, 31.36026],
        [76.7257, 31.35927],
        [76.7264, 31.35858],
        [76.72717, 31.35807],
        [76.72859, 31.35719],
        [76.72955, 31.35657],
        [76.72992, 31.35626],
        [76.73009, 31.35604],
        [76.73048, 31.3558],
        [76.73074, 31.35556],
        [76.73098, 31.35535],
        [76.73125, 31.35514],
        [76.73166, 31.35499],
        [76.73203, 31.35481],
        [76.7323, 31.35477],
        [76.73282, 31.35477],
        [76.73303, 31.35473],
        [76.73349, 31.35479],
        [76.73455, 31.35494],
        [76.73498, 31.35495],
        [76.73568, 31.35501],
        [76.73626, 31.35498],
        [76.73687, 31.35487],
        [76.73764, 31.35465],
        [76.73851, 31.35438],
        [76.73912, 31.35412],
        [76.73946, 31.35385],
        [76.73994, 31.35349],
        [76.74039, 31.35315],
        [76.74088, 31.35269],
        [76.74123, 31.35239],
        [76.74174, 31.35196],
        [76.74229, 31.35152],
        [76.74259, 31.35136],
        [76.74287, 31.35128],
        [76.74319, 31.35121],
        [76.74356, 31.35102],
        [76.74393, 31.35082],
        [76.74455, 31.35028],
        [76.74547, 31.3497],
        [76.74673, 31.34883],
        [76.74701, 31.3486],
        [76.74747, 31.34828],
        [76.75095, 31.34451],
        [76.75255, 31.34213],
        [76.7531, 31.34017],
        [76.75328, 31.33926],
        [76.75327, 31.33855],
        [76.75328, 31.33809],
        [76.75327, 31.33733],
        [76.75325, 31.33564],
        [76.75321, 31.33546],
        [76.7532, 31.33534],
        [76.75305, 31.33427],
        [76.75296, 31.33369],
        [76.75294, 31.33345],
        [76.75285, 31.33303],
        [76.75283, 31.33297],
        [76.75199, 31.33135],
        [76.75187, 31.33133],
        [76.75062, 31.33126],
        [76.7504, 31.33125],
        [76.74976, 31.33143],
        [76.74858, 31.33179],
        [76.74835, 31.33185],
        [76.7479, 31.332],
        [76.74731, 31.33239],
        [76.7467, 31.33283],
        [76.74618, 31.33298],
        [76.7459, 31.33299],
        [76.74574, 31.33295],
        [76.74553, 31.33286],
        [76.74537, 31.33268],
        [76.74442, 31.33163],
        [76.74475, 31.33044],
        [76.74499, 31.32979],
        [76.74531, 31.3289],
        [76.74539, 31.32864],
        [76.74548, 31.32839],
        [76.74619, 31.32637],
        [76.74632, 31.32597],
        [76.74662, 31.32514],
        [76.74676, 31.32472],
        [76.74748, 31.32263],
        [76.74763, 31.32218],
        [76.74778, 31.32173],
        [76.74795, 31.32127],
        [76.74814, 31.32071],
        [76.74826, 31.32035],
        [76.74841, 31.31999],
        [76.74849, 31.31939],
        [76.74849, 31.31879],
        [76.74852, 31.3181],
        [76.74913, 31.31776],
        [76.74966, 31.31743],
        [76.75035, 31.31725],
        [76.75067, 31.31711],
        [76.75102, 31.31695],
        [76.75138, 31.31649],
        [76.75185, 31.31526],
        [76.75183, 31.31475],
        [76.7518, 31.31425],
        [76.75178, 31.3139],
        [76.75135, 31.31289],
        [76.75115, 31.3127],
        [76.7503, 31.31168],
        [76.74987, 31.31131],
        [76.74942, 31.31086],
        [76.74884, 31.31001],
        [76.74861, 31.30993],
        [76.74782, 31.30959],
        [76.74723, 31.30917],
        [76.74659, 31.30862],
        [76.74597, 31.30796],
        [76.74568, 31.3076],
        [76.7455, 31.30722],
        [76.74529, 31.30676],
        [76.74509, 31.3063],
        [76.74494, 31.30583],
        [76.74479, 31.30538],
        [76.74464, 31.30487],
        [76.74438, 31.30389],
        [76.74397, 31.30297],
        [76.74382, 31.30259],
        [76.74361, 31.30202],
        [76.7434, 31.3016],
        [76.74285, 31.30071],
        [76.74224, 31.29965],
        [76.74164, 31.29872],
        [76.74107, 31.29807],
        [76.74066, 31.29757],
        [76.73978, 31.29668],
        [76.73784, 31.29494],
        [76.73618, 31.29372],
        [76.73477, 31.29267],
        [76.73305, 31.29128],
        [76.73241, 31.2905],
        [76.73144, 31.28956],
        [76.73123, 31.28919],
        [76.73073, 31.28887],
        [76.72987, 31.28804],
        [76.72903, 31.28751],
        [76.72875, 31.28726],
        [76.72848, 31.28724],
        [76.72771, 31.28697],
        [76.72712, 31.28689],
        [76.72651, 31.28685],
        [76.72594, 31.28685],
        [76.7254, 31.28706],
        [76.72501, 31.28716],
        [76.72457, 31.28758],
        [76.72421, 31.28781],
        [76.72357, 31.28843],
        [76.72231, 31.28997],
        [76.72023, 31.29365],
        [76.71929, 31.29514],
        [76.71834, 31.29662],
        [76.71786, 31.29726],
        [76.71734, 31.29799],
        [76.71675, 31.29855],
        [76.71634, 31.29882],
        [76.71594, 31.29909],
        [76.71474, 31.29978],
        [76.71348, 31.30032],
        [76.71298, 31.30046],
        [76.71233, 31.30059],
        [76.71181, 31.30081],
        [76.71126, 31.30091],
        [76.7108, 31.30108],
        [76.71033, 31.30119],
        [76.70891, 31.30153],
        [76.70677, 31.30179],
        [76.70615, 31.3019],
        [76.70512, 31.30209],
        [76.7047, 31.30214],
        [76.70365, 31.30225],
        [76.70229, 31.30213],
        [76.70028, 31.30195],
        [76.6993, 31.30185],
        [76.69874, 31.3017],
        [76.6983, 31.30158],
        [76.6978, 31.30151],
        [76.69726, 31.30133],
        [76.69615, 31.30102],
        [76.69469, 31.3004],
        [76.69372, 31.3],
        [76.69229, 31.29918],
        [76.69107, 31.29823],
        [76.69063, 31.29779],
        [76.69008, 31.29663],
        [76.68989, 31.29594],
        [76.68984, 31.29526],
        [76.68983, 31.29471],
        [76.69, 31.29393],
        [76.69028, 31.29282],
        [76.69029, 31.29225],
        [76.69039, 31.29166],
        [76.69101, 31.2906],
        [76.69143, 31.28981],
        [76.69276, 31.28805],
        [76.69312, 31.28768],
        [76.69336, 31.28733],
        [76.69424, 31.28632],
        [76.69465, 31.28603],
        [76.69626, 31.28402],
        [76.69792, 31.28123],
        [76.69817, 31.28078],
        [76.69823, 31.28045],
        [76.69813, 31.27995],
        [76.69801, 31.27972],
        [76.69765, 31.27925],
        [76.69726, 31.27892],
        [76.69609, 31.27798],
        [76.69489, 31.27706],
        [76.69442, 31.27659],
        [76.69421, 31.27629],
        [76.69402, 31.27593],
        [76.69375, 31.27528],
        [76.6934, 31.27336],
        [76.69335, 31.27111],
        [76.6934, 31.27071],
        [76.69341, 31.27038],
        [76.69335, 31.26897],
        [76.69181, 31.26732],
        [76.6911, 31.26648],
        [76.69069, 31.26605],
        [76.68904, 31.26423],
        [76.6887, 31.26375],
        [76.6883, 31.26353],
        [76.68784, 31.26306],
        [76.68686, 31.262],
        [76.68632, 31.26138],
        [76.686, 31.26098],
        [76.68592, 31.26066],
        [76.68585, 31.26032],
        [76.68571, 31.25967],
        [76.68557, 31.2592],
        [76.68527, 31.25885],
        [76.68494, 31.25865],
        [76.68427, 31.2582],
        [76.684, 31.25784],
        [76.6829, 31.25709],
        [76.68172, 31.25612],
        [76.68097, 31.25558],
        [76.68059, 31.25532],
        [76.68018, 31.25517],
        [76.67932, 31.25487],
        [76.67882, 31.25477],
        [76.67827, 31.25459],
        [76.67696, 31.2543],
        [76.67643, 31.2541],
        [76.67591, 31.25402],
        [76.6754, 31.25385],
        [76.67489, 31.25364],
        [76.67424, 31.25344],
        [76.67375, 31.25333],
        [76.67324, 31.25337],
        [76.67254, 31.25331],
        [76.67203, 31.25336],
        [76.67143, 31.25334],
        [76.67099, 31.25335],
        [76.67049, 31.25327],
        [76.66994, 31.25324],
        [76.66942, 31.25314],
        [76.66894, 31.25309],
        [76.66839, 31.2529],
        [76.66735, 31.25274],
        [76.6657, 31.25255],
        [76.66506, 31.25234],
        [76.66468, 31.2523],
        [76.66381, 31.25213],
        [76.66324, 31.25197],
        [76.66231, 31.25194],
        [76.6618, 31.25183],
        [76.66134, 31.25174],
        [76.66076, 31.25176],
        [76.66015, 31.25182],
        [76.65965, 31.25185],
        [76.65906, 31.25193],
        [76.65843, 31.25194],
        [76.65785, 31.25201],
        [76.65614, 31.25212],
        [76.65397, 31.25251],
        [76.6534, 31.2526],
        [76.65286, 31.25271],
        [76.65231, 31.25283],
        [76.65177, 31.25308],
        [76.65061, 31.25349],
        [76.65017, 31.2537],
        [76.6496, 31.25401],
        [76.64919, 31.25433],
        [76.6481, 31.25475],
        [76.64724, 31.25555],
        [76.64615, 31.25679],
        [76.64499, 31.25836],
        [76.64429, 31.25922],
        [76.64386, 31.25958],
        [76.64239, 31.26098],
        [76.64196, 31.26135],
        [76.64191, 31.26151],
        [76.64161, 31.26166],
        [76.64088, 31.2622],
        [76.64022, 31.26255],
        [76.63974, 31.26268],
        [76.6391, 31.26292],
        [76.63857, 31.26304],
        [76.63773, 31.2633],
        [76.63706, 31.26339],
        [76.63664, 31.26349],
        [76.63605, 31.26364],
        [76.63559, 31.26385],
        [76.63508, 31.26403],
        [76.63467, 31.26417],
        [76.63432, 31.26438],
        [76.63392, 31.26465],
        [76.63368, 31.26494],
        [76.63329, 31.26532],
        [76.63281, 31.26572],
        [76.6323, 31.26632],
        [76.63207, 31.26668],
        [76.63138, 31.2677],
        [76.63113, 31.26805],
        [76.63081, 31.26828],
        [76.63042, 31.2684],
        [76.62996, 31.26848],
        [76.62954, 31.26851],
        [76.62908, 31.26852],
        [76.62864, 31.2684],
        [76.62815, 31.26828],
        [76.62723, 31.26802],
        [76.6264, 31.26759],
        [76.62563, 31.26709],
        [76.62511, 31.2666],
        [76.62485, 31.26637],
        [76.6234, 31.26564],
        [76.62247, 31.26516],
        [76.62134, 31.2647],
        [76.62047, 31.26442],
        [76.6199, 31.26434],
        [76.61903, 31.26443],
        [76.61829, 31.26505],
        [76.61749, 31.26577],
        [76.61737, 31.26593],
        [76.61714, 31.26619],
        [76.61667, 31.26672],
        [76.61596, 31.2678],
        [76.61527, 31.26861],
        [76.61487, 31.26916],
        [76.61433, 31.27015],
        [76.61376, 31.2714],
        [76.61359, 31.27212],
        [76.61331, 31.2728],
        [76.61326, 31.27355],
        [76.61292, 31.27508],
        [76.61284, 31.27639],
        [76.613, 31.27791],
        [76.61293, 31.27912],
        [76.61305, 31.2799],
        [76.61325, 31.28096],
        [76.6135, 31.28196],
        [76.61378, 31.28245],
        [76.61402, 31.28289],
        [76.61439, 31.28316],
        [76.61493, 31.28374],
        [76.61549, 31.28425],
        [76.61577, 31.28473],
        [76.61621, 31.28525],
        [76.61662, 31.28568],
        [76.61717, 31.28657],
        [76.61736, 31.28664],
        [76.61752, 31.2869],
        [76.61769, 31.28745],
        [76.61764, 31.28764],
        [76.61744, 31.28792],
        [76.61706, 31.28857],
        [76.6165, 31.28917],
        [76.61559, 31.28986],
        [76.61387, 31.29066],
        [76.61265, 31.29109],
        [76.61193, 31.29124],
        [76.61085, 31.29119],
        [76.61005, 31.29126],
        [76.60739, 31.29053],
        [76.60619, 31.2901],
        [76.60447, 31.2897],
        [76.60324, 31.28935],
        [76.60127, 31.28881],
        [76.60015, 31.28849],
        [76.59877, 31.28814],
        [76.59777, 31.28799],
        [76.59682, 31.28802],
        [76.59585, 31.28815],
        [76.59546, 31.28852],
        [76.59512, 31.28879],
        [76.59477, 31.28942],
        [76.59451, 31.28991],
        [76.59389, 31.29087],
        [76.59359, 31.29159],
        [76.59343, 31.29215],
        [76.59319, 31.2928],
        [76.59304, 31.29346],
        [76.59302, 31.29378],
        [76.59316, 31.29415],
        [76.59357, 31.29511],
        [76.59425, 31.29604],
        [76.59451, 31.29643],
        [76.59494, 31.2968],
        [76.59571, 31.29725],
        [76.59668, 31.29777],
        [76.59795, 31.2984],
        [76.59891, 31.29901],
        [76.59937, 31.29947],
        [76.59952, 31.29985],
        [76.59961, 31.30034],
        [76.59935, 31.30129],
        [76.59903, 31.30231],
        [76.59858, 31.30299],
        [76.59833, 31.30349],
        [76.59806, 31.30394],
        [76.59712, 31.3051],
        [76.59617, 31.30614],
        [76.59575, 31.30648],
        [76.59491, 31.3075],
        [76.59436, 31.30834],
        [76.59345, 31.31028],
        [76.59237, 31.3115],
        [76.59126, 31.31253],
        [76.59087, 31.31294],
        [76.59048, 31.31306],
        [76.58986, 31.31319],
        [76.5891, 31.31319],
        [76.58809, 31.31312],
        [76.58694, 31.31302],
        [76.58603, 31.31283],
        [76.58527, 31.31247],
        [76.58383, 31.31177],
        [76.5826, 31.31124],
        [76.58079, 31.31054],
        [76.57846, 31.30981],
        [76.57797, 31.30964],
        [76.57755, 31.30959],
        [76.57717, 31.30965],
        [76.57669, 31.30987],
        [76.57611, 31.31024],
        [76.5757, 31.31081],
        [76.57543, 31.31144],
        [76.57497, 31.31208],
        [76.57459, 31.31264],
        [76.57434, 31.31301],
        [76.57422, 31.31362],
        [76.57341, 31.31753],
        [76.57297, 31.32024],
        [76.57268, 31.32182],
        [76.57263, 31.32272],
        [76.5726, 31.32353],
        [76.5725, 31.32461],
        [76.57239, 31.32527],
        [76.57205, 31.32619],
        [76.57152, 31.32782],
        [76.5709, 31.32939],
        [76.5704, 31.33034],
        [76.56952, 31.33136],
        [76.56873, 31.33213],
        [76.5678, 31.33277],
        [76.56725, 31.33309],
        [76.56707, 31.33318],
        [76.56684, 31.33343],
        [76.56663, 31.33381],
        [76.56638, 31.3341],
        [76.56609, 31.33426],
        [76.56555, 31.33474],
        [76.56453, 31.33539],
        [76.56398, 31.33575],
        [76.56343, 31.33622],
        [76.56296, 31.33675],
        [76.56266, 31.33729],
        [76.56248, 31.33784],
        [76.56203, 31.33858],
        [76.56144, 31.33941],
        [76.56093, 31.34029],
        [76.56054, 31.34114],
        [76.56047, 31.34157],
        [76.56039, 31.3421],
        [76.56037, 31.34276],
        [76.56028, 31.34376],
        [76.56028, 31.3443],
        [76.56008, 31.34476],
        [76.55963, 31.3456],
        [76.55941, 31.34634],
        [76.55896, 31.34727],
        [76.55878, 31.34799],
        [76.55853, 31.34839],
        [76.55814, 31.34884],
        [76.55766, 31.34904],
        [76.55648, 31.34921],
        [76.55538, 31.34928],
        [76.55431, 31.34934],
        [76.55281, 31.34917],
        [76.55141, 31.34918],
        [76.54975, 31.34942],
        [76.54898, 31.34958],
        [76.54835, 31.34995],
        [76.54763, 31.3503],
        [76.54662, 31.35108],
        [76.54543, 31.35204],
        [76.544, 31.35303],
        [76.54335, 31.35352],
        [76.54233, 31.35436],
        [76.54174, 31.35494],
        [76.54101, 31.35611],
        [76.54027, 31.35743],
        [76.53982, 31.3582],
        [76.53957, 31.3592],
        [76.53939, 31.35953],
        [76.53939, 31.36019],
        [76.53926, 31.36147],
        [76.53935, 31.36174],
        [76.53937, 31.36201],
        [76.53935, 31.36249],
        [76.53922, 31.36307],
        [76.53908, 31.36315],
        [76.53882, 31.36347],
        [76.53842, 31.36421],
        [76.53812, 31.36475],
        [76.53769, 31.36532],
        [76.53725, 31.36567],
        [76.53681, 31.36584],
        [76.53574, 31.3657],
        [76.53458, 31.36553],
        [76.53315, 31.36521],
        [76.53197, 31.36496],
        [76.53119, 31.36493],
        [76.53042, 31.36508],
        [76.52979, 31.36533],
        [76.52952, 31.36557],
        [76.52909, 31.36611],
        [76.52897, 31.3668],
        [76.52884, 31.36767],
        [76.52886, 31.36832],
        [76.52865, 31.36888],
        [76.52825, 31.37069],
        [76.52821, 31.37085],
        [76.52819, 31.37093],
        [76.52814, 31.37104],
        [76.52807, 31.3713],
        [76.52799, 31.37168],
        [76.52793, 31.37195],
        [76.52761, 31.37227],
        [76.52699, 31.37272],
        [76.52655, 31.37294],
        [76.52629, 31.37314],
        [76.52514, 31.37429],
        [76.52469, 31.37469],
        [76.52381, 31.37506],
        [76.5231, 31.37555],
        [76.52253, 31.3757],
        [76.52169, 31.37582],
        [76.52089, 31.37575],
        [76.52031, 31.37576],
        [76.51981, 31.37583],
        [76.51932, 31.37611],
        [76.51882, 31.37645],
        [76.51828, 31.37708],
        [76.51784, 31.37767],
        [76.51739, 31.37857],
        [76.5171, 31.37887],
        [76.51662, 31.37921],
        [76.51616, 31.3797],
        [76.51588, 31.38009],
        [76.51513, 31.38076],
        [76.51321, 31.38304],
        [76.51238, 31.38393],
        [76.51176, 31.3849],
        [76.5111, 31.38558],
        [76.5104, 31.38645],
        [76.50971, 31.38744],
        [76.50921, 31.38783],
        [76.50822, 31.38832],
        [76.50647, 31.38905],
        [76.50451, 31.39009],
        [76.50322, 31.39112],
        [76.50172, 31.39221],
        [76.49988, 31.39357],
        [76.49933, 31.39397],
        [76.49908, 31.39403],
        [76.49518, 31.40052],
        [76.49493, 31.40096],
        [76.49474, 31.40134],
        [76.49319, 31.40306],
        [76.49175, 31.4045],
        [76.49149, 31.40496],
        [76.49086, 31.40608],
        [76.491, 31.40707],
        [76.49103, 31.40786],
        [76.49028, 31.40817],
        [76.48979, 31.4082],
        [76.48899, 31.40766],
        [76.48771, 31.40718],
        [76.48662, 31.40721],
        [76.48567, 31.4075],
        [76.48479, 31.40786],
        [76.48461, 31.40817],
        [76.4838, 31.40955],
        [76.48275, 31.41042],
        [76.48084, 31.41065],
        [76.47884, 31.41116],
        [76.47723, 31.41249],
        [76.47578, 31.41376],
        [76.47414, 31.41562],
        [76.47391, 31.41683],
        [76.47378, 31.41776],
        [76.47348, 31.41851],
        [76.46932, 31.421],
        [76.46934, 31.42103],
        [76.46937, 31.42111],
        [76.46938, 31.42118],
        [76.46943, 31.42158],
        [76.46947, 31.42197],
        [76.46951, 31.42237],
        [76.46954, 31.42276],
        [76.46958, 31.42316],
        [76.46961, 31.42355],
        [76.46964, 31.42395],
        [76.46967, 31.42434],
        [76.4697, 31.42474],
        [76.46976, 31.42501],
        [76.46986, 31.42527],
        [76.46999, 31.42552],
        [76.47016, 31.42575],
        [76.47035, 31.42597],
        [76.47057, 31.42617],
        [76.47081, 31.42635],
        [76.47107, 31.42651],
        [76.47135, 31.42664],
        [76.47176, 31.42689],
        [76.47211, 31.4272],
        [76.47239, 31.42756],
        [76.47261, 31.42794],
        [76.47274, 31.42836],
        [76.47279, 31.42878],
        [76.47276, 31.42921],
        [76.47265, 31.42963],
        [76.47246, 31.43003],
        [76.47224, 31.43045],
        [76.47203, 31.43088],
        [76.47184, 31.43131],
        [76.47166, 31.43175],
        [76.47149, 31.43219],
        [76.47133, 31.43263],
        [76.47118, 31.43307],
        [76.47105, 31.43352],
        [76.47093, 31.43397],
        [76.47092, 31.43402],
        [76.4709, 31.43408],
        [76.47089, 31.43413],
        [76.47089, 31.43418],
        [76.47088, 31.43424],
        [76.47087, 31.43429],
        [76.47086, 31.43434],
        [76.47086, 31.4344],
        [76.47086, 31.43445],
        [76.47074, 31.43476],
        [76.47063, 31.43508],
        [76.47052, 31.4354],
        [76.47041, 31.43572],
        [76.4703, 31.43604],
        [76.47019, 31.43635],
        [76.47009, 31.43668],
        [76.46999, 31.437],
        [76.46989, 31.43731],
        [76.46979, 31.43746],
        [76.46971, 31.4376],
        [76.46964, 31.43776],
        [76.46959, 31.43792],
        [76.46956, 31.43808],
        [76.46954, 31.43824],
        [76.46954, 31.43841],
        [76.46956, 31.43857],
        [76.4696, 31.43873],
        [76.46972, 31.43895],
        [76.46987, 31.43916],
        [76.47005, 31.43936],
        [76.47024, 31.43954],
        [76.47045, 31.43971],
        [76.47068, 31.43985],
        [76.47092, 31.43998],
        [76.47118, 31.4401],
        [76.47144, 31.44018],
        [76.47177, 31.44031],
        [76.4721, 31.44043],
        [76.47243, 31.44054],
        [76.47277, 31.44063],
        [76.47311, 31.44072],
        [76.47346, 31.4408],
        [76.47381, 31.44086],
        [76.47416, 31.44092],
        [76.47451, 31.44096],
        [76.47486, 31.44103],
        [76.47521, 31.4411],
        [76.47555, 31.44118],
        [76.4759, 31.44126],
        [76.47624, 31.44134],
        [76.47659, 31.44143],
        [76.47693, 31.44152],
        [76.47727, 31.44161],
        [76.47761, 31.4417],
        [76.47769, 31.44169],
        [76.47777, 31.44169],
        [76.47784, 31.44169],
        [76.47792, 31.4417],
        [76.478, 31.4417],
        [76.47807, 31.44172],
        [76.47815, 31.44173],
        [76.47822, 31.44175],
        [76.47829, 31.44178],
        [76.47834, 31.44183],
        [76.47838, 31.4419],
        [76.47841, 31.44196],
        [76.47842, 31.44203],
        [76.47843, 31.4421],
        [76.47841, 31.44217],
        [76.47838, 31.44224],
        [76.47834, 31.4423],
        [76.47829, 31.44235],
        [76.47807, 31.44261],
        [76.47783, 31.44287],
        [76.47758, 31.44311],
        [76.47732, 31.44335],
        [76.47704, 31.44358],
        [76.47676, 31.4438],
        [76.47647, 31.44401],
        [76.47616, 31.44421],
        [76.47585, 31.4444],
        [76.47575, 31.44445],
        [76.47564, 31.44447],
        [76.47552, 31.44446],
        [76.47541, 31.44444],
        [76.47531, 31.44438],
        [76.47524, 31.44431],
        [76.47518, 31.44422],
        [76.47516, 31.44412],
        [76.47517, 31.44403],
        [76.47516, 31.44383],
        [76.47514, 31.44364],
        [76.47512, 31.44345],
        [76.47509, 31.44326],
        [76.47506, 31.44307],
        [76.47501, 31.44288],
        [76.47496, 31.44269],
        [76.47491, 31.4425],
        [76.47484, 31.44232],
        [76.47448, 31.44205],
        [76.47408, 31.44183],
        [76.47365, 31.44166],
        [76.4732, 31.44153],
        [76.47273, 31.44146],
        [76.47226, 31.44145],
        [76.47178, 31.44149],
        [76.47132, 31.44158],
        [76.46886, 31.44231],
        [76.46866, 31.4424],
        [76.46846, 31.4425],
        [76.46826, 31.4426],
        [76.46806, 31.44271],
        [76.46786, 31.44281],
        [76.46766, 31.44292],
        [76.46747, 31.44303],
        [76.46727, 31.44313],
        [76.46708, 31.44324],
        [76.46663, 31.44346],
        [76.46616, 31.44364],
        [76.46568, 31.4438],
        [76.46519, 31.44391],
        [76.46468, 31.444],
        [76.46417, 31.44405],
        [76.46366, 31.44406],
        [76.46315, 31.44404],
        [76.46264, 31.44398],
        [76.46246, 31.44396],
        [76.46228, 31.44398],
        [76.46211, 31.44404],
        [76.46197, 31.44413],
        [76.46186, 31.44425],
        [76.46179, 31.44439],
        [76.46177, 31.44454],
        [76.46179, 31.4447],
        [76.46186, 31.44484],
        [76.46185, 31.44494],
        [76.46184, 31.44504],
        [76.46182, 31.44514],
        [76.4618, 31.44524],
        [76.46178, 31.44533],
        [76.46175, 31.44543],
        [76.46172, 31.44553],
        [76.46168, 31.44562],
        [76.46164, 31.44572],
        [76.46163, 31.44584],
        [76.46163, 31.44597],
        [76.46164, 31.4461],
        [76.46166, 31.44622],
        [76.4617, 31.44634],
        [76.46175, 31.44646],
        [76.4618, 31.44658],
        [76.46187, 31.44669],
        [76.46195, 31.4468],
        [76.46213, 31.4469],
        [76.46232, 31.44698],
        [76.46253, 31.44704],
        [76.46275, 31.44706],
        [76.46296, 31.44706],
        [76.46318, 31.44704],
        [76.46339, 31.44698],
        [76.46358, 31.4469],
        [76.46376, 31.4468],
        [76.46466, 31.44625],
        [76.46472, 31.4462],
        [76.46478, 31.44616],
        [76.46486, 31.44614],
        [76.46493, 31.44613],
        [76.46501, 31.44614],
        [76.46508, 31.44617],
        [76.46514, 31.44621],
        [76.46519, 31.44626],
        [76.46522, 31.44632],
        [76.46529, 31.44668],
        [76.46534, 31.44704],
        [76.46538, 31.4474],
        [76.4654, 31.44775],
        [76.4654, 31.44811],
        [76.4654, 31.44847],
        [76.46537, 31.44883],
        [76.46534, 31.44919],
        [76.46528, 31.44955],
        [76.46536, 31.45036],
        [76.46539, 31.45056],
        [76.46546, 31.45074],
        [76.46556, 31.45091],
        [76.46568, 31.45108],
        [76.46583, 31.45122],
        [76.466, 31.45135],
        [76.46619, 31.45146],
        [76.4664, 31.45154],
        [76.46662, 31.4516],
        [76.4668, 31.45167],
        [76.46697, 31.45174],
        [76.46713, 31.45183],
        [76.46728, 31.45194],
        [76.46743, 31.45205],
        [76.46756, 31.45217],
        [76.46768, 31.4523],
        [76.46779, 31.45244],
        [76.46788, 31.45259],
        [76.46796, 31.45272],
        [76.46806, 31.45285],
        [76.46817, 31.45298],
        [76.4683, 31.45309],
        [76.46843, 31.4532],
        [76.46857, 31.45329],
        [76.46872, 31.45338],
        [76.46888, 31.45345],
        [76.46905, 31.45351],
        [76.46928, 31.45358],
        [76.46951, 31.45365],
        [76.46975, 31.45371],
        [76.46998, 31.45378],
        [76.47021, 31.45385],
        [76.47044, 31.45393],
        [76.47067, 31.454],
        [76.4709, 31.45407],
        [76.47112, 31.45415],
        [76.47123, 31.45428],
        [76.47132, 31.45441],
        [76.47139, 31.45456],
        [76.47144, 31.45471],
        [76.47146, 31.45487],
        [76.47147, 31.45503],
        [76.47145, 31.45518],
        [76.47141, 31.45534],
        [76.47134, 31.45549],
        [76.47118, 31.45581],
        [76.471, 31.45612],
        [76.47081, 31.45644],
        [76.4706, 31.45674],
        [76.47038, 31.45703],
        [76.47014, 31.45731],
        [76.46988, 31.45759],
        [76.46961, 31.45785],
        [76.46933, 31.45811],
        [76.46915, 31.45831],
        [76.46896, 31.45851],
        [76.46878, 31.4587],
        [76.46859, 31.4589],
        [76.46839, 31.45909],
        [76.46819, 31.45928],
        [76.46799, 31.45947],
        [76.46779, 31.45965],
        [76.46758, 31.45983],
        [76.46706, 31.46031],
        [76.46654, 31.46079],
        [76.46602, 31.46128],
        [76.46551, 31.46175],
        [76.46499, 31.46224],
        [76.46447, 31.46272],
        [76.46395, 31.4632],
        [76.46343, 31.46368],
        [76.46291, 31.46416],
        [76.46275, 31.46429],
        [76.46259, 31.46443],
        [76.46242, 31.46455],
        [76.46225, 31.46468],
        [76.46207, 31.4648],
        [76.46189, 31.46491],
        [76.46171, 31.46503],
        [76.46152, 31.46513],
        [76.46133, 31.46524],
        [76.46102, 31.46551],
        [76.46075, 31.46582],
        [76.46051, 31.46614],
        [76.46031, 31.46649],
        [76.46015, 31.46684],
        [76.46002, 31.46721],
        [76.45994, 31.46758],
        [76.4599, 31.46797],
        [76.4599, 31.46835],
        [76.45987, 31.46853],
        [76.45982, 31.46871],
        [76.45978, 31.46889],
        [76.45972, 31.46906],
        [76.45966, 31.46924],
        [76.4596, 31.46941],
        [76.45953, 31.46958],
        [76.45945, 31.46975],
        [76.45937, 31.46992],
        [76.45922, 31.47026],
        [76.45905, 31.47059],
        [76.45887, 31.47091],
        [76.45867, 31.47123],
        [76.45846, 31.47155],
        [76.45824, 31.47185],
        [76.458, 31.47215],
        [76.45775, 31.47244],
        [76.45749, 31.47273],
        [76.45721, 31.47304],
        [76.45693, 31.47336],
        [76.45666, 31.47369],
        [76.45638, 31.47401],
        [76.45611, 31.47433],
        [76.45584, 31.47466],
        [76.45557, 31.47498],
        [76.4553, 31.47531],
        [76.45504, 31.47564],
        [76.45492, 31.47581],
        [76.45479, 31.47598],
        [76.45465, 31.47615],
        [76.45451, 31.47632],
        [76.45436, 31.47648],
        [76.4542, 31.47663],
        [76.45404, 31.47678],
        [76.45387, 31.47693],
        [76.4537, 31.47707],
        [76.4532, 31.47748],
        [76.45273, 31.47792],
        [76.45229, 31.47837],
        [76.45187, 31.47885],
        [76.45148, 31.47934],
        [76.45112, 31.47984],
        [76.45079, 31.48036],
        [76.45049, 31.4809],
        [76.45022, 31.48144],
        [76.45019, 31.4815],
        [76.45015, 31.48156],
        [76.45011, 31.48162],
        [76.45006, 31.48168],
        [76.45001, 31.48172],
        [76.44995, 31.48177],
        [76.44989, 31.48182],
        [76.44983, 31.48185],
        [76.44976, 31.48189],
        [76.44973, 31.48194],
        [76.4497, 31.482],
        [76.44969, 31.48206],
        [76.44969, 31.48211],
        [76.4497, 31.48217],
        [76.44973, 31.48223],
        [76.44976, 31.48228],
        [76.4498, 31.48233],
        [76.44985, 31.48237],
        [76.45046, 31.48274],
        [76.45109, 31.48309],
        [76.45174, 31.48342],
        [76.4524, 31.48372],
        [76.45307, 31.48401],
        [76.45376, 31.48427],
        [76.45445, 31.48452],
        [76.45516, 31.48474],
        [76.45587, 31.48494],
        [76.45614, 31.485],
        [76.45642, 31.48506],
        [76.45669, 31.48511],
        [76.45697, 31.48516],
        [76.45724, 31.48519],
        [76.45752, 31.48521],
        [76.4578, 31.48523],
        [76.45809, 31.48523],
        [76.45837, 31.48523],
        [76.45857, 31.48527],
        [76.45877, 31.48531],
        [76.45897, 31.48535],
        [76.45918, 31.48539],
        [76.45938, 31.48544],
        [76.45958, 31.48549],
        [76.45978, 31.48553],
        [76.45998, 31.48558],
        [76.46018, 31.48564],
        [76.46032, 31.48569],
        [76.46048, 31.48573],
        [76.46064, 31.48574],
        [76.46079, 31.48573],
        [76.46095, 31.4857],
        [76.46109, 31.48564],
        [76.46123, 31.48557],
        [76.46134, 31.48548],
        [76.46144, 31.48537],
        [76.46199, 31.48485],
        [76.46254, 31.48433],
        [76.4631, 31.48382],
        [76.46368, 31.48331],
        [76.46426, 31.48282],
        [76.46486, 31.48233],
        [76.46546, 31.48186],
        [76.46607, 31.48139],
        [76.47055, 31.47742],
        [76.47079, 31.47724],
        [76.47104, 31.47705],
        [76.47129, 31.47687],
        [76.47154, 31.47669],
        [76.4718, 31.47651],
        [76.47205, 31.47633],
        [76.47231, 31.47616],
        [76.47257, 31.47599],
        [76.47284, 31.47582],
        [76.47301, 31.47573],
        [76.47317, 31.47563],
        [76.47333, 31.47552],
        [76.47348, 31.4754],
        [76.47363, 31.47528],
        [76.47376, 31.47515],
        [76.47389, 31.47502],
        [76.47401, 31.47488],
        [76.47412, 31.47473],
        [76.47432, 31.4745],
        [76.47453, 31.47428],
        [76.47474, 31.47407],
        [76.47497, 31.47386],
        [76.4752, 31.47366],
        [76.47544, 31.47347],
        [76.4757, 31.47328],
        [76.47596, 31.47311],
        [76.47623, 31.47294],
        [76.47641, 31.47285],
        [76.47658, 31.47274],
        [76.47674, 31.47263],
        [76.47689, 31.4725],
        [76.47703, 31.47236],
        [76.47715, 31.47221],
        [76.47726, 31.47206],
        [76.47736, 31.4719],
        [76.47744, 31.47173],
        [76.47754, 31.47161],
        [76.47765, 31.4715],
        [76.47777, 31.47139],
        [76.47789, 31.47128],
        [76.47801, 31.47118],
        [76.47814, 31.47108],
        [76.47827, 31.47098],
        [76.47841, 31.47089],
        [76.47855, 31.4708],
        [76.47884, 31.47071],
        [76.47914, 31.47061],
        [76.47944, 31.47052],
        [76.47974, 31.47044],
        [76.48005, 31.47036],
        [76.48035, 31.47028],
        [76.48066, 31.47021],
        [76.48096, 31.47015],
        [76.48127, 31.47008],
        [76.48142, 31.47007],
        [76.48157, 31.47007],
        [76.48172, 31.47008],
        [76.48187, 31.4701],
        [76.48201, 31.47014],
        [76.48215, 31.47019],
        [76.48228, 31.47025],
        [76.4824, 31.47032],
        [76.48252, 31.47039],
        [76.48276, 31.47052],
        [76.48301, 31.47063],
        [76.48327, 31.47073],
        [76.48353, 31.47083],
        [76.4838, 31.47091],
        [76.48407, 31.47097],
        [76.48434, 31.47103],
        [76.48462, 31.47108],
        [76.4849, 31.47111],
        [76.48517, 31.47114],
        [76.48544, 31.47115],
        [76.48571, 31.47114],
        [76.48598, 31.47111],
        [76.48624, 31.47106],
        [76.4865, 31.47098],
        [76.48675, 31.47089],
        [76.48699, 31.47078],
        [76.48721, 31.47065],
        [76.48737, 31.4705],
        [76.48752, 31.47034],
        [76.48768, 31.4702],
        [76.48785, 31.47005],
        [76.48801, 31.46991],
        [76.48818, 31.46977],
        [76.48836, 31.46963],
        [76.48854, 31.4695],
        [76.48872, 31.46937],
        [76.48892, 31.46923],
        [76.48914, 31.46912],
        [76.48938, 31.46903],
        [76.48964, 31.46897],
        [76.48989, 31.46894],
        [76.49015, 31.46894],
        [76.49041, 31.46897],
        [76.49066, 31.46903],
        [76.4909, 31.46911],
        [76.49116, 31.46924],
        [76.49143, 31.46935],
        [76.4917, 31.46946],
        [76.49198, 31.46955],
        [76.49226, 31.46962],
        [76.49255, 31.46969],
        [76.49284, 31.46974],
        [76.49313, 31.46979],
        [76.49343, 31.46981],
        [76.49362, 31.46978],
        [76.49381, 31.46974],
        [76.494, 31.46968],
        [76.49418, 31.46962],
        [76.49436, 31.46954],
        [76.49453, 31.46946],
        [76.4947, 31.46936],
        [76.49486, 31.46926],
        [76.49501, 31.46915],
        [76.4952, 31.46908],
        [76.49538, 31.46901],
        [76.49557, 31.46895],
        [76.49576, 31.46888],
        [76.49595, 31.46881],
        [76.49613, 31.46875],
        [76.49632, 31.46869],
        [76.49652, 31.46863],
        [76.49671, 31.46857],
        [76.49687, 31.46855],
        [76.49704, 31.46853],
        [76.4972, 31.46851],
        [76.49737, 31.4685],
        [76.49754, 31.4685],
        [76.4977, 31.4685],
        [76.49787, 31.46851],
        [76.49804, 31.46852],
        [76.4988, 31.46859],
        [76.49888, 31.46858],
        [76.49898, 31.46856]
      ]
    ]
  }
}
