{
  "type": "Feature",
  "id": "HP-AC-51",
  "properties": {
    "stateName": "HIMACHAL PRADESH",
    "stateCode": "HP",
    "districtName": "SOLAN",
    "acNo": 51,
    "acName": "NALAGARH",
    "seatType": null,
    "pcNo": null,
    "pcName": null,
    "quality": "unverified",
    "sources": [
      "TBD"
    ]
  },
  "geometry": {
    "type": "Polygon",
    "coordinates": [
      [
        [76.64504, 31.20727],
        [76.64539, 31.20734],
        [76.64571, 31.20736],
        [76.64602, 31.20737],
        [76.64634, 31.20738],
        [76.64666, 31.20738],
        [76.64698, 31.20737],
        [76.6473, 31.20736],
        [76.64762, 31.20734],
        [76.64793, 31.20732],
        [76.64825, 31.20729],
        [76.64983, 31.20717],
        [76.64999, 31.20718],
        [76.65015, 31.2072],
        [76.65032, 31.20722],
        [76.65048, 31.20725],
        [76.65063, 31.20729],
        [76.65079, 31.20734],
        [76.65094, 31.2074],
        [76.65109, 31.20746],
        [76.65123, 31.20753],
        [76.65141, 31.20765],
        [76.65159, 31.20776],
        [76.65178, 31.20786],
        [76.65198, 31.20795],
        [76.65218, 31.20804],
        [76.65238, 31.20812],
        [76.65259, 31.20819],
        [76.6528, 31.20825],
        [76.65301, 31.20831],
        [76.6534, 31.20844],
        [76.65379, 31.20856],
        [76.65418, 31.20868],
        [76.65458, 31.20879],
        [76.65498, 31.2089],
        [76.65537, 31.209],
        [76.65577, 31.2091],
        [76.65618, 31.2092],
        [76.65658, 31.20928],
        [76.65692, 31.20931],
        [76.65726, 31.20932],
        [76.6576, 31.20932],
        [76.65795, 31.2093],
        [76.65829, 31.20926],
        [76.65862, 31.20921],
        [76.65895, 31.20914],
        [76.65928, 31.20905],
        [76.6596, 31.20895],
        [76.65995, 31.20887],
        [76.6603, 31.20882],
        [76.66066, 31.20882],
        [76.66102, 31.20885],
        [76.66137, 31.20891],
        [76.6617, 31.20901],
        [76.66203, 31.20915],
        [76.66233, 31.20932],
        [76.6626, 31.20951],
        [76.66281, 31.20971],
        [76.66301, 31.2099],
        [76.66322, 31.21009],
        [76.66343, 31.21028],
        [76.66364, 31.21047],
        [76.66386, 31.21066],
        [76.66407, 31.21085],
        [76.66428, 31.21104],
        [76.6645, 31.21122],
        [76.66529, 31.2119],
        [76.66569, 31.21222],
        [76.66618, 31.21227],
        [76.66811, 31.21221],
        [76.66861, 31.21213],
        [76.6691, 31.21207],
        [76.6696, 31.21204],
        [76.67011, 31.21204],
        [76.67061, 31.21206],
        [76.6711, 31.21211],
        [76.6716, 31.21218],
        [76.67209, 31.21227],
        [76.67257, 31.21239],
        [76.6731, 31.21251],
        [76.67364, 31.21262],
        [76.67417, 31.21274],
        [76.6747, 31.21285],
        [76.67524, 31.21296],
        [76.67577, 31.21306],
        [76.67631, 31.21317],
        [76.67684, 31.21327],
        [76.67738, 31.21337],
        [76.67761, 31.21341],
        [76.67784, 31.21344],
        [76.67807, 31.21345],
        [76.6783, 31.21345],
        [76.67853, 31.21343],
        [76.67876, 31.21339],
        [76.67899, 31.21335],
        [76.67921, 31.21328],
        [76.67943, 31.21321],
        [76.6799, 31.21306],
        [76.68038, 31.21291],
        [76.68085, 31.21278],
        [76.68133, 31.21266],
        [76.68182, 31.21254],
        [76.68231, 31.21243],
        [76.6828, 31.21233],
        [76.68329, 31.21224],
        [76.68378, 31.21216],
        [76.68429, 31.21212],
        [76.6848, 31.2121],
        [76.68531, 31.21212],
        [76.68582, 31.21215],
        [76.68633, 31.21221],
        [76.68683, 31.21229],
        [76.68733, 31.21239],
        [76.68782, 31.21252],
        [76.6883, 31.21267],
        [76.68867, 31.21289],
        [76.68903, 31.21312],
        [76.68938, 31.21335],
        [76.68973, 31.21359],
        [76.69007, 31.21383],
        [76.6904, 31.21409],
        [76.69073, 31.21435],
        [76.69105, 31.21461],
        [76.69136, 31.21489],
        [76.69149, 31.21503],
        [76.69164, 31.21516],
        [76.6918, 31.21528],
        [76.69198, 31.21538],
        [76.69217, 31.21546],
        [76.69237, 31.21553],
        [76.69257, 31.21557],
        [76.69278, 31.2156],
        [76.693, 31.21561],
        [76.69337, 31.21567],
        [76.69373, 31.21574],
        [76.6941, 31.21581],
        [76.69447, 31.21588],
        [76.69483, 31.21596],
        [76.6952, 31.21605],
        [76.69556, 31.21613],
        [76.69592, 31.21622],
        [76.69628, 31.21632],
        [76.69663, 31.21636],
        [76.69697, 31.21641],
        [76.69731, 31.21646],
        [76.69765, 31.21653],
        [76.69799, 31.2166],
        [76.69833, 31.21668],
        [76.69866, 31.21677],
        [76.69899, 31.21686],
        [76.69932, 31.21697],
        [76.7003, 31.21709],
        [76.70042, 31.21712],
        [76.70053, 31.21716],
        [76.70064, 31.2172],
        [76.70074, 31.21726],
        [76.70085, 31.21732],
        [76.70094, 31.21738],
        [76.70112, 31.21752],
        [76.7014, 31.21781],
        [76.70161, 31.21801],
        [76.70182, 31.21821],
        [76.70204, 31.21841],
        [76.7022, 31.21856],
        [76.70244, 31.21877],
        [76.70257, 31.21893],
        [76.70255, 31.21981],
        [76.70259, 31.22086],
        [76.70264, 31.22101],
        [76.70269, 31.22117],
        [76.70275, 31.22132],
        [76.70283, 31.22147],
        [76.70292, 31.22162],
        [76.70302, 31.22176],
        [76.70313, 31.22189],
        [76.70325, 31.22202],
        [76.70337, 31.22214],
        [76.70353, 31.22222],
        [76.70368, 31.2223],
        [76.70383, 31.22238],
        [76.70398, 31.22246],
        [76.70412, 31.22255],
        [76.70427, 31.22264],
        [76.70441, 31.22273],
        [76.70455, 31.22282],
        [76.70469, 31.22292],
        [76.70493, 31.22301],
        [76.70519, 31.22309],
        [76.70545, 31.22315],
        [76.70572, 31.22319],
        [76.70598, 31.22321],
        [76.70625, 31.22321],
        [76.70652, 31.2232],
        [76.70679, 31.22316],
        [76.70706, 31.22311],
        [76.70739, 31.22307],
        [76.70773, 31.22303],
        [76.70806, 31.22298],
        [76.7084, 31.22294],
        [76.70874, 31.22291],
        [76.70908, 31.22287],
        [76.70941, 31.22284],
        [76.70975, 31.22281],
        [76.71009, 31.22278],
        [76.71027, 31.22294],
        [76.71046, 31.22309],
        [76.71065, 31.22323],
        [76.71085, 31.22338],
        [76.71105, 31.22352],
        [76.71125, 31.22365],
        [76.71145, 31.22378],
        [76.71166, 31.22391],
        [76.71187, 31.22404],
        [76.71364, 31.22499],
        [76.71522, 31.22595],
        [76.71751, 31.22721],
        [76.71967, 31.22861],
        [76.72102, 31.22947],
        [76.72164, 31.22991],
        [76.72196, 31.23035],
        [76.72205, 31.23049],
        [76.72214, 31.23063],
        [76.72224, 31.23076],
        [76.72235, 31.2309],
        [76.72246, 31.23103],
        [76.72258, 31.23115],
        [76.7227, 31.23127],
        [76.72283, 31.23139],
        [76.72297, 31.2315],
        [76.72475, 31.23282],
        [76.72572, 31.23375],
        [76.72673, 31.23471],
        [76.72757, 31.23566],
        [76.72801, 31.23633],
        [76.72847, 31.23724],
        [76.72904, 31.23817],
        [76.7292, 31.23839],
        [76.72937, 31.2386],
        [76.72957, 31.2388],
        [76.72978, 31.239],
        [76.73, 31.23917],
        [76.73024, 31.23934],
        [76.73048, 31.23949],
        [76.73074, 31.23962],
        [76.73173, 31.24035],
        [76.73236, 31.24087],
        [76.733, 31.24069],
        [76.73363, 31.24053],
        [76.73433, 31.2404],
        [76.73447, 31.24034],
        [76.73461, 31.24028],
        [76.73474, 31.2402],
        [76.73487, 31.24012],
        [76.73499, 31.24003],
        [76.7351, 31.23994],
        [76.7352, 31.23984],
        [76.7353, 31.23973],
        [76.73539, 31.23962],
        [76.73561, 31.23949],
        [76.73585, 31.23938],
        [76.73609, 31.23929],
        [76.73634, 31.2392],
        [76.73659, 31.23913],
        [76.73685, 31.23908],
        [76.73711, 31.23904],
        [76.73738, 31.23902],
        [76.73764, 31.23901],
        [76.73792, 31.23895],
        [76.73819, 31.23889],
        [76.73845, 31.23882],
        [76.73872, 31.23875],
        [76.73899, 31.23867],
        [76.73925, 31.23859],
        [76.73951, 31.23851],
        [76.73977, 31.23842],
        [76.74003, 31.23833],
        [76.74029, 31.23816],
        [76.74055, 31.23802],
        [76.74083, 31.2379],
        [76.74112, 31.23779],
        [76.74142, 31.2377],
        [76.74172, 31.23763],
        [76.74203, 31.23757],
        [76.74234, 31.23754],
        [76.74266, 31.23753],
        [76.7431, 31.23748],
        [76.74354, 31.23741],
        [76.74398, 31.23731],
        [76.7444, 31.23719],
        [76.74481, 31.23704],
        [76.74522, 31.23688],
        [76.74561, 31.23669],
        [76.74598, 31.23647],
        [76.74634, 31.23624],
        [76.7466, 31.23598],
        [76.74687, 31.23573],
        [76.74715, 31.23548],
        [76.74742, 31.23523],
        [76.7477, 31.23498],
        [76.74798, 31.23474],
        [76.74827, 31.2345],
        [76.74856, 31.23426],
        [76.74882, 31.23427],
        [76.75225, 31.23044],
        [76.75433, 31.22889],
        [76.75876, 31.22668],
        [76.7599, 31.22608],
        [76.76187, 31.22647],
        [76.76466, 31.22645],
        [76.7667, 31.2268],
        [76.76711, 31.22667],
        [76.7684, 31.22541],
        [76.77037, 31.22436],
        [76.77205, 31.22365],
        [76.77358, 31.22399],
        [76.77469, 31.2246],
        [76.77534, 31.22513],
        [76.77625, 31.2244],
        [76.77636, 31.22332],
        [76.7755, 31.22153],
        [76.77421, 31.2202],
        [76.77339, 31.21898],
        [76.77336, 31.21739],
        [76.77434, 31.21637],
        [76.7796, 31.21539],
        [76.78097, 31.21572],
        [76.78172, 31.21617],
        [76.78205, 31.21571],
        [76.78255, 31.2144],
        [76.78255, 31.21401],
        [76.78255, 31.21363],
        [76.78191, 31.21232],
        [76.78114, 31.21133],
        [76.77972, 31.20973],
        [76.77951, 31.20896],
        [76.78014, 31.20742],
        [76.78115, 31.20517],
        [76.7817, 31.20445],
        [76.78226, 31.20306],
        [76.78306, 31.20196],
        [76.78412, 31.20021],
        [76.78491, 31.1989],
        [76.78546, 31.19784],
        [76.78588, 31.19736],
        [76.78656, 31.19706],
        [76.787, 31.19679],
        [76.78791, 31.19574],
        [76.78804, 31.19501],
        [76.78779, 31.19415],
        [76.7874, 31.19293],
        [76.78767, 31.19203],
        [76.78824, 31.19104],
        [76.78832, 31.19095],
        [76.78862, 31.19057],
        [76.79007, 31.18991],
        [76.79064, 31.18925],
        [76.79086, 31.18854],
        [76.79091, 31.18796],
        [76.79057, 31.18624],
        [76.79067, 31.18499],
        [76.79086, 31.18401],
        [76.79067, 31.18311],
        [76.79069, 31.18257],
        [76.79091, 31.18177],
        [76.79118, 31.18123],
        [76.79145, 31.18045],
        [76.79205, 31.17989],
        [76.79343, 31.17904],
        [76.79423, 31.17856],
        [76.79455, 31.17814],
        [76.7948, 31.1772],
        [76.79531, 31.17595],
        [76.79566, 31.17515],
        [76.79618, 31.17447],
        [76.79628, 31.17353],
        [76.79723, 31.17214],
        [76.79761, 31.17138],
        [76.79807, 31.17058],
        [76.79818, 31.1699],
        [76.79854, 31.16936],
        [76.79853, 31.1688],
        [76.799, 31.16825],
        [76.79967, 31.1675],
        [76.80137, 31.16653],
        [76.80243, 31.16563],
        [76.80259, 31.16502],
        [76.80264, 31.16432],
        [76.80241, 31.16386],
        [76.80186, 31.16361],
        [76.80132, 31.16336],
        [76.80011, 31.1632],
        [76.79956, 31.16285],
        [76.79922, 31.16243],
        [76.79884, 31.1616],
        [76.79868, 31.16114],
        [76.79857, 31.1605],
        [76.79843, 31.1598],
        [76.79849, 31.15919],
        [76.79857, 31.15897],
        [76.79872, 31.15855],
        [76.79889, 31.15834],
        [76.8, 31.1575],
        [76.80048, 31.15687],
        [76.80087, 31.15598],
        [76.80088, 31.15558],
        [76.80141, 31.15443],
        [76.80215, 31.1534],
        [76.80289, 31.15244],
        [76.80394, 31.15122],
        [76.80496, 31.1502],
        [76.80534, 31.14917],
        [76.80551, 31.14884],
        [76.80619, 31.14823],
        [76.80712, 31.14735],
        [76.80778, 31.14615],
        [76.80793, 31.14538],
        [76.8083, 31.14402],
        [76.80828, 31.14347],
        [76.8084, 31.14251],
        [76.80851, 31.14208],
        [76.80885, 31.14175],
        [76.8093, 31.14152],
        [76.80964, 31.14152],
        [76.81001, 31.14172],
        [76.81049, 31.14218],
        [76.81089, 31.14233],
        [76.81109, 31.14238],
        [76.81223, 31.14129],
        [76.81225, 31.14104],
        [76.81231, 31.14027],
        [76.81232, 31.13946],
        [76.81236, 31.13905],
        [76.81274, 31.1383],
        [76.81321, 31.13749],
        [76.81362, 31.13691],
        [76.81388, 31.13635],
        [76.81428, 31.13577],
        [76.81445, 31.13543],
        [76.81479, 31.13497],
        [76.81517, 31.1344],
        [76.81554, 31.13389],
        [76.81602, 31.13343],
        [76.81657, 31.13313],
        [76.81725, 31.13305],
        [76.818, 31.13311],
        [76.81882, 31.1333],
        [76.81916, 31.1332],
        [76.81928, 31.13307],
        [76.81938, 31.13276],
        [76.81925, 31.13215],
        [76.81867, 31.131],
        [76.81799, 31.13034],
        [76.81783, 31.13011],
        [76.81782, 31.12989],
        [76.81787, 31.12958],
        [76.81816, 31.12898],
        [76.81858, 31.12854],
        [76.81975, 31.1272],
        [76.8202, 31.12634],
        [76.82032, 31.12602],
        [76.8202, 31.1251],
        [76.81999, 31.12444],
        [76.81985, 31.12371],
        [76.81948, 31.12294],
        [76.81877, 31.1222],
        [76.81828, 31.12198],
        [76.81803, 31.12188],
        [76.81717, 31.12184],
        [76.81701, 31.12177],
        [76.81693, 31.12166],
        [76.81676, 31.1214],
        [76.81675, 31.12139],
        [76.81656, 31.12053],
        [76.81634, 31.12018],
        [76.81625, 31.12002],
        [76.81575, 31.11982],
        [76.81488, 31.11971],
        [76.81425, 31.11951],
        [76.81419, 31.11945],
        [76.81358, 31.11888],
        [76.81324, 31.11862],
        [76.81286, 31.11845],
        [76.81242, 31.11832],
        [76.81161, 31.11828],
        [76.81121, 31.1182],
        [76.81105, 31.1181],
        [76.81084, 31.11778],
        [76.81078, 31.11731],
        [76.81118, 31.1163],
        [76.81181, 31.11543],
        [76.81219, 31.11511],
        [76.81259, 31.11476],
        [76.81263, 31.11473],
        [76.81306, 31.11443],
        [76.8139, 31.11382],
        [76.81428, 31.11342],
        [76.81441, 31.11326],
        [76.81447, 31.11288],
        [76.81449, 31.11225],
        [76.81475, 31.1119],
        [76.81529, 31.11168],
        [76.8156, 31.11133],
        [76.81629, 31.11089],
        [76.81648, 31.11049],
        [76.81648, 31.11031],
        [76.81647, 31.11006],
        [76.81629, 31.10973],
        [76.81604, 31.10948],
        [76.81523, 31.10859],
        [76.81488, 31.10822],
        [76.81482, 31.10809],
        [76.81476, 31.10781],
        [76.8148, 31.10757],
        [76.8149, 31.10737],
        [76.81512, 31.10719],
        [76.81599, 31.10619],
        [76.81681, 31.10523],
        [76.81685, 31.10439],
        [76.81607, 31.10365],
        [76.81547, 31.10304],
        [76.81525, 31.10181],
        [76.8151, 31.10036],
        [76.81372, 31.09694],
        [76.81372, 31.0961],
        [76.81436, 31.09547],
        [76.81481, 31.09511],
        [76.8141, 31.09421],
        [76.81263, 31.09386],
        [76.81131, 31.09178],
        [76.81045, 31.09101],
        [76.80862, 31.08932],
        [76.80818, 31.089],
        [76.8075, 31.08958],
        [76.80574, 31.09045],
        [76.80364, 31.09144],
        [76.80335, 31.09135],
        [76.80297, 31.09096],
        [76.80196, 31.0897],
        [76.80025, 31.08796],
        [76.79961, 31.08725],
        [76.79999, 31.08638],
        [76.80044, 31.08606],
        [76.80257, 31.08554],
        [76.80538, 31.08397],
        [76.80706, 31.08294],
        [76.80867, 31.08153],
        [76.81028, 31.08082],
        [76.81291, 31.07992],
        [76.81541, 31.07896],
        [76.81717, 31.07867],
        [76.8185, 31.07782],
        [76.81865, 31.07576],
        [76.81847, 31.07354],
        [76.81847, 31.07125],
        [76.81912, 31.06797],
        [76.81934, 31.06529],
        [76.81995, 31.06346],
        [76.82032, 31.06275],
        [76.82048, 31.06062],
        [76.82101, 31.05734],
        [76.82149, 31.05481],
        [76.8218, 31.05283],
        [76.82191, 31.05269],
        [76.82194, 31.05255],
        [76.82192, 31.05246],
        [76.82178, 31.05212],
        [76.82169, 31.05196],
        [76.82156, 31.0517],
        [76.82142, 31.05144],
        [76.82132, 31.05128],
        [76.82129, 31.05117],
        [76.81965, 31.04932],
        [76.81902, 31.04829],
        [76.81772, 31.04748],
        [76.81627, 31.0471],
        [76.81481, 31.04737],
        [76.81371, 31.04768],
        [76.81163, 31.04832],
        [76.81044, 31.04896],
        [76.80871, 31.04947],
        [76.80706, 31.04977],
        [76.80481, 31.05017],
        [76.80281, 31.05064],
        [76.80202, 31.05056],
        [76.80037, 31.04928],
        [76.79849, 31.04819],
        [76.79637, 31.04724],
        [76.79432, 31.04527],
        [76.79168, 31.04377],
        [76.79166, 31.04369],
        [76.79165, 31.04356],
        [76.79163, 31.04343],
        [76.79152, 31.04308],
        [76.7914, 31.04277],
        [76.79128, 31.0426],
        [76.79121, 31.04249],
        [76.79099, 31.04226],
        [76.79082, 31.04201],
        [76.79074, 31.04189],
        [76.79052, 31.04178],
        [76.79043, 31.04172],
        [76.79033, 31.04158],
        [76.78998, 31.04137],
        [76.78965, 31.04112],
        [76.78958, 31.04103],
        [76.78948, 31.04086],
        [76.78944, 31.04075],
        [76.78931, 31.04047],
        [76.78913, 31.04026],
        [76.789, 31.03998],
        [76.78885, 31.0398],
        [76.78854, 31.03959],
        [76.78835, 31.03951],
        [76.78814, 31.03951],
        [76.78776, 31.03967],
        [76.78721, 31.0399],
        [76.78695, 31.03992],
        [76.78676, 31.03989],
        [76.78637, 31.03972],
        [76.78588, 31.03945],
        [76.78559, 31.03931],
        [76.78539, 31.03924],
        [76.78499, 31.03916],
        [76.78467, 31.03914],
        [76.78455, 31.03907],
        [76.7843, 31.03896],
        [76.78392, 31.03872],
        [76.78339, 31.03839],
        [76.78308, 31.03815],
        [76.78284, 31.03791],
        [76.78267, 31.03777],
        [76.78248, 31.03751],
        [76.78237, 31.03743],
        [76.78226, 31.03741],
        [76.78217, 31.03743],
        [76.78202, 31.03754],
        [76.78189, 31.03759],
        [76.78175, 31.03759],
        [76.78147, 31.03752],
        [76.78114, 31.03748],
        [76.7808, 31.03747],
        [76.78019, 31.0377],
        [76.77972, 31.0379],
        [76.77933, 31.03801],
        [76.77917, 31.03803],
        [76.77895, 31.03788],
        [76.77868, 31.03761],
        [76.77836, 31.03734],
        [76.77816, 31.03715],
        [76.77803, 31.03695],
        [76.77794, 31.03689],
        [76.77783, 31.03682],
        [76.77761, 31.03683],
        [76.77744, 31.03684],
        [76.77721, 31.03685],
        [76.77702, 31.03686],
        [76.77699, 31.03686],
        [76.77693, 31.03684],
        [76.7769, 31.03684],
        [76.77675, 31.03683],
        [76.7765, 31.0368],
        [76.77646, 31.03679],
        [76.77645, 31.03678],
        [76.77627, 31.03669],
        [76.77617, 31.03664],
        [76.77609, 31.03659],
        [76.77595, 31.0365],
        [76.77574, 31.03634],
        [76.77561, 31.03626],
        [76.77554, 31.03619],
        [76.77539, 31.03603],
        [76.7753, 31.03594],
        [76.77527, 31.0359],
        [76.77525, 31.03589],
        [76.77514, 31.03577],
        [76.77478, 31.03537],
        [76.77447, 31.03518],
        [76.77387, 31.03494],
        [76.77366, 31.03486],
        [76.77345, 31.03481],
        [76.77324, 31.03476],
        [76.7732, 31.03475],
        [76.77311, 31.03473],
        [76.77281, 31.03471],
        [76.77211, 31.03467],
        [76.77185, 31.03471],
        [76.7716, 31.03475],
        [76.77115, 31.03486],
        [76.77084, 31.03491],
        [76.77055, 31.03496],
        [76.77024, 31.03495],
        [76.7701, 31.03492],
        [76.7699, 31.03487],
        [76.76985, 31.03485],
        [76.76961, 31.03469],
        [76.76928, 31.03443],
        [76.76891, 31.03414],
        [76.76876, 31.03405],
        [76.76845, 31.03395],
        [76.76809, 31.03387],
        [76.76773, 31.03378],
        [76.76749, 31.03365],
        [76.76713, 31.03342],
        [76.76699, 31.03327],
        [76.76671, 31.03295],
        [76.76656, 31.0327],
        [76.76642, 31.03243],
        [76.7662, 31.03202],
        [76.76615, 31.0319],
        [76.76617, 31.03158],
        [76.76619, 31.03142],
        [76.76623, 31.03118],
        [76.76621, 31.03089],
        [76.76621, 31.03055],
        [76.76617, 31.03038],
        [76.76604, 31.03018],
        [76.76587, 31.03003],
        [76.76575, 31.02995],
        [76.76534, 31.02987],
        [76.76507, 31.02976],
        [76.7648, 31.02961],
        [76.76455, 31.02943],
        [76.76431, 31.02908],
        [76.76427, 31.02898],
        [76.76417, 31.02863],
        [76.76403, 31.02846],
        [76.76398, 31.02845],
        [76.76396, 31.02836],
        [76.76393, 31.02827],
        [76.76391, 31.02793],
        [76.76391, 31.02774],
        [76.76395, 31.02754],
        [76.76408, 31.02711],
        [76.76417, 31.027],
        [76.76448, 31.02681],
        [76.76484, 31.02672],
        [76.76504, 31.02663],
        [76.7654, 31.02647],
        [76.76557, 31.02641],
        [76.76581, 31.02625],
        [76.76595, 31.02603],
        [76.76599, 31.02569],
        [76.7659, 31.02528],
        [76.76587, 31.02518],
        [76.76583, 31.02484],
        [76.76571, 31.0247],
        [76.76548, 31.0245],
        [76.76519, 31.02426],
        [76.76497, 31.02418],
        [76.76471, 31.02422],
        [76.76405, 31.02443],
        [76.76378, 31.02448],
        [76.76356, 31.02445],
        [76.76305, 31.02399],
        [76.76287, 31.0237],
        [76.7627, 31.02343],
        [76.76246, 31.02294],
        [76.76237, 31.02274],
        [76.76216, 31.02254],
        [76.76193, 31.02246],
        [76.76174, 31.02245],
        [76.76149, 31.02261],
        [76.76136, 31.02268],
        [76.76114, 31.02294],
        [76.76091, 31.02306],
        [76.76049, 31.02301],
        [76.76012, 31.02291],
        [76.75994, 31.02281],
        [76.75963, 31.02236],
        [76.75917, 31.02148],
        [76.75902, 31.02122],
        [76.75888, 31.0209],
        [76.75855, 31.02033],
        [76.75843, 31.02009],
        [76.75829, 31.01976],
        [76.75827, 31.0196],
        [76.75788, 31.01874],
        [76.75766, 31.01835],
        [76.75761, 31.01824],
        [76.7576, 31.01795],
        [76.75767, 31.01769],
        [76.75784, 31.0173],
        [76.75804, 31.01712],
        [76.75835, 31.01694],
        [76.75872, 31.01683],
        [76.75957, 31.01679],
        [76.7598, 31.01667],
        [76.76004, 31.01649],
        [76.76017, 31.01631],
        [76.76026, 31.0161],
        [76.76035, 31.01579],
        [76.76046, 31.01543],
        [76.76055, 31.01512],
        [76.76053, 31.01476],
        [76.76023, 31.01453],
        [76.76006, 31.01442],
        [76.75983, 31.01433],
        [76.75967, 31.01431],
        [76.75903, 31.01433],
        [76.75817, 31.01429],
        [76.75788, 31.01428],
        [76.75765, 31.01423],
        [76.75731, 31.01419],
        [76.75728, 31.01416],
        [76.75726, 31.01413],
        [76.75732, 31.01386],
        [76.75748, 31.01365],
        [76.75781, 31.01339],
        [76.7581, 31.01309],
        [76.75818, 31.01283],
        [76.75799, 31.01251],
        [76.75755, 31.01213],
        [76.75726, 31.01199],
        [76.75697, 31.01179],
        [76.75671, 31.01126],
        [76.75616, 31.01086],
        [76.75534, 31.01045],
        [76.75442, 31.00988],
        [76.75379, 31.00945],
        [76.75294, 31.00903],
        [76.75175, 31.00838],
        [76.75154, 31.00818],
        [76.75149, 31.00808],
        [76.75143, 31.00798],
        [76.75148, 31.00768],
        [76.75177, 31.00719],
        [76.75236, 31.00672],
        [76.75286, 31.00625],
        [76.75304, 31.00586],
        [76.75314, 31.00526],
        [76.75327, 31.00449],
        [76.75328, 31.00442],
        [76.75286, 31.00407],
        [76.75266, 31.00316],
        [76.75246, 31.00219],
        [76.75188, 31.0016],
        [76.75031, 31.00144],
        [76.74844, 31.0014],
        [76.74692, 31.00201],
        [76.74563, 31.00276],
        [76.74465, 31.00306],
        [76.74285, 31.00297],
        [76.74129, 31.00248],
        [76.73998, 31.00136],
        [76.7394, 31.00031],
        [76.73919, 31.00005],
        [76.73699, 31.00085],
        [76.73525, 31.00172],
        [76.73433, 31.00254],
        [76.73385, 31.00362],
        [76.73302, 31.00367],
        [76.73206, 31.00327],
        [76.73101, 31.00331],
        [76.73018, 31.00355],
        [76.72898, 31.00353],
        [76.72815, 31.0039],
        [76.72717, 31.00413],
        [76.72612, 31.00405],
        [76.72471, 31.00357],
        [76.72373, 31.00407],
        [76.72138, 31.00492],
        [76.71936, 31.00488],
        [76.71756, 31.00478],
        [76.71625, 31.00366],
        [76.71492, 31.00299],
        [76.71433, 31.00242],
        [76.71416, 31.00254],
        [76.71399, 31.00215],
        [76.71259, 31.00264],
        [76.7108, 31.00264],
        [76.70943, 31.00281],
        [76.70951, 31.00246],
        [76.71073, 30.99993],
        [76.71076, 30.99885],
        [76.71117, 30.99779],
        [76.71138, 30.99713],
        [76.71042, 30.99728],
        [76.70985, 30.99719],
        [76.70948, 30.99668],
        [76.70842, 30.99666],
        [76.70845, 30.99584],
        [76.70953, 30.99462],
        [76.70966, 30.9933],
        [76.70951, 30.99206],
        [76.70867, 30.99114],
        [76.70811, 30.99072],
        [76.70824, 30.98948],
        [76.70778, 30.98881],
        [76.70741, 30.98815],
        [76.70688, 30.98657],
        [76.70636, 30.9845],
        [76.70564, 30.983],
        [76.7049, 30.98174],
        [76.70435, 30.98107],
        [76.70476, 30.97984],
        [76.70384, 30.97875],
        [76.70179, 30.97657],
        [76.70078, 30.97506],
        [76.69995, 30.97364],
        [76.70019, 30.9701],
        [76.70002, 30.97009],
        [76.69895, 30.96989],
        [76.69821, 30.96982],
        [76.69626, 30.96887],
        [76.69485, 30.96854],
        [76.6915, 30.9678],
        [76.68915, 30.9678],
        [76.68606, 30.96766],
        [76.68089, 30.96739],
        [76.6792, 30.96766],
        [76.67651, 30.9678],
        [76.6739, 30.96888],
        [76.67383, 30.96921],
        [76.67397, 30.97029],
        [76.6739, 30.9713],
        [76.67329, 30.97285],
        [76.67282, 30.97386],
        [76.67201, 30.97446],
        [76.67047, 30.9752],
        [76.66987, 30.97574],
        [76.66818, 30.97685],
        [76.66792, 30.9778],
        [76.66691, 30.97874],
        [76.66624, 30.97921],
        [76.66449, 30.98029],
        [76.66295, 30.98049],
        [76.66161, 30.98069],
        [76.66114, 30.98029],
        [76.65959, 30.98029],
        [76.65919, 30.98056],
        [76.65872, 30.98116],
        [76.65831, 30.98177],
        [76.65764, 30.98238],
        [76.65737, 30.98258],
        [76.65603, 30.98298],
        [76.6559, 30.98352],
        [76.65542, 30.98399],
        [76.65475, 30.98473],
        [76.65341, 30.98568],
        [76.65247, 30.98635],
        [76.65139, 30.98689],
        [76.64885, 30.98749],
        [76.64387, 30.98851],
        [76.64246, 30.98904],
        [76.63803, 30.98985],
        [76.63803, 30.99012],
        [76.63695, 30.99106],
        [76.63588, 30.99342],
        [76.63474, 30.99457],
        [76.63326, 30.99591],
        [76.63097, 30.99672],
        [76.62963, 30.99739],
        [76.62816, 30.99773],
        [76.62668, 30.99786],
        [76.62574, 30.9982],
        [76.62513, 30.99847],
        [76.62392, 30.99874],
        [76.62316, 30.99982],
        [76.62352, 31.00024],
        [76.62439, 31.00134],
        [76.62498, 31.00203],
        [76.62671, 31.00368],
        [76.62697, 31.00407],
        [76.6274, 31.00503],
        [76.62762, 31.00652],
        [76.62782, 31.00979],
        [76.62772, 31.01294],
        [76.62756, 31.01442],
        [76.62764, 31.01503],
        [76.62782, 31.01589],
        [76.62827, 31.01732],
        [76.62856, 31.01829],
        [76.62884, 31.01926],
        [76.62907, 31.02005],
        [76.63, 31.02217],
        [76.62999, 31.02236],
        [76.62972, 31.02283],
        [76.62894, 31.02366],
        [76.62787, 31.02433],
        [76.62534, 31.02595],
        [76.62366, 31.02679],
        [76.62228, 31.02721],
        [76.62029, 31.02791],
        [76.61849, 31.02849],
        [76.61772, 31.02896],
        [76.61742, 31.02973],
        [76.61732, 31.03027],
        [76.61735, 31.03139],
        [76.61718, 31.03227],
        [76.61688, 31.03313],
        [76.61673, 31.03371],
        [76.61648, 31.0356],
        [76.61597, 31.03622],
        [76.6153, 31.03812],
        [76.61482, 31.03958],
        [76.61389, 31.04217],
        [76.61314, 31.04343],
        [76.61149, 31.046],
        [76.61148, 31.04603],
        [76.61138, 31.04655],
        [76.61155, 31.047],
        [76.61194, 31.04785],
        [76.61246, 31.04867],
        [76.61419, 31.05102],
        [76.61475, 31.0515],
        [76.61592, 31.05219],
        [76.61954, 31.05388],
        [76.62221, 31.05525],
        [76.62263, 31.05551],
        [76.62285, 31.05575],
        [76.62283, 31.05606],
        [76.62263, 31.05658],
        [76.62123, 31.05916],
        [76.62083, 31.05989],
        [76.61996, 31.06135],
        [76.61972, 31.06237],
        [76.61962, 31.06416],
        [76.61925, 31.06523],
        [76.61824, 31.06704],
        [76.61743, 31.06821],
        [76.61715, 31.06911],
        [76.61695, 31.07003],
        [76.61708, 31.07136],
        [76.61772, 31.07319],
        [76.61782, 31.07471],
        [76.61751, 31.07581],
        [76.6171, 31.07673],
        [76.61707, 31.07743],
        [76.61718, 31.07787],
        [76.6179, 31.07869],
        [76.61932, 31.07924],
        [76.62068, 31.07966],
        [76.62209, 31.07997],
        [76.62256, 31.08021],
        [76.62323, 31.0807],
        [76.62391, 31.08148],
        [76.62429, 31.08245],
        [76.62437, 31.08317],
        [76.62473, 31.08767],
        [76.62485, 31.08919],
        [76.62501, 31.08997],
        [76.62559, 31.09089],
        [76.62648, 31.09227],
        [76.62735, 31.09325],
        [76.62894, 31.09496],
        [76.63019, 31.09653],
        [76.63059, 31.09733],
        [76.63112, 31.09875],
        [76.63179, 31.10022],
        [76.63253, 31.10112],
        [76.63354, 31.10199],
        [76.63479, 31.10216],
        [76.63603, 31.10236],
        [76.63687, 31.10266],
        [76.6374, 31.10349],
        [76.63785, 31.10426],
        [76.63804, 31.10506],
        [76.63788, 31.10583],
        [76.63794, 31.10647],
        [76.63807, 31.10711],
        [76.63804, 31.10794],
        [76.63791, 31.10891],
        [76.63784, 31.11075],
        [76.63714, 31.11204],
        [76.63643, 31.11373],
        [76.63596, 31.11502],
        [76.63553, 31.1151],
        [76.63308, 31.11515],
        [76.63201, 31.11515],
        [76.63188, 31.1154],
        [76.63184, 31.11602],
        [76.63173, 31.11707],
        [76.63115, 31.11712],
        [76.63038, 31.11687],
        [76.62768, 31.11598],
        [76.62633, 31.11565],
        [76.62396, 31.11568],
        [76.62289, 31.11582],
        [76.6217, 31.11592],
        [76.62057, 31.11582],
        [76.61989, 31.11565],
        [76.619, 31.11595],
        [76.6181, 31.11607],
        [76.61703, 31.1162],
        [76.61625, 31.11715],
        [76.61586, 31.11801],
        [76.61477, 31.12013],
        [76.61414, 31.1212],
        [76.61358, 31.1217],
        [76.61223, 31.1221],
        [76.61085, 31.12249],
        [76.60974, 31.12267],
        [76.6082, 31.1228],
        [76.60726, 31.12289],
        [76.60571, 31.12326],
        [76.60482, 31.12349],
        [76.60393, 31.12357],
        [76.60265, 31.12336],
        [76.60208, 31.12319],
        [76.60175, 31.12342],
        [76.60175, 31.12381],
        [76.60183, 31.12488],
        [76.60183, 31.12695],
        [76.60196, 31.12767],
        [76.60263, 31.12861],
        [76.60379, 31.12956],
        [76.60482, 31.13046],
        [76.60489, 31.13087],
        [76.60495, 31.13294],
        [76.60512, 31.13419],
        [76.60581, 31.13523],
        [76.60633, 31.13588],
        [76.6077, 31.13718],
        [76.60953, 31.13841],
        [76.61104, 31.13964],
        [76.61159, 31.14019],
        [76.61102, 31.14093],
        [76.60999, 31.14182],
        [76.60937, 31.14234],
        [76.609, 31.14275],
        [76.60914, 31.14305],
        [76.6095, 31.14366],
        [76.61002, 31.14434],
        [76.61132, 31.14574],
        [76.61181, 31.1469],
        [76.61253, 31.14922],
        [76.61231, 31.14924],
        [76.6113, 31.14919],
        [76.60992, 31.14901],
        [76.60835, 31.14864],
        [76.60714, 31.1484],
        [76.60687, 31.14879],
        [76.60668, 31.14964],
        [76.60668, 31.15034],
        [76.6068, 31.15126],
        [76.60655, 31.15197],
        [76.60608, 31.15268],
        [76.60552, 31.15307],
        [76.60453, 31.15375],
        [76.60426, 31.15375],
        [76.6031, 31.15359],
        [76.60236, 31.15347],
        [76.6026, 31.15401],
        [76.60373, 31.15615],
        [76.60428, 31.15789],
        [76.6046, 31.15875],
        [76.60464, 31.15915],
        [76.60461, 31.16064],
        [76.60443, 31.16138],
        [76.60391, 31.16195],
        [76.60349, 31.16278],
        [76.60326, 31.16332],
        [76.60313, 31.16412],
        [76.60349, 31.16519],
        [76.60467, 31.16777],
        [76.60571, 31.16864],
        [76.60641, 31.16924],
        [76.60694, 31.16991],
        [76.60687, 31.17051],
        [76.60651, 31.17081],
        [76.60587, 31.17128],
        [76.60557, 31.17215],
        [76.60561, 31.17258],
        [76.606, 31.17322],
        [76.60654, 31.17402],
        [76.60641, 31.17469],
        [76.60587, 31.17566],
        [76.60516, 31.17593],
        [76.60429, 31.17589],
        [76.60302, 31.17499],
        [76.60131, 31.17426],
        [76.59947, 31.17416],
        [76.59876, 31.17434],
        [76.598, 31.17492],
        [76.59779, 31.17559],
        [76.59796, 31.17603],
        [76.59837, 31.1774],
        [76.59894, 31.17824],
        [76.60001, 31.17844],
        [76.60259, 31.1787],
        [76.60604, 31.17927],
        [76.60761, 31.17974],
        [76.60925, 31.18124],
        [76.61137, 31.18345],
        [76.61227, 31.18422],
        [76.61381, 31.18613],
        [76.61421, 31.18737],
        [76.61441, 31.18877],
        [76.61462, 31.18947],
        [76.61532, 31.19024],
        [76.61616, 31.19124],
        [76.61703, 31.19241],
        [76.61896, 31.19415],
        [76.61987, 31.19459],
        [76.62088, 31.19469],
        [76.62202, 31.19492],
        [76.62339, 31.19536],
        [76.6251, 31.19619],
        [76.62654, 31.19653],
        [76.62794, 31.19693],
        [76.63029, 31.19833],
        [76.63283, 31.19964],
        [76.6337, 31.20041],
        [76.63411, 31.20114],
        [76.63501, 31.20231],
        [76.63622, 31.20311],
        [76.6386, 31.20459],
        [76.64111, 31.20582],
        [76.64409, 31.20706],
        [76.64504, 31.20727]
      ]
    ]
  }
}
