{
  "type": "Feature",
  "id": "HP-AC-63",
  "properties": {
    "stateName": "HIMACHAL PRADESH",
    "stateCode": "HP",
    "districtName": "SHIMLA",
    "acNo": 63,
    "acName": "SHIMLA",
    "seatType": null,
    "pcNo": null,
    "pcName": null,
    "quality": "unverified",
    "sources": [
      "TBD"
    ]
  },
  "geometry": {
    "type": "Polygon",
    "coordinates": [
      [
        [77.16365, 31.11734],
        [77.16427, 31.11696],
        [77.16483, 31.11663],
        [77.16553, 31.11649],
        [77.16602, 31.11643],
        [77.16659, 31.1164],
        [77.16731, 31.11637],
        [77.16794, 31.11634],
        [77.16864, 31.11612],
        [77.16909, 31.11587],
        [77.16947, 31.11574],
        [77.16977, 31.11548],
        [77.17018, 31.11504],
        [77.17062, 31.11457],
        [77.17113, 31.11429],
        [77.17165, 31.11398],
        [77.17208, 31.11374],
        [77.17237, 31.11374],
        [77.17264, 31.11375],
        [77.17296, 31.11385],
        [77.17327, 31.11433],
        [77.17371, 31.11517],
        [77.17404, 31.11617],
        [77.17436, 31.11728],
        [77.17444, 31.1181],
        [77.17436, 31.11872],
        [77.1743, 31.1193],
        [77.17454, 31.11937],
        [77.17504, 31.11948],
        [77.17561, 31.11957],
        [77.17595, 31.11963],
        [77.17634, 31.11964],
        [77.1768, 31.11971],
        [77.17722, 31.11966],
        [77.17779, 31.11961],
        [77.17819, 31.11948],
        [77.17853, 31.11939],
        [77.17886, 31.11921],
        [77.17908, 31.1192],
        [77.17961, 31.1192],
        [77.17988, 31.11921],
        [77.18022, 31.11929],
        [77.18058, 31.11945],
        [77.18134, 31.11976],
        [77.18173, 31.1198],
        [77.18208, 31.11979],
        [77.18218, 31.11935],
        [77.18213, 31.11892],
        [77.18215, 31.11851],
        [77.18219, 31.11818],
        [77.18224, 31.11772],
        [77.1823, 31.11709],
        [77.18235, 31.11668],
        [77.18251, 31.11616],
        [77.18264, 31.11573],
        [77.18278, 31.11521],
        [77.18294, 31.11465],
        [77.18307, 31.1143],
        [77.18331, 31.11342],
        [77.18349, 31.11249],
        [77.18363, 31.11196],
        [77.1837, 31.11167],
        [77.18382, 31.11153],
        [77.18405, 31.11146],
        [77.18469, 31.11121],
        [77.18522, 31.11101],
        [77.18591, 31.11071],
        [77.18703, 31.11031],
        [77.18809, 31.10996],
        [77.18865, 31.10951],
        [77.18916, 31.10903],
        [77.18963, 31.1085],
        [77.19013, 31.10821],
        [77.19083, 31.10782],
        [77.19165, 31.10748],
        [77.19268, 31.10689],
        [77.19353, 31.10654],
        [77.19395, 31.10641],
        [77.19435, 31.10588],
        [77.19443, 31.10522],
        [77.19461, 31.10485],
        [77.19533, 31.10476],
        [77.19692, 31.10481],
        [77.19883, 31.10492],
        [77.19905, 31.10496],
        [77.20007, 31.10513],
        [77.20057, 31.10544],
        [77.20163, 31.10604],
        [77.20296, 31.10628],
        [77.20466, 31.10638],
        [77.20601, 31.10637],
        [77.20744, 31.10658],
        [77.20845, 31.10703],
        [77.20964, 31.10774],
        [77.21036, 31.10845],
        [77.21105, 31.109],
        [77.2116, 31.10884],
        [77.21274, 31.10847],
        [77.21391, 31.10801],
        [77.21452, 31.10735],
        [77.21383, 31.1068],
        [77.21317, 31.10621],
        [77.21254, 31.10546],
        [77.21221, 31.10526],
        [77.21189, 31.10532],
        [77.21096, 31.10548],
        [77.2102, 31.10578],
        [77.20951, 31.10567],
        [77.20869, 31.10532],
        [77.20781, 31.10498],
        [77.20683, 31.10453],
        [77.20553, 31.104],
        [77.2041, 31.10341],
        [77.20336, 31.10309],
        [77.20235, 31.10272],
        [77.20134, 31.10257],
        [77.20015, 31.10223],
        [77.19893, 31.10222],
        [77.19819, 31.10218],
        [77.19726, 31.10234],
        [77.19623, 31.10243],
        [77.19522, 31.10243],
        [77.19432, 31.10234],
        [77.19355, 31.10209],
        [77.19281, 31.10173],
        [77.19204, 31.10136],
        [77.19148, 31.10059],
        [77.1909, 31.09995],
        [77.19002, 31.09924],
        [77.18986, 31.09899],
        [77.18986, 31.09817],
        [77.18973, 31.09735],
        [77.19013, 31.09694],
        [77.19076, 31.09665],
        [77.19187, 31.09629],
        [77.19214, 31.09618],
        [77.19331, 31.09577],
        [77.19438, 31.09526],
        [77.19607, 31.09461],
        [77.19679, 31.09417],
        [77.19759, 31.09378],
        [77.1983, 31.09323],
        [77.19819, 31.09315],
        [77.19663, 31.09291],
        [77.19607, 31.09281],
        [77.1946, 31.09241],
        [77.19365, 31.09208],
        [77.19341, 31.09218],
        [77.1923, 31.09204],
        [77.19116, 31.09177],
        [77.19023, 31.09177],
        [77.18983, 31.09195],
        [77.18906, 31.09211],
        [77.18788, 31.09271],
        [77.18718, 31.09296],
        [77.1865, 31.09248],
        [77.1858, 31.09209],
        [77.18525, 31.09177],
        [77.18454, 31.09145],
        [77.18369, 31.09095],
        [77.18292, 31.09072],
        [77.1826, 31.0904],
        [77.18276, 31.09013],
        [77.1835, 31.08972],
        [77.184, 31.08915],
        [77.1844, 31.08844],
        [77.18461, 31.08801],
        [77.18461, 31.08746],
        [77.18445, 31.08705],
        [77.18382, 31.08693],
        [77.18326, 31.08694],
        [77.18252, 31.08694],
        [77.18215, 31.08685],
        [77.18183, 31.08664],
        [77.18194, 31.08632],
        [77.18247, 31.08596],
        [77.18299, 31.0857],
        [77.1835, 31.0852],
        [77.18392, 31.08459],
        [77.18405, 31.08393],
        [77.18429, 31.08324],
        [77.18448, 31.08267],
        [77.18455, 31.08196],
        [77.18454, 31.08145],
        [77.18462, 31.08092],
        [77.18473, 31.08043],
        [77.18487, 31.07971],
        [77.18509, 31.07901],
        [77.1853, 31.07798],
        [77.1854, 31.07699],
        [77.18546, 31.0765],
        [77.18528, 31.07589],
        [77.185, 31.07547],
        [77.18498, 31.07544],
        [77.18466, 31.07531],
        [77.18408, 31.0751],
        [77.18356, 31.07497],
        [77.18295, 31.07499],
        [77.18239, 31.07509],
        [77.18179, 31.07547],
        [77.18123, 31.07583],
        [77.18108, 31.07608],
        [77.18079, 31.07666],
        [77.18033, 31.07731],
        [77.18013, 31.07787],
        [77.18004, 31.0784],
        [77.17997, 31.07895],
        [77.18, 31.07926],
        [77.18001, 31.07978],
        [77.17996, 31.08079],
        [77.17996, 31.08172],
        [77.17979, 31.082],
        [77.17938, 31.0826],
        [77.17887, 31.08344],
        [77.17828, 31.08413],
        [77.17783, 31.08485],
        [77.17742, 31.08533],
        [77.17668, 31.08607],
        [77.17602, 31.08647],
        [77.17576, 31.08656],
        [77.17478, 31.0866],
        [77.17314, 31.08666],
        [77.17138, 31.08667],
        [77.16968, 31.08675],
        [77.16865, 31.08696],
        [77.16645, 31.08703],
        [77.16479, 31.08722],
        [77.16384, 31.08745],
        [77.16315, 31.08787],
        [77.16262, 31.08844],
        [77.16186, 31.08911],
        [77.16091, 31.08993],
        [77.1601, 31.09061],
        [77.15915, 31.09115],
        [77.15849, 31.09126],
        [77.15746, 31.09124],
        [77.15651, 31.0913],
        [77.15534, 31.09141],
        [77.1538, 31.0916],
        [77.1528, 31.09174],
        [77.15214, 31.09183],
        [77.15055, 31.09183],
        [77.14931, 31.09191],
        [77.14848, 31.09206],
        [77.14742, 31.09246],
        [77.14677, 31.09254],
        [77.14569, 31.09277],
        [77.14467, 31.09286],
        [77.14394, 31.09286],
        [77.14327, 31.09279],
        [77.14245, 31.09254],
        [77.1413, 31.09219],
        [77.1402, 31.09189],
        [77.13922, 31.09164],
        [77.13797, 31.09164],
        [77.13702, 31.09145],
        [77.13609, 31.09128],
        [77.13553, 31.09132],
        [77.13473, 31.09166],
        [77.13399, 31.09227],
        [77.13363, 31.09294],
        [77.13355, 31.09364],
        [77.13365, 31.09486],
        [77.13368, 31.09578],
        [77.13355, 31.09662],
        [77.13336, 31.09765],
        [77.13311, 31.09813],
        [77.13253, 31.09873],
        [77.13306, 31.09896],
        [77.13392, 31.09936],
        [77.13473, 31.0998],
        [77.13514, 31.10009],
        [77.13558, 31.10013],
        [77.13636, 31.10017],
        [77.13666, 31.10039],
        [77.1371, 31.10093],
        [77.13737, 31.10144],
        [77.13761, 31.10217],
        [77.13797, 31.10276],
        [77.13854, 31.10335],
        [77.13873, 31.10381],
        [77.13858, 31.10381],
        [77.13778, 31.10375],
        [77.13665, 31.10371],
        [77.1358, 31.10367],
        [77.13497, 31.10381],
        [77.13419, 31.10381],
        [77.13353, 31.10392],
        [77.13266, 31.10398],
        [77.13212, 31.1043],
        [77.13142, 31.10479],
        [77.13086, 31.10531],
        [77.13076, 31.10539],
        [77.13017, 31.10584],
        [77.12951, 31.10632],
        [77.1292, 31.10672],
        [77.12917, 31.10679],
        [77.12903, 31.10687],
        [77.12886, 31.10699],
        [77.12867, 31.1071],
        [77.12846, 31.1073],
        [77.12839, 31.10743],
        [77.12832, 31.10755],
        [77.12821, 31.1077],
        [77.12811, 31.10785],
        [77.12797, 31.10803],
        [77.12784, 31.10822],
        [77.1278, 31.1084],
        [77.12777, 31.10859],
        [77.12756, 31.109],
        [77.12754, 31.10943],
        [77.12759, 31.10964],
        [77.1277, 31.10966],
        [77.12826, 31.1098],
        [77.12923, 31.10996],
        [77.13073, 31.11021],
        [77.13178, 31.11029],
        [77.13239, 31.11049],
        [77.1331, 31.11057],
        [77.1337, 31.1107],
        [77.13451, 31.11082],
        [77.13511, 31.11094],
        [77.13564, 31.11109],
        [77.13631, 31.11132],
        [77.13676, 31.11146],
        [77.13756, 31.11161],
        [77.13796, 31.11188],
        [77.13853, 31.11232],
        [77.13892, 31.11277],
        [77.13949, 31.11379],
        [77.14012, 31.11471],
        [77.14057, 31.11521],
        [77.14126, 31.11591],
        [77.14172, 31.11663],
        [77.14199, 31.11682],
        [77.14257, 31.11682],
        [77.14383, 31.11687],
        [77.14525, 31.11689],
        [77.14703, 31.11694],
        [77.14771, 31.11698],
        [77.14873, 31.11701],
        [77.14963, 31.11706],
        [77.15034, 31.11707],
        [77.15101, 31.11713],
        [77.15177, 31.11725],
        [77.1523, 31.11743],
        [77.15295, 31.11767],
        [77.15331, 31.1178],
        [77.15392, 31.11812],
        [77.15503, 31.11885],
        [77.15614, 31.11961],
        [77.15781, 31.12046],
        [77.15837, 31.12076],
        [77.15858, 31.12077],
        [77.15903, 31.1206],
        [77.15972, 31.12026],
        [77.16018, 31.11995],
        [77.16071, 31.1195],
        [77.16114, 31.11908],
        [77.16166, 31.11867],
        [77.16214, 31.11823],
        [77.16259, 31.11791],
        [77.16316, 31.11758],
        [77.16365, 31.11734]
      ]
    ]
  }
}
