{
  "type": "Feature",
  "properties": {
    "ST_CODE": "SK",
    "ST_NAME": "SIKKIM"
  },
  "geometry": {
    "type": "Polygon",
    "coordinates": [
      [
        [88.0128, 27.2164],
        [88.0131, 27.2147],
        [88.0147, 27.2141],
        [88.0271, 27.2174],
        [88.0367, 27.2177],
        [88.0508, 27.2126],
        [88.061, 27.2108],
        [88.0631, 27.2097],
        [88.0688, 27.2036],
        [88.0783, 27.1975],
        [88.0786, 27.1961],
        [88.072, 27.1915],
        [88.0709, 27.1862],
        [88.0756, 27.176],
        [88.0765, 27.171],
        [88.0825, 27.1641],
        [88.0863, 27.1617],
        [88.0869, 27.1569],
        [88.0861, 27.1453],
        [88.0887, 27.1385],
        [88.0923, 27.1349],
        [88.0957, 27.1329],
        [88.101, 27.1314],
        [88.1254, 27.1207],
        [88.1298, 27.1198],
        [88.1397, 27.1136],
        [88.1473, 27.1135],
        [88.1558, 27.1082],
        [88.1596, 27.1087],
        [88.1635, 27.112],
        [88.1768, 27.1272],
        [88.1826, 27.1314],
        [88.1826, 27.1314],
        [88.1929, 27.131],
        [88.1993, 27.1328],
        [88.214, 27.1301],
        [88.2174, 27.1315],
        [88.2214, 27.1263],
        [88.2221, 27.126],
        [88.2222, 27.1263],
        [88.2223, 27.1251],
        [88.2265, 27.1206],
        [88.2304, 27.1179],
        [88.2363, 27.1162],
        [88.2439, 27.1168],
        [88.2554, 27.1218],
        [88.2669, 27.1237],
        [88.2747, 27.1266],
        [88.2811, 27.1277],
        [88.2979, 27.1215],
        [88.2993, 27.1216],
        [88.3038, 27.1245],
        [88.308, 27.1251],
        [88.3148, 27.1219],
        [88.3232, 27.1148],
        [88.3233, 27.1159],
        [88.3238, 27.1105],
        [88.3284, 27.1122],
        [88.3236, 27.1101],
        [88.3236, 27.1041],
        [88.3273, 27.1016],
        [88.3445, 27.107],
        [88.3511, 27.1001],
        [88.3558, 27.0975],
        [88.3666, 27.095],
        [88.3747, 27.096],
        [88.3917, 27.0947],
        [88.4019, 27.0906],
        [88.4166, 27.0864],
        [88.4327, 27.0801],
        [88.4355, 27.0781],
        [88.4504, 27.0817],
        [88.4589, 27.0861],
        [88.4645, 27.0924],
        [88.4675, 27.0978],
        [88.4692, 27.1014],
        [88.4705, 27.108],
        [88.4705, 27.1079],
        [88.4711, 27.1105],
        [88.4728, 27.1132],
        [88.4774, 27.1168],
        [88.4852, 27.1192],
        [88.4909, 27.1232],
        [88.4955, 27.1215],
        [88.4993, 27.1221],
        [88.5029, 27.1278],
        [88.5115, 27.1325],
        [88.5208, 27.1412],
        [88.5228, 27.1444],
        [88.5253, 27.1466],
        [88.5339, 27.1468],
        [88.5359, 27.1502],
        [88.5359, 27.1517],
        [88.5311, 27.1574],
        [88.5335, 27.1616],
        [88.5335, 27.1633],
        [88.5249, 27.1721],
        [88.5244, 27.1758],
        [88.525, 27.1748],
        [88.5273, 27.1747],
        [88.5335, 27.1746],
        [88.546, 27.1807],
        [88.5621, 27.1852],
        [88.5676, 27.185],
        [88.5676, 27.1851],
        [88.5707, 27.1846],
        [88.5886, 27.1893],
        [88.5905, 27.1879],
        [88.592, 27.1879],
        [88.5955, 27.1909],
        [88.598, 27.1882],
        [88.6013, 27.1891],
        [88.6024, 27.1879],
        [88.6074, 27.1879],
        [88.6113, 27.1862],
        [88.6229, 27.1846],
        [88.6378, 27.1706],
        [88.6425, 27.1647],
        [88.6535, 27.1614],
        [88.6547, 27.1611],
        [88.6546, 27.1613],
        [88.6602, 27.1591],
        [88.6642, 27.159],
        [88.6713, 27.1673],
        [88.6776, 27.173],
        [88.685, 27.1763],
        [88.6889, 27.1769],
        [88.6964, 27.175],
        [88.7056, 27.1709],
        [88.7154, 27.162],
        [88.7184, 27.1478],
        [88.7202, 27.1434],
        [88.7216, 27.1406],
        [88.7282, 27.1352],
        [88.7372, 27.1341],
        [88.7526, 27.1426],
        [88.7549, 27.1445],
        [88.7575, 27.1493],
        [88.7629, 27.1522],
        [88.7638, 27.1535],
        [88.7641, 27.1568],
        [88.762, 27.1661],
        [88.7624, 27.1697],
        [88.7647, 27.1727],
        [88.7701, 27.1763],
        [88.7823, 27.1774],
        [88.7878, 27.1793],
        [88.7919, 27.1834],
        [88.793, 27.1879],
        [88.7933, 27.1992],
        [88.799, 27.206],
        [88.8031, 27.2136],
        [88.8043, 27.2175],
        [88.8035, 27.2361],
        [88.8049, 27.2453],
        [88.824, 27.2542],
        [88.828, 27.2582],
        [88.8359, 27.2607],
        [88.84, 27.261],
        [88.8478, 27.259],
        [88.851, 27.2599],
        [88.8621, 27.2596],
        [88.8679, 27.2604],
        [88.8774, 27.2576],
        [88.8877, 27.2674],
        [88.9007, 27.2733],
        [88.904, 27.2736],
        [88.9079, 27.2769],
        [88.9114, 27.2817],
        [88.9141, 27.2908],
        [88.9135, 27.304],
        [88.9164, 27.3079],
        [88.9186, 27.3167],
        [88.9237, 27.3221],
        [88.9242, 27.3247],
        [88.9167, 27.3286],
        [88.9114, 27.3283],
        [88.9048, 27.3322],
        [88.8983, 27.3316],
        [88.8936, 27.3355],
        [88.8924, 27.3367],
        [88.8889, 27.3453],
        [88.8873, 27.3553],
        [88.8835, 27.3619],
        [88.8712, 27.3662],
        [88.8657, 27.3816],
        [88.861, 27.3845],
        [88.8571, 27.3842],
        [88.851, 27.3785],
        [88.8463, 27.3762],
        [88.8424, 27.3768],
        [88.8365, 27.3843],
        [88.8367, 27.3843],
        [88.8365, 27.3848],
        [88.8347, 27.387],
        [88.8292, 27.3895],
        [88.8252, 27.395],
        [88.8225, 27.3977],
        [88.822, 27.3978],
        [88.8221, 27.3978],
        [88.813, 27.4036],
        [88.8097, 27.4125],
        [88.807, 27.4249],
        [88.7987, 27.431],
        [88.7962, 27.446],
        [88.7924, 27.4486],
        [88.7916, 27.4503],
        [88.7871, 27.4539],
        [88.7852, 27.4665],
        [88.7862, 27.478],
        [88.7889, 27.4857],
        [88.7869, 27.4949],
        [88.7897, 27.5093],
        [88.7901, 27.5179],
        [88.7903, 27.5176],
        [88.7924, 27.5258],
        [88.7911, 27.5273],
        [88.788, 27.5279],
        [88.7789, 27.5359],
        [88.7713, 27.5592],
        [88.7707, 27.5637],
        [88.7725, 27.567],
        [88.7886, 27.5747],
        [88.7897, 27.5763],
        [88.7921, 27.5866],
        [88.8091, 27.6021],
        [88.8121, 27.6125],
        [88.8103, 27.6324],
        [88.8114, 27.6362],
        [88.8144, 27.6416],
        [88.8257, 27.6419],
        [88.829, 27.6437],
        [88.8359, 27.6491],
        [88.8415, 27.6568],
        [88.8472, 27.6622],
        [88.8504, 27.668],
        [88.8505, 27.6753],
        [88.8487, 27.6812],
        [88.8481, 27.6866],
        [88.8492, 27.6931],
        [88.8492, 27.6989],
        [88.8448, 27.7023],
        [88.8424, 27.7074],
        [88.8424, 27.7092],
        [88.843, 27.7107],
        [88.8472, 27.7127],
        [88.8544, 27.7178],
        [88.8552, 27.7229],
        [88.8582, 27.7297],
        [88.8651, 27.7354],
        [88.8662, 27.7387],
        [88.8652, 27.7484],
        [88.863, 27.7529],
        [88.8593, 27.7571],
        [88.8564, 27.7678],
        [88.8561, 27.7776],
        [88.8609, 27.7996],
        [88.8612, 27.811],
        [88.8597, 27.8178],
        [88.874, 27.8252],
        [88.8782, 27.8288],
        [88.8849, 27.8388],
        [88.8868, 27.8568],
        [88.8895, 27.8612],
        [88.8885, 27.865],
        [88.8847, 27.8699],
        [88.8838, 27.88],
        [88.8853, 27.8889],
        [88.8835, 27.8955],
        [88.8742, 27.902],
        [88.863, 27.9246],
        [88.8445, 27.9297],
        [88.84, 27.9318],
        [88.8403, 27.9473],
        [88.8436, 27.9529],
        [88.8472, 27.9559],
        [88.8475, 27.9586],
        [88.8466, 27.9618],
        [88.8436, 27.9651],
        [88.8444, 27.9912],
        [88.8386, 28.0002],
        [88.8365, 28.0118],
        [88.8325, 28.0153],
        [88.813, 28.0245],
        [88.8055, 28.0291],
        [88.8013, 28.0327],
        [88.7981, 28.0374],
        [88.7891, 28.0446],
        [88.7856, 28.0511],
        [88.7548, 28.0733],
        [88.7448, 28.0758],
        [88.735, 28.0752],
        [88.7258, 28.0761],
        [88.7182, 28.0756],
        [88.7085, 28.0779],
        [88.6987, 28.077],
        [88.6907, 28.0787],
        [88.6819, 28.0775],
        [88.677, 28.0728],
        [88.6707, 28.074],
        [88.665, 28.0793],
        [88.6562, 28.0921],
        [88.649, 28.0996],
        [88.6413, 28.1049],
        [88.6389, 28.1134],
        [88.6351, 28.1222],
        [88.6296, 28.1282],
        [88.6249, 28.1311],
        [88.6155, 28.1299],
        [88.611, 28.1265],
        [88.611, 28.1235],
        [88.6148, 28.1195],
        [88.6176, 28.1095],
        [88.6204, 28.104],
        [88.5997, 28.0963],
        [88.5941, 28.0919],
        [88.5923, 28.0918],
        [88.5788, 28.0856],
        [88.5743, 28.0865],
        [88.5699, 28.0889],
        [88.5623, 28.0876],
        [88.5588, 28.0853],
        [88.5565, 28.0783],
        [88.5555, 28.0635],
        [88.547, 28.05],
        [88.5466, 28.0442],
        [88.5449, 28.0407],
        [88.5416, 28.0383],
        [88.5353, 28.0362],
        [88.5317, 28.0365],
        [88.5268, 28.0388],
        [88.5195, 28.0442],
        [88.5115, 28.046],
        [88.5052, 28.0486],
        [88.4929, 28.0477],
        [88.4857, 28.0449],
        [88.4818, 28.0425],
        [88.4752, 28.0362],
        [88.4684, 28.0228],
        [88.4658, 28.0198],
        [88.4539, 28.0145],
        [88.4364, 28.0102],
        [88.4303, 28.0079],
        [88.4154, 27.9954],
        [88.4121, 27.9918],
        [88.41, 27.9879],
        [88.4056, 27.9838],
        [88.3961, 27.9788],
        [88.3919, 27.9776],
        [88.3865, 27.9791],
        [88.3775, 27.9838],
        [88.3671, 27.9879],
        [88.3577, 27.9892],
        [88.348, 27.9891],
        [88.3385, 27.9868],
        [88.3306, 27.9815],
        [88.3266, 27.9811],
        [88.3182, 27.9784],
        [88.3121, 27.9722],
        [88.308, 27.9695],
        [88.2979, 27.9678],
        [88.2908, 27.9684],
        [88.2835, 27.9671],
        [88.2803, 27.9639],
        [88.2789, 27.9607],
        [88.2762, 27.9588],
        [88.2687, 27.9562],
        [88.262, 27.9558],
        [88.2529, 27.9504],
        [88.2473, 27.9481],
        [88.2426, 27.9499],
        [88.2411, 27.9523],
        [88.2384, 27.954],
        [88.2363, 27.965],
        [88.2332, 27.9674],
        [88.2292, 27.9666],
        [88.225, 27.9636],
        [88.2137, 27.9672],
        [88.2067, 27.9653],
        [88.2036, 27.9596],
        [88.2009, 27.9505],
        [88.1991, 27.9472],
        [88.1964, 27.9451],
        [88.1899, 27.9431],
        [88.1771, 27.9443],
        [88.1706, 27.9478],
        [88.1567, 27.9576],
        [88.1428, 27.963],
        [88.1382, 27.9626],
        [88.1366, 27.9615],
        [88.1334, 27.9556],
        [88.1274, 27.9504],
        [88.1277, 27.9481],
        [88.1325, 27.9449],
        [88.1325, 27.9383],
        [88.1301, 27.9351],
        [88.1202, 27.9255],
        [88.1173, 27.916],
        [88.1176, 27.9115],
        [88.1256, 27.8984],
        [88.1298, 27.8948],
        [88.1334, 27.8859],
        [88.1331, 27.8803],
        [88.1301, 27.8751],
        [88.131, 27.8725],
        [88.1367, 27.8701],
        [88.1468, 27.871],
        [88.1613, 27.8687],
        [88.1674, 27.8666],
        [88.1754, 27.8657],
        [88.1813, 27.86],
        [88.1976, 27.8502],
        [88.1979, 27.8422],
        [88.1962, 27.8378],
        [88.1928, 27.8341],
        [88.173, 27.8195],
        [88.173, 27.8176],
        [88.1744, 27.8157],
        [88.1777, 27.8151],
        [88.1816, 27.813],
        [88.1863, 27.802],
        [88.192, 27.797],
        [88.1935, 27.7934],
        [88.1935, 27.7866],
        [88.1906, 27.7806],
        [88.1851, 27.7734],
        [88.1818, 27.7672],
        [88.1793, 27.7611],
        [88.1762, 27.7493],
        [88.1702, 27.7446],
        [88.1619, 27.7405],
        [88.1553, 27.7347],
        [88.1536, 27.7314],
        [88.1521, 27.7181],
        [88.1473, 27.7039],
        [88.1474, 27.6989],
        [88.15, 27.6923],
        [88.15, 27.6827],
        [88.1503, 27.6828],
        [88.1488, 27.6768],
        [88.1447, 27.6661],
        [88.1431, 27.6652],
        [88.136, 27.6565],
        [88.125, 27.6509],
        [88.1196, 27.644],
        [88.1128, 27.6181],
        [88.111, 27.613],
        [88.109, 27.6108],
        [88.1114, 27.6101],
        [88.1089, 27.6104],
        [88.1054, 27.6053],
        [88.0997, 27.6011],
        [88.0884, 27.5947],
        [88.0822, 27.5899],
        [88.0792, 27.5863],
        [88.0756, 27.5789],
        [88.0766, 27.5731],
        [88.0792, 27.5676],
        [88.079, 27.5608],
        [88.075, 27.5562],
        [88.0658, 27.5515],
        [88.0628, 27.5476],
        [88.0601, 27.5369],
        [88.0652, 27.5322],
        [88.0655, 27.53],
        [88.0638, 27.5259],
        [88.0584, 27.521],
        [88.0554, 27.5098],
        [88.0474, 27.5012],
        [88.043, 27.4921],
        [88.0435, 27.4798],
        [88.0479, 27.4694],
        [88.051, 27.4652],
        [88.0561, 27.4614],
        [88.0596, 27.4539],
        [88.0646, 27.4492],
        [88.0664, 27.442],
        [88.0655, 27.4304],
        [88.0664, 27.4244],
        [88.0625, 27.4208],
        [88.0575, 27.4185],
        [88.0501, 27.4135],
        [88.0468, 27.4099],
        [88.0444, 27.4056],
        [88.0424, 27.3975],
        [88.0399, 27.3819],
        [88.0405, 27.3694],
        [88.0411, 27.3696],
        [88.0409, 27.3671],
        [88.0435, 27.3626],
        [88.0527, 27.356],
        [88.0573, 27.3515],
        [88.0599, 27.3447],
        [88.0607, 27.3364],
        [88.0572, 27.3272],
        [88.0574, 27.3272],
        [88.0563, 27.325],
        [88.0506, 27.32],
        [88.0444, 27.3101],
        [88.0403, 27.2996],
        [88.0396, 27.2926],
        [88.0385, 27.2891],
        [88.0308, 27.2782],
        [88.0283, 27.2673],
        [88.029, 27.2456],
        [88.0245, 27.237],
        [88.0194, 27.2301],
        [88.0128, 27.2164]
      ]
    ]
  }
}
