{
  "type": "Feature",
  "id": "RJ-AC-104",
  "properties": {
    "stateName": "RAJASTHAN",
    "stateCode": "RJ",
    "districtName": "AJMER",
    "acNo": 104,
    "acName": "Masuda",
    "seatType": null,
    "pcNo": 13,
    "pcName": "AJMER",
    "quality": "unverified",
    "sources": [
      "TBD"
    ]
  },
  "geometry": {
    "type": "Polygon",
    "coordinates": [
      [
        [74.45183, 26.2262],
        [74.4716, 26.22392],
        [74.46704, 26.21358],
        [74.47052, 26.20366],
        [74.48131, 26.19297],
        [74.49333, 26.1912],
        [74.50534, 26.18297],
        [74.5714, 26.2177],
        [74.5887, 26.23352],
        [74.61967, 26.19335],
        [74.65705, 26.17956],
        [74.65965, 26.1563],
        [74.66578, 26.15238],
        [74.71082, 26.15666],
        [74.71604, 26.17305],
        [74.74022, 26.18699],
        [74.75062, 26.19976],
        [74.77562, 26.19566],
        [74.77338, 26.16277],
        [74.79348, 26.14138],
        [74.7851, 26.11518],
        [74.81921, 26.09979],
        [74.85709, 26.10598],
        [74.86713, 26.09311],
        [74.86862, 26.07896],
        [74.88149, 26.06448],
        [74.87625, 26.05003],
        [74.89701, 26.05549],
        [74.91652, 26.03965],
        [74.91474, 26.03512],
        [74.94265, 26.02509],
        [74.95547, 26.00805],
        [74.95389, 25.99472],
        [74.96386, 25.98021],
        [75.00489, 25.97537],
        [75.00705, 25.9557],
        [74.9676, 25.93358],
        [74.97885, 25.91778],
        [74.98464, 25.8979],
        [74.99966, 25.88051],
        [74.99547, 25.86199],
        [74.98654, 25.85064],
        [74.98225, 25.86349],
        [74.94218, 25.86232],
        [74.92527, 25.87738],
        [74.90222, 25.88145],
        [74.88877, 25.87252],
        [74.85398, 25.87994],
        [74.81307, 25.87181],
        [74.78877, 25.87662],
        [74.77972, 25.88249],
        [74.7695, 25.88671],
        [74.7662, 25.89565],
        [74.71518, 25.92114],
        [74.65888, 25.91716],
        [74.62305, 25.9052],
        [74.61292, 25.90539],
        [74.61518, 25.91307],
        [74.60311, 25.91536],
        [74.59324, 25.91581],
        [74.59222, 25.90879],
        [74.56586, 25.91464],
        [74.55952, 25.91359],
        [74.55723, 25.90239],
        [74.57518, 25.88861],
        [74.56958, 25.87636],
        [74.56167, 25.88047],
        [74.54308, 25.87715],
        [74.52864, 25.86584],
        [74.52542, 25.86687],
        [74.53326, 25.88363],
        [74.53272, 25.89501],
        [74.53148, 25.90319],
        [74.52534, 25.90239],
        [74.52467, 25.91145],
        [74.48399, 25.92812],
        [74.47665, 25.92613],
        [74.45312, 25.93163],
        [74.43777, 25.92588],
        [74.42359, 25.93122],
        [74.42409, 25.93537],
        [74.41367, 25.93782],
        [74.40827, 25.95046],
        [74.38917, 25.96368],
        [74.38684, 25.97489],
        [74.39119, 25.98787],
        [74.38509, 25.99245],
        [74.38655, 26.00505],
        [74.36231, 26.01871],
        [74.3571, 26.01645],
        [74.35052, 26.02335],
        [74.35777, 26.06744],
        [74.37456, 26.0981],
        [74.38094, 26.1039],
        [74.3883, 26.10392],
        [74.39643, 26.09015],
        [74.40345, 26.08796],
        [74.41552, 26.09976],
        [74.4062, 26.10588],
        [74.40543, 26.11575],
        [74.41009, 26.12984],
        [74.41771, 26.13675],
        [74.39852, 26.15323],
        [74.38421, 26.15493],
        [74.37288, 26.1634],
        [74.36638, 26.17272],
        [74.36941, 26.19477],
        [74.37377, 26.20645],
        [74.39336, 26.20873],
        [74.414, 26.2254],
        [74.42731, 26.22418],
        [74.43563, 26.23074],
        [74.45183, 26.2262]
      ]
    ]
  }
}
