{
  "type": "Feature",
  "id": "RJ-AC-108",
  "properties": {
    "stateName": "RAJASTHAN",
    "stateCode": "RJ",
    "districtName": "NAGAUR",
    "acNo": 108,
    "acName": "Jayal (SC)",
    "seatType": null,
    "pcNo": 14,
    "pcName": "NAGAUR",
    "quality": "unverified",
    "sources": [
      "TBD"
    ]
  },
  "geometry": {
    "type": "Polygon",
    "coordinates": [
      [
        [73.81302, 27.5001],
        [73.83085, 27.50664],
        [73.86133, 27.53585],
        [73.87733, 27.53888],
        [73.8915, 27.50036],
        [73.90774, 27.48937],
        [73.94156, 27.5006],
        [73.95635, 27.51042],
        [73.96005, 27.50541],
        [73.97156, 27.50342],
        [73.98833, 27.51061],
        [73.99084, 27.50445],
        [74.00216, 27.51469],
        [74.00949, 27.51338],
        [74.00677, 27.51921],
        [74.02965, 27.53506],
        [74.06323, 27.50955],
        [74.06547, 27.49793],
        [74.07878, 27.48751],
        [74.08029, 27.47948],
        [74.11169, 27.47417],
        [74.11961, 27.45943],
        [74.1318, 27.46214],
        [74.14192, 27.45255],
        [74.149, 27.43493],
        [74.14052, 27.42649],
        [74.14519, 27.41536],
        [74.15437, 27.41094],
        [74.18252, 27.42429],
        [74.20316, 27.42274],
        [74.2031, 27.46455],
        [74.20965, 27.46881],
        [74.25677, 27.46122],
        [74.28012, 27.42869],
        [74.27654, 27.42435],
        [74.21414, 27.40664],
        [74.22553, 27.36584],
        [74.21492, 27.33546],
        [74.24573, 27.32155],
        [74.27097, 27.32472],
        [74.27955, 27.31139],
        [74.30085, 27.30358],
        [74.30749, 27.28616],
        [74.33321, 27.27399],
        [74.34806, 27.22257],
        [74.34284, 27.21217],
        [74.32753, 27.20009],
        [74.34396, 27.16324],
        [74.3433, 27.14115],
        [74.36746, 27.11235],
        [74.35594, 27.08188],
        [74.34577, 27.07523],
        [74.31627, 27.06872],
        [74.30525, 27.07245],
        [74.29972, 27.08382],
        [74.29018, 27.08463],
        [74.26414, 27.07061],
        [74.24743, 27.05434],
        [74.21473, 27.04581],
        [74.18579, 27.02505],
        [74.15734, 27.02821],
        [74.15683, 27.00356],
        [74.12169, 26.97848],
        [74.10838, 26.95432],
        [74.10595, 26.93392],
        [74.10056, 26.93544],
        [74.09277, 26.95176],
        [74.08526, 26.9551],
        [74.05819, 26.94908],
        [74.04103, 26.95248],
        [74.01317, 27.01108],
        [73.9845, 27.01758],
        [73.95983, 27.00534],
        [73.93657, 27.02151],
        [73.91752, 27.03915],
        [73.91252, 27.05542],
        [73.89101, 27.07353],
        [73.87636, 27.15466],
        [73.87861, 27.1586],
        [73.90499, 27.16565],
        [73.92329, 27.19894],
        [73.95009, 27.19945],
        [73.95374, 27.207],
        [73.94861, 27.22054],
        [73.93852, 27.2271],
        [73.92345, 27.22545],
        [73.91458, 27.23642],
        [73.88974, 27.23236],
        [73.87709, 27.2358],
        [73.842, 27.23329],
        [73.81867, 27.22757],
        [73.79578, 27.25712],
        [73.7986, 27.26775],
        [73.7909, 27.309],
        [73.7779, 27.32516],
        [73.75597, 27.31425],
        [73.75585, 27.32462],
        [73.74807, 27.33249],
        [73.74445, 27.34873],
        [73.72261, 27.3546],
        [73.70568, 27.34245],
        [73.68735, 27.34244],
        [73.67331, 27.36584],
        [73.68368, 27.40281],
        [73.71919, 27.40881],
        [73.73424, 27.42358],
        [73.75243, 27.41613],
        [73.76161, 27.41713],
        [73.77242, 27.42542],
        [73.78408, 27.4245],
        [73.77818, 27.43553],
        [73.77621, 27.46183],
        [73.76599, 27.45896],
        [73.74005, 27.47355],
        [73.7334, 27.49189],
        [73.72244, 27.50246],
        [73.71908, 27.51988],
        [73.7345, 27.52196],
        [73.74569, 27.52783],
        [73.74371, 27.53215],
        [73.75855, 27.53501],
        [73.77227, 27.52784],
        [73.79093, 27.50024],
        [73.81302, 27.5001]
      ]
    ]
  }
}
