{
  "type": "Feature",
  "id": "RJ-AC-114",
  "properties": {
    "stateName": "RAJASTHAN",
    "stateCode": "RJ",
    "districtName": "NAGAUR",
    "acNo": 114,
    "acName": "Parbatsar",
    "seatType": null,
    "pcNo": 14,
    "pcName": "NAGAUR",
    "quality": "unverified",
    "sources": [
      "TBD"
    ]
  },
  "geometry": {
    "type": "Polygon",
    "coordinates": [
      [
        [74.82944, 27.2461],
        [74.85389, 27.20962],
        [74.86548, 27.17713],
        [74.85925, 27.16474],
        [74.84543, 27.15797],
        [74.84395, 27.1225],
        [74.86132, 27.12787],
        [74.87666, 27.1252],
        [74.89489, 27.14152],
        [74.90376, 27.14355],
        [74.95896, 27.1452],
        [74.9774, 27.11287],
        [74.98978, 27.12946],
        [75.00255, 27.1083],
        [75.0203, 27.10578],
        [75.00932, 27.07952],
        [75.02255, 27.08311],
        [75.03335, 27.07087],
        [75.03463, 27.06064],
        [75.02842, 27.05631],
        [74.97145, 27.05709],
        [74.96099, 27.03488],
        [74.96326, 27.02408],
        [74.94381, 27.02027],
        [74.92704, 27.00148],
        [74.9219, 27.00423],
        [74.92293, 27.01272],
        [74.93663, 27.03217],
        [74.91374, 27.04106],
        [74.91149, 26.9977],
        [74.89795, 26.97692],
        [74.87052, 26.97432],
        [74.85366, 26.9786],
        [74.83933, 26.95574],
        [74.83375, 26.93283],
        [74.82619, 26.92736],
        [74.82368, 26.91221],
        [74.82793, 26.90454],
        [74.81601, 26.88486],
        [74.81919, 26.88107],
        [74.81357, 26.86671],
        [74.79932, 26.85357],
        [74.76945, 26.84954],
        [74.7719, 26.83954],
        [74.76555, 26.82857],
        [74.77578, 26.81922],
        [74.77586, 26.80246],
        [74.78002, 26.79814],
        [74.77587, 26.79003],
        [74.75905, 26.79116],
        [74.75121, 26.78518],
        [74.74925, 26.77105],
        [74.72013, 26.77076],
        [74.71175, 26.77577],
        [74.69516, 26.7709],
        [74.69804, 26.76341],
        [74.68215, 26.7469],
        [74.68311, 26.73605],
        [74.66325, 26.71258],
        [74.71137, 26.70569],
        [74.72198, 26.70012],
        [74.71442, 26.66638],
        [74.69352, 26.64694],
        [74.68516, 26.62142],
        [74.67376, 26.60892],
        [74.67116, 26.59526],
        [74.65547, 26.58662],
        [74.64696, 26.59263],
        [74.6261, 26.57212],
        [74.61535, 26.5678],
        [74.59958, 26.58338],
        [74.61333, 26.60401],
        [74.58873, 26.6286],
        [74.52912, 26.55019],
        [74.5169, 26.55826],
        [74.50023, 26.56057],
        [74.49685, 26.57146],
        [74.50039, 26.60273],
        [74.50958, 26.62664],
        [74.5297, 26.64092],
        [74.51674, 26.66282],
        [74.5181, 26.66835],
        [74.53088, 26.67545],
        [74.5217, 26.70463],
        [74.52423, 26.73478],
        [74.50855, 26.76248],
        [74.4873, 26.74843],
        [74.48087, 26.751],
        [74.47664, 26.76584],
        [74.46095, 26.75482],
        [74.43918, 26.7869],
        [74.42556, 26.78695],
        [74.40684, 26.81382],
        [74.42146, 26.82735],
        [74.42202, 26.84115],
        [74.45849, 26.85162],
        [74.46372, 26.8659],
        [74.48074, 26.87552],
        [74.49072, 26.87222],
        [74.50776, 26.88642],
        [74.52141, 26.88813],
        [74.53144, 26.88245],
        [74.54653, 26.88919],
        [74.55442, 26.91676],
        [74.5674, 26.90816],
        [74.57407, 26.88787],
        [74.57816, 26.88653],
        [74.62394, 26.90047],
        [74.65616, 26.91746],
        [74.66852, 26.91779],
        [74.66873, 26.9271],
        [74.68073, 26.93051],
        [74.69537, 26.94393],
        [74.66469, 26.973],
        [74.67758, 26.99179],
        [74.67477, 26.99794],
        [74.70016, 27.00517],
        [74.72463, 26.99882],
        [74.73093, 27.01873],
        [74.77572, 27.02624],
        [74.77299, 27.04297],
        [74.79007, 27.04743],
        [74.78908, 27.05743],
        [74.8169, 27.07081],
        [74.8264, 27.08345],
        [74.82377, 27.09283],
        [74.81069, 27.09861],
        [74.80294, 27.11012],
        [74.80444, 27.12285],
        [74.81669, 27.13862],
        [74.81479, 27.14533],
        [74.80418, 27.15015],
        [74.77652, 27.14795],
        [74.76148, 27.18147],
        [74.77616, 27.19118],
        [74.77815, 27.21495],
        [74.80228, 27.22609],
        [74.82944, 27.2461]
      ]
    ]
  }
}
