{
  "type": "Feature",
  "id": "RJ-AC-120",
  "properties": {
    "stateName": "RAJASTHAN",
    "stateCode": "RJ",
    "districtName": "PALI",
    "acNo": 120,
    "acName": "Bali",
    "seatType": null,
    "pcNo": 15,
    "pcName": "PALI",
    "quality": "unverified",
    "sources": [
      "TBD"
    ]
  },
  "geometry": {
    "type": "Polygon",
    "coordinates": [
      [
        [73.26577, 25.34531],
        [73.2933, 25.32837],
        [73.30388, 25.3274],
        [73.3318, 25.33512],
        [73.35367, 25.32875],
        [73.38801, 25.3584],
        [73.39872, 25.38571],
        [73.3901, 25.39287],
        [73.39232, 25.4006],
        [73.40022, 25.40208],
        [73.40957, 25.39432],
        [73.42778, 25.40313],
        [73.44837, 25.42285],
        [73.45181, 25.44475],
        [73.46064, 25.45213],
        [73.46846, 25.4375],
        [73.48728, 25.42292],
        [73.49312, 25.40158],
        [73.48818, 25.40358],
        [73.48149, 25.39965],
        [73.47822, 25.3819],
        [73.49138, 25.37205],
        [73.5123, 25.37082],
        [73.51583, 25.36703],
        [73.5254, 25.37073],
        [73.5324, 25.36489],
        [73.54085, 25.37031],
        [73.54937, 25.36939],
        [73.56122, 25.35572],
        [73.59152, 25.37114],
        [73.6321, 25.35691],
        [73.64469, 25.36258],
        [73.66682, 25.34343],
        [73.66254, 25.33284],
        [73.64657, 25.32314],
        [73.64885, 25.30764],
        [73.64245, 25.31509],
        [73.63834, 25.31364],
        [73.61001, 25.28655],
        [73.62171, 25.25736],
        [73.61431, 25.25039],
        [73.60952, 25.25115],
        [73.60153, 25.20577],
        [73.59376, 25.20176],
        [73.59471, 25.19323],
        [73.59015, 25.18889],
        [73.57316, 25.1865],
        [73.56362, 25.16665],
        [73.5559, 25.16675],
        [73.54737, 25.15376],
        [73.54278, 25.15688],
        [73.50168, 25.12895],
        [73.49711, 25.12325],
        [73.50067, 25.11802],
        [73.48918, 25.11619],
        [73.48769, 25.10475],
        [73.47374, 25.10378],
        [73.45565, 25.09061],
        [73.41009, 25.088],
        [73.40737, 25.08081],
        [73.38954, 25.06649],
        [73.38674, 25.0542],
        [73.37213, 25.03316],
        [73.35119, 25.01862],
        [73.35472, 25.01241],
        [73.34426, 25.01067],
        [73.34401, 25.0003],
        [73.34707, 24.98617],
        [73.33889, 24.98558],
        [73.33048, 24.97323],
        [73.33719, 24.96472],
        [73.35026, 24.95951],
        [73.34424, 24.9512],
        [73.34712, 24.94826],
        [73.34301, 24.93573],
        [73.337, 24.93173],
        [73.33125, 24.90581],
        [73.31949, 24.90505],
        [73.31623, 24.89615],
        [73.30873, 24.89231],
        [73.30959, 24.88586],
        [73.29238, 24.86983],
        [73.2833, 24.87786],
        [73.28089, 24.87318],
        [73.2721, 24.87418],
        [73.26972, 24.85347],
        [73.24083, 24.82431],
        [73.2401, 24.79601],
        [73.23389, 24.78441],
        [73.20979, 24.78477],
        [73.18281, 24.76681],
        [73.17058, 24.76336],
        [73.15953, 24.75247],
        [73.14622, 24.74821],
        [73.17147, 24.77972],
        [73.16758, 24.82278],
        [73.14826, 24.84593],
        [73.13316, 24.84668],
        [73.12653, 24.83751],
        [73.11191, 24.84573],
        [73.10512, 24.85853],
        [73.07897, 24.86089],
        [73.05603, 24.88649],
        [73.04292, 24.88667],
        [72.99222, 24.92345],
        [72.99871, 24.93831],
        [72.99429, 24.94876],
        [72.9963, 24.96172],
        [73.01296, 24.96831],
        [73.02693, 24.96527],
        [73.03869, 24.97207],
        [73.05364, 25.00854],
        [73.07891, 25.02681],
        [73.10856, 25.03897],
        [73.12938, 25.06503],
        [73.13122, 25.07651],
        [73.16341, 25.06706],
        [73.18203, 25.07714],
        [73.16442, 25.13141],
        [73.17414, 25.16809],
        [73.18632, 25.17082],
        [73.19551, 25.18861],
        [73.19272, 25.19584],
        [73.17973, 25.19975],
        [73.20358, 25.21137],
        [73.19277, 25.2355],
        [73.21096, 25.25666],
        [73.22307, 25.25957],
        [73.2241, 25.27952],
        [73.23979, 25.272],
        [73.25097, 25.27687],
        [73.24902, 25.30842],
        [73.25528, 25.30802],
        [73.26303, 25.29783],
        [73.26848, 25.29937],
        [73.27013, 25.30883],
        [73.26079, 25.34213],
        [73.26577, 25.34531]
      ]
    ]
  }
}
