{
  "type": "Feature",
  "id": "RJ-AC-123",
  "properties": {
    "stateName": "RAJASTHAN",
    "stateCode": "RJ",
    "districtName": "JODHPUR",
    "acNo": 123,
    "acName": "Lohawat",
    "seatType": null,
    "pcNo": 16,
    "pcName": "JODHPUR",
    "quality": "unverified",
    "sources": [
      "TBD"
    ]
  },
  "geometry": {
    "type": "Polygon",
    "coordinates": [
      [
        [73.08937, 27.24258],
        [73.08581, 27.23951],
        [73.09913, 27.22702],
        [73.10835, 27.20071],
        [73.1169, 27.14732],
        [73.11334, 27.13211],
        [73.09882, 27.1176],
        [73.10294, 27.10654],
        [73.12037, 27.09131],
        [73.13142, 27.05727],
        [73.13821, 27.05021],
        [73.10845, 27.02274],
        [73.10853, 27.00701],
        [73.1191, 26.99634],
        [73.11979, 26.98961],
        [73.10794, 26.97965],
        [73.10806, 26.96953],
        [73.12058, 26.94541],
        [73.09212, 26.89844],
        [73.0797, 26.89109],
        [73.055, 26.89752],
        [73.01886, 26.87598],
        [73.03513, 26.8563],
        [73.02115, 26.84517],
        [72.97774, 26.82885],
        [72.96232, 26.8409],
        [72.94104, 26.84406],
        [72.90969, 26.79763],
        [72.89661, 26.79948],
        [72.87386, 26.77037],
        [72.86304, 26.73015],
        [72.87033, 26.72723],
        [72.86856, 26.71108],
        [72.85389, 26.71182],
        [72.83305, 26.69205],
        [72.82256, 26.70056],
        [72.81548, 26.72673],
        [72.80768, 26.7224],
        [72.75485, 26.75051],
        [72.76715, 26.7842],
        [72.73396, 26.81997],
        [72.73245, 26.86194],
        [72.69298, 26.8581],
        [72.68165, 26.89015],
        [72.67251, 26.90165],
        [72.58994, 26.90731],
        [72.56009, 26.89526],
        [72.53597, 26.86519],
        [72.52936, 26.83955],
        [72.5325, 26.8306],
        [72.48889, 26.8017],
        [72.47238, 26.80654],
        [72.43037, 26.79849],
        [72.42257, 26.8033],
        [72.406, 26.8035],
        [72.38751, 26.73047],
        [72.36528, 26.7244],
        [72.34693, 26.68927],
        [72.32703, 26.68835],
        [72.33404, 26.67905],
        [72.34785, 26.67965],
        [72.36541, 26.67057],
        [72.37578, 26.65534],
        [72.362, 26.63567],
        [72.37069, 26.62837],
        [72.36275, 26.61573],
        [72.375, 26.60693],
        [72.32896, 26.56561],
        [72.29088, 26.56424],
        [72.26663, 26.5766],
        [72.25629, 26.56885],
        [72.26269, 26.55769],
        [72.23058, 26.55578],
        [72.2174, 26.54434],
        [72.20183, 26.54646],
        [72.2035, 26.58255],
        [72.19559, 26.59082],
        [72.15904, 26.60375],
        [72.14093, 26.61705],
        [72.1338, 26.63078],
        [72.08485, 26.62338],
        [72.05919, 26.64146],
        [72.0658, 26.64623],
        [72.05308, 26.66387],
        [72.03862, 26.67458],
        [72.03858, 26.68173],
        [72.0697, 26.71981],
        [72.07523, 26.71505],
        [72.08625, 26.71915],
        [72.08335, 26.73692],
        [72.05801, 26.76253],
        [72.05981, 26.78291],
        [72.04468, 26.79071],
        [72.05493, 26.8038],
        [72.08422, 26.80827],
        [72.09821, 26.83009],
        [72.08787, 26.84833],
        [72.09407, 26.8576],
        [72.10175, 26.86036],
        [72.09643, 26.88085],
        [72.10242, 26.88746],
        [72.09929, 26.89065],
        [72.15002, 26.88991],
        [72.16874, 26.85562],
        [72.19066, 26.86588],
        [72.19414, 26.87831],
        [72.21399, 26.88513],
        [72.23792, 26.88571],
        [72.26888, 26.90969],
        [72.28461, 26.90801],
        [72.30059, 26.89163],
        [72.32402, 26.88962],
        [72.35798, 26.91583],
        [72.37131, 26.91607],
        [72.37749, 26.90931],
        [72.39893, 26.92492],
        [72.42702, 26.93489],
        [72.45352, 26.92546],
        [72.46429, 26.93531],
        [72.52535, 26.96213],
        [72.51913, 26.99699],
        [72.53066, 27.01558],
        [72.54263, 27.02746],
        [72.58123, 27.0465],
        [72.57839, 27.08481],
        [72.58319, 27.10973],
        [72.56691, 27.15603],
        [72.58458, 27.17203],
        [72.59069, 27.18363],
        [72.59601, 27.22226],
        [72.62621, 27.24229],
        [72.65057, 27.24957],
        [72.66993, 27.26145],
        [72.67591, 27.26841],
        [72.66988, 27.28427],
        [72.71037, 27.29751],
        [72.72518, 27.3095],
        [72.73708, 27.30183],
        [72.75872, 27.31816],
        [72.77352, 27.32064],
        [72.7781, 27.29326],
        [72.78648, 27.29028],
        [72.82715, 27.2516],
        [72.85453, 27.24167],
        [72.84251, 27.23561],
        [72.82153, 27.23333],
        [72.80639, 27.21858],
        [72.80437, 27.14419],
        [72.82494, 27.11165],
        [72.83088, 27.09317],
        [72.84508, 27.0944],
        [72.85541, 27.07695],
        [72.89151, 27.09184],
        [72.93688, 27.1373],
        [72.94131, 27.16822],
        [72.92161, 27.16887],
        [72.92457, 27.21614],
        [72.94254, 27.21186],
        [72.96228, 27.19737],
        [72.98036, 27.20793],
        [72.99952, 27.20773],
        [73.02968, 27.19553],
        [73.07422, 27.24551],
        [73.08937, 27.24258]
      ]
    ]
  }
}
