{
  "type": "Feature",
  "id": "RJ-AC-126",
  "properties": {
    "stateName": "RAJASTHAN",
    "stateCode": "RJ",
    "districtName": "JODHPUR",
    "acNo": 126,
    "acName": "Bhopalgarh(SC)",
    "seatType": null,
    "pcNo": 15,
    "pcName": "PALI",
    "quality": "unverified",
    "sources": [
      "TBD"
    ]
  },
  "geometry": {
    "type": "Polygon",
    "coordinates": [
      [
        [73.67288, 26.67613],
        [73.6595, 26.65002],
        [73.67816, 26.64709],
        [73.68183, 26.64156],
        [73.68192, 26.6325],
        [73.69118, 26.62285],
        [73.69133, 26.60922],
        [73.70102, 26.6015],
        [73.69771, 26.59304],
        [73.70093, 26.57399],
        [73.70748, 26.57237],
        [73.71972, 26.55255],
        [73.72088, 26.53898],
        [73.76745, 26.53599],
        [73.76544, 26.5295],
        [73.77868, 26.52272],
        [73.78266, 26.51229],
        [73.79615, 26.50353],
        [73.7827, 26.48994],
        [73.73155, 26.46421],
        [73.69688, 26.47369],
        [73.66767, 26.47362],
        [73.66604, 26.46497],
        [73.68015, 26.44033],
        [73.67779, 26.43535],
        [73.64811, 26.45274],
        [73.60326, 26.43235],
        [73.55204, 26.43266],
        [73.53273, 26.44868],
        [73.49228, 26.43974],
        [73.43874, 26.40418],
        [73.42732, 26.38327],
        [73.39575, 26.35271],
        [73.36927, 26.30614],
        [73.36117, 26.30091],
        [73.33862, 26.30515],
        [73.32485, 26.31815],
        [73.29905, 26.31763],
        [73.28051, 26.35005],
        [73.25181, 26.35143],
        [73.24589, 26.33602],
        [73.23081, 26.33477],
        [73.22357, 26.31001],
        [73.20187, 26.29909],
        [73.18733, 26.31445],
        [73.18645, 26.32893],
        [73.19298, 26.33162],
        [73.19122, 26.33949],
        [73.16674, 26.34276],
        [73.1573, 26.36055],
        [73.16851, 26.35618],
        [73.16924, 26.36624],
        [73.16042, 26.3676],
        [73.1573, 26.36055],
        [73.13569, 26.35905],
        [73.16271, 26.38328],
        [73.15951, 26.39215],
        [73.14355, 26.38283],
        [73.12117, 26.3798],
        [73.11507, 26.38508],
        [73.0919, 26.38965],
        [73.09232, 26.39766],
        [73.12009, 26.43416],
        [73.14273, 26.43065],
        [73.15393, 26.45686],
        [73.13907, 26.4593],
        [73.16132, 26.51936],
        [73.13115, 26.55394],
        [73.12629, 26.58573],
        [73.14357, 26.59724],
        [73.15553, 26.63079],
        [73.1845, 26.6678],
        [73.24265, 26.69473],
        [73.23174, 26.72276],
        [73.23308, 26.73584],
        [73.24306, 26.75784],
        [73.26578, 26.78771],
        [73.28667, 26.79719],
        [73.29056, 26.81594],
        [73.28036, 26.84649],
        [73.2866, 26.8727],
        [73.29139, 26.87334],
        [73.30154, 26.86291],
        [73.31111, 26.86346],
        [73.32375, 26.85336],
        [73.34893, 26.86327],
        [73.35498, 26.87004],
        [73.38646, 26.86795],
        [73.40435, 26.88435],
        [73.42944, 26.88838],
        [73.44157, 26.88623],
        [73.44675, 26.87358],
        [73.47421, 26.87805],
        [73.49841, 26.88759],
        [73.51336, 26.8827],
        [73.53375, 26.85676],
        [73.57725, 26.865],
        [73.58077, 26.86104],
        [73.59267, 26.86414],
        [73.59568, 26.85212],
        [73.60317, 26.8506],
        [73.60443, 26.84518],
        [73.6163, 26.83877],
        [73.62038, 26.84565],
        [73.63037, 26.84372],
        [73.63628, 26.80673],
        [73.65713, 26.80682],
        [73.66288, 26.79665],
        [73.66261, 26.77869],
        [73.67881, 26.75457],
        [73.67226, 26.75183],
        [73.65885, 26.72197],
        [73.6512, 26.71516],
        [73.6555, 26.69387],
        [73.67282, 26.68131],
        [73.67288, 26.67613]
      ]
    ]
  }
}
