{
  "type": "Feature",
  "id": "RJ-AC-192",
  "properties": {
    "stateName": "RAJASTHAN",
    "stateCode": "RJ",
    "districtName": "KOTA",
    "acNo": 192,
    "acName": "Ramganj Mandi (SC)",
    "seatType": null,
    "pcNo": 24,
    "pcName": "KOTA",
    "quality": "unverified",
    "sources": [
      "TBD"
    ]
  },
  "geometry": {
    "type": "MultiPolygon",
    "coordinates": [
      [
        [
          [75.86524, 25.16028],
          [75.86776, 25.15089],
          [75.86053, 25.14791],
          [75.85082, 25.12885],
          [75.82004, 25.10185],
          [75.8381, 25.10077],
          [75.84213, 25.09657],
          [75.82878, 25.07674],
          [75.83335, 25.0659],
          [75.83117, 25.05516],
          [75.82264, 25.0357],
          [75.81371, 25.03819],
          [75.77864, 24.9886],
          [75.81968, 24.9895],
          [75.81996, 24.97001],
          [75.81535, 24.95957],
          [75.8286, 24.9582],
          [75.83204, 24.9422],
          [75.84834, 24.95032],
          [75.85965, 24.9657],
          [75.87738, 24.95676],
          [75.9007, 24.96213],
          [75.90695, 24.95085],
          [75.91372, 24.95077],
          [75.92095, 24.95265],
          [75.93146, 24.96659],
          [75.94212, 24.96237],
          [75.94048, 24.94848],
          [75.92617, 24.95284],
          [75.92597, 24.93507],
          [75.94608, 24.93141],
          [75.95339, 24.92143],
          [75.96608, 24.92928],
          [76.00082, 24.92937],
          [76.01514, 24.9388],
          [76.03435, 24.94265],
          [76.05061, 24.91415],
          [76.06409, 24.90733],
          [76.06489, 24.90239],
          [76.06096, 24.89757],
          [76.04074, 24.89247],
          [76.029, 24.88184],
          [76.02134, 24.85236],
          [76.02539, 24.8169],
          [76.03039, 24.80658],
          [76.05127, 24.81017],
          [76.10157, 24.77269],
          [76.12707, 24.74615],
          [76.11295, 24.72878],
          [76.11643, 24.72065],
          [76.09969, 24.70419],
          [76.10412, 24.69987],
          [76.10328, 24.69031],
          [76.06214, 24.6695],
          [76.06262, 24.64653],
          [76.05504, 24.63413],
          [76.05519, 24.61888],
          [76.07486, 24.575],
          [76.0574, 24.56362],
          [76.04538, 24.57038],
          [76.04265, 24.56216],
          [76.03417, 24.56204],
          [76.02696, 24.55056],
          [76.01215, 24.55702],
          [76.00413, 24.55468],
          [75.99194, 24.55991],
          [75.98678, 24.55601],
          [75.96096, 24.56292],
          [75.95315, 24.54292],
          [75.93564, 24.55202],
          [75.92056, 24.54847],
          [75.91784, 24.53959],
          [75.90351, 24.54784],
          [75.90591, 24.56178],
          [75.91248, 24.5618],
          [75.91484, 24.5725],
          [75.87891, 24.58285],
          [75.87263, 24.59006],
          [75.87125, 24.60704],
          [75.84846, 24.61064],
          [75.84149, 24.60576],
          [75.83764, 24.59486],
          [75.83287, 24.59545],
          [75.83647, 24.60583],
          [75.8312, 24.60493],
          [75.82361, 24.61342],
          [75.82743, 24.62005],
          [75.84307, 24.62408],
          [75.84687, 24.632],
          [75.84101, 24.63384],
          [75.84066, 24.63839],
          [75.84798, 24.64895],
          [75.8467, 24.66366],
          [75.83779, 24.6686],
          [75.82574, 24.66781],
          [75.83315, 24.68698],
          [75.83679, 24.72556],
          [75.80256, 24.75622],
          [75.78475, 24.76167],
          [75.80076, 24.79003],
          [75.80369, 24.81809],
          [75.80947, 24.82373],
          [75.81551, 24.86343],
          [75.81203, 24.87032],
          [75.76589, 24.87713],
          [75.749, 24.88537],
          [75.69131, 24.92873],
          [75.67387, 24.937],
          [75.65095, 24.96346],
          [75.64819, 24.97713],
          [75.61884, 24.98865],
          [75.61654, 24.99449],
          [75.62696, 25.00043],
          [75.6491, 25.02864],
          [75.67671, 25.03552],
          [75.68967, 25.05307],
          [75.7155, 25.06987],
          [75.73118, 25.09784],
          [75.74256, 25.10831],
          [75.74392, 25.1182],
          [75.78279, 25.14349],
          [75.81869, 25.15467],
          [75.84982, 25.15864],
          [75.85543, 25.16771],
          [75.86524, 25.16028]
        ]
      ],
      [
        [
          [75.75437, 25.19399],
          [75.77315, 25.18259],
          [75.78917, 25.18147],
          [75.79109, 25.17279],
          [75.77779, 25.15655],
          [75.75478, 25.14035],
          [75.73329, 25.14856],
          [75.72406, 25.17566],
          [75.75437, 25.19399]
        ]
      ]
    ]
  }
}
