{
  "type": "Feature",
  "id": "RJ-AC-193",
  "properties": {
    "stateName": "RAJASTHAN",
    "stateCode": "RJ",
    "districtName": "BARAN",
    "acNo": 193,
    "acName": "Anta",
    "seatType": null,
    "pcNo": 25,
    "pcName": "JHALAWAR-BARAN",
    "quality": "unverified",
    "sources": [
      "TBD"
    ]
  },
  "geometry": {
    "type": "Polygon",
    "coordinates": [
      [
        [76.49891, 25.4291],
        [76.50893, 25.42859],
        [76.51054, 25.41956],
        [76.52023, 25.41563],
        [76.53229, 25.42452],
        [76.53512, 25.41872],
        [76.55944, 25.41928],
        [76.57494, 25.40832],
        [76.56975, 25.43926],
        [76.5865, 25.43306],
        [76.59841, 25.40475],
        [76.59827, 25.39258],
        [76.60911, 25.3905],
        [76.61428, 25.38358],
        [76.58971, 25.38777],
        [76.5768, 25.31025],
        [76.5842, 25.28293],
        [76.57427, 25.25063],
        [76.58816, 25.23807],
        [76.61507, 25.22781],
        [76.62152, 25.21785],
        [76.63209, 25.17664],
        [76.62153, 25.13894],
        [76.61255, 25.14937],
        [76.60141, 25.15142],
        [76.57301, 25.14893],
        [76.55656, 25.14037],
        [76.55022, 25.15338],
        [76.52833, 25.16137],
        [76.52644, 25.1673],
        [76.50558, 25.16837],
        [76.50363, 25.15703],
        [76.47114, 25.16061],
        [76.48261, 25.15063],
        [76.46467, 25.14207],
        [76.45382, 25.14221],
        [76.46122, 25.12932],
        [76.45159, 25.12133],
        [76.40168, 25.12486],
        [76.39226, 25.09918],
        [76.39182, 25.07694],
        [76.38458, 25.06883],
        [76.40957, 25.06338],
        [76.41016, 25.09074],
        [76.42049, 25.08933],
        [76.42029, 25.08007],
        [76.43625, 25.07346],
        [76.44588, 25.06028],
        [76.46018, 25.05292],
        [76.4552, 25.04408],
        [76.47017, 25.0275],
        [76.47507, 25.03977],
        [76.47371, 25.05435],
        [76.46416, 25.05553],
        [76.46275, 25.06313],
        [76.47325, 25.06746],
        [76.48572, 25.06254],
        [76.48853, 25.07329],
        [76.49804, 25.07636],
        [76.51605, 25.07575],
        [76.51911, 25.07116],
        [76.52754, 25.07692],
        [76.53522, 25.06169],
        [76.53235, 25.05878],
        [76.56308, 25.05587],
        [76.56023, 25.03791],
        [76.54287, 25.03613],
        [76.53251, 25.02582],
        [76.54689, 25.02429],
        [76.55319, 25.01938],
        [76.54791, 24.99589],
        [76.5148, 24.99341],
        [76.50252, 24.97174],
        [76.49107, 24.96255],
        [76.48446, 24.94415],
        [76.46856, 24.93274],
        [76.44424, 24.93276],
        [76.44257, 24.93942],
        [76.44768, 24.94208],
        [76.44096, 24.95681],
        [76.40957, 24.97965],
        [76.40456, 24.98152],
        [76.39859, 24.96609],
        [76.38951, 24.96795],
        [76.39398, 24.98424],
        [76.39074, 24.98486],
        [76.36996, 24.98145],
        [76.34768, 24.98786],
        [76.31457, 24.95833],
        [76.29535, 24.96469],
        [76.26065, 25.02482],
        [76.2438, 25.04043],
        [76.22561, 25.06686],
        [76.21076, 25.10884],
        [76.1974, 25.12619],
        [76.20262, 25.13113],
        [76.20181, 25.14357],
        [76.2093, 25.15647],
        [76.23379, 25.16251],
        [76.23524, 25.18288],
        [76.24815, 25.18464],
        [76.24345, 25.19636],
        [76.24765, 25.21122],
        [76.24368, 25.2289],
        [76.24813, 25.23985],
        [76.27709, 25.24354],
        [76.28522, 25.24951],
        [76.28722, 25.26997],
        [76.30177, 25.29345],
        [76.30282, 25.32992],
        [76.31591, 25.34887],
        [76.32269, 25.38172],
        [76.33251, 25.38447],
        [76.34351, 25.37883],
        [76.35445, 25.39199],
        [76.36594, 25.39524],
        [76.37781, 25.38433],
        [76.38665, 25.39318],
        [76.40361, 25.3924],
        [76.41164, 25.38421],
        [76.43784, 25.38466],
        [76.43712, 25.40277],
        [76.44164, 25.40778],
        [76.47305, 25.41023],
        [76.48544, 25.41746],
        [76.49001, 25.41512],
        [76.49106, 25.42943],
        [76.49891, 25.4291]
      ]
    ]
  }
}
