{
  "type": "Feature",
  "id": "RJ-AC-198",
  "properties": {
    "stateName": "RAJASTHAN",
    "stateCode": "RJ",
    "districtName": "JHALAWAR",
    "acNo": 198,
    "acName": "Jhalrapatan",
    "seatType": null,
    "pcNo": 25,
    "pcName": "JHALAWAR-BARAN",
    "quality": "unverified",
    "sources": [
      "TBD"
    ]
  },
  "geometry": {
    "type": "Polygon",
    "coordinates": [
      [
        [76.10328, 24.69031],
        [76.1072, 24.6835],
        [76.12672, 24.6725],
        [76.15109, 24.64428],
        [76.17942, 24.62455],
        [76.19333, 24.62215],
        [76.18164, 24.63208],
        [76.19627, 24.64308],
        [76.20424, 24.63986],
        [76.19517, 24.62013],
        [76.20275, 24.61721],
        [76.19311, 24.60392],
        [76.20306, 24.59529],
        [76.19985, 24.58805],
        [76.20783, 24.567],
        [76.1991, 24.5603],
        [76.20598, 24.55552],
        [76.19736, 24.5425],
        [76.19996, 24.53746],
        [76.21695, 24.53599],
        [76.22977, 24.52563],
        [76.21688, 24.51617],
        [76.23829, 24.49406],
        [76.23246, 24.48503],
        [76.24094, 24.46677],
        [76.24606, 24.47174],
        [76.25224, 24.46414],
        [76.24678, 24.45134],
        [76.26095, 24.44289],
        [76.27001, 24.45602],
        [76.28735, 24.45052],
        [76.28498, 24.41283],
        [76.27797, 24.40845],
        [76.26637, 24.40944],
        [76.28166, 24.39654],
        [76.24767, 24.39166],
        [76.24614, 24.38758],
        [76.25636, 24.3818],
        [76.24401, 24.37151],
        [76.25362, 24.35981],
        [76.23794, 24.358],
        [76.23329, 24.33446],
        [76.21204, 24.32772],
        [76.20276, 24.30479],
        [76.18522, 24.32909],
        [76.17423, 24.30717],
        [76.16484, 24.30733],
        [76.16867, 24.29692],
        [76.16253, 24.28472],
        [76.14292, 24.2827],
        [76.13658, 24.27055],
        [76.14126, 24.26676],
        [76.13898, 24.2561],
        [76.14298, 24.25573],
        [76.14821, 24.23169],
        [76.14538, 24.2233],
        [76.11775, 24.19447],
        [76.11382, 24.16684],
        [76.1247, 24.15811],
        [76.12266, 24.13745],
        [76.13108, 24.11563],
        [76.12097, 24.10815],
        [76.12672, 24.08861],
        [76.1218, 24.08474],
        [76.10124, 24.08722],
        [76.07613, 24.07088],
        [76.07309, 24.07671],
        [76.05549, 24.06548],
        [76.04268, 24.06598],
        [76.02287, 24.0482],
        [76.02154, 24.03474],
        [76.00991, 24.02454],
        [75.99699, 24.01767],
        [75.97145, 24.02008],
        [75.96543, 24.06796],
        [75.95762, 24.08677],
        [75.93873, 24.11535],
        [75.92443, 24.11868],
        [75.91524, 24.13573],
        [75.89004, 24.14177],
        [75.89155, 24.15932],
        [75.88708, 24.16955],
        [75.85707, 24.1758],
        [75.85617, 24.19742],
        [75.86602, 24.22518],
        [75.88942, 24.25518],
        [75.93038, 24.37692],
        [75.99175, 24.42332],
        [76.00385, 24.44529],
        [76.00969, 24.47591],
        [76.04511, 24.53206],
        [76.05509, 24.54394],
        [76.06512, 24.5476],
        [76.06617, 24.55899],
        [76.0574, 24.56362],
        [76.07486, 24.575],
        [76.05519, 24.61888],
        [76.05504, 24.63413],
        [76.06262, 24.64653],
        [76.06214, 24.6695],
        [76.10328, 24.69031]
      ]
    ]
  }
}
