{
  "type": "Feature",
  "id": "RJ-AC-28",
  "properties": {
    "stateName": "RAJASTHAN",
    "stateCode": "RJ",
    "districtName": "JHUNJHUNUN",
    "acNo": 28,
    "acName": "Mandawa",
    "seatType": null,
    "pcNo": 4,
    "pcName": "JHUNJHUNU",
    "quality": "unverified",
    "sources": [
      "TBD"
    ]
  },
  "geometry": {
    "type": "Polygon",
    "coordinates": [
      [
        [75.24103, 28.45947],
        [75.24447, 28.46096],
        [75.25092, 28.4641],
        [75.26502, 28.44989],
        [75.27771, 28.45184],
        [75.28985, 28.42531],
        [75.30027, 28.42803],
        [75.30387, 28.4172],
        [75.33014, 28.39504],
        [75.33266, 28.36659],
        [75.34024, 28.3602],
        [75.34763, 28.36231],
        [75.35274, 28.35609],
        [75.3573, 28.35722],
        [75.35849, 28.34793],
        [75.37184, 28.34559],
        [75.37077, 28.3333],
        [75.37891, 28.31017],
        [75.40335, 28.30906],
        [75.41577, 28.27975],
        [75.39008, 28.26872],
        [75.38756, 28.25141],
        [75.39255, 28.25131],
        [75.37605, 28.20825],
        [75.40061, 28.21063],
        [75.40091, 28.18408],
        [75.36667, 28.17557],
        [75.35524, 28.17866],
        [75.3505, 28.17647],
        [75.34993, 28.16106],
        [75.33128, 28.16229],
        [75.31499, 28.15089],
        [75.31637, 28.12796],
        [75.30971, 28.11459],
        [75.3184, 28.11037],
        [75.32247, 28.09897],
        [75.32278, 28.09465],
        [75.3153, 28.09201],
        [75.31878, 28.05548],
        [75.28453, 28.04901],
        [75.2852, 28.02384],
        [75.2724, 28.0127],
        [75.2545, 28.01062],
        [75.25068, 28.00189],
        [75.22851, 28.00459],
        [75.21743, 28.00104],
        [75.2207, 27.97845],
        [75.20481, 27.97805],
        [75.20266, 27.9664],
        [75.19303, 27.95833],
        [75.16525, 27.95917],
        [75.15768, 27.9895],
        [75.16007, 27.99556],
        [75.14603, 28.02963],
        [75.12744, 28.02822],
        [75.11638, 28.04823],
        [75.10568, 28.05348],
        [75.09767, 28.07281],
        [75.10039, 28.08202],
        [75.11439, 28.09195],
        [75.11295, 28.11291],
        [75.10759, 28.11615],
        [75.12787, 28.12514],
        [75.12704, 28.13948],
        [75.10977, 28.14729],
        [75.10714, 28.15513],
        [75.09186, 28.1582],
        [75.08832, 28.16401],
        [75.05304, 28.16227],
        [75.05194, 28.17107],
        [75.08411, 28.18755],
        [75.07903, 28.19674],
        [75.04741, 28.19339],
        [75.03947, 28.19512],
        [75.03838, 28.19931],
        [75.03152, 28.1974],
        [75.02445, 28.20511],
        [75.03462, 28.22153],
        [75.04927, 28.22812],
        [75.04131, 28.24254],
        [75.04711, 28.24879],
        [75.04556, 28.25459],
        [75.07393, 28.2677],
        [75.07874, 28.26386],
        [75.09802, 28.26517],
        [75.12248, 28.28816],
        [75.14533, 28.29312],
        [75.14298, 28.30523],
        [75.15325, 28.31323],
        [75.14783, 28.33248],
        [75.16229, 28.33828],
        [75.16384, 28.34278],
        [75.1438, 28.38512],
        [75.12938, 28.38992],
        [75.12631, 28.39524],
        [75.12816, 28.40596],
        [75.15021, 28.41142],
        [75.15832, 28.40842],
        [75.16385, 28.38027],
        [75.17801, 28.38622],
        [75.18717, 28.38183],
        [75.22515, 28.39588],
        [75.22872, 28.40419],
        [75.22121, 28.40472],
        [75.21808, 28.42892],
        [75.23454, 28.4399],
        [75.23195, 28.45666],
        [75.24103, 28.45947]
      ]
    ]
  }
}
