{
  "type": "Feature",
  "id": "RJ-AC-29",
  "properties": {
    "stateName": "RAJASTHAN",
    "stateCode": "RJ",
    "districtName": "JHUNJHUNUN",
    "acNo": 29,
    "acName": "Nawalgarh",
    "seatType": null,
    "pcNo": 4,
    "pcName": "JHUNJHUNU",
    "quality": "unverified",
    "sources": [
      "TBD"
    ]
  },
  "geometry": {
    "type": "Polygon",
    "coordinates": [
      [
        [75.31878, 28.05548],
        [75.32692, 28.01532],
        [75.34364, 28.00526],
        [75.35722, 28.00446],
        [75.36716, 27.99867],
        [75.37942, 28.00035],
        [75.38741, 28.00794],
        [75.39572, 27.99801],
        [75.39123, 27.99049],
        [75.39296, 27.97939],
        [75.38339, 27.97133],
        [75.37103, 27.96881],
        [75.36085, 27.95683],
        [75.36133, 27.94507],
        [75.37619, 27.93881],
        [75.38975, 27.94916],
        [75.42456, 27.95236],
        [75.43975, 27.92253],
        [75.46311, 27.92988],
        [75.47269, 27.92319],
        [75.48658, 27.9229],
        [75.49547, 27.90774],
        [75.47935, 27.89541],
        [75.46827, 27.90295],
        [75.45746, 27.90007],
        [75.43623, 27.885],
        [75.417, 27.881],
        [75.37893, 27.88169],
        [75.37185, 27.86796],
        [75.37836, 27.84754],
        [75.37038, 27.82757],
        [75.3773, 27.82377],
        [75.41733, 27.82138],
        [75.43258, 27.81209],
        [75.43396, 27.79909],
        [75.44895, 27.78733],
        [75.42871, 27.74297],
        [75.43606, 27.73807],
        [75.45295, 27.73891],
        [75.45379, 27.73551],
        [75.44731, 27.73074],
        [75.43345, 27.73252],
        [75.43014, 27.71576],
        [75.41583, 27.70375],
        [75.40787, 27.65282],
        [75.40431, 27.66141],
        [75.39508, 27.66289],
        [75.37505, 27.64314],
        [75.37093, 27.65589],
        [75.37255, 27.67817],
        [75.3775, 27.68396],
        [75.35077, 27.70168],
        [75.32631, 27.69712],
        [75.32199, 27.70976],
        [75.30523, 27.71079],
        [75.28638, 27.71849],
        [75.27125, 27.7547],
        [75.26025, 27.76685],
        [75.28959, 27.77392],
        [75.28752, 27.81955],
        [75.26953, 27.82304],
        [75.24032, 27.81459],
        [75.23881, 27.83227],
        [75.24448, 27.84527],
        [75.23242, 27.86973],
        [75.22946, 27.87932],
        [75.20999, 27.88233],
        [75.20172, 27.89138],
        [75.20321, 27.90947],
        [75.1934, 27.91181],
        [75.19153, 27.9163],
        [75.19395, 27.95593],
        [75.19303, 27.95833],
        [75.20266, 27.9664],
        [75.20481, 27.97805],
        [75.2207, 27.97845],
        [75.21743, 28.00104],
        [75.22851, 28.00459],
        [75.25068, 28.00189],
        [75.2545, 28.01062],
        [75.2724, 28.0127],
        [75.2852, 28.02384],
        [75.28453, 28.04901],
        [75.31878, 28.05548]
      ]
    ]
  }
}
