{
  "type": "Feature",
  "id": "RJ-AC-32",
  "properties": {
    "stateName": "RAJASTHAN",
    "stateCode": "RJ",
    "districtName": "SIKAR",
    "acNo": 32,
    "acName": "Fatehpur",
    "seatType": null,
    "pcNo": 4,
    "pcName": "JHUNJHUNU",
    "quality": "unverified",
    "sources": [
      "TBD"
    ]
  },
  "geometry": {
    "type": "Polygon",
    "coordinates": [
      [
        [74.94628, 28.18545],
        [74.96618, 28.19507],
        [75.00316, 28.20301],
        [75.01221, 28.19344],
        [75.02514, 28.19823],
        [75.02445, 28.20511],
        [75.03152, 28.1974],
        [75.03838, 28.19931],
        [75.03947, 28.19512],
        [75.04741, 28.19339],
        [75.07903, 28.19674],
        [75.08411, 28.18755],
        [75.05194, 28.17107],
        [75.05304, 28.16227],
        [75.08832, 28.16401],
        [75.09186, 28.1582],
        [75.10714, 28.15513],
        [75.10977, 28.14729],
        [75.12704, 28.13948],
        [75.12787, 28.12514],
        [75.10759, 28.11615],
        [75.11295, 28.11291],
        [75.11439, 28.09195],
        [75.10039, 28.08202],
        [75.09767, 28.07281],
        [75.10568, 28.05348],
        [75.11638, 28.04823],
        [75.12744, 28.02822],
        [75.14603, 28.02963],
        [75.16007, 27.99556],
        [75.15768, 27.9895],
        [75.16525, 27.95917],
        [75.19303, 27.95833],
        [75.19395, 27.95593],
        [75.14325, 27.94073],
        [75.10501, 27.95175],
        [75.08566, 27.94746],
        [75.06844, 27.91579],
        [75.04797, 27.92127],
        [75.03563, 27.91508],
        [75.0301, 27.91768],
        [75.01587, 27.91147],
        [75.00301, 27.89446],
        [74.98683, 27.88382],
        [74.95419, 27.86798],
        [74.93011, 27.8667],
        [74.89813, 27.87767],
        [74.88537, 27.87753],
        [74.86496, 27.86927],
        [74.82668, 27.86813],
        [74.81406, 27.86066],
        [74.80018, 27.83401],
        [74.79564, 27.84097],
        [74.77898, 27.83443],
        [74.76485, 27.859],
        [74.74493, 27.8615],
        [74.73769, 27.8585],
        [74.73122, 27.87202],
        [74.74234, 27.87682],
        [74.73103, 27.87624],
        [74.73704, 27.89145],
        [74.77618, 27.90139],
        [74.78851, 27.90057],
        [74.7928, 27.89466],
        [74.82799, 27.91118],
        [74.83188, 27.92464],
        [74.82224, 27.93093],
        [74.81942, 27.94193],
        [74.80405, 27.94012],
        [74.7935, 27.95205],
        [74.78389, 27.95424],
        [74.7611, 27.98911],
        [74.79221, 28.00319],
        [74.79278, 28.02487],
        [74.80318, 28.03042],
        [74.8083, 28.0578],
        [74.78795, 28.07464],
        [74.78576, 28.08194],
        [74.7949, 28.11525],
        [74.80363, 28.11834],
        [74.82685, 28.11177],
        [74.83676, 28.12268],
        [74.85832, 28.13337],
        [74.85739, 28.14038],
        [74.87124, 28.14626],
        [74.88391, 28.16889],
        [74.88858, 28.18946],
        [74.93043, 28.19608],
        [74.93985, 28.19463],
        [74.94628, 28.18545]
      ]
    ]
  }
}
