{
  "type": "Feature",
  "id": "RJ-AC-35",
  "properties": {
    "stateName": "RAJASTHAN",
    "stateCode": "RJ",
    "districtName": "SIKAR",
    "acNo": 35,
    "acName": "Sikar",
    "seatType": null,
    "pcNo": 5,
    "pcName": "SIKAR",
    "quality": "unverified",
    "sources": [
      "TBD"
    ]
  },
  "geometry": {
    "type": "Polygon",
    "coordinates": [
      [
        [75.24032, 27.81459],
        [75.26953, 27.82304],
        [75.28752, 27.81955],
        [75.28959, 27.77392],
        [75.26025, 27.76685],
        [75.27125, 27.7547],
        [75.28638, 27.71849],
        [75.30523, 27.71079],
        [75.32199, 27.70976],
        [75.32631, 27.69712],
        [75.35077, 27.70168],
        [75.3775, 27.68396],
        [75.37255, 27.67817],
        [75.37093, 27.65589],
        [75.37505, 27.64314],
        [75.39508, 27.66289],
        [75.40431, 27.66141],
        [75.40787, 27.65282],
        [75.42701, 27.64081],
        [75.44041, 27.65709],
        [75.45313, 27.65722],
        [75.45069, 27.64194],
        [75.46322, 27.6349],
        [75.46493, 27.62041],
        [75.4634, 27.60178],
        [75.45311, 27.58303],
        [75.42477, 27.57534],
        [75.41633, 27.56648],
        [75.40332, 27.53852],
        [75.40806, 27.53132],
        [75.42479, 27.53189],
        [75.4264, 27.52665],
        [75.42566, 27.52258],
        [75.41221, 27.51712],
        [75.40885, 27.5236],
        [75.38805, 27.52619],
        [75.37705, 27.53483],
        [75.37445, 27.54813],
        [75.38746, 27.56403],
        [75.35749, 27.56216],
        [75.33412, 27.57187],
        [75.31745, 27.58763],
        [75.32379, 27.60847],
        [75.30844, 27.60742],
        [75.29306, 27.60877],
        [75.24268, 27.59411],
        [75.24083, 27.58513],
        [75.24584, 27.57678],
        [75.26204, 27.57509],
        [75.26082, 27.55569],
        [75.23583, 27.54823],
        [75.23288, 27.5426],
        [75.20611, 27.55999],
        [75.19136, 27.55597],
        [75.18007, 27.5457],
        [75.16879, 27.56747],
        [75.16267, 27.56853],
        [75.15443, 27.55509],
        [75.14154, 27.55247],
        [75.13945, 27.54797],
        [75.11686, 27.55092],
        [75.11645, 27.56803],
        [75.09404, 27.5835],
        [75.1048, 27.59483],
        [75.08557, 27.6154],
        [75.09392, 27.63286],
        [75.09234, 27.64357],
        [75.09885, 27.64393],
        [75.10759, 27.62929],
        [75.12286, 27.62877],
        [75.13147, 27.65774],
        [75.13461, 27.65537],
        [75.14774, 27.65998],
        [75.14673, 27.66442],
        [75.15491, 27.66963],
        [75.16322, 27.66603],
        [75.1718, 27.67079],
        [75.16612, 27.67878],
        [75.17477, 27.68447],
        [75.16509, 27.6887],
        [75.14799, 27.71404],
        [75.17628, 27.71097],
        [75.19394, 27.72665],
        [75.20647, 27.72762],
        [75.21571, 27.73953],
        [75.2182, 27.77106],
        [75.18581, 27.7716],
        [75.17744, 27.79152],
        [75.2025, 27.80339],
        [75.21342, 27.81947],
        [75.22547, 27.8277],
        [75.23143, 27.81093],
        [75.24032, 27.81459]
      ]
    ]
  }
}
