{
  "type": "Feature",
  "id": "RJ-AC-54",
  "properties": {
    "stateName": "RAJASTHAN",
    "stateCode": "RJ",
    "districtName": "JAIPUR",
    "acNo": 54,
    "acName": "Malviya Nagar",
    "seatType": null,
    "pcNo": 7,
    "pcName": "JAIPUR",
    "quality": "unverified",
    "sources": [
      "TBD"
    ]
  },
  "geometry": {
    "type": "Polygon",
    "coordinates": [
      [
        [75.83094, 26.92957],
        [75.82165, 26.92461],
        [75.82198, 26.91533],
        [75.79864, 26.91145],
        [75.79932, 26.91811],
        [75.79439, 26.92021],
        [75.79758, 26.93196],
        [75.78806, 26.93551],
        [75.78506, 26.93278],
        [75.78621, 26.94132],
        [75.79935, 26.94369],
        [75.80966, 26.94032],
        [75.81738, 26.94754],
        [75.82826, 26.94569],
        [75.82307, 26.93879],
        [75.83536, 26.93569],
        [75.8268, 26.93203],
        [75.83094, 26.92957]
      ]
    ]
  }
}
