{
  "type": "Feature",
  "id": "RJ-AC-63",
  "properties": {
    "stateName": "RAJASTHAN",
    "stateCode": "RJ",
    "districtName": "ALWAR",
    "acNo": 63,
    "acName": "Bansur",
    "seatType": null,
    "pcNo": 6,
    "pcName": "JAIPUR RURAL",
    "quality": "unverified",
    "sources": [
      "TBD"
    ]
  },
  "geometry": {
    "type": "Polygon",
    "coordinates": [
      [
        [76.35375, 27.84548],
        [76.35636, 27.83689],
        [76.36309, 27.84285],
        [76.37223, 27.83893],
        [76.36556, 27.82014],
        [76.37468, 27.82421],
        [76.37606, 27.83681],
        [76.39915, 27.83318],
        [76.39839, 27.80436],
        [76.40985, 27.80083],
        [76.43791, 27.81128],
        [76.44253, 27.83132],
        [76.45022, 27.83106],
        [76.46405, 27.80356],
        [76.48044, 27.79638],
        [76.47701, 27.77554],
        [76.4863, 27.77787],
        [76.50096, 27.76016],
        [76.49122, 27.74024],
        [76.4986, 27.7358],
        [76.49958, 27.72423],
        [76.49257, 27.70858],
        [76.49379, 27.69014],
        [76.50269, 27.68741],
        [76.50523, 27.68028],
        [76.48225, 27.64789],
        [76.47427, 27.6444],
        [76.46235, 27.64759],
        [76.4612, 27.67572],
        [76.45607, 27.67128],
        [76.44986, 27.63089],
        [76.43989, 27.62208],
        [76.43991, 27.60041],
        [76.44949, 27.5763],
        [76.43449, 27.56298],
        [76.43213, 27.55208],
        [76.41496, 27.54029],
        [76.40781, 27.46416],
        [76.41094, 27.46014],
        [76.39625, 27.43878],
        [76.37874, 27.44887],
        [76.36921, 27.44581],
        [76.36951, 27.45668],
        [76.36441, 27.45727],
        [76.36322, 27.46535],
        [76.36693, 27.47936],
        [76.3613, 27.48729],
        [76.35571, 27.48883],
        [76.34784, 27.46108],
        [76.32751, 27.46417],
        [76.33034, 27.49432],
        [76.32464, 27.49918],
        [76.31895, 27.48737],
        [76.30963, 27.48502],
        [76.3047, 27.47462],
        [76.29425, 27.47231],
        [76.27664, 27.45687],
        [76.28071, 27.44683],
        [76.27182, 27.43932],
        [76.26558, 27.44702],
        [76.26937, 27.50965],
        [76.24835, 27.51241],
        [76.23805, 27.50642],
        [76.22775, 27.51303],
        [76.23493, 27.52383],
        [76.20613, 27.53387],
        [76.21282, 27.54818],
        [76.20737, 27.5533],
        [76.20976, 27.56883],
        [76.20306, 27.59092],
        [76.20428, 27.59899],
        [76.19374, 27.60689],
        [76.19693, 27.62111],
        [76.2066, 27.61931],
        [76.20617, 27.62471],
        [76.22109, 27.62494],
        [76.22826, 27.62043],
        [76.23896, 27.62265],
        [76.24733, 27.63381],
        [76.24413, 27.64345],
        [76.24878, 27.65604],
        [76.23664, 27.66709],
        [76.25016, 27.66936],
        [76.24149, 27.68395],
        [76.25468, 27.69104],
        [76.24942, 27.72775],
        [76.23886, 27.75006],
        [76.2403, 27.7592],
        [76.25878, 27.76275],
        [76.26157, 27.77453],
        [76.26899, 27.78155],
        [76.26478, 27.79819],
        [76.28564, 27.80179],
        [76.31759, 27.80767],
        [76.33044, 27.84238],
        [76.35132, 27.84886],
        [76.35375, 27.84548]
      ]
    ]
  }
}
