{
  "type": "Feature",
  "id": "RJ-AC-67",
  "properties": {
    "stateName": "RAJASTHAN",
    "stateCode": "RJ",
    "districtName": "ALWAR",
    "acNo": 67,
    "acName": "Ramgarh",
    "seatType": null,
    "pcNo": 9,
    "pcName": "BHARATPUR (SC)",
    "quality": "unverified",
    "sources": [
      "TBD"
    ]
  },
  "geometry": {
    "type": "Polygon",
    "coordinates": [
      [
        [76.90107, 27.76636],
        [76.90075, 27.73775],
        [76.89368, 27.73512],
        [76.89196, 27.72921],
        [76.89469, 27.71799],
        [76.91376, 27.71373],
        [76.925, 27.70006],
        [76.90887, 27.69439],
        [76.8908, 27.70258],
        [76.88922, 27.69768],
        [76.9062, 27.68683],
        [76.89852, 27.6778],
        [76.9111, 27.66831],
        [76.90714, 27.66173],
        [76.91127, 27.65462],
        [76.91656, 27.65257],
        [76.92708, 27.6614],
        [76.93375, 27.65593],
        [76.94416, 27.6735],
        [76.97947, 27.65371],
        [76.97822, 27.65027],
        [76.97655, 27.64328],
        [76.98396, 27.64065],
        [76.98303, 27.61954],
        [76.94268, 27.62062],
        [76.93565, 27.61601],
        [76.96682, 27.61081],
        [76.96414, 27.60485],
        [76.93853, 27.60808],
        [76.93546, 27.60393],
        [76.946, 27.58601],
        [76.94034, 27.57674],
        [76.94672, 27.57429],
        [76.95139, 27.58049],
        [76.96138, 27.57577],
        [76.95799, 27.55931],
        [76.94979, 27.56244],
        [76.94675, 27.55962],
        [76.95591, 27.55488],
        [76.95923, 27.5424],
        [76.96322, 27.54086],
        [76.96721, 27.55108],
        [76.9736, 27.55162],
        [76.98392, 27.54699],
        [76.98614, 27.53849],
        [76.99597, 27.53334],
        [77.02315, 27.54145],
        [77.02072, 27.54736],
        [76.99985, 27.55775],
        [77.00229, 27.56978],
        [77.02831, 27.55873],
        [77.04974, 27.56152],
        [77.04839, 27.55003],
        [77.03478, 27.5539],
        [77.03415, 27.551],
        [77.04275, 27.5436],
        [77.05289, 27.54078],
        [77.05625, 27.54435],
        [77.0676, 27.53702],
        [77.05885, 27.52691],
        [77.0407, 27.53039],
        [77.03529, 27.52565],
        [77.03562, 27.51303],
        [77.02214, 27.51665],
        [77.0188, 27.50526],
        [77.03692, 27.49763],
        [77.04435, 27.48408],
        [77.05284, 27.48386],
        [77.05558, 27.47614],
        [77.0516, 27.4673],
        [77.05925, 27.45966],
        [77.05652, 27.45537],
        [77.063, 27.45275],
        [77.06073, 27.44603],
        [77.0541, 27.4468],
        [77.04864, 27.43868],
        [77.03695, 27.44478],
        [77.03663, 27.44886],
        [77.04578, 27.45225],
        [77.05046, 27.45974],
        [77.03413, 27.46802],
        [77.02892, 27.45361],
        [77.01847, 27.45086],
        [76.98135, 27.45913],
        [76.97939, 27.46443],
        [76.97098, 27.46129],
        [76.96355, 27.46744],
        [76.96846, 27.47636],
        [76.93846, 27.4878],
        [76.94103, 27.49522],
        [76.9293, 27.5172],
        [76.90525, 27.52118],
        [76.9086, 27.5285],
        [76.92484, 27.52492],
        [76.92825, 27.53167],
        [76.92475, 27.53815],
        [76.90939, 27.53105],
        [76.89727, 27.53755],
        [76.89373, 27.5233],
        [76.88827, 27.52322],
        [76.88073, 27.51167],
        [76.89635, 27.49154],
        [76.91246, 27.49933],
        [76.92351, 27.49321],
        [76.9187, 27.48082],
        [76.91191, 27.48192],
        [76.91303, 27.4712],
        [76.90838, 27.47123],
        [76.90593, 27.46226],
        [76.90039, 27.46176],
        [76.89227, 27.45373],
        [76.88655, 27.44427],
        [76.88287, 27.43112],
        [76.88627, 27.42135],
        [76.86848, 27.39728],
        [76.86007, 27.3999],
        [76.84118, 27.38664],
        [76.81772, 27.39193],
        [76.81195, 27.39937],
        [76.81628, 27.41248],
        [76.78022, 27.42894],
        [76.75713, 27.44013],
        [76.75333, 27.42726],
        [76.7459, 27.42876],
        [76.74766, 27.43784],
        [76.7392, 27.44374],
        [76.72017, 27.431],
        [76.70977, 27.43083],
        [76.73281, 27.46306],
        [76.71418, 27.4662],
        [76.70845, 27.47301],
        [76.69416, 27.47259],
        [76.69763, 27.48246],
        [76.7108, 27.48574],
        [76.68989, 27.49385],
        [76.68413, 27.50199],
        [76.66534, 27.51177],
        [76.67698, 27.52853],
        [76.67469, 27.53695],
        [76.68302, 27.55022],
        [76.67553, 27.57117],
        [76.68594, 27.57695],
        [76.67716, 27.58122],
        [76.66286, 27.57783],
        [76.65914, 27.58424],
        [76.67334, 27.59611],
        [76.68628, 27.5825],
        [76.68517, 27.58887],
        [76.69741, 27.60933],
        [76.68569, 27.6146],
        [76.69764, 27.62105],
        [76.73599, 27.61198],
        [76.74757, 27.63945],
        [76.74215, 27.6539],
        [76.74967, 27.65506],
        [76.75792, 27.64821],
        [76.76699, 27.67248],
        [76.77332, 27.67641],
        [76.77628, 27.68223],
        [76.76704, 27.68609],
        [76.7669, 27.69109],
        [76.81467, 27.76145],
        [76.82465, 27.75241],
        [76.82904, 27.75648],
        [76.82663, 27.76505],
        [76.83655, 27.76336],
        [76.84721, 27.75473],
        [76.88633, 27.7673],
        [76.90107, 27.76636]
      ]
    ]
  }
}
