{
  "type": "Feature",
  "id": "RJ-AC-71",
  "properties": {
    "stateName": "RAJASTHAN",
    "stateCode": "RJ",
    "districtName": "BHARATPUR",
    "acNo": 71,
    "acName": "Nagar",
    "seatType": null,
    "pcNo": 9,
    "pcName": "BHARATPUR (SC)",
    "quality": "unverified",
    "sources": [
      "TBD"
    ]
  },
  "geometry": {
    "type": "Polygon",
    "coordinates": [
      [
        [77.03393, 27.61492],
        [77.06212, 27.61068],
        [77.08958, 27.59136],
        [77.10695, 27.5975],
        [77.1143, 27.57698],
        [77.16023, 27.55853],
        [77.17012, 27.5448],
        [77.18472, 27.53821],
        [77.20135, 27.55635],
        [77.19462, 27.5645],
        [77.19868, 27.57487],
        [77.22497, 27.58021],
        [77.23295, 27.57002],
        [77.26518, 27.5671],
        [77.28981, 27.57557],
        [77.31782, 27.60593],
        [77.33501, 27.59095],
        [77.34366, 27.5971],
        [77.35494, 27.59227],
        [77.35705, 27.58694],
        [77.34499, 27.57243],
        [77.3376, 27.57116],
        [77.33891, 27.54994],
        [77.31719, 27.53163],
        [77.30602, 27.50408],
        [77.30937, 27.50141],
        [77.30028, 27.48881],
        [77.30194, 27.48136],
        [77.31311, 27.47098],
        [77.31396, 27.45748],
        [77.32614, 27.45479],
        [77.33458, 27.44566],
        [77.33368, 27.43029],
        [77.30905, 27.4396],
        [77.2978, 27.43632],
        [77.28536, 27.42013],
        [77.25736, 27.43043],
        [77.25168, 27.42781],
        [77.24048, 27.41893],
        [77.25763, 27.4118],
        [77.24279, 27.39318],
        [77.24975, 27.38685],
        [77.24771, 27.38086],
        [77.23598, 27.37672],
        [77.22059, 27.35697],
        [77.2085, 27.35441],
        [77.19238, 27.36066],
        [77.15304, 27.34916],
        [77.1244, 27.35661],
        [77.10595, 27.36435],
        [77.10071, 27.37731],
        [77.07085, 27.39514],
        [77.06317, 27.38223],
        [77.04926, 27.38646],
        [77.04458, 27.3821],
        [77.02799, 27.38938],
        [77.03328, 27.40227],
        [77.02531, 27.40327],
        [77.02091, 27.39243],
        [77.00912, 27.39674],
        [77.01024, 27.40342],
        [77.00524, 27.40654],
        [77.00893, 27.41684],
        [77.00264, 27.42256],
        [76.98908, 27.42851],
        [76.98041, 27.42577],
        [76.97844, 27.41782],
        [76.96968, 27.424],
        [76.96169, 27.41807],
        [76.95745, 27.42044],
        [76.95856, 27.43119],
        [76.9474, 27.4355],
        [76.94433, 27.44735],
        [76.92249, 27.45805],
        [76.91814, 27.46481],
        [76.91099, 27.46308],
        [76.90914, 27.45806],
        [76.89743, 27.45839],
        [76.90039, 27.46176],
        [76.90593, 27.46226],
        [76.90838, 27.47123],
        [76.91303, 27.4712],
        [76.91191, 27.48192],
        [76.9187, 27.48082],
        [76.92351, 27.49321],
        [76.91246, 27.49933],
        [76.89635, 27.49154],
        [76.88073, 27.51167],
        [76.88827, 27.52322],
        [76.89373, 27.5233],
        [76.89727, 27.53755],
        [76.90939, 27.53105],
        [76.92475, 27.53815],
        [76.92825, 27.53167],
        [76.92484, 27.52492],
        [76.9086, 27.5285],
        [76.90525, 27.52118],
        [76.9293, 27.5172],
        [76.94103, 27.49522],
        [76.93846, 27.4878],
        [76.96846, 27.47636],
        [76.96355, 27.46744],
        [76.97098, 27.46129],
        [76.97939, 27.46443],
        [76.98135, 27.45913],
        [77.01847, 27.45086],
        [77.02892, 27.45361],
        [77.03413, 27.46802],
        [77.05046, 27.45974],
        [77.04578, 27.45225],
        [77.03663, 27.44886],
        [77.03695, 27.44478],
        [77.04864, 27.43868],
        [77.0541, 27.4468],
        [77.06073, 27.44603],
        [77.063, 27.45275],
        [77.05652, 27.45537],
        [77.05925, 27.45966],
        [77.0516, 27.4673],
        [77.05558, 27.47614],
        [77.05284, 27.48386],
        [77.04435, 27.48408],
        [77.03692, 27.49763],
        [77.0188, 27.50526],
        [77.02214, 27.51665],
        [77.03562, 27.51303],
        [77.03529, 27.52565],
        [77.0407, 27.53039],
        [77.05885, 27.52691],
        [77.0676, 27.53702],
        [77.05625, 27.54435],
        [77.05289, 27.54078],
        [77.04275, 27.5436],
        [77.03415, 27.551],
        [77.03478, 27.5539],
        [77.04839, 27.55003],
        [77.04974, 27.56152],
        [77.02831, 27.55873],
        [77.00229, 27.56978],
        [76.99985, 27.55775],
        [77.02072, 27.54736],
        [77.02315, 27.54145],
        [76.99597, 27.53334],
        [76.98614, 27.53849],
        [76.98392, 27.54699],
        [76.9736, 27.55162],
        [76.96721, 27.55108],
        [76.96322, 27.54086],
        [76.95923, 27.5424],
        [76.95591, 27.55488],
        [76.94675, 27.55962],
        [76.94979, 27.56244],
        [76.95799, 27.55931],
        [76.96138, 27.57577],
        [76.95139, 27.58049],
        [76.94672, 27.57429],
        [76.94034, 27.57674],
        [76.946, 27.58601],
        [76.93546, 27.60393],
        [76.93853, 27.60808],
        [76.96414, 27.60485],
        [76.96682, 27.61081],
        [76.93565, 27.61601],
        [76.94268, 27.62062],
        [76.98303, 27.61954],
        [76.98396, 27.64065],
        [76.97655, 27.64328],
        [76.97822, 27.65027],
        [77.01569, 27.61951],
        [77.03393, 27.61492]
      ]
    ]
  }
}
