{
  "type": "Feature",
  "id": "RJ-AC-77",
  "properties": {
    "stateName": "RAJASTHAN",
    "stateCode": "RJ",
    "districtName": "DHAULPUR",
    "acNo": 77,
    "acName": "Baseri (SC)",
    "seatType": null,
    "pcNo": 10,
    "pcName": "KARAULI ?DHOLPUR(SC)",
    "quality": "unverified",
    "sources": [
      "TBD"
    ]
  },
  "geometry": {
    "type": "Polygon",
    "coordinates": [
      [
        [77.67497, 26.85765],
        [77.68725, 26.83295],
        [77.68943, 26.80229],
        [77.68539, 26.78084],
        [77.6692, 26.77711],
        [77.63375, 26.75667],
        [77.62442, 26.74315],
        [77.586, 26.71991],
        [77.55551, 26.70869],
        [77.51512, 26.70244],
        [77.48945, 26.67835],
        [77.51847, 26.65584],
        [77.51625, 26.64614],
        [77.55234, 26.64071],
        [77.572, 26.64229],
        [77.58122, 26.65909],
        [77.5906, 26.65851],
        [77.59553, 26.63266],
        [77.62602, 26.62211],
        [77.63667, 26.57662],
        [77.62364, 26.56487],
        [77.61559, 26.5614],
        [77.60239, 26.56381],
        [77.59188, 26.55361],
        [77.59448, 26.56799],
        [77.57208, 26.57051],
        [77.56618, 26.5465],
        [77.57381, 26.53597],
        [77.57328, 26.52633],
        [77.55109, 26.47548],
        [77.53213, 26.44778],
        [77.53635, 26.41116],
        [77.52373, 26.40719],
        [77.50456, 26.40844],
        [77.48685, 26.41085],
        [77.45981, 26.40367],
        [77.43666, 26.4029],
        [77.435, 26.39387],
        [77.44844, 26.3682],
        [77.44336, 26.36126],
        [77.41223, 26.36326],
        [77.39077, 26.35656],
        [77.37599, 26.36534],
        [77.37011, 26.37739],
        [77.35711, 26.37865],
        [77.35516, 26.39686],
        [77.33866, 26.39611],
        [77.34643, 26.41308],
        [77.34338, 26.42417],
        [77.32924, 26.42576],
        [77.33147, 26.43201],
        [77.30642, 26.43915],
        [77.29434, 26.43492],
        [77.28187, 26.43722],
        [77.27497, 26.43104],
        [77.26151, 26.42814],
        [77.25541, 26.43143],
        [77.24899, 26.44436],
        [77.25068, 26.46815],
        [77.24335, 26.47438],
        [77.23769, 26.47044],
        [77.24264, 26.48064],
        [77.23431, 26.49542],
        [77.23917, 26.49782],
        [77.22713, 26.52834],
        [77.2415, 26.54718],
        [77.25556, 26.55488],
        [77.26669, 26.55069],
        [77.28236, 26.5568],
        [77.28933, 26.55461],
        [77.28919, 26.56144],
        [77.31505, 26.58017],
        [77.34572, 26.59236],
        [77.35524, 26.59207],
        [77.37596, 26.61846],
        [77.38501, 26.61539],
        [77.39074, 26.61832],
        [77.39398, 26.63386],
        [77.35949, 26.63728],
        [77.3573, 26.63192],
        [77.34575, 26.64149],
        [77.35149, 26.65595],
        [77.37176, 26.65617],
        [77.34587, 26.69126],
        [77.34603, 26.71254],
        [77.38278, 26.7058],
        [77.3918, 26.71296],
        [77.42128, 26.72061],
        [77.44615, 26.74025],
        [77.45489, 26.74195],
        [77.48504, 26.74784],
        [77.50243, 26.76899],
        [77.4891, 26.77868],
        [77.48751, 26.78777],
        [77.50056, 26.81631],
        [77.50136, 26.8441],
        [77.52055, 26.84142],
        [77.51695, 26.82597],
        [77.52314, 26.81988],
        [77.54232, 26.82239],
        [77.55749, 26.81757],
        [77.57463, 26.82091],
        [77.5782, 26.8272],
        [77.59257, 26.82796],
        [77.60834, 26.83917],
        [77.60798, 26.82776],
        [77.6183, 26.83217],
        [77.62059, 26.84292],
        [77.62974, 26.84157],
        [77.67497, 26.85765]
      ]
    ]
  }
}
