{
  "type": "Feature",
  "id": "RJ-AC-86",
  "properties": {
    "stateName": "RAJASTHAN",
    "stateCode": "RJ",
    "districtName": "DAUSA",
    "acNo": 86,
    "acName": "Mahuwa",
    "seatType": null,
    "pcNo": 11,
    "pcName": "DAUSA (ST)",
    "quality": "unverified",
    "sources": [
      "TBD"
    ]
  },
  "geometry": {
    "type": "MultiPolygon",
    "coordinates": [
      [
        [
          [76.89932, 27.22379],
          [76.90374, 27.21797],
          [76.89933, 27.21329],
          [76.90506, 27.21019],
          [76.90478, 27.18786],
          [76.91065, 27.1811],
          [76.90874, 27.17542],
          [76.89715, 27.17585],
          [76.89561, 27.16082],
          [76.91843, 27.15066],
          [76.9152, 27.14136],
          [76.92692, 27.13662],
          [76.94369, 27.13878],
          [76.94512, 27.14682],
          [76.96041, 27.14413],
          [76.95973, 27.12515],
          [76.97076, 27.12679],
          [76.99271, 27.11066],
          [76.9901, 27.104],
          [76.98124, 27.10419],
          [76.98749, 27.08963],
          [76.97099, 27.08168],
          [76.96985, 27.07068],
          [76.99462, 27.06154],
          [76.99371, 27.04891],
          [77.01151, 27.04242],
          [77.01046, 27.03397],
          [76.98424, 27.03798],
          [76.97929, 27.02927],
          [77.00577, 27.00417],
          [77.00627, 26.97427],
          [77.01682, 26.97557],
          [77.02418, 26.94155],
          [77.01274, 26.93193],
          [77.01695, 26.92657],
          [77.02898, 26.92402],
          [77.04082, 26.9085],
          [77.05928, 26.91425],
          [77.05939, 26.88852],
          [77.07492, 26.86031],
          [77.04831, 26.84523],
          [77.01127, 26.836],
          [76.96368, 26.81487],
          [76.94401, 26.81753],
          [76.93773, 26.82232],
          [76.93688, 26.83532],
          [76.94599, 26.8603],
          [76.94183, 26.91043],
          [76.89985, 26.94326],
          [76.84795, 26.96445],
          [76.81937, 26.96601],
          [76.79985, 26.9575],
          [76.80566, 26.96708],
          [76.79579, 26.97283],
          [76.77338, 26.98149],
          [76.75967, 26.98124],
          [76.74452, 26.97831],
          [76.74121, 26.98578],
          [76.72615, 26.99191],
          [76.72618, 27.00124],
          [76.71965, 27.00281],
          [76.72202, 27.0322],
          [76.71719, 27.03203],
          [76.72274, 27.0545],
          [76.72895, 27.05772],
          [76.73295, 27.0895],
          [76.74777, 27.08914],
          [76.74921, 27.10702],
          [76.75945, 27.10637],
          [76.76499, 27.11386],
          [76.78462, 27.1125],
          [76.7926, 27.13811],
          [76.8001, 27.12579],
          [76.81216, 27.12329],
          [76.8019, 27.1042],
          [76.81081, 27.08081],
          [76.82986, 27.07507],
          [76.83955, 27.11926],
          [76.82897, 27.11785],
          [76.82375, 27.13205],
          [76.82832, 27.14197],
          [76.82725, 27.1626],
          [76.83995, 27.1628],
          [76.84512, 27.16994],
          [76.8511, 27.19028],
          [76.84357, 27.1934],
          [76.84257, 27.20739],
          [76.84627, 27.21074],
          [76.85667, 27.20821],
          [76.86817, 27.22973],
          [76.88808, 27.22188],
          [76.89415, 27.23113],
          [76.90201, 27.22799],
          [76.89932, 27.22379]
        ]
      ],
      [
        [
          [76.86095, 27.15387],
          [76.85063, 27.15273],
          [76.83753, 27.13749],
          [76.84812, 27.13423],
          [76.85737, 27.14708],
          [76.87256, 27.12941],
          [76.89137, 27.13924],
          [76.86226, 27.15281],
          [76.86095, 27.15387]
        ]
      ]
    ]
  }
}
