{
  "type": "Feature",
  "id": "RJ-AC-88",
  "properties": {
    "stateName": "RAJASTHAN",
    "stateCode": "RJ",
    "districtName": "DAUSA",
    "acNo": 88,
    "acName": "Dausa",
    "seatType": null,
    "pcNo": 11,
    "pcName": "DAUSA (ST)",
    "quality": "unverified",
    "sources": [
      "TBD"
    ]
  },
  "geometry": {
    "type": "Polygon",
    "coordinates": [
      [
        [76.282, 27.06351],
        [76.31592, 27.05993],
        [76.32764, 27.05419],
        [76.32937, 27.05904],
        [76.34203, 27.05884],
        [76.35217, 27.05394],
        [76.37488, 27.07539],
        [76.39399, 27.06332],
        [76.39968, 27.05428],
        [76.41802, 27.05116],
        [76.42886, 27.0417],
        [76.439, 27.04175],
        [76.46192, 27.01141],
        [76.46304, 26.99372],
        [76.4538, 26.9949],
        [76.46026, 26.97137],
        [76.4776, 26.95974],
        [76.45437, 26.968],
        [76.44918, 26.93611],
        [76.42483, 26.93733],
        [76.42409, 26.93074],
        [76.39463, 26.91511],
        [76.39827, 26.89601],
        [76.40445, 26.89581],
        [76.40138, 26.87276],
        [76.39309, 26.87145],
        [76.38933, 26.85916],
        [76.36564, 26.85768],
        [76.37427, 26.84941],
        [76.37667, 26.83865],
        [76.36858, 26.83201],
        [76.36762, 26.82477],
        [76.37782, 26.81968],
        [76.39075, 26.7999],
        [76.3892, 26.79512],
        [76.39576, 26.79534],
        [76.41264, 26.76985],
        [76.41551, 26.74837],
        [76.43245, 26.74183],
        [76.43313, 26.7215],
        [76.43643, 26.71815],
        [76.44949, 26.7335],
        [76.44904, 26.74256],
        [76.46266, 26.74698],
        [76.47172, 26.74282],
        [76.47737, 26.71602],
        [76.46586, 26.7009],
        [76.45506, 26.70809],
        [76.43116, 26.69869],
        [76.41908, 26.69928],
        [76.39877, 26.73636],
        [76.39346, 26.73857],
        [76.38655, 26.73482],
        [76.36414, 26.74624],
        [76.36465, 26.75488],
        [76.35555, 26.75208],
        [76.34268, 26.75643],
        [76.34654, 26.76475],
        [76.34141, 26.77236],
        [76.3264, 26.77057],
        [76.30998, 26.75539],
        [76.27678, 26.76404],
        [76.26719, 26.76115],
        [76.25819, 26.74848],
        [76.23002, 26.74391],
        [76.20461, 26.74769],
        [76.18858, 26.76301],
        [76.18048, 26.75605],
        [76.1818, 26.7655],
        [76.19375, 26.76749],
        [76.19729, 26.77866],
        [76.1929, 26.78382],
        [76.19819, 26.78309],
        [76.20535, 26.79058],
        [76.20445, 26.80098],
        [76.21994, 26.79996],
        [76.21906, 26.80315],
        [76.22932, 26.80892],
        [76.23161, 26.80173],
        [76.23833, 26.79886],
        [76.24332, 26.80166],
        [76.24934, 26.79677],
        [76.25515, 26.80295],
        [76.24883, 26.81333],
        [76.26238, 26.83026],
        [76.24885, 26.83445],
        [76.24083, 26.84454],
        [76.24775, 26.86626],
        [76.25343, 26.86315],
        [76.2628, 26.86651],
        [76.26258, 26.87341],
        [76.24757, 26.87403],
        [76.23545, 26.88025],
        [76.23732, 26.89406],
        [76.22273, 26.89591],
        [76.2241, 26.90492],
        [76.21893, 26.90732],
        [76.21987, 26.91896],
        [76.22842, 26.91587],
        [76.23741, 26.92572],
        [76.2393, 26.93225],
        [76.22933, 26.93371],
        [76.23371, 26.94503],
        [76.24719, 26.9411],
        [76.24856, 26.94625],
        [76.22264, 26.95473],
        [76.22906, 27.00067],
        [76.23982, 27.0181],
        [76.25355, 27.01815],
        [76.25989, 27.03007],
        [76.27728, 27.04142],
        [76.282, 27.06351]
      ]
    ]
  }
}
