{
  "type": "Feature",
  "id": "WB-AC-115",
  "properties": {
    "stateName": "WEST BENGAL",
    "stateCode": "WB",
    "districtName": "NORTH 24 PARGANAS",
    "acNo": 115,
    "acName": "RAJARHAT NEW TOWN",
    "seatType": null,
    "pcNo": 17,
    "pcName": "BARASAT",
    "quality": "unverified",
    "sources": [
      "TBD"
    ]
  },
  "geometry": {
    "type": "Polygon",
    "coordinates": [
      [
        [88.46859, 22.65442],
        [88.47214, 22.6541],
        [88.47887, 22.63372],
        [88.49638, 22.62838],
        [88.50577, 22.62035],
        [88.52381, 22.61665],
        [88.53721, 22.61596],
        [88.54492, 22.62269],
        [88.55814, 22.61995],
        [88.56066, 22.61846],
        [88.5538, 22.61856],
        [88.5515, 22.60784],
        [88.546, 22.61004],
        [88.54691, 22.6061],
        [88.54333, 22.60626],
        [88.54863, 22.59548],
        [88.54573, 22.5867],
        [88.54106, 22.58004],
        [88.53762, 22.58119],
        [88.53881, 22.57486],
        [88.5224, 22.56401],
        [88.52263, 22.55087],
        [88.50957, 22.55218],
        [88.50821, 22.55913],
        [88.4935, 22.5549],
        [88.48463, 22.56004],
        [88.48193, 22.56733],
        [88.47678, 22.56728],
        [88.47327, 22.57672],
        [88.46621, 22.57324],
        [88.46434, 22.56569],
        [88.44496, 22.56706],
        [88.44079, 22.5764],
        [88.43726, 22.57184],
        [88.4361, 22.58036],
        [88.44363, 22.58385],
        [88.44282, 22.59617],
        [88.4368, 22.59964],
        [88.44548, 22.63199],
        [88.44529, 22.63384],
        [88.45474, 22.63661],
        [88.46077, 22.65278],
        [88.46859, 22.65442]
      ]
    ]
  }
}
