{
  "type": "Feature",
  "id": "WB-AC-120",
  "properties": {
    "stateName": "WEST BENGAL",
    "stateCode": "WB",
    "districtName": "NORTH 24 PARGANAS",
    "acNo": 120,
    "acName": "DEGANGA",
    "seatType": null,
    "pcNo": 17,
    "pcName": "BARASAT",
    "quality": "unverified",
    "sources": [
      "TBD"
    ]
  },
  "geometry": {
    "type": "Polygon",
    "coordinates": [
      [
        [88.74095, 22.80373],
        [88.73791, 22.76891],
        [88.7218, 22.75174],
        [88.70865, 22.71922],
        [88.705, 22.71189],
        [88.71422, 22.70654],
        [88.70991, 22.68708],
        [88.71212, 22.66214],
        [88.72159, 22.6583],
        [88.72278, 22.65115],
        [88.72029, 22.65674],
        [88.71805, 22.65212],
        [88.71066, 22.65109],
        [88.70333, 22.65504],
        [88.69235, 22.6454],
        [88.6896, 22.65088],
        [88.6931, 22.66267],
        [88.68805, 22.66123],
        [88.68408, 22.6656],
        [88.67972, 22.66224],
        [88.67114, 22.67185],
        [88.66295, 22.66993],
        [88.65755, 22.66141],
        [88.65901, 22.66712],
        [88.65285, 22.66456],
        [88.64753, 22.66839],
        [88.65365, 22.67794],
        [88.65272, 22.68995],
        [88.6453, 22.69387],
        [88.64332, 22.6899],
        [88.62547, 22.68908],
        [88.62759, 22.694],
        [88.61659, 22.69473],
        [88.61524, 22.70323],
        [88.60598, 22.70361],
        [88.60074, 22.71103],
        [88.59182, 22.70891],
        [88.59094, 22.71512],
        [88.58515, 22.71588],
        [88.58005, 22.71822],
        [88.5753, 22.71418],
        [88.57523, 22.6985],
        [88.56898, 22.6981],
        [88.57187, 22.68971],
        [88.56327, 22.68626],
        [88.5557, 22.69085],
        [88.52427, 22.68833],
        [88.52759, 22.69942],
        [88.52176, 22.70511],
        [88.5366, 22.71514],
        [88.5355, 22.73446],
        [88.5387, 22.75097],
        [88.54405, 22.74741],
        [88.54987, 22.75649],
        [88.56703, 22.75911],
        [88.57371, 22.76505],
        [88.58318, 22.75956],
        [88.58743, 22.76272],
        [88.60865, 22.75829],
        [88.61285, 22.7721],
        [88.62059, 22.77572],
        [88.642, 22.76604],
        [88.64433, 22.77952],
        [88.65476, 22.78101],
        [88.661, 22.76474],
        [88.66657, 22.7631],
        [88.6692, 22.77222],
        [88.69586, 22.77319],
        [88.68637, 22.77986],
        [88.73267, 22.80428],
        [88.73737, 22.81938],
        [88.74342, 22.8202],
        [88.74398, 22.80954],
        [88.74095, 22.80373]
      ]
    ]
  }
}
