{
  "type": "Feature",
  "id": "WB-AC-132",
  "properties": {
    "stateName": "WEST BENGAL",
    "stateCode": "WB",
    "districtName": "SOUTH 24 PARGANAS",
    "acNo": 132,
    "acName": "SAGAR",
    "seatType": null,
    "pcNo": 20,
    "pcName": "MATHURAPUR (SC)",
    "quality": "unverified",
    "sources": [
      "TBD"
    ]
  },
  "geometry": {
    "type": "Polygon",
    "coordinates": [
      [
        [88.19159, 21.76154],
        [88.19398, 21.73979],
        [88.24495, 21.72512],
        [88.25697, 21.72864],
        [88.24734, 21.69417],
        [88.26924, 21.69382],
        [88.2599, 21.66535],
        [88.26622, 21.64729],
        [88.31318, 21.6353],
        [88.33087, 21.61152],
        [88.33076, 21.57657],
        [88.31425, 21.55195],
        [88.3338, 21.54301],
        [88.22884, 21.48367],
        [88.06119, 21.50815],
        [87.99179, 21.51297],
        [87.95119, 21.59255],
        [87.94469, 21.5918],
        [87.90203, 21.6869],
        [87.9049, 21.70322],
        [87.93378, 21.75054],
        [87.94969, 21.76899],
        [87.95767, 21.77093],
        [87.99774, 21.81715],
        [88.0219, 21.84107],
        [88.06862, 21.90606],
        [88.06678, 21.92383],
        [88.09925, 21.96903],
        [88.11197, 21.96456],
        [88.13654, 21.94454],
        [88.15885, 21.91346],
        [88.15848, 21.90361],
        [88.14398, 21.87488],
        [88.17026, 21.82114],
        [88.17331, 21.79026],
        [88.18667, 21.78847],
        [88.19159, 21.76154]
      ]
    ]
  }
}
