{
  "type": "Feature",
  "id": "WB-AC-134",
  "properties": {
    "stateName": "WEST BENGAL",
    "stateCode": "WB",
    "districtName": "SOUTH 24 PARGANAS",
    "acNo": 134,
    "acName": "RAIDIGHI",
    "seatType": null,
    "pcNo": 20,
    "pcName": "MATHURAPUR (SC)",
    "quality": "unverified",
    "sources": [
      "TBD"
    ]
  },
  "geometry": {
    "type": "Polygon",
    "coordinates": [
      [
        [88.459, 22.1414],
        [88.46638, 22.12268],
        [88.4507, 22.11879],
        [88.45111, 22.11205],
        [88.4858, 22.11493],
        [88.48416, 22.10126],
        [88.49099, 22.09032],
        [88.48497, 22.08073],
        [88.49188, 22.07658],
        [88.49097, 22.06323],
        [88.50123, 22.04998],
        [88.48184, 22.04283],
        [88.46607, 22.04468],
        [88.46034, 22.02806],
        [88.46216, 22.01452],
        [88.49391, 22.00699],
        [88.50274, 21.9966],
        [88.51607, 21.9902],
        [88.48402, 21.95246],
        [88.48554, 21.94239],
        [88.49968, 21.92595],
        [88.50359, 21.91419],
        [88.50173, 21.90246],
        [88.48569, 21.88362],
        [88.47595, 21.88752],
        [88.47847, 21.89168],
        [88.47223, 21.89579],
        [88.4453, 21.89624],
        [88.43722, 21.8795],
        [88.42774, 21.87976],
        [88.41981, 21.87374],
        [88.40885, 21.87687],
        [88.40524, 21.8643],
        [88.39609, 21.85548],
        [88.39043, 21.85575],
        [88.37967, 21.86752],
        [88.37945, 21.88544],
        [88.39683, 21.90011],
        [88.38815, 21.91342],
        [88.39095, 21.9324],
        [88.37981, 21.95065],
        [88.39961, 21.958],
        [88.41086, 21.97249],
        [88.40547, 21.98494],
        [88.39914, 21.98759],
        [88.36701, 21.97365],
        [88.36713, 21.98833],
        [88.3468, 21.97366],
        [88.33167, 21.9791],
        [88.32217, 21.97765],
        [88.31648, 21.9839],
        [88.30009, 21.98749],
        [88.29654, 21.97968],
        [88.29915, 21.97468],
        [88.29438, 21.97898],
        [88.29934, 21.98981],
        [88.29411, 21.99092],
        [88.29505, 21.9952],
        [88.30452, 22.00978],
        [88.3107, 22.01224],
        [88.31694, 22.03017],
        [88.32149, 22.02841],
        [88.33029, 22.03821],
        [88.33556, 22.03025],
        [88.35556, 22.0313],
        [88.36869, 22.02705],
        [88.36907, 22.0579],
        [88.37984, 22.05775],
        [88.37788, 22.07123],
        [88.38827, 22.07658],
        [88.38441, 22.07994],
        [88.37353, 22.07592],
        [88.37311, 22.08072],
        [88.38148, 22.0825],
        [88.38185, 22.09124],
        [88.39197, 22.09431],
        [88.4032, 22.11934],
        [88.39498, 22.11519],
        [88.39732, 22.12215],
        [88.39154, 22.12712],
        [88.39227, 22.1324],
        [88.39732, 22.14092],
        [88.42287, 22.14106],
        [88.42423, 22.14642],
        [88.43441, 22.14756],
        [88.43814, 22.14236],
        [88.45209, 22.14149],
        [88.4547, 22.14803],
        [88.46133, 22.14407],
        [88.459, 22.1414]
      ]
    ]
  }
}
