{
  "type": "Feature",
  "id": "WB-AC-140",
  "properties": {
    "stateName": "WEST BENGAL",
    "stateCode": "WB",
    "districtName": "SOUTH 24 PARGANAS",
    "acNo": 140,
    "acName": "BARUIPUR PASCHIM",
    "seatType": null,
    "pcNo": 22,
    "pcName": "JADAVPUR",
    "quality": "unverified",
    "sources": [
      "TBD"
    ]
  },
  "geometry": {
    "type": "Polygon",
    "coordinates": [
      [
        [88.45838, 22.41113],
        [88.45527, 22.40299],
        [88.46064, 22.40072],
        [88.45698, 22.39919],
        [88.45468, 22.37958],
        [88.47049, 22.37244],
        [88.4624, 22.36794],
        [88.4674, 22.35896],
        [88.46127, 22.35239],
        [88.4713, 22.34746],
        [88.47528, 22.32285],
        [88.48425, 22.32189],
        [88.48491, 22.33125],
        [88.49665, 22.32606],
        [88.49618, 22.30822],
        [88.49254, 22.29984],
        [88.47009, 22.29145],
        [88.4678, 22.28503],
        [88.47297, 22.27937],
        [88.47244, 22.27098],
        [88.45997, 22.27674],
        [88.45439, 22.27259],
        [88.44314, 22.27723],
        [88.43932, 22.2681],
        [88.43153, 22.27593],
        [88.43289, 22.28259],
        [88.42655, 22.28202],
        [88.42504, 22.29257],
        [88.41381, 22.29884],
        [88.41008, 22.30636],
        [88.41509, 22.30921],
        [88.41441, 22.31648],
        [88.4044, 22.31557],
        [88.39192, 22.32431],
        [88.39264, 22.33287],
        [88.38629, 22.33672],
        [88.39061, 22.34347],
        [88.3804, 22.35231],
        [88.3815, 22.35646],
        [88.38925, 22.36105],
        [88.39384, 22.35496],
        [88.40095, 22.36208],
        [88.40579, 22.35791],
        [88.40781, 22.36701],
        [88.42163, 22.37759],
        [88.4177, 22.38104],
        [88.4215, 22.38858],
        [88.42868, 22.38666],
        [88.43853, 22.39238],
        [88.44376, 22.40178],
        [88.44219, 22.41185],
        [88.45873, 22.41166],
        [88.45838, 22.41113]
      ]
    ]
  }
}
