{
  "type": "Feature",
  "id": "WB-AC-153",
  "properties": {
    "stateName": "WEST BENGAL",
    "stateCode": "WB",
    "districtName": "SOUTH 24 PARGANAS",
    "acNo": 153,
    "acName": "BEHALA PURBA",
    "seatType": null,
    "pcNo": 23,
    "pcName": "KOLKATA DAKSHIN",
    "quality": "unverified",
    "sources": [
      "TBD"
    ]
  },
  "geometry": {
    "type": "Polygon",
    "coordinates": [
      [
        [88.33527, 22.4858],
        [88.33947, 22.44844],
        [88.34596, 22.44724],
        [88.34847, 22.43378],
        [88.3397, 22.43292],
        [88.34056, 22.42888],
        [88.33636, 22.42784],
        [88.32702, 22.43725],
        [88.32609, 22.42561],
        [88.30779, 22.43458],
        [88.30622, 22.42592],
        [88.29966, 22.4248],
        [88.29514, 22.43103],
        [88.2974, 22.44495],
        [88.3056, 22.45055],
        [88.31827, 22.48481],
        [88.32414, 22.4853],
        [88.32631, 22.49396],
        [88.33527, 22.4858]
      ]
    ]
  }
}
