{
  "type": "Feature",
  "id": "WB-AC-159",
  "properties": {
    "stateName": "WEST BENGAL",
    "stateCode": "WB",
    "districtName": "KOLKATA",
    "acNo": 159,
    "acName": "BHABANIPUR",
    "seatType": null,
    "pcNo": 23,
    "pcName": "KOLKATA DAKSHIN",
    "quality": "unverified",
    "sources": [
      "TBD"
    ]
  },
  "geometry": {
    "type": "Polygon",
    "coordinates": [
      [
        [88.33472, 22.56359],
        [88.34481, 22.56418],
        [88.34166, 22.5557],
        [88.34723, 22.55474],
        [88.34792, 22.55823],
        [88.35589, 22.55304],
        [88.35416, 22.54862],
        [88.36006, 22.54466],
        [88.35842, 22.53955],
        [88.35354, 22.53943],
        [88.35085, 22.52353],
        [88.33709, 22.5233],
        [88.33691, 22.50875],
        [88.31741, 22.5186],
        [88.32069, 22.53397],
        [88.31154, 22.53673],
        [88.32401, 22.54505],
        [88.32165, 22.55239],
        [88.33473, 22.57013],
        [88.33472, 22.56359]
      ]
    ]
  }
}
