{
  "type": "Feature",
  "id": "WB-AC-179",
  "properties": {
    "stateName": "WEST BENGAL",
    "stateCode": "WB",
    "districtName": "HAORA",
    "acNo": 179,
    "acName": "SHYAMPUR",
    "seatType": null,
    "pcNo": 26,
    "pcName": "ULUBERIA",
    "quality": "unverified",
    "sources": [
      "TBD"
    ]
  },
  "geometry": {
    "type": "Polygon",
    "coordinates": [
      [
        [87.98678, 22.40324],
        [87.98988, 22.39523],
        [87.99817, 22.39256],
        [88.02473, 22.39842],
        [88.03715, 22.39572],
        [88.04242, 22.36821],
        [88.05706, 22.35249],
        [88.04283, 22.34293],
        [88.04314, 22.32587],
        [88.06245, 22.322],
        [88.06401, 22.31273],
        [88.07253, 22.3067],
        [88.07864, 22.31424],
        [88.09643, 22.30273],
        [88.08205, 22.27046],
        [88.08071, 22.25168],
        [88.08221, 22.23653],
        [88.05998, 22.20612],
        [88.05098, 22.21213],
        [88.02854, 22.21589],
        [88.01207, 22.22692],
        [88.00626, 22.2399],
        [87.99312, 22.25121],
        [87.96043, 22.26655],
        [87.95461, 22.27384],
        [87.94877, 22.30402],
        [87.95445, 22.34489],
        [87.95264, 22.36499],
        [87.93984, 22.39386],
        [87.95836, 22.39277],
        [87.9812, 22.40939],
        [87.98678, 22.40324]
      ]
    ]
  }
}
