{
  "type": "Feature",
  "id": "WB-AC-202",
  "properties": {
    "stateName": "WEST BENGAL",
    "stateCode": "WB",
    "districtName": "HUGLI",
    "acNo": 202,
    "acName": "KHANAKUL",
    "seatType": null,
    "pcNo": 29,
    "pcName": "ARAMBAG (SC)",
    "quality": "unverified",
    "sources": [
      "TBD"
    ]
  },
  "geometry": {
    "type": "Polygon",
    "coordinates": [
      [
        [87.878, 22.77301],
        [87.86702, 22.74925],
        [87.87031, 22.72993],
        [87.86364, 22.72858],
        [87.83357, 22.69164],
        [87.84385, 22.68439],
        [87.86369, 22.68606],
        [87.873, 22.68918],
        [87.87825, 22.70215],
        [87.88648, 22.6946],
        [87.89659, 22.6934],
        [87.89676, 22.68668],
        [87.90943, 22.68517],
        [87.90532, 22.69477],
        [87.9113, 22.69507],
        [87.91412, 22.70376],
        [87.92077, 22.70117],
        [87.92562, 22.6882],
        [87.92148, 22.68781],
        [87.9284, 22.67113],
        [87.92883, 22.65007],
        [87.93766, 22.63412],
        [87.9368, 22.63011],
        [87.92103, 22.63458],
        [87.9212, 22.62725],
        [87.90254, 22.6296],
        [87.9004, 22.61561],
        [87.8909, 22.60863],
        [87.87832, 22.60327],
        [87.86387, 22.60778],
        [87.85168, 22.59525],
        [87.84421, 22.60232],
        [87.82575, 22.6075],
        [87.8249, 22.61562],
        [87.81512, 22.61399],
        [87.81376, 22.6336],
        [87.80504, 22.63201],
        [87.80036, 22.63928],
        [87.79762, 22.65124],
        [87.79162, 22.65204],
        [87.77799, 22.66978],
        [87.77434, 22.68371],
        [87.76469, 22.68749],
        [87.7632, 22.69747],
        [87.75883, 22.69803],
        [87.76528, 22.70774],
        [87.76041, 22.72304],
        [87.7473, 22.73685],
        [87.74151, 22.73742],
        [87.74512, 22.74245],
        [87.74025, 22.75171],
        [87.74439, 22.75803],
        [87.74293, 22.77012],
        [87.75095, 22.7733],
        [87.76381, 22.77657],
        [87.77136, 22.76976],
        [87.78093, 22.77261],
        [87.78767, 22.76496],
        [87.79808, 22.76831],
        [87.81118, 22.75813],
        [87.81366, 22.75084],
        [87.82565, 22.74945],
        [87.83028, 22.75699],
        [87.81436, 22.76156],
        [87.81752, 22.77239],
        [87.84918, 22.76815],
        [87.86488, 22.77758],
        [87.87851, 22.77503],
        [87.878, 22.77301]
      ]
    ]
  }
}
