{
  "type": "Feature",
  "id": "WB-AC-204",
  "properties": {
    "stateName": "WEST BENGAL",
    "stateCode": "WB",
    "districtName": "PURBA MEDINAPUR",
    "acNo": 204,
    "acName": "PANSKURA PURBA",
    "seatType": null,
    "pcNo": 30,
    "pcName": "TAMLUK",
    "quality": "unverified",
    "sources": [
      "TBD"
    ]
  },
  "geometry": {
    "type": "Polygon",
    "coordinates": [
      [
        [87.84897, 22.51125],
        [87.88581, 22.5096],
        [87.87987, 22.50174],
        [87.88599, 22.50064],
        [87.88524, 22.49159],
        [87.89885, 22.4755],
        [87.89704, 22.46839],
        [87.87784, 22.45249],
        [87.87768, 22.44204],
        [87.88155, 22.43704],
        [87.91063, 22.42725],
        [87.90678, 22.41707],
        [87.87766, 22.42648],
        [87.87617, 22.42072],
        [87.86227, 22.41982],
        [87.86221, 22.41472],
        [87.8542, 22.41591],
        [87.85288, 22.4208],
        [87.84556, 22.4095],
        [87.85716, 22.39386],
        [87.85731, 22.38481],
        [87.85098, 22.38132],
        [87.85176, 22.37374],
        [87.84526, 22.37238],
        [87.83992, 22.3706],
        [87.84034, 22.3645],
        [87.83645, 22.36264],
        [87.82952, 22.36978],
        [87.81329, 22.36812],
        [87.802, 22.38682],
        [87.78167, 22.38782],
        [87.77633, 22.40376],
        [87.76459, 22.40503],
        [87.76306, 22.40145],
        [87.758, 22.40532],
        [87.75568, 22.41647],
        [87.76462, 22.4408],
        [87.75668, 22.47326],
        [87.77688, 22.47819],
        [87.78559, 22.48486],
        [87.78883, 22.47818],
        [87.79347, 22.47854],
        [87.81665, 22.49906],
        [87.82537, 22.49855],
        [87.84897, 22.51125]
      ]
    ]
  }
}
