{
  "type": "Feature",
  "id": "WB-AC-208",
  "properties": {
    "stateName": "WEST BENGAL",
    "stateCode": "WB",
    "districtName": "PURBA MEDINAPUR",
    "acNo": 208,
    "acName": "MAHISADAL",
    "seatType": null,
    "pcNo": 30,
    "pcName": "TAMLUK",
    "quality": "unverified",
    "sources": [
      "TBD"
    ]
  },
  "geometry": {
    "type": "Polygon",
    "coordinates": [
      [
        [88.02854, 22.21589],
        [88.05098, 22.21213],
        [88.05998, 22.20612],
        [88.06934, 22.19921],
        [88.08851, 22.19856],
        [88.08442, 22.18049],
        [88.06872, 22.16219],
        [88.07233, 22.15721],
        [88.06576, 22.14828],
        [88.08241, 22.14674],
        [88.07236, 22.12224],
        [88.07714, 22.12081],
        [88.08579, 22.12764],
        [88.10143, 22.12215],
        [88.11304, 22.10004],
        [88.12745, 22.09297],
        [88.12399, 22.07108],
        [88.12887, 22.06555],
        [88.13841, 22.06546],
        [88.13148, 22.0546],
        [88.13611, 22.04529],
        [88.17488, 22.04829],
        [88.15147, 22.02276],
        [88.12802, 22.00134],
        [88.10581, 22.00512],
        [88.07037, 21.99973],
        [88.03895, 22.02616],
        [88.03309, 22.05037],
        [88.03726, 22.06139],
        [88.01768, 22.06525],
        [88.0109, 22.08194],
        [87.9966, 22.08412],
        [87.99916, 22.09651],
        [87.99071, 22.10327],
        [87.9892, 22.10718],
        [87.98913, 22.10269],
        [87.97906, 22.09638],
        [87.97463, 22.10212],
        [87.96173, 22.09286],
        [87.95635, 22.0982],
        [87.95795, 22.10313],
        [87.9476, 22.10919],
        [87.95001, 22.11531],
        [87.94162, 22.11759],
        [87.93068, 22.13002],
        [87.92027, 22.12979],
        [87.91613, 22.13279],
        [87.92461, 22.15174],
        [87.93298, 22.14821],
        [87.94044, 22.16059],
        [87.94811, 22.16307],
        [87.95512, 22.19207],
        [87.96647, 22.19672],
        [87.96661, 22.20661],
        [87.95919, 22.20072],
        [87.95504, 22.20038],
        [87.9548, 22.20767],
        [87.94849, 22.20244],
        [87.94292, 22.20463],
        [87.95223, 22.24228],
        [87.94743, 22.26041],
        [87.96043, 22.26655],
        [87.99312, 22.25121],
        [88.00626, 22.2399],
        [88.01207, 22.22692],
        [88.02854, 22.21589]
      ]
    ]
  }
}
