{
  "type": "Feature",
  "id": "WB-AC-209",
  "properties": {
    "stateName": "WEST BENGAL",
    "stateCode": "WB",
    "districtName": "PURBA MEDINAPUR",
    "acNo": 209,
    "acName": "HALDIA (SC)",
    "seatType": null,
    "pcNo": 30,
    "pcName": "TAMLUK",
    "quality": "unverified",
    "sources": [
      "TBD"
    ]
  },
  "geometry": {
    "type": "Polygon",
    "coordinates": [
      [
        [88.19142, 22.14691],
        [88.19257, 22.14453],
        [88.2065, 22.11285],
        [88.20582, 22.09337],
        [88.19466, 22.07157],
        [88.17488, 22.04829],
        [88.13611, 22.04529],
        [88.13148, 22.0546],
        [88.13841, 22.06546],
        [88.12887, 22.06555],
        [88.12399, 22.07108],
        [88.12745, 22.09297],
        [88.11304, 22.10004],
        [88.10143, 22.12215],
        [88.08579, 22.12764],
        [88.07714, 22.12081],
        [88.07236, 22.12224],
        [88.08241, 22.14674],
        [88.06576, 22.14828],
        [88.07233, 22.15721],
        [88.06872, 22.16219],
        [88.08442, 22.18049],
        [88.08851, 22.19856],
        [88.1068, 22.20093],
        [88.15878, 22.18853],
        [88.17805, 22.17557],
        [88.19142, 22.14691]
      ]
    ]
  }
}
