{
  "type": "Feature",
  "id": "WB-AC-211",
  "properties": {
    "stateName": "WEST BENGAL",
    "stateCode": "WB",
    "districtName": "PURBA MEDINAPUR",
    "acNo": 211,
    "acName": "CHANDIPUR",
    "seatType": null,
    "pcNo": 31,
    "pcName": "KANTHI",
    "quality": "unverified",
    "sources": [
      "TBD"
    ]
  },
  "geometry": {
    "type": "Polygon",
    "coordinates": [
      [
        [87.74976, 22.17421],
        [87.7571, 22.16841],
        [87.77916, 22.16327],
        [87.8121, 22.16793],
        [87.81603, 22.1596],
        [87.82736, 22.16668],
        [87.84008, 22.16732],
        [87.86452, 22.16195],
        [87.85917, 22.14738],
        [87.86925, 22.15421],
        [87.90268, 22.1345],
        [87.92027, 22.12979],
        [87.93068, 22.13002],
        [87.94162, 22.11759],
        [87.95001, 22.11531],
        [87.9476, 22.10919],
        [87.95795, 22.10313],
        [87.95635, 22.0982],
        [87.96173, 22.09286],
        [87.95785, 22.08333],
        [87.92969, 22.08977],
        [87.92676, 22.08179],
        [87.93093, 22.07733],
        [87.91605, 22.07431],
        [87.91484, 22.06438],
        [87.90719, 22.06007],
        [87.89834, 22.06535],
        [87.89435, 22.04908],
        [87.88826, 22.04998],
        [87.88619, 22.04056],
        [87.8623, 22.0345],
        [87.84, 22.02764],
        [87.83739, 22.03559],
        [87.83545, 22.05237],
        [87.82116, 22.05547],
        [87.8168, 22.07046],
        [87.80748, 22.07238],
        [87.80395, 22.09173],
        [87.79688, 22.08887],
        [87.78608, 22.094],
        [87.78641, 22.07612],
        [87.77553, 22.08024],
        [87.77522, 22.07688],
        [87.74397, 22.07837],
        [87.74898, 22.08804],
        [87.7479, 22.10044],
        [87.75249, 22.10431],
        [87.74903, 22.10797],
        [87.75113, 22.12118],
        [87.7424, 22.12343],
        [87.74251, 22.11903],
        [87.73819, 22.11866],
        [87.73583, 22.12195],
        [87.72538, 22.11213],
        [87.71988, 22.11323],
        [87.71636, 22.09538],
        [87.70615, 22.08599],
        [87.70495, 22.06997],
        [87.69973, 22.06859],
        [87.69765, 22.06115],
        [87.68899, 22.06491],
        [87.68673, 22.08626],
        [87.68263, 22.08399],
        [87.67648, 22.09024],
        [87.672, 22.10448],
        [87.69102, 22.12255],
        [87.70193, 22.1254],
        [87.70426, 22.15319],
        [87.71271, 22.17049],
        [87.73458, 22.17662],
        [87.74976, 22.17421]
      ]
    ]
  }
}
