{
  "type": "Feature",
  "id": "WB-AC-217",
  "properties": {
    "stateName": "WEST BENGAL",
    "stateCode": "WB",
    "districtName": "PURBA MEDINAPUR",
    "acNo": 217,
    "acName": "RAMNAGAR",
    "seatType": null,
    "pcNo": 31,
    "pcName": "KANTHI",
    "quality": "unverified",
    "sources": [
      "TBD"
    ]
  },
  "geometry": {
    "type": "Polygon",
    "coordinates": [
      [
        [87.63174, 21.74033],
        [87.6334, 21.73141],
        [87.65216, 21.71881],
        [87.64434, 21.71809],
        [87.64141, 21.70996],
        [87.67561, 21.70153],
        [87.68948, 21.68952],
        [87.70302, 21.69497],
        [87.71265, 21.67998],
        [87.72516, 21.67844],
        [87.72511, 21.68315],
        [87.73081, 21.68185],
        [87.69921, 21.66144],
        [87.6683, 21.64999],
        [87.65317, 21.64767],
        [87.64197, 21.66194],
        [87.63366, 21.64734],
        [87.56856, 21.63401],
        [87.55462, 21.63803],
        [87.54802, 21.62912],
        [87.4837, 21.61302],
        [87.48572, 21.63158],
        [87.48058, 21.63269],
        [87.4728, 21.65247],
        [87.46217, 21.65066],
        [87.46097, 21.65523],
        [87.46228, 21.66317],
        [87.46729, 21.66407],
        [87.4667, 21.67857],
        [87.47351, 21.6973],
        [87.47045, 21.70507],
        [87.47347, 21.71445],
        [87.4635, 21.7251],
        [87.46931, 21.73235],
        [87.44482, 21.734],
        [87.44511, 21.73854],
        [87.45406, 21.73998],
        [87.46118, 21.74179],
        [87.46418, 21.74947],
        [87.47207, 21.75001],
        [87.47765, 21.73734],
        [87.49042, 21.74074],
        [87.49279, 21.72736],
        [87.51071, 21.73131],
        [87.52193, 21.72653],
        [87.55748, 21.73554],
        [87.5706, 21.7327],
        [87.57354, 21.7436],
        [87.58351, 21.74154],
        [87.58955, 21.74697],
        [87.59304, 21.76054],
        [87.61438, 21.75471],
        [87.63091, 21.74498],
        [87.63174, 21.74033]
      ]
    ]
  }
}
