{
  "type": "Feature",
  "id": "WB-AC-238",
  "properties": {
    "stateName": "WEST BENGAL",
    "stateCode": "WB",
    "districtName": "PURULIYA",
    "acNo": 238,
    "acName": "BANDWAN (ST)",
    "seatType": null,
    "pcNo": 33,
    "pcName": "JHARGRAM (ST)",
    "quality": "unverified",
    "sources": [
      "TBD"
    ]
  },
  "geometry": {
    "type": "Polygon",
    "coordinates": [
      [
        [86.39418, 23.19475],
        [86.40449, 23.18774],
        [86.4059, 23.17915],
        [86.44187, 23.1752],
        [86.43717, 23.15751],
        [86.45504, 23.14391],
        [86.46865, 23.13965],
        [86.47361, 23.12337],
        [86.48804, 23.11032],
        [86.48671, 23.09972],
        [86.4752, 23.09068],
        [86.48183, 23.07017],
        [86.48943, 23.07103],
        [86.49947, 23.06363],
        [86.51134, 23.07074],
        [86.51796, 23.06344],
        [86.5247, 23.06644],
        [86.5227, 23.05102],
        [86.52651, 23.04897],
        [86.53258, 23.05353],
        [86.54026, 23.05136],
        [86.54489, 23.05934],
        [86.55997, 23.05069],
        [86.58019, 23.05166],
        [86.58369, 23.04394],
        [86.60236, 23.04988],
        [86.59976, 23.04004],
        [86.60965, 23.01784],
        [86.61636, 23.01205],
        [86.62965, 23.01709],
        [86.63651, 23.00314],
        [86.66931, 23.01176],
        [86.67488, 22.99182],
        [86.67316, 22.98098],
        [86.68523, 22.98096],
        [86.67777, 22.96961],
        [86.68093, 22.96402],
        [86.70783, 22.95473],
        [86.70227, 22.95266],
        [86.69034, 22.93135],
        [86.70614, 22.89884],
        [86.70183, 22.89034],
        [86.70653, 22.88747],
        [86.70311, 22.87283],
        [86.68644, 22.86257],
        [86.67771, 22.86295],
        [86.67341, 22.85442],
        [86.66224, 22.85151],
        [86.65574, 22.83668],
        [86.64764, 22.83927],
        [86.6335, 22.82448],
        [86.61766, 22.82406],
        [86.60865, 22.80628],
        [86.61096, 22.7978],
        [86.59772, 22.79568],
        [86.60315, 22.78878],
        [86.59316, 22.76305],
        [86.55838, 22.71088],
        [86.54331, 22.72194],
        [86.53455, 22.71771],
        [86.52324, 22.71994],
        [86.5194, 22.71574],
        [86.51276, 22.71687],
        [86.51074, 22.70434],
        [86.49359, 22.72615],
        [86.48158, 22.72794],
        [86.46052, 22.76197],
        [86.44716, 22.76405],
        [86.44642, 22.7647],
        [86.44641, 22.76471],
        [86.42091, 22.78062],
        [86.41646, 22.78932],
        [86.41655, 22.79021],
        [86.42327, 22.79233],
        [86.42255, 22.81064],
        [86.43861, 22.8312],
        [86.43486, 22.86007],
        [86.43795, 22.86345],
        [86.45084, 22.86221],
        [86.45563, 22.88074],
        [86.45274, 22.88598],
        [86.46704, 22.9012],
        [86.45203, 22.90304],
        [86.43545, 22.92518],
        [86.45949, 22.93514],
        [86.46496, 22.94513],
        [86.47639, 22.95175],
        [86.48917, 22.93795],
        [86.49508, 22.94781],
        [86.50091, 22.9458],
        [86.50253, 22.9517],
        [86.52591, 22.94752],
        [86.53129, 22.96476],
        [86.54461, 22.96575],
        [86.54881, 22.97787],
        [86.54615, 22.9897],
        [86.52878, 22.98046],
        [86.524, 22.97688],
        [86.52698, 22.97348],
        [86.5203, 22.97048],
        [86.50764, 22.9728],
        [86.51319, 22.97779],
        [86.50284, 22.98671],
        [86.50116, 22.99479],
        [86.44716, 22.98802],
        [86.4195, 23.00021],
        [86.41547, 22.99091],
        [86.3951, 22.98016],
        [86.38747, 22.98544],
        [86.38499, 22.99501],
        [86.37252, 22.9984],
        [86.3543, 22.99947],
        [86.35454, 22.99293],
        [86.34546, 22.99678],
        [86.3399, 22.98971],
        [86.32521, 22.99507],
        [86.30323, 23.00947],
        [86.30369, 23.01693],
        [86.30191, 23.0108],
        [86.29258, 23.01308],
        [86.27669, 23.00774],
        [86.26604, 22.9987],
        [86.24415, 22.99369],
        [86.23812, 22.99623],
        [86.23757, 22.99483],
        [86.22421, 22.99372],
        [86.20609, 23.00043],
        [86.20746, 23.00846],
        [86.18557, 23.00543],
        [86.17863, 23.02187],
        [86.17273, 23.02115],
        [86.16738, 23.02905],
        [86.17963, 23.03569],
        [86.19936, 23.03605],
        [86.22134, 23.02497],
        [86.23631, 23.02729],
        [86.25448, 23.01631],
        [86.28191, 23.0207],
        [86.28917, 23.03716],
        [86.2789, 23.04981],
        [86.29542, 23.05375],
        [86.28726, 23.06366],
        [86.29878, 23.07732],
        [86.29006, 23.09245],
        [86.30306, 23.10355],
        [86.3193, 23.10157],
        [86.32177, 23.10544],
        [86.31417, 23.12629],
        [86.28761, 23.17013],
        [86.28798, 23.18605],
        [86.29458, 23.19533],
        [86.30256, 23.19706],
        [86.31525, 23.19526],
        [86.32191, 23.18919],
        [86.34097, 23.18896],
        [86.34686, 23.1816],
        [86.36303, 23.19469],
        [86.3781, 23.1972],
        [86.38513, 23.20399],
        [86.39418, 23.19475]
      ]
    ]
  }
}
