{
  "type": "Feature",
  "id": "WB-AC-249",
  "properties": {
    "stateName": "WEST BENGAL",
    "stateCode": "WB",
    "districtName": "BANKURA",
    "acNo": 249,
    "acName": "RANIBANDH (ST)",
    "seatType": null,
    "pcNo": 36,
    "pcName": "BANKURA",
    "quality": "unverified",
    "sources": [
      "TBD"
    ]
  },
  "geometry": {
    "type": "Polygon",
    "coordinates": [
      [
        [86.74507, 23.16414],
        [86.7658, 23.15898],
        [86.77743, 23.13248],
        [86.79591, 23.12944],
        [86.81103, 23.1129],
        [86.82761, 23.11541],
        [86.84572, 23.10647],
        [86.85404, 23.10755],
        [86.86088, 23.09236],
        [86.8907, 23.07798],
        [86.89971, 23.06352],
        [86.91301, 23.05748],
        [86.93602, 23.05724],
        [86.95934, 23.03587],
        [86.96598, 23.01354],
        [86.95179, 23.00322],
        [86.95875, 23.00176],
        [86.96129, 22.99517],
        [86.9711, 22.99337],
        [86.97164, 22.98672],
        [86.96457, 22.98389],
        [86.97547, 22.96771],
        [86.96411, 22.96236],
        [86.95376, 22.9482],
        [86.93023, 22.9354],
        [86.91783, 22.90466],
        [86.92035, 22.90168],
        [86.90946, 22.89688],
        [86.90125, 22.90227],
        [86.90457, 22.90703],
        [86.89384, 22.91798],
        [86.86995, 22.90811],
        [86.8704, 22.89897],
        [86.87824, 22.898],
        [86.87962, 22.88686],
        [86.87427, 22.87777],
        [86.87939, 22.86772],
        [86.86877, 22.8667],
        [86.86535, 22.85834],
        [86.87211, 22.8543],
        [86.87003, 22.85055],
        [86.85657, 22.85293],
        [86.85061, 22.84978],
        [86.83738, 22.8278],
        [86.82291, 22.82986],
        [86.81173, 22.84214],
        [86.80253, 22.84384],
        [86.79109, 22.83824],
        [86.80182, 22.81382],
        [86.81122, 22.80528],
        [86.82636, 22.80298],
        [86.83251, 22.78141],
        [86.82095, 22.78342],
        [86.82203, 22.75834],
        [86.81307, 22.75714],
        [86.81209, 22.75046],
        [86.80227, 22.75046],
        [86.79801, 22.74334],
        [86.80443, 22.73642],
        [86.81427, 22.73439],
        [86.80559, 22.71533],
        [86.80875, 22.71213],
        [86.80381, 22.70881],
        [86.78752, 22.71113],
        [86.77248, 22.71909],
        [86.76819, 22.72829],
        [86.73829, 22.74147],
        [86.71636, 22.74549],
        [86.69609, 22.76806],
        [86.67114, 22.76997],
        [86.65445, 22.78907],
        [86.61804, 22.79778],
        [86.61096, 22.7978],
        [86.60865, 22.80628],
        [86.61766, 22.82406],
        [86.6335, 22.82448],
        [86.64764, 22.83927],
        [86.65574, 22.83668],
        [86.66224, 22.85151],
        [86.67341, 22.85442],
        [86.67771, 22.86295],
        [86.68644, 22.86257],
        [86.70311, 22.87283],
        [86.70653, 22.88747],
        [86.70183, 22.89034],
        [86.70614, 22.89884],
        [86.69034, 22.93135],
        [86.70227, 22.95266],
        [86.70783, 22.95473],
        [86.73593, 23.02526],
        [86.72666, 23.03023],
        [86.72623, 23.03497],
        [86.73967, 23.04254],
        [86.7311, 23.04903],
        [86.75215, 23.08651],
        [86.74797, 23.1014],
        [86.72958, 23.10538],
        [86.717, 23.12149],
        [86.73138, 23.13339],
        [86.73254, 23.14745],
        [86.74216, 23.16602],
        [86.74507, 23.16414]
      ]
    ]
  }
}
