{
  "type": "Feature",
  "id": "WB-AC-270",
  "properties": {
    "stateName": "WEST BENGAL",
    "stateCode": "WB",
    "districtName": "BARDDHAMAN",
    "acNo": 270,
    "acName": "KATWA",
    "seatType": null,
    "pcNo": 38,
    "pcName": "BARDHAMAN PURBA(SC)",
    "quality": "unverified",
    "sources": [
      "TBD"
    ]
  },
  "geometry": {
    "type": "Polygon",
    "coordinates": [
      [
        [88.12292, 23.65339],
        [88.13876, 23.65198],
        [88.15128, 23.64033],
        [88.15317, 23.63072],
        [88.16344, 23.62334],
        [88.19642, 23.62211],
        [88.20413, 23.61673],
        [88.21457, 23.60742],
        [88.22427, 23.60692],
        [88.22837, 23.61603],
        [88.25833, 23.62019],
        [88.26988, 23.60032],
        [88.26787, 23.59666],
        [88.27766, 23.57863],
        [88.27079, 23.56635],
        [88.25924, 23.56584],
        [88.24826, 23.57368],
        [88.24315, 23.5823],
        [88.24432, 23.59549],
        [88.22952, 23.58065],
        [88.22516, 23.56359],
        [88.22902, 23.55372],
        [88.21792, 23.53977],
        [88.23143, 23.51057],
        [88.22258, 23.51063],
        [88.22768, 23.50374],
        [88.2137, 23.4836],
        [88.20102, 23.47668],
        [88.19819, 23.48777],
        [88.18368, 23.4871],
        [88.16975, 23.49517],
        [88.16238, 23.49118],
        [88.15361, 23.49372],
        [88.15964, 23.48805],
        [88.15568, 23.4838],
        [88.14905, 23.48678],
        [88.14386, 23.48324],
        [88.11999, 23.47862],
        [88.11746, 23.48491],
        [88.10188, 23.48869],
        [88.09334, 23.50291],
        [88.08489, 23.50186],
        [88.08116, 23.50694],
        [88.09166, 23.52524],
        [88.09346, 23.53859],
        [88.08973, 23.54287],
        [88.11161, 23.54713],
        [88.11058, 23.57503],
        [88.09482, 23.58127],
        [88.10868, 23.58547],
        [88.11068, 23.59496],
        [88.11589, 23.59745],
        [88.11144, 23.62393],
        [88.12566, 23.61847],
        [88.12242, 23.63409],
        [88.11186, 23.63225],
        [88.10827, 23.63594],
        [88.10913, 23.63991],
        [88.11919, 23.63935],
        [88.11555, 23.64659],
        [88.11815, 23.6546],
        [88.12292, 23.65339]
      ]
    ]
  }
}
