{
  "type": "Feature",
  "id": "WB-AC-59",
  "properties": {
    "stateName": "WEST BENGAL",
    "stateCode": "WB",
    "districtName": "MURSHIDABAD",
    "acNo": 59,
    "acName": "RAGHUNATHGANJ",
    "seatType": null,
    "pcNo": 9,
    "pcName": "JANGIPUR",
    "quality": "unverified",
    "sources": [
      "TBD"
    ]
  },
  "geometry": {
    "type": "Polygon",
    "coordinates": [
      [
        [88.12425, 24.52855],
        [88.1495, 24.50386],
        [88.17342, 24.49312],
        [88.1949, 24.46452],
        [88.22106, 24.45609],
        [88.22093, 24.4467],
        [88.21388, 24.45217],
        [88.2197, 24.44549],
        [88.21548, 24.44235],
        [88.20508, 24.45179],
        [88.19909, 24.45154],
        [88.17862, 24.44746],
        [88.17435, 24.43673],
        [88.15701, 24.43689],
        [88.16169, 24.43192],
        [88.16364, 24.41064],
        [88.15604, 24.41119],
        [88.16858, 24.40392],
        [88.16126, 24.39292],
        [88.12705, 24.3984],
        [88.12032, 24.39819],
        [88.10898, 24.40197],
        [88.11347, 24.40794],
        [88.09555, 24.41894],
        [88.1196, 24.43091],
        [88.12471, 24.44399],
        [88.10813, 24.44172],
        [88.10309, 24.44986],
        [88.08266, 24.45407],
        [88.07952, 24.48021],
        [88.0727, 24.48162],
        [88.07231, 24.48644],
        [88.06172, 24.48757],
        [88.05892, 24.48399],
        [88.04413, 24.49221],
        [88.05114, 24.49411],
        [88.04687, 24.50681],
        [88.05479, 24.51175],
        [88.06778, 24.51122],
        [88.06374, 24.516],
        [88.07328, 24.52817],
        [88.0898, 24.53607],
        [88.08104, 24.55548],
        [88.09128, 24.56425],
        [88.12425, 24.52855]
      ]
    ]
  }
}
