{
  "type": "Feature",
  "id": "WB-AC-66",
  "properties": {
    "stateName": "WEST BENGAL",
    "stateCode": "WB",
    "districtName": "MURSHIDABAD",
    "acNo": 66,
    "acName": "KHARGRAM (SC)",
    "seatType": null,
    "pcNo": 9,
    "pcName": "JANGIPUR",
    "quality": "unverified",
    "sources": [
      "TBD"
    ]
  },
  "geometry": {
    "type": "Polygon",
    "coordinates": [
      [
        [87.94035, 24.19732],
        [87.96103, 24.18771],
        [87.96822, 24.18377],
        [87.968, 24.16126],
        [87.97673, 24.15839],
        [87.9893, 24.16201],
        [87.99969, 24.14917],
        [88.01918, 24.1525],
        [88.0218, 24.13824],
        [88.02935, 24.1361],
        [88.02531, 24.12868],
        [88.04352, 24.11989],
        [88.0443, 24.10402],
        [88.05208, 24.1009],
        [88.05, 24.09148],
        [88.04415, 24.08846],
        [88.05472, 24.07598],
        [88.04173, 24.07249],
        [88.03726, 24.05319],
        [88.02944, 24.05055],
        [88.0322, 24.04615],
        [88.04113, 24.04993],
        [88.0428, 24.04073],
        [88.03271, 24.03763],
        [88.03804, 24.03016],
        [88.05976, 24.02654],
        [88.04715, 24.00277],
        [88.04974, 23.99764],
        [88.03695, 23.99185],
        [88.03298, 23.97989],
        [88.02556, 23.98283],
        [88.01831, 23.97468],
        [88.01652, 23.9783],
        [88.00438, 23.97808],
        [87.99365, 23.96972],
        [87.98113, 23.9742],
        [87.98234, 23.96422],
        [87.97499, 23.96233],
        [87.975, 23.95448],
        [87.96515, 23.95379],
        [87.9487, 23.96615],
        [87.95762, 23.96234],
        [87.9604, 23.96882],
        [87.9598, 23.98077],
        [87.9465, 23.98526],
        [87.95056, 23.99365],
        [87.9415, 23.99583],
        [87.92819, 24.00794],
        [87.92244, 24.00846],
        [87.91946, 24.00221],
        [87.9056, 24.00772],
        [87.89884, 24.00429],
        [87.89582, 24.02152],
        [87.89219, 24.0223],
        [87.88415, 24.02226],
        [87.88199, 24.00092],
        [87.86756, 24.00107],
        [87.8716, 24.01709],
        [87.86246, 24.02163],
        [87.8632, 24.02899],
        [87.87409, 24.03317],
        [87.87757, 24.04197],
        [87.89196, 24.05115],
        [87.8954, 24.07381],
        [87.89564, 24.08277],
        [87.91074, 24.10161],
        [87.90936, 24.10609],
        [87.89804, 24.1063],
        [87.89583, 24.11326],
        [87.91295, 24.13869],
        [87.90294, 24.13913],
        [87.89678, 24.15346],
        [87.90237, 24.15434],
        [87.90497, 24.16569],
        [87.91223, 24.16192],
        [87.91898, 24.16716],
        [87.92363, 24.1627],
        [87.92347, 24.16759],
        [87.92988, 24.16993],
        [87.93125, 24.17744],
        [87.93454, 24.17423],
        [87.93706, 24.18092],
        [87.93436, 24.18965],
        [87.92353, 24.18744],
        [87.92436, 24.19529],
        [87.94035, 24.19732]
      ]
    ]
  }
}
