{
  "type": "Feature",
  "id": "WB-AC-73",
  "properties": {
    "stateName": "WEST BENGAL",
    "stateCode": "WB",
    "districtName": "MURSHIDABAD",
    "acNo": 73,
    "acName": "HARIHARPARA",
    "seatType": null,
    "pcNo": 11,
    "pcName": "MURSHIDABAD",
    "quality": "unverified",
    "sources": [
      "TBD"
    ]
  },
  "geometry": {
    "type": "Polygon",
    "coordinates": [
      [
        [88.39727, 24.16238],
        [88.41039, 24.15896],
        [88.42112, 24.17289],
        [88.42823, 24.17407],
        [88.43708, 24.16721],
        [88.44804, 24.16904],
        [88.45774, 24.16371],
        [88.45359, 24.14788],
        [88.44787, 24.14463],
        [88.45041, 24.13819],
        [88.46714, 24.14646],
        [88.47596, 24.13926],
        [88.47322, 24.1274],
        [88.46296, 24.12776],
        [88.46529, 24.11626],
        [88.46255, 24.11856],
        [88.4554, 24.10233],
        [88.4566, 24.09495],
        [88.46319, 24.09106],
        [88.47735, 24.09912],
        [88.47896, 24.08326],
        [88.48459, 24.08314],
        [88.49282, 24.07066],
        [88.48167, 24.05418],
        [88.48324, 24.04958],
        [88.49012, 24.04882],
        [88.49382, 24.0395],
        [88.48643, 24.02052],
        [88.48032, 24.01737],
        [88.48188, 24.00554],
        [88.47194, 24.00208],
        [88.46455, 23.99172],
        [88.45754, 23.99198],
        [88.43452, 23.9798],
        [88.42649, 23.9623],
        [88.40298, 23.94727],
        [88.39141, 23.93345],
        [88.37451, 23.94649],
        [88.36715, 23.94403],
        [88.35076, 23.95448],
        [88.32958, 23.94884],
        [88.33099, 23.95665],
        [88.31884, 23.95832],
        [88.32451, 23.96099],
        [88.31992, 23.96634],
        [88.32116, 23.97598],
        [88.31575, 23.96519],
        [88.30379, 23.96303],
        [88.30732, 23.99166],
        [88.30032, 24.0022],
        [88.30132, 24.02933],
        [88.29164, 24.05045],
        [88.3057, 24.04898],
        [88.30876, 24.06032],
        [88.32019, 24.06984],
        [88.31572, 24.07339],
        [88.31957, 24.08126],
        [88.3339, 24.09723],
        [88.34013, 24.09195],
        [88.36238, 24.09296],
        [88.37111, 24.08646],
        [88.37575, 24.08954],
        [88.38919, 24.08172],
        [88.40884, 24.0851],
        [88.40619, 24.09779],
        [88.41744, 24.10207],
        [88.42021, 24.12663],
        [88.40744, 24.12748],
        [88.39785, 24.1432],
        [88.38864, 24.13513],
        [88.37414, 24.14702],
        [88.36716, 24.14244],
        [88.365, 24.15762],
        [88.37897, 24.15754],
        [88.38143, 24.17176],
        [88.39127, 24.17696],
        [88.39588, 24.17445],
        [88.39727, 24.16238]
      ]
    ]
  }
}
