{
  "type": "Feature",
  "id": "WB-AC-90",
  "properties": {
    "stateName": "WEST BENGAL",
    "stateCode": "WB",
    "districtName": "NADIA",
    "acNo": 90,
    "acName": "RANAGHAT DAKSHIN (SC)",
    "seatType": null,
    "pcNo": 13,
    "pcName": "RANAGHAT (SC)",
    "quality": "unverified",
    "sources": [
      "TBD"
    ]
  },
  "geometry": {
    "type": "Polygon",
    "coordinates": [
      [
        [88.5314, 23.203],
        [88.55323, 23.19551],
        [88.54953, 23.18183],
        [88.55319, 23.16579],
        [88.57289, 23.15999],
        [88.58458, 23.17189],
        [88.63262, 23.17136],
        [88.63708, 23.16751],
        [88.65587, 23.16695],
        [88.68899, 23.17477],
        [88.69188, 23.1691],
        [88.70694, 23.18107],
        [88.71572, 23.18085],
        [88.71384, 23.17636],
        [88.7166, 23.1806],
        [88.71743, 23.17451],
        [88.70921, 23.17233],
        [88.71216, 23.16791],
        [88.70009, 23.16901],
        [88.69702, 23.15758],
        [88.69406, 23.15605],
        [88.70473, 23.13575],
        [88.69317, 23.1202],
        [88.69466, 23.1101],
        [88.68371, 23.10905],
        [88.68149, 23.0977],
        [88.67536, 23.09594],
        [88.66937, 23.1078],
        [88.65163, 23.10145],
        [88.62299, 23.11269],
        [88.62082, 23.11835],
        [88.61149, 23.11386],
        [88.60306, 23.11833],
        [88.56078, 23.12275],
        [88.53852, 23.10902],
        [88.54085, 23.11474],
        [88.53257, 23.11199],
        [88.53109, 23.12022],
        [88.52513, 23.12171],
        [88.51501, 23.11882],
        [88.50529, 23.10253],
        [88.49577, 23.12802],
        [88.46854, 23.12843],
        [88.45056, 23.13356],
        [88.45063, 23.1517],
        [88.46424, 23.187],
        [88.46899, 23.1986],
        [88.47609, 23.19391],
        [88.49696, 23.1972],
        [88.5314, 23.203]
      ]
    ]
  }
}
