{
  "type": "Feature",
  "id": "WB-AC-95",
  "properties": {
    "stateName": "WEST BENGAL",
    "stateCode": "WB",
    "districtName": "NORTH 24 PARGANAS",
    "acNo": 95,
    "acName": "BANGAON UTTAR (SC)",
    "seatType": null,
    "pcNo": 14,
    "pcName": "BANGAON (SC)",
    "quality": "unverified",
    "sources": [
      "TBD"
    ]
  },
  "geometry": {
    "type": "Polygon",
    "coordinates": [
      [
        [88.76532, 23.15905],
        [88.76499, 23.15419],
        [88.79769, 23.12997],
        [88.77506, 23.12762],
        [88.77531, 23.11708],
        [88.79305, 23.1112],
        [88.7857, 23.1029],
        [88.80739, 23.10851],
        [88.80813, 23.12354],
        [88.81457, 23.11232],
        [88.82896, 23.11433],
        [88.83955, 23.10946],
        [88.84252, 23.11298],
        [88.8606, 23.10913],
        [88.86075, 23.10276],
        [88.86926, 23.09884],
        [88.87456, 23.08989],
        [88.86614, 23.08619],
        [88.86568, 23.07797],
        [88.86096, 23.07742],
        [88.87375, 23.06622],
        [88.87488, 23.04461],
        [88.88474, 23.03886],
        [88.88098, 23.0259],
        [88.87514, 23.02183],
        [88.85769, 23.0211],
        [88.84594, 23.03035],
        [88.841, 23.024],
        [88.82976, 23.02275],
        [88.82314, 23.02683],
        [88.82319, 23.03861],
        [88.80587, 23.04549],
        [88.78812, 23.04557],
        [88.78076, 23.03419],
        [88.77136, 23.03413],
        [88.77279, 23.0406],
        [88.76037, 23.04239],
        [88.75655, 23.05103],
        [88.75074, 23.05127],
        [88.75004, 23.07648],
        [88.75874, 23.0844],
        [88.75607, 23.08774],
        [88.75239, 23.09154],
        [88.7506, 23.08749],
        [88.72345, 23.09107],
        [88.7159, 23.0777],
        [88.68242, 23.07883],
        [88.67536, 23.09594],
        [88.68149, 23.0977],
        [88.68371, 23.10905],
        [88.69466, 23.1101],
        [88.69317, 23.1202],
        [88.70473, 23.13575],
        [88.69406, 23.15605],
        [88.69702, 23.15758],
        [88.71417, 23.15457],
        [88.72682, 23.15824],
        [88.72744, 23.15006],
        [88.74309, 23.14802],
        [88.74442, 23.16002],
        [88.76532, 23.15905]
      ]
    ]
  }
}
