{
  "type": "Feature",
  "id": "AS-AC-121",
  "properties": {
    "stateName": "ASSAM",
    "stateCode": "AS",
    "districtName": "TINSUKIA",
    "acNo": 121,
    "acName": "Chabua",
    "seatType": null,
    "pcNo": 14,
    "pcName": "LAKHIMPUR",
    "quality": "unverified",
    "sources": [
      "TBD"
    ]
  },
  "geometry": {
    "type": "Polygon",
    "coordinates": [
      [
        [95.44938, 27.76685],
        [95.45368, 27.72756],
        [95.43949, 27.69742],
        [95.44192, 27.69262],
        [95.46594, 27.69646],
        [95.48953, 27.68951],
        [95.48641, 27.67357],
        [95.45918, 27.62216],
        [95.36685, 27.5882],
        [95.36564, 27.57923],
        [95.38048, 27.56778],
        [95.41789, 27.56192],
        [95.40992, 27.54223],
        [95.41391, 27.52644],
        [95.42434, 27.5127],
        [95.42178, 27.48488],
        [95.40691, 27.48098],
        [95.36314, 27.48913],
        [95.34027, 27.48606],
        [95.32655, 27.47477],
        [95.27591, 27.46996],
        [95.24886, 27.4745],
        [95.22761, 27.49002],
        [95.23544, 27.50302],
        [95.26068, 27.51062],
        [95.26381, 27.52397],
        [95.26884, 27.52567],
        [95.26307, 27.53665],
        [95.26774, 27.54704],
        [95.27141, 27.55037],
        [95.27833, 27.54707],
        [95.28173, 27.55554],
        [95.27553, 27.56036],
        [95.27538, 27.5734],
        [95.28818, 27.56885],
        [95.29039, 27.5773],
        [95.29555, 27.57553],
        [95.29956, 27.58373],
        [95.31931, 27.58779],
        [95.28861, 27.67022],
        [95.27407, 27.68286],
        [95.2868, 27.69438],
        [95.31804, 27.6958],
        [95.39866, 27.72581],
        [95.44938, 27.76685]
      ]
    ]
  }
}
