{
  "type": "Feature",
  "id": "AS-AC-53",
  "properties": {
    "stateName": "ASSAM",
    "stateCode": "AS",
    "districtName": "KAMRUP",
    "acNo": 53,
    "acName": "Gauhati East",
    "seatType": null,
    "pcNo": 7,
    "pcName": "GAUHATI",
    "quality": "unverified",
    "sources": [
      "TBD"
    ]
  },
  "geometry": {
    "type": "Polygon",
    "coordinates": [
      [
        [91.7538, 26.20688],
        [91.773, 26.19927],
        [91.77503, 26.19061],
        [91.80506, 26.16313],
        [91.80956, 26.1236],
        [91.80613, 26.11609],
        [91.73144, 26.11096],
        [91.68233, 26.12401],
        [91.66208, 26.14281],
        [91.65569, 26.15961],
        [91.65404, 26.18634],
        [91.69507, 26.18985],
        [91.7538, 26.20688]
      ]
    ]
  }
}
