{
  "type": "Feature",
  "id": "AS-AC-59",
  "properties": {
    "stateName": "ASSAM",
    "stateCode": "AS",
    "districtName": "NALBARI",
    "acNo": 59,
    "acName": "Nalbari",
    "seatType": null,
    "pcNo": 8,
    "pcName": "MANGALDOI",
    "quality": "unverified",
    "sources": [
      "TBD"
    ]
  },
  "geometry": {
    "type": "Polygon",
    "coordinates": [
      [
        [91.60058, 26.56878],
        [91.6029, 26.55828],
        [91.60028, 26.55406],
        [91.58475, 26.55252],
        [91.58648, 26.54037],
        [91.57857, 26.52665],
        [91.55877, 26.52085],
        [91.55606, 26.51449],
        [91.5608, 26.48396],
        [91.55175, 26.47095],
        [91.56385, 26.43366],
        [91.55865, 26.41687],
        [91.54143, 26.417],
        [91.54371, 26.40698],
        [91.53999, 26.40075],
        [91.52642, 26.40782],
        [91.52627, 26.41602],
        [91.51678, 26.42217],
        [91.50383, 26.40425],
        [91.49297, 26.40606],
        [91.47489, 26.38756],
        [91.4673, 26.36201],
        [91.41563, 26.35074],
        [91.41017, 26.35664],
        [91.39518, 26.35868],
        [91.40036, 26.37998],
        [91.41121, 26.39718],
        [91.40914, 26.40644],
        [91.41843, 26.4292],
        [91.39753, 26.44256],
        [91.40438, 26.47007],
        [91.4296, 26.48971],
        [91.43915, 26.50428],
        [91.43115, 26.54564],
        [91.5001, 26.56889],
        [91.5377, 26.57863],
        [91.55994, 26.57779],
        [91.57874, 26.56451],
        [91.60058, 26.56878]
      ]
    ]
  }
}
