{
  "type": "Feature",
  "id": "AS-AC-67",
  "properties": {
    "stateName": "ASSAM",
    "stateCode": "AS",
    "districtName": "DARRANG",
    "acNo": 67,
    "acName": "Mangaldoi",
    "seatType": null,
    "pcNo": 8,
    "pcName": "MANGALDOI",
    "quality": "unverified",
    "sources": [
      "TBD"
    ]
  },
  "geometry": {
    "type": "Polygon",
    "coordinates": [
      [
        [92.11435, 26.54845],
        [92.15906, 26.43532],
        [92.16132, 26.41571],
        [92.14316, 26.40172],
        [92.12293, 26.37086],
        [92.1055, 26.35597],
        [92.0999, 26.34119],
        [92.08552, 26.34039],
        [92.0748, 26.31688],
        [92.06143, 26.31052],
        [92.04754, 26.27852],
        [92.03079, 26.27037],
        [92.01724, 26.2761],
        [92.01527, 26.28296],
        [91.99182, 26.26968],
        [91.98036, 26.27541],
        [91.96073, 26.2596],
        [91.94943, 26.26747],
        [91.93932, 26.29633],
        [91.94282, 26.33039],
        [91.95633, 26.35279],
        [91.95891, 26.36793],
        [91.9617, 26.41378],
        [91.9545, 26.47048],
        [91.9555, 26.50929],
        [91.99954, 26.51461],
        [92.01672, 26.52405],
        [92.06006, 26.53214],
        [92.08142, 26.51412],
        [92.0953, 26.5112],
        [92.09697, 26.53722],
        [92.11435, 26.54845]
      ]
    ]
  }
}
