{
  "type": "Feature",
  "id": "AS-AC-84",
  "properties": {
    "stateName": "ASSAM",
    "stateCode": "AS",
    "districtName": "NAGAON",
    "acNo": 84,
    "acName": "Batadroba",
    "seatType": null,
    "pcNo": 11,
    "pcName": "KALIABOR",
    "quality": "unverified",
    "sources": [
      "TBD"
    ]
  },
  "geometry": {
    "type": "Polygon",
    "coordinates": [
      [
        [92.62728, 26.4075],
        [92.62206, 26.38755],
        [92.63134, 26.35233],
        [92.62445, 26.32576],
        [92.60624, 26.31924],
        [92.53386, 26.30637],
        [92.53734, 26.3245],
        [92.55182, 26.33905],
        [92.55509, 26.35284],
        [92.52728, 26.37251],
        [92.46292, 26.39694],
        [92.51042, 26.46282],
        [92.53598, 26.4741],
        [92.55667, 26.45972],
        [92.55815, 26.44603],
        [92.56447, 26.43821],
        [92.57623, 26.43542],
        [92.58865, 26.40986],
        [92.61148, 26.41543],
        [92.62728, 26.4075]
      ]
    ]
  }
}
