{
  "type": "Feature",
  "id": "AS-AC-91",
  "properties": {
    "stateName": "ASSAM",
    "stateCode": "AS",
    "districtName": "NAGAON",
    "acNo": 91,
    "acName": "Hojai",
    "seatType": null,
    "pcNo": 10,
    "pcName": "NOWGONG",
    "quality": "unverified",
    "sources": [
      "TBD"
    ]
  },
  "geometry": {
    "type": "Polygon",
    "coordinates": [
      [
        [92.74195, 26.0785],
        [92.7601, 26.0805],
        [92.78504, 26.06923],
        [92.80708, 26.06732],
        [92.80673, 26.08273],
        [92.83984, 26.08973],
        [92.85046, 26.08612],
        [92.87254, 26.06691],
        [92.92088, 26.00937],
        [92.93356, 25.98917],
        [92.94416, 25.98457],
        [92.95114, 25.97492],
        [92.96449, 25.91398],
        [92.98238, 25.8753],
        [92.8899, 25.86516],
        [92.88621, 25.86914],
        [92.86976, 25.86803],
        [92.84791, 25.90239],
        [92.84763, 25.91019],
        [92.85644, 25.92016],
        [92.85457, 25.92494],
        [92.83415, 25.91381],
        [92.81621, 25.92448],
        [92.80117, 25.91812],
        [92.79011, 25.93873],
        [92.79551, 25.94464],
        [92.79431, 25.95715],
        [92.80617, 25.9534],
        [92.80563, 25.95864],
        [92.79364, 25.96452],
        [92.77582, 25.94829],
        [92.76237, 25.96121],
        [92.76963, 25.97582],
        [92.76203, 25.98391],
        [92.77053, 25.98969],
        [92.76545, 25.99175],
        [92.76066, 25.98742],
        [92.7594, 25.99151],
        [92.77912, 25.99616],
        [92.7759, 26.00039],
        [92.76027, 25.99912],
        [92.75703, 26.00249],
        [92.76325, 26.00688],
        [92.77981, 26.00536],
        [92.78237, 26.0103],
        [92.77274, 26.0176],
        [92.75876, 26.01442],
        [92.75814, 26.02157],
        [92.76523, 26.02843],
        [92.75503, 26.03825],
        [92.74629, 26.03822],
        [92.75509, 26.05351],
        [92.74451, 26.06148],
        [92.74195, 26.0785]
      ]
    ]
  }
}
