{
  "type": "Feature",
  "id": "BR-AC-10",
  "properties": {
    "stateName": "BIHAR",
    "stateCode": "BR",
    "districtName": "PURBA CHAMPARAN",
    "acNo": 10,
    "acName": "Raxaul",
    "seatType": null,
    "pcNo": 2,
    "pcName": "PASCHIM CHAMPARAN",
    "quality": "unverified",
    "sources": [
      "TBD"
    ]
  },
  "geometry": {
    "type": "Polygon",
    "coordinates": [
      [
        [84.75757, 27.00276],
        [84.76483, 27.01334],
        [84.77394, 27.01764],
        [84.7818, 27.01443],
        [84.78474, 27.0077],
        [84.78864, 27.00939],
        [84.78646, 26.99868],
        [84.79345, 26.99628],
        [84.79636, 27.00289],
        [84.80031, 27.00111],
        [84.81126, 27.01172],
        [84.80677, 27.01438],
        [84.80959, 27.01889],
        [84.81281, 27.01571],
        [84.81195, 27.02094],
        [84.81374, 27.01816],
        [84.82573, 27.02095],
        [84.85502, 27.00855],
        [84.84951, 26.99697],
        [84.85742, 26.99786],
        [84.85577, 26.98639],
        [84.85865, 26.98879],
        [84.88674, 26.97788],
        [84.89084, 26.97027],
        [84.89588, 26.97299],
        [84.91078, 26.96801],
        [84.92943, 26.96879],
        [84.96526, 26.95827],
        [84.97776, 26.93771],
        [84.96855, 26.92586],
        [84.96872, 26.91575],
        [84.99992, 26.91181],
        [85.00252, 26.90378],
        [84.99596, 26.90602],
        [84.99368, 26.90287],
        [85.00472, 26.89512],
        [85.00157, 26.88451],
        [85.00813, 26.88076],
        [85.00586, 26.86975],
        [84.99866, 26.86741],
        [84.99078, 26.85325],
        [84.97099, 26.87243],
        [84.95504, 26.87302],
        [84.9489, 26.86674],
        [84.92801, 26.87457],
        [84.92384, 26.84617],
        [84.9469, 26.84373],
        [84.93129, 26.8379],
        [84.9307, 26.83152],
        [84.9128, 26.83438],
        [84.91186, 26.84861],
        [84.90322, 26.85361],
        [84.88578, 26.84889],
        [84.88123, 26.84079],
        [84.88094, 26.83312],
        [84.88872, 26.82465],
        [84.86736, 26.83277],
        [84.86773, 26.84351],
        [84.86164, 26.84423],
        [84.85403, 26.85086],
        [84.8643, 26.87079],
        [84.85662, 26.87311],
        [84.85548, 26.88515],
        [84.86274, 26.90774],
        [84.85731, 26.92487],
        [84.86657, 26.93149],
        [84.86548, 26.93658],
        [84.85577, 26.93122],
        [84.81569, 26.92875],
        [84.80777, 26.93302],
        [84.80902, 26.94162],
        [84.80435, 26.94217],
        [84.79914, 26.94483],
        [84.79054, 26.94022],
        [84.78257, 26.94489],
        [84.77884, 26.93556],
        [84.78521, 26.93679],
        [84.76996, 26.92014],
        [84.75162, 26.92308],
        [84.74931, 26.92772],
        [84.72357, 26.92713],
        [84.70632, 26.89316],
        [84.68594, 26.89376],
        [84.68112, 26.88978],
        [84.68335, 26.91178],
        [84.67865, 26.91422],
        [84.68709, 26.92351],
        [84.68762, 26.91161],
        [84.69648, 26.91404],
        [84.6991, 26.93984],
        [84.71309, 26.94103],
        [84.71317, 26.94781],
        [84.72156, 26.95468],
        [84.74108, 26.95441],
        [84.75011, 26.97024],
        [84.74671, 26.98193],
        [84.75757, 27.00276]
      ]
    ]
  }
}
