{
  "type": "Feature",
  "id": "BR-AC-100",
  "properties": {
    "stateName": "BIHAR",
    "stateCode": "BR",
    "districtName": "GOPALGANJ",
    "acNo": 100,
    "acName": "Barauli",
    "seatType": null,
    "pcNo": 17,
    "pcName": "GOPALGANJ (SC)",
    "quality": "unverified",
    "sources": [
      "TBD"
    ]
  },
  "geometry": {
    "type": "Polygon",
    "coordinates": [
      [
        [84.46656, 26.46706],
        [84.4696, 26.46923],
        [84.4765, 26.46114],
        [84.48161, 26.46739],
        [84.4897, 26.46504],
        [84.51548, 26.47575],
        [84.5205, 26.48407],
        [84.52702, 26.47844],
        [84.5301, 26.48999],
        [84.53851, 26.48447],
        [84.55463, 26.48204],
        [84.56204, 26.49525],
        [84.57789, 26.48607],
        [84.57362, 26.46993],
        [84.58715, 26.45722],
        [84.58669, 26.43862],
        [84.59297, 26.43675],
        [84.60261, 26.44176],
        [84.60399, 26.4364],
        [84.61384, 26.43455],
        [84.61636, 26.42927],
        [84.62947, 26.42912],
        [84.62727, 26.40487],
        [84.61664, 26.40359],
        [84.61692, 26.39608],
        [84.62966, 26.39262],
        [84.62768, 26.3858],
        [84.61477, 26.38668],
        [84.60575, 26.3691],
        [84.60683, 26.36344],
        [84.61725, 26.36526],
        [84.61346, 26.33786],
        [84.62565, 26.32706],
        [84.62282, 26.32352],
        [84.62034, 26.32623],
        [84.61978, 26.3209],
        [84.63425, 26.30162],
        [84.60711, 26.30383],
        [84.60631, 26.30925],
        [84.58639, 26.31699],
        [84.59027, 26.32125],
        [84.57574, 26.32493],
        [84.56401, 26.31369],
        [84.55678, 26.31398],
        [84.55229, 26.29763],
        [84.53887, 26.30388],
        [84.53964, 26.3126],
        [84.55069, 26.31795],
        [84.54925, 26.32513],
        [84.51847, 26.33905],
        [84.51127, 26.33386],
        [84.49786, 26.33601],
        [84.48845, 26.33322],
        [84.46468, 26.34725],
        [84.45232, 26.34836],
        [84.45747, 26.36797],
        [84.42849, 26.37427],
        [84.42665, 26.37393],
        [84.42501, 26.3838],
        [84.43085, 26.38878],
        [84.42632, 26.39426],
        [84.42762, 26.40381],
        [84.43077, 26.40892],
        [84.44063, 26.40888],
        [84.44938, 26.42026],
        [84.44772, 26.42743],
        [84.42265, 26.42882],
        [84.42251, 26.43992],
        [84.44377, 26.44372],
        [84.44905, 26.44994],
        [84.44602, 26.45326],
        [84.46136, 26.44956],
        [84.46045, 26.46108],
        [84.46656, 26.46706]
      ]
    ]
  }
}
