{
  "type": "Feature",
  "id": "BR-AC-110",
  "properties": {
    "stateName": "BIHAR",
    "stateCode": "BR",
    "districtName": "SIWAN",
    "acNo": 110,
    "acName": "Barharia",
    "seatType": null,
    "pcNo": 18,
    "pcName": "SIWAN",
    "quality": "unverified",
    "sources": [
      "TBD"
    ]
  },
  "geometry": {
    "type": "Polygon",
    "coordinates": [
      [
        [84.49786, 26.33601],
        [84.51127, 26.33386],
        [84.51847, 26.33905],
        [84.54925, 26.32513],
        [84.55069, 26.31795],
        [84.53964, 26.3126],
        [84.53887, 26.30388],
        [84.53474, 26.30387],
        [84.53474, 26.29332],
        [84.54458, 26.28425],
        [84.53044, 26.28048],
        [84.53016, 26.27369],
        [84.54521, 26.25911],
        [84.529, 26.25809],
        [84.50207, 26.23542],
        [84.50541, 26.22821],
        [84.49816, 26.22071],
        [84.50538, 26.21818],
        [84.49489, 26.20099],
        [84.49751, 26.19504],
        [84.4917, 26.19289],
        [84.47531, 26.19788],
        [84.47135, 26.18848],
        [84.45977, 26.18318],
        [84.44703, 26.19304],
        [84.45102, 26.18053],
        [84.43698, 26.17159],
        [84.43474, 26.15221],
        [84.45231, 26.15113],
        [84.4495, 26.13965],
        [84.44281, 26.13944],
        [84.44768, 26.13385],
        [84.44439, 26.12947],
        [84.42441, 26.13461],
        [84.41236, 26.12689],
        [84.40053, 26.12887],
        [84.39217, 26.12413],
        [84.3848, 26.12826],
        [84.3915, 26.13734],
        [84.38622, 26.14682],
        [84.39503, 26.16511],
        [84.3889, 26.17472],
        [84.40137, 26.19524],
        [84.39977, 26.20156],
        [84.39183, 26.20261],
        [84.38571, 26.2099],
        [84.38386, 26.1989],
        [84.38325, 26.20557],
        [84.36372, 26.22261],
        [84.36808, 26.23971],
        [84.3596, 26.24238],
        [84.36128, 26.251],
        [84.37022, 26.25117],
        [84.37669, 26.26125],
        [84.37947, 26.25379],
        [84.38386, 26.258],
        [84.3909, 26.25224],
        [84.39122, 26.26135],
        [84.40055, 26.27265],
        [84.39646, 26.28644],
        [84.40349, 26.29716],
        [84.41185, 26.29357],
        [84.41999, 26.2996],
        [84.43234, 26.29962],
        [84.43328, 26.31207],
        [84.41607, 26.31658],
        [84.42353, 26.34414],
        [84.43681, 26.35736],
        [84.42617, 26.36294],
        [84.42849, 26.37427],
        [84.45747, 26.36797],
        [84.45232, 26.34836],
        [84.46468, 26.34725],
        [84.48845, 26.33322],
        [84.49786, 26.33601]
      ]
    ]
  }
}
