{
  "type": "Feature",
  "id": "BR-AC-112",
  "properties": {
    "stateName": "BIHAR",
    "stateCode": "BR",
    "districtName": "SIWAN",
    "acNo": 112,
    "acName": "Maharajganj",
    "seatType": null,
    "pcNo": 19,
    "pcName": "MAHARAJGANJ",
    "quality": "unverified",
    "sources": [
      "TBD"
    ]
  },
  "geometry": {
    "type": "Polygon",
    "coordinates": [
      [
        [84.49751, 26.19504],
        [84.50766, 26.1838],
        [84.51641, 26.18223],
        [84.53711, 26.19286],
        [84.54414, 26.19174],
        [84.53965, 26.18498],
        [84.54187, 26.18072],
        [84.55522, 26.17744],
        [84.55658, 26.15961],
        [84.57479, 26.16982],
        [84.58791, 26.16716],
        [84.59582, 26.17092],
        [84.60391, 26.16347],
        [84.61986, 26.17236],
        [84.62001, 26.16168],
        [84.63167, 26.16121],
        [84.62934, 26.17011],
        [84.64324, 26.18348],
        [84.65798, 26.17859],
        [84.65731, 26.17359],
        [84.64904, 26.17001],
        [84.67266, 26.15126],
        [84.67899, 26.15486],
        [84.67753, 26.16907],
        [84.69635, 26.17457],
        [84.71381, 26.16521],
        [84.71576, 26.17381],
        [84.72864, 26.1685],
        [84.75008, 26.16873],
        [84.75436, 26.17254],
        [84.75352, 26.16789],
        [84.75959, 26.16623],
        [84.75016, 26.13818],
        [84.73191, 26.13449],
        [84.73135, 26.12476],
        [84.71722, 26.12449],
        [84.70774, 26.08539],
        [84.70065, 26.08134],
        [84.67434, 26.08256],
        [84.66847, 26.07078],
        [84.66343, 26.07413],
        [84.62445, 26.07873],
        [84.62007, 26.08199],
        [84.62051, 26.09216],
        [84.61247, 26.09181],
        [84.60739, 26.06685],
        [84.58787, 26.07501],
        [84.58452, 26.04616],
        [84.57151, 26.04446],
        [84.56818, 26.03299],
        [84.55238, 26.03211],
        [84.55241, 26.03914],
        [84.54358, 26.04252],
        [84.54396, 26.04739],
        [84.53186, 26.05136],
        [84.53666, 26.05724],
        [84.54484, 26.05187],
        [84.55504, 26.06086],
        [84.54851, 26.06963],
        [84.54913, 26.07452],
        [84.55347, 26.0746],
        [84.54532, 26.08619],
        [84.55273, 26.09805],
        [84.56647, 26.0947],
        [84.57972, 26.08104],
        [84.58403, 26.10537],
        [84.59042, 26.10851],
        [84.5814, 26.11063],
        [84.55075, 26.10239],
        [84.54245, 26.10733],
        [84.53834, 26.12152],
        [84.52315, 26.11924],
        [84.51812, 26.1145],
        [84.5223, 26.09187],
        [84.51208, 26.08979],
        [84.50416, 26.09467],
        [84.49644, 26.08996],
        [84.49235, 26.09198],
        [84.49439, 26.10065],
        [84.48724, 26.11731],
        [84.48855, 26.12164],
        [84.50897, 26.12572],
        [84.50066, 26.13283],
        [84.49995, 26.14322],
        [84.48646, 26.14814],
        [84.48595, 26.1552],
        [84.47255, 26.15778],
        [84.45811, 26.15816],
        [84.45231, 26.15113],
        [84.43474, 26.15221],
        [84.43698, 26.17159],
        [84.45102, 26.18053],
        [84.44703, 26.19304],
        [84.45977, 26.18318],
        [84.47135, 26.18848],
        [84.47531, 26.19788],
        [84.4917, 26.19289],
        [84.49751, 26.19504]
      ]
    ]
  }
}
