{
  "type": "Feature",
  "id": "BR-AC-114",
  "properties": {
    "stateName": "BIHAR",
    "stateCode": "BR",
    "districtName": "SARAN",
    "acNo": 114,
    "acName": "Manjhi",
    "seatType": null,
    "pcNo": 19,
    "pcName": "MAHARAJGANJ",
    "quality": "unverified",
    "sources": [
      "TBD"
    ]
  },
  "geometry": {
    "type": "Polygon",
    "coordinates": [
      [
        [84.64942, 26.01349],
        [84.64838, 26.00707],
        [84.66114, 25.99538],
        [84.65547, 25.975],
        [84.66368, 25.97252],
        [84.65785, 25.94288],
        [84.6692, 25.94723],
        [84.68089, 25.94562],
        [84.68764, 25.93555],
        [84.70072, 25.9352],
        [84.70121, 25.93917],
        [84.69272, 25.94383],
        [84.72515, 25.93696],
        [84.72817, 25.93184],
        [84.72163, 25.92854],
        [84.72861, 25.90471],
        [84.7251, 25.90466],
        [84.7185, 25.86994],
        [84.72066, 25.86363],
        [84.73288, 25.86071],
        [84.73936, 25.85016],
        [84.73637, 25.83942],
        [84.71626, 25.84086],
        [84.71284, 25.8357],
        [84.71184, 25.84069],
        [84.69682, 25.83994],
        [84.70263, 25.82841],
        [84.69544, 25.81865],
        [84.6701, 25.83021],
        [84.66004, 25.82775],
        [84.6349, 25.83441],
        [84.62688, 25.83031],
        [84.62309, 25.84472],
        [84.61673, 25.84502],
        [84.61749, 25.8574],
        [84.613, 25.85782],
        [84.61016, 25.83917],
        [84.61694, 25.82899],
        [84.60674, 25.82582],
        [84.60621, 25.82094],
        [84.61299, 25.82015],
        [84.61528, 25.81416],
        [84.60803, 25.80499],
        [84.58162, 25.82514],
        [84.55086, 25.8408],
        [84.54854, 25.82859],
        [84.53051, 25.83162],
        [84.53083, 25.85353],
        [84.52319, 25.86032],
        [84.53351, 25.86414],
        [84.54323, 25.8599],
        [84.53393, 25.87644],
        [84.51078, 25.87179],
        [84.48974, 25.8882],
        [84.48449, 25.89984],
        [84.50077, 25.90298],
        [84.49916, 25.9131],
        [84.51001, 25.90976],
        [84.51661, 25.91632],
        [84.52128, 25.91449],
        [84.52819, 25.92455],
        [84.53345, 25.92224],
        [84.54069, 25.92845],
        [84.56312, 25.9228],
        [84.56051, 25.92952],
        [84.57114, 25.93697],
        [84.5552, 25.95032],
        [84.56862, 25.94939],
        [84.56675, 25.9614],
        [84.58033, 25.95865],
        [84.5939, 25.94747],
        [84.59651, 25.95951],
        [84.60575, 25.95472],
        [84.6088, 25.96346],
        [84.62127, 25.97035],
        [84.6129, 25.98922],
        [84.61314, 25.99381],
        [84.61969, 25.99393],
        [84.61676, 26.00424],
        [84.63145, 26.00731],
        [84.63199, 26.01846],
        [84.64942, 26.01349]
      ]
    ]
  }
}
