{
  "type": "Feature",
  "id": "BR-AC-117",
  "properties": {
    "stateName": "BIHAR",
    "stateCode": "BR",
    "districtName": "SARAN",
    "acNo": 117,
    "acName": "Marhaura",
    "seatType": null,
    "pcNo": 20,
    "pcName": "SARAN",
    "quality": "unverified",
    "sources": [
      "TBD"
    ]
  },
  "geometry": {
    "type": "Polygon",
    "coordinates": [
      [
        [84.91681, 25.98628],
        [84.90777, 25.98011],
        [84.90996, 25.97779],
        [84.916, 25.97937],
        [84.92159, 25.97374],
        [84.9293, 25.97975],
        [84.92156, 25.96212],
        [84.91456, 25.96054],
        [84.92016, 25.96011],
        [84.91893, 25.95583],
        [84.90437, 25.95845],
        [84.90241, 25.95477],
        [84.89663, 25.95657],
        [84.89502, 25.95046],
        [84.86971, 25.95438],
        [84.85377, 25.93856],
        [84.85237, 25.93479],
        [84.86365, 25.92855],
        [84.86248, 25.90252],
        [84.8718, 25.89236],
        [84.86154, 25.8741],
        [84.86406, 25.86733],
        [84.85921, 25.86067],
        [84.86438, 25.85936],
        [84.86472, 25.85599],
        [84.85677, 25.8568],
        [84.84483, 25.86642],
        [84.82351, 25.87365],
        [84.81707, 25.87054],
        [84.81598, 25.86137],
        [84.81024, 25.86067],
        [84.81238, 25.85554],
        [84.80562, 25.84457],
        [84.79774, 25.84467],
        [84.79142, 25.85337],
        [84.77871, 25.84639],
        [84.77894, 25.84996],
        [84.76886, 25.8524],
        [84.76771, 25.84639],
        [84.76004, 25.85037],
        [84.75862, 25.84279],
        [84.75673, 25.84649],
        [84.75393, 25.84226],
        [84.73936, 25.85016],
        [84.73288, 25.86071],
        [84.72066, 25.86363],
        [84.7185, 25.86994],
        [84.7251, 25.90466],
        [84.72861, 25.90471],
        [84.72163, 25.92854],
        [84.72817, 25.93184],
        [84.72515, 25.93696],
        [84.72521, 25.95101],
        [84.74262, 25.94747],
        [84.7648, 25.9583],
        [84.7638, 25.97643],
        [84.7593, 25.97763],
        [84.76177, 25.98434],
        [84.77603, 25.97437],
        [84.78035, 25.97655],
        [84.79747, 25.97183],
        [84.79715, 25.98619],
        [84.80757, 25.98996],
        [84.83802, 25.98697],
        [84.83866, 25.98207],
        [84.84717, 25.98021],
        [84.85803, 25.9848],
        [84.85905, 25.98057],
        [84.86962, 25.97901],
        [84.89305, 25.99664],
        [84.89415, 25.99304],
        [84.90231, 25.99386],
        [84.91681, 25.98628]
      ]
    ]
  }
}
