{
  "type": "Feature",
  "id": "BR-AC-142",
  "properties": {
    "stateName": "BIHAR",
    "stateCode": "BR",
    "districtName": "BEGUSARAI",
    "acNo": 142,
    "acName": "Bachhwara",
    "seatType": null,
    "pcNo": 24,
    "pcName": "BEGUSARAI",
    "quality": "unverified",
    "sources": [
      "TBD"
    ]
  },
  "geometry": {
    "type": "Polygon",
    "coordinates": [
      [
        [85.84856, 25.64464],
        [85.85739, 25.64087],
        [85.87108, 25.64396],
        [85.8794, 25.66497],
        [85.88958, 25.66139],
        [85.88756, 25.64146],
        [85.88149, 25.63372],
        [85.88942, 25.63828],
        [85.89622, 25.65061],
        [85.90258, 25.64979],
        [85.90482, 25.64245],
        [85.91412, 25.63768],
        [85.92336, 25.64474],
        [85.93613, 25.64377],
        [85.93955, 25.65142],
        [85.95138, 25.64994],
        [85.97358, 25.62674],
        [85.97421, 25.61772],
        [85.99673, 25.60482],
        [86.00238, 25.59657],
        [86.00958, 25.59712],
        [86.01404, 25.60828],
        [86.03291, 25.61165],
        [86.03098, 25.60458],
        [86.04776, 25.59604],
        [86.04802, 25.58373],
        [86.08734, 25.57646],
        [86.08497, 25.56114],
        [86.09023, 25.55258],
        [86.06934, 25.55371],
        [86.0696, 25.55824],
        [86.07956, 25.56252],
        [86.0777, 25.56654],
        [86.04539, 25.57068],
        [86.04735, 25.55954],
        [86.02953, 25.55614],
        [86.03084, 25.5417],
        [86.05022, 25.54154],
        [86.06068, 25.54998],
        [86.07689, 25.54077],
        [86.07341, 25.53918],
        [86.07877, 25.53651],
        [86.08246, 25.53089],
        [86.07428, 25.52955],
        [86.07282, 25.53276],
        [86.07789, 25.53541],
        [86.06779, 25.53927],
        [86.06112, 25.53399],
        [86.06223, 25.52496],
        [86.05704, 25.51924],
        [86.05064, 25.52925],
        [86.04267, 25.53122],
        [86.03724, 25.53617],
        [86.00014, 25.52079],
        [85.96181, 25.52284],
        [85.95539, 25.5271],
        [85.94985, 25.51501],
        [85.93952, 25.51478],
        [85.93168, 25.51871],
        [85.9214, 25.54046],
        [85.90163, 25.54031],
        [85.89724, 25.54813],
        [85.88925, 25.5],
        [85.83827, 25.5175],
        [85.83733, 25.52653],
        [85.80953, 25.54424],
        [85.79858, 25.54622],
        [85.78141, 25.54808],
        [85.76139, 25.54237],
        [85.73517, 25.52474],
        [85.73699, 25.53982],
        [85.74306, 25.5405],
        [85.74825, 25.55974],
        [85.75937, 25.56612],
        [85.76583, 25.56859],
        [85.77522, 25.58564],
        [85.84702, 25.57314],
        [85.85213, 25.58934],
        [85.85065, 25.60199],
        [85.83041, 25.6158],
        [85.83152, 25.6207],
        [85.83949, 25.62415],
        [85.84689, 25.6369],
        [85.84299, 25.64163],
        [85.84856, 25.64464]
      ]
    ]
  }
}
