{
  "type": "Feature",
  "id": "BR-AC-150",
  "properties": {
    "stateName": "BIHAR",
    "stateCode": "BR",
    "districtName": "KHAGARIA",
    "acNo": 150,
    "acName": "Beldaur",
    "seatType": null,
    "pcNo": 25,
    "pcName": "KHAGARIA",
    "quality": "unverified",
    "sources": [
      "TBD"
    ]
  },
  "geometry": {
    "type": "Polygon",
    "coordinates": [
      [
        [86.79194, 25.63194],
        [86.80042, 25.63221],
        [86.80364, 25.63717],
        [86.81958, 25.62926],
        [86.82138, 25.61773],
        [86.83031, 25.62069],
        [86.83852, 25.61745],
        [86.83885, 25.58304],
        [86.85067, 25.57804],
        [86.83987, 25.55267],
        [86.84465, 25.52807],
        [86.84055, 25.52609],
        [86.83927, 25.51395],
        [86.82636, 25.50147],
        [86.8255, 25.48945],
        [86.83053, 25.4812],
        [86.82417, 25.4718],
        [86.80894, 25.46856],
        [86.81749, 25.46829],
        [86.81738, 25.45774],
        [86.81057, 25.45742],
        [86.82214, 25.44347],
        [86.82694, 25.43478],
        [86.81974, 25.41208],
        [86.81879, 25.403],
        [86.80765, 25.41472],
        [86.78969, 25.42318],
        [86.78561, 25.42079],
        [86.78781, 25.4133],
        [86.77818, 25.41281],
        [86.76621, 25.40548],
        [86.76433, 25.41076],
        [86.76079, 25.40441],
        [86.75004, 25.4098],
        [86.74347, 25.40463],
        [86.74828, 25.42925],
        [86.74524, 25.43668],
        [86.7081, 25.42178],
        [86.70677, 25.41695],
        [86.69368, 25.41888],
        [86.68689, 25.41532],
        [86.67981, 25.4287],
        [86.66824, 25.43554],
        [86.67476, 25.45258],
        [86.67661, 25.45933],
        [86.64866, 25.47167],
        [86.63922, 25.45209],
        [86.63024, 25.45058],
        [86.6293, 25.43306],
        [86.62369, 25.42906],
        [86.6284, 25.42951],
        [86.6293, 25.4223],
        [86.62404, 25.42159],
        [86.60961, 25.4319],
        [86.60147, 25.43228],
        [86.60084, 25.42737],
        [86.58453, 25.45177],
        [86.57596, 25.48584],
        [86.58639, 25.48206],
        [86.59366, 25.49622],
        [86.64024, 25.49457],
        [86.65445, 25.48805],
        [86.66187, 25.49755],
        [86.67032, 25.50007],
        [86.6744, 25.49528],
        [86.68201, 25.50988],
        [86.66825, 25.50641],
        [86.6565, 25.51313],
        [86.6478, 25.51222],
        [86.65558, 25.53019],
        [86.63409, 25.53507],
        [86.63882, 25.54735],
        [86.63246, 25.55251],
        [86.63934, 25.55584],
        [86.63685, 25.56041],
        [86.62641, 25.55928],
        [86.62953, 25.54679],
        [86.62278, 25.54267],
        [86.61588, 25.54392],
        [86.609, 25.55359],
        [86.59813, 25.54714],
        [86.58846, 25.54817],
        [86.58553, 25.56929],
        [86.56807, 25.58973],
        [86.58367, 25.59119],
        [86.59765, 25.59883],
        [86.58938, 25.61017],
        [86.59708, 25.62159],
        [86.63879, 25.63074],
        [86.64926, 25.64022],
        [86.66185, 25.63837],
        [86.66669, 25.62225],
        [86.67428, 25.61978],
        [86.67732, 25.62847],
        [86.68312, 25.62547],
        [86.68872, 25.64425],
        [86.70231, 25.64791],
        [86.71022, 25.6349],
        [86.71501, 25.64159],
        [86.70919, 25.64456],
        [86.70862, 25.65325],
        [86.71521, 25.65447],
        [86.72083, 25.66444],
        [86.73177, 25.66173],
        [86.74489, 25.64118],
        [86.7621, 25.63998],
        [86.76311, 25.62367],
        [86.78039, 25.6244],
        [86.79194, 25.63194]
      ]
    ]
  }
}
