{
  "type": "Feature",
  "id": "BR-AC-164",
  "properties": {
    "stateName": "BIHAR",
    "stateCode": "BR",
    "districtName": "MUNGER",
    "acNo": 164,
    "acName": "Tarapur",
    "seatType": null,
    "pcNo": 40,
    "pcName": "JAMUI (SC)",
    "quality": "unverified",
    "sources": [
      "TBD"
    ]
  },
  "geometry": {
    "type": "Polygon",
    "coordinates": [
      [
        [86.61768, 25.19706],
        [86.62961, 25.19805],
        [86.63308, 25.20973],
        [86.65186, 25.20819],
        [86.6493, 25.218],
        [86.67014, 25.21307],
        [86.68508, 25.18734],
        [86.69787, 25.19031],
        [86.69383, 25.19526],
        [86.69708, 25.20238],
        [86.70485, 25.19596],
        [86.70522, 25.18725],
        [86.71072, 25.18567],
        [86.7103, 25.19255],
        [86.71457, 25.1872],
        [86.73766, 25.18292],
        [86.73533, 25.17865],
        [86.72821, 25.18],
        [86.7304, 25.17579],
        [86.72361, 25.17077],
        [86.71039, 25.17151],
        [86.70192, 25.16261],
        [86.70639, 25.15991],
        [86.69634, 25.14281],
        [86.68685, 25.14611],
        [86.68168, 25.14037],
        [86.68303, 25.12905],
        [86.67823, 25.12082],
        [86.69113, 25.11973],
        [86.69079, 25.11422],
        [86.69383, 25.10386],
        [86.68293, 25.08915],
        [86.67628, 25.09224],
        [86.67042, 25.08708],
        [86.6646, 25.07023],
        [86.65674, 25.06463],
        [86.65855, 25.04952],
        [86.65088, 25.04206],
        [86.65851, 25.03192],
        [86.65292, 25.02465],
        [86.67094, 25.01094],
        [86.65702, 25.01387],
        [86.6506, 25.01071],
        [86.65404, 25.0029],
        [86.65022, 24.98087],
        [86.64126, 24.98113],
        [86.6271, 24.96684],
        [86.62175, 24.96925],
        [86.6226, 24.97711],
        [86.61166, 24.97203],
        [86.60572, 24.97543],
        [86.59987, 24.95819],
        [86.60395, 24.94895],
        [86.59329, 24.94977],
        [86.58669, 24.94515],
        [86.57799, 24.94725],
        [86.57792, 24.95718],
        [86.57138, 24.96317],
        [86.54444, 24.95211],
        [86.54169, 24.95455],
        [86.55127, 24.96342],
        [86.53635, 24.97246],
        [86.53591, 24.98174],
        [86.51503, 24.98693],
        [86.50636, 24.98463],
        [86.48093, 24.9984],
        [86.45771, 24.99802],
        [86.45373, 25.01019],
        [86.43928, 24.99853],
        [86.43937, 25.04554],
        [86.42394, 25.05099],
        [86.41006, 25.04763],
        [86.39684, 25.05095],
        [86.39657, 25.05612],
        [86.38626, 25.0562],
        [86.38556, 25.06131],
        [86.39315, 25.0652],
        [86.39271, 25.08737],
        [86.40645, 25.0876],
        [86.41684, 25.10541],
        [86.41133, 25.12147],
        [86.41943, 25.1382],
        [86.42441, 25.13607],
        [86.4208, 25.11896],
        [86.42458, 25.12468],
        [86.42541, 25.12179],
        [86.43832, 25.12628],
        [86.46352, 25.14195],
        [86.46553, 25.16952],
        [86.51758, 25.16978],
        [86.53191, 25.18025],
        [86.54701, 25.1798],
        [86.54626, 25.18299],
        [86.55278, 25.17875],
        [86.54608, 25.15426],
        [86.57393, 25.15316],
        [86.56196, 25.14749],
        [86.56576, 25.1459],
        [86.56468, 25.13234],
        [86.57574, 25.14067],
        [86.5752, 25.12759],
        [86.58105, 25.12622],
        [86.57504, 25.11252],
        [86.56807, 25.11474],
        [86.56215, 25.10789],
        [86.56664, 25.08331],
        [86.5743, 25.08927],
        [86.56911, 25.09276],
        [86.56681, 25.10549],
        [86.57228, 25.10327],
        [86.57682, 25.10875],
        [86.5872, 25.1022],
        [86.60715, 25.11199],
        [86.60786, 25.11671],
        [86.59629, 25.12384],
        [86.6004, 25.13461],
        [86.60736, 25.13356],
        [86.61899, 25.14709],
        [86.61405, 25.15092],
        [86.6189, 25.15658],
        [86.61388, 25.15857],
        [86.62863, 25.18199],
        [86.61719, 25.17991],
        [86.61768, 25.19706]
      ]
    ]
  }
}
