{
  "type": "Feature",
  "id": "BR-AC-171",
  "properties": {
    "stateName": "BIHAR",
    "stateCode": "BR",
    "districtName": "NALANDA",
    "acNo": 171,
    "acName": "Asthawan",
    "seatType": null,
    "pcNo": 29,
    "pcName": "NALANDA",
    "quality": "unverified",
    "sources": [
      "TBD"
    ]
  },
  "geometry": {
    "type": "MultiPolygon",
    "coordinates": [
      [
        [
          [85.61991, 25.11004],
          [85.63349, 25.0972],
          [85.64425, 25.08461],
          [85.64235, 25.08061],
          [85.64791, 25.0771],
          [85.64581, 25.07335],
          [85.65311, 25.0604],
          [85.64143, 25.06064],
          [85.63997, 25.06721],
          [85.63233, 25.06953],
          [85.62881, 25.06449],
          [85.63243, 25.05953],
          [85.61299, 25.04209],
          [85.6034, 25.03975],
          [85.59813, 25.02924],
          [85.58465, 25.0348],
          [85.559, 25.02901],
          [85.56803, 25.03603],
          [85.57209, 25.06251],
          [85.58087, 25.07484],
          [85.58723, 25.07277],
          [85.59777, 25.0813],
          [85.59897, 25.09122],
          [85.59216, 25.09485],
          [85.598, 25.10441],
          [85.60206, 25.10335],
          [85.60745, 25.10215],
          [85.61254, 25.11257],
          [85.61991, 25.11004]
        ]
      ],
      [
        [
          [85.7196, 25.36058],
          [85.72026, 25.34634],
          [85.72948, 25.34803],
          [85.72959, 25.34193],
          [85.73041, 25.33313],
          [85.73996, 25.33275],
          [85.74078, 25.3196],
          [85.7599, 25.31317],
          [85.76114, 25.31714],
          [85.78151, 25.31347],
          [85.78255, 25.30724],
          [85.80696, 25.30677],
          [85.80877, 25.28804],
          [85.83383, 25.28729],
          [85.8649, 25.29376],
          [85.86433, 25.27906],
          [85.89007, 25.27881],
          [85.89159, 25.29086],
          [85.90614, 25.29103],
          [85.9018, 25.25665],
          [85.92168, 25.24797],
          [85.92545, 25.24077],
          [85.91065, 25.22702],
          [85.9012, 25.22702],
          [85.90123, 25.22326],
          [85.87768, 25.22809],
          [85.87824, 25.23602],
          [85.87215, 25.23427],
          [85.87202, 25.23797],
          [85.84417, 25.23485],
          [85.84436, 25.22666],
          [85.83824, 25.22642],
          [85.83469, 25.21809],
          [85.82283, 25.21428],
          [85.82319, 25.22145],
          [85.80208, 25.22475],
          [85.80037, 25.21302],
          [85.7891, 25.21326],
          [85.79602, 25.24668],
          [85.77287, 25.23885],
          [85.77714, 25.26032],
          [85.76217, 25.25625],
          [85.73909, 25.2575],
          [85.73859, 25.27382],
          [85.72637, 25.27365],
          [85.71938, 25.26721],
          [85.69987, 25.26399],
          [85.70167, 25.25062],
          [85.70029, 25.22856],
          [85.71428, 25.22402],
          [85.71735, 25.22674],
          [85.72383, 25.22062],
          [85.72938, 25.19336],
          [85.72172, 25.19505],
          [85.72028, 25.184],
          [85.69626, 25.18811],
          [85.696, 25.16698],
          [85.70329, 25.16865],
          [85.70257, 25.16057],
          [85.69298, 25.15974],
          [85.68833, 25.13292],
          [85.67569, 25.12874],
          [85.66922, 25.11867],
          [85.64785, 25.12025],
          [85.63317, 25.12714],
          [85.64056, 25.175],
          [85.6347, 25.17079],
          [85.62727, 25.17781],
          [85.61721, 25.17448],
          [85.61543, 25.19048],
          [85.60185, 25.18965],
          [85.59881, 25.18449],
          [85.59632, 25.19942],
          [85.57419, 25.20129],
          [85.57491, 25.20642],
          [85.56835, 25.21051],
          [85.57756, 25.22394],
          [85.57249, 25.22561],
          [85.57296, 25.22987],
          [85.58987, 25.23233],
          [85.59964, 25.24292],
          [85.60939, 25.24441],
          [85.6186, 25.26076],
          [85.62828, 25.25694],
          [85.63549, 25.26034],
          [85.64089, 25.27571],
          [85.63365, 25.28137],
          [85.63823, 25.30319],
          [85.6481, 25.30827],
          [85.64527, 25.31372],
          [85.65586, 25.31043],
          [85.65849, 25.32538],
          [85.65417, 25.32969],
          [85.66718, 25.33716],
          [85.66811, 25.3441],
          [85.68604, 25.34371],
          [85.68615, 25.35228],
          [85.70096, 25.34939],
          [85.70451, 25.35916],
          [85.70992, 25.35168],
          [85.71199, 25.36281],
          [85.7196, 25.36058]
        ]
      ]
    ]
  }
}
