{
  "type": "Feature",
  "id": "BR-AC-174",
  "properties": {
    "stateName": "BIHAR",
    "stateCode": "BR",
    "districtName": "NALANDA",
    "acNo": 174,
    "acName": "Islampur",
    "seatType": null,
    "pcNo": 29,
    "pcName": "NALANDA",
    "quality": "unverified",
    "sources": [
      "TBD"
    ]
  },
  "geometry": {
    "type": "Polygon",
    "coordinates": [
      [
        [85.17805, 25.28888],
        [85.20038, 25.28418],
        [85.21594, 25.27523],
        [85.24238, 25.28051],
        [85.24145, 25.27152],
        [85.24709, 25.26576],
        [85.26799, 25.26623],
        [85.26995, 25.25752],
        [85.28716, 25.25392],
        [85.29324, 25.23798],
        [85.29814, 25.23592],
        [85.28239, 25.2301],
        [85.30798, 25.2232],
        [85.31825, 25.20829],
        [85.31804, 25.20351],
        [85.31216, 25.20306],
        [85.29696, 25.18621],
        [85.29831, 25.18017],
        [85.30538, 25.17256],
        [85.32066, 25.17343],
        [85.32417, 25.12795],
        [85.33288, 25.1222],
        [85.34954, 25.12596],
        [85.34974, 25.12316],
        [85.30002, 25.06776],
        [85.30064, 25.05966],
        [85.29602, 25.05942],
        [85.29106, 25.05266],
        [85.29333, 25.04947],
        [85.28733, 25.04695],
        [85.29029, 25.04153],
        [85.28261, 25.03957],
        [85.28034, 25.02661],
        [85.26996, 25.0279],
        [85.27118, 25.02325],
        [85.25894, 25.02261],
        [85.25866, 25.03379],
        [85.25161, 25.03246],
        [85.24829, 25.00774],
        [85.23775, 25.00707],
        [85.23866, 25.01233],
        [85.23072, 25.01503],
        [85.2269, 25.05518],
        [85.21207, 25.05414],
        [85.2118, 25.0419],
        [85.20517, 25.03998],
        [85.2018, 25.03193],
        [85.19165, 25.03003],
        [85.19174, 25.05011],
        [85.20532, 25.06511],
        [85.20365, 25.07514],
        [85.19763, 25.07604],
        [85.18991, 25.08963],
        [85.19864, 25.09892],
        [85.18861, 25.10054],
        [85.18624, 25.1063],
        [85.17736, 25.10565],
        [85.17413, 25.10038],
        [85.16171, 25.1034],
        [85.16074, 25.09912],
        [85.15299, 25.09724],
        [85.16401, 25.1177],
        [85.16398, 25.14347],
        [85.18411, 25.14956],
        [85.17874, 25.16183],
        [85.16949, 25.16304],
        [85.17125, 25.17057],
        [85.15354, 25.16615],
        [85.16173, 25.1798],
        [85.15619, 25.18408],
        [85.15431, 25.19553],
        [85.1614, 25.19647],
        [85.16263, 25.20934],
        [85.17129, 25.21022],
        [85.1726, 25.21878],
        [85.17074, 25.22575],
        [85.15566, 25.22841],
        [85.15414, 25.23681],
        [85.16305, 25.23729],
        [85.16603, 25.24651],
        [85.18534, 25.25217],
        [85.18541, 25.25743],
        [85.2113, 25.25679],
        [85.21111, 25.26544],
        [85.18782, 25.26468],
        [85.1849, 25.26974],
        [85.16771, 25.27203],
        [85.17192, 25.28828],
        [85.17805, 25.28888]
      ]
    ]
  }
}
