{
  "type": "Feature",
  "id": "BR-AC-178",
  "properties": {
    "stateName": "BIHAR",
    "stateCode": "BR",
    "districtName": "PATNA",
    "acNo": 178,
    "acName": "Mokama",
    "seatType": null,
    "pcNo": 28,
    "pcName": "MUNGER",
    "quality": "unverified",
    "sources": [
      "TBD"
    ]
  },
  "geometry": {
    "type": "Polygon",
    "coordinates": [
      [
        [85.73105, 25.52235],
        [85.73517, 25.52474],
        [85.76139, 25.54237],
        [85.78141, 25.54808],
        [85.79858, 25.54622],
        [85.80953, 25.54424],
        [85.83733, 25.52653],
        [85.83827, 25.5175],
        [85.88925, 25.5],
        [85.89195, 25.47986],
        [85.90632, 25.45904],
        [85.89478, 25.45923],
        [85.88135, 25.47331],
        [85.87315, 25.43923],
        [85.8868, 25.42192],
        [85.89301, 25.42531],
        [85.90033, 25.42033],
        [85.90624, 25.43136],
        [85.91642, 25.41998],
        [85.9389, 25.4088],
        [85.94999, 25.40767],
        [85.95331, 25.41379],
        [85.95737, 25.41299],
        [85.95511, 25.40993],
        [85.9605, 25.40587],
        [86.00416, 25.3802],
        [86.00144, 25.37346],
        [86.01296, 25.36265],
        [86.0288, 25.36341],
        [86.03267, 25.39201],
        [86.04678, 25.39159],
        [86.06727, 25.3486],
        [86.06891, 25.33746],
        [86.06468, 25.33388],
        [86.05815, 25.33309],
        [86.05323, 25.3396],
        [86.03957, 25.33384],
        [86.04163, 25.33],
        [86.03289, 25.31896],
        [86.03154, 25.30872],
        [86.02014, 25.30698],
        [86.02022, 25.29651],
        [86.006, 25.29766],
        [86.00739, 25.30235],
        [86.00009, 25.3035],
        [86.00004, 25.30722],
        [85.93179, 25.32145],
        [85.93247, 25.29931],
        [85.91494, 25.29335],
        [85.91278, 25.29731],
        [85.90614, 25.29103],
        [85.89159, 25.29086],
        [85.89007, 25.27881],
        [85.86433, 25.27906],
        [85.8649, 25.29376],
        [85.83383, 25.28729],
        [85.80877, 25.28804],
        [85.80696, 25.30677],
        [85.78255, 25.30724],
        [85.78151, 25.31347],
        [85.76114, 25.31714],
        [85.7599, 25.31317],
        [85.74078, 25.3196],
        [85.73996, 25.33275],
        [85.73041, 25.33313],
        [85.72959, 25.34193],
        [85.7426, 25.34275],
        [85.7494, 25.33835],
        [85.75534, 25.34615],
        [85.75064, 25.37277],
        [85.73193, 25.38097],
        [85.73515, 25.4091],
        [85.74952, 25.4149],
        [85.74987, 25.43861],
        [85.76042, 25.43634],
        [85.76452, 25.4395],
        [85.76894, 25.43791],
        [85.76782, 25.43371],
        [85.78442, 25.43059],
        [85.79464, 25.44308],
        [85.78692, 25.44939],
        [85.80616, 25.44395],
        [85.82273, 25.45931],
        [85.78889, 25.46654],
        [85.78131, 25.46256],
        [85.76834, 25.47378],
        [85.75883, 25.47402],
        [85.75846, 25.47844],
        [85.75054, 25.48339],
        [85.7581, 25.52355],
        [85.72929, 25.50636],
        [85.72188, 25.5145],
        [85.73105, 25.52235]
      ]
    ]
  }
}
