{
  "type": "Feature",
  "id": "BR-AC-187",
  "properties": {
    "stateName": "BIHAR",
    "stateCode": "BR",
    "districtName": "PATNA",
    "acNo": 187,
    "acName": "Maner",
    "seatType": null,
    "pcNo": 31,
    "pcName": "PATALIPUTRA",
    "quality": "unverified",
    "sources": [
      "TBD"
    ]
  },
  "geometry": {
    "type": "Polygon",
    "coordinates": [
      [
        [84.97769, 25.72468],
        [84.98121, 25.72497],
        [84.98532, 25.70686],
        [85.00188, 25.70492],
        [85.00338, 25.69922],
        [84.99613, 25.69128],
        [84.98478, 25.68785],
        [84.98118, 25.67819],
        [84.98577, 25.66294],
        [85.00547, 25.65423],
        [84.99706, 25.63941],
        [85.00134, 25.63303],
        [84.99636, 25.5989],
        [85.01033, 25.60047],
        [85.00288, 25.595],
        [84.99378, 25.57557],
        [84.99685, 25.57204],
        [84.98017, 25.56158],
        [84.97518, 25.55307],
        [84.97013, 25.55082],
        [84.96077, 25.56549],
        [84.95278, 25.56038],
        [84.95494, 25.56791],
        [84.94995, 25.57001],
        [84.93865, 25.5605],
        [84.92488, 25.56287],
        [84.91401, 25.55404],
        [84.91137, 25.55801],
        [84.90959, 25.55374],
        [84.89995, 25.55352],
        [84.89621, 25.54816],
        [84.9049, 25.5467],
        [84.90319, 25.54158],
        [84.89752, 25.5397],
        [84.89658, 25.54399],
        [84.88948, 25.5371],
        [84.88474, 25.51795],
        [84.87546, 25.51865],
        [84.87245, 25.5063],
        [84.86441, 25.5026],
        [84.86282, 25.51628],
        [84.85218, 25.51812],
        [84.84565, 25.52745],
        [84.82121, 25.52672],
        [84.82299, 25.53113],
        [84.83004, 25.52971],
        [84.82185, 25.53372],
        [84.83029, 25.53511],
        [84.82987, 25.55191],
        [84.83295, 25.56433],
        [84.82661, 25.56626],
        [84.81313, 25.55276],
        [84.79874, 25.54983],
        [84.78717, 25.55452],
        [84.7997, 25.56774],
        [84.81105, 25.57109],
        [84.81887, 25.57905],
        [84.82248, 25.59068],
        [84.81531, 25.59284],
        [84.81806, 25.60717],
        [84.83214, 25.62401],
        [84.8214, 25.62228],
        [84.82437, 25.63823],
        [84.8419, 25.65831],
        [84.82291, 25.66668],
        [84.82313, 25.6728],
        [84.82912, 25.67936],
        [84.84719, 25.67882],
        [84.84992, 25.69972],
        [84.85286, 25.70883],
        [84.86505, 25.71795],
        [84.87451, 25.71937],
        [84.87748, 25.71144],
        [84.90325, 25.71903],
        [84.90273, 25.70926],
        [84.92474, 25.70854],
        [84.92637, 25.70302],
        [84.93785, 25.7022],
        [84.93865, 25.7091],
        [84.9501, 25.70448],
        [84.96022, 25.71246],
        [84.96842, 25.7104],
        [84.97096, 25.72119],
        [84.97769, 25.72468]
      ]
    ]
  }
}
