{
  "type": "Feature",
  "id": "BR-AC-2",
  "properties": {
    "stateName": "BIHAR",
    "stateCode": "BR",
    "districtName": "PASHCHIM CHAMPARAN",
    "acNo": 2,
    "acName": "Ramnagar (SC)",
    "seatType": null,
    "pcNo": 1,
    "pcName": "VALMIKI NAGAR",
    "quality": "unverified",
    "sources": [
      "TBD"
    ]
  },
  "geometry": {
    "type": "Polygon",
    "coordinates": [
      [
        [84.2479, 27.45329],
        [84.25707, 27.4446],
        [84.25813, 27.43487],
        [84.27241, 27.42539],
        [84.27526, 27.397],
        [84.2921, 27.38485],
        [84.30162, 27.39155],
        [84.33842, 27.37564],
        [84.37713, 27.37546],
        [84.39632, 27.36899],
        [84.42225, 27.37145],
        [84.45812, 27.36318],
        [84.47015, 27.35482],
        [84.48534, 27.36004],
        [84.567, 27.34915],
        [84.60471, 27.3386],
        [84.61671, 27.34016],
        [84.62403, 27.3368],
        [84.648, 27.30052],
        [84.64385, 27.29171],
        [84.62858, 27.2883],
        [84.62503, 27.27365],
        [84.60855, 27.27114],
        [84.60721, 27.26019],
        [84.58493, 27.25382],
        [84.57991, 27.23909],
        [84.55875, 27.227],
        [84.55741, 27.2069],
        [84.5701, 27.19697],
        [84.56137, 27.18921],
        [84.55147, 27.19524],
        [84.54053, 27.19462],
        [84.534, 27.18419],
        [84.51953, 27.19079],
        [84.51142, 27.18551],
        [84.50143, 27.18621],
        [84.49626, 27.18326],
        [84.50022, 27.17767],
        [84.49876, 27.16001],
        [84.47988, 27.16724],
        [84.46702, 27.15945],
        [84.46742, 27.16624],
        [84.45301, 27.16625],
        [84.44933, 27.16009],
        [84.44351, 27.17479],
        [84.43006, 27.17987],
        [84.42418, 27.18474],
        [84.42566, 27.18894],
        [84.41917, 27.1927],
        [84.41053, 27.18354],
        [84.40342, 27.19295],
        [84.38926, 27.1803],
        [84.39419, 27.1784],
        [84.39316, 27.18217],
        [84.40534, 27.16874],
        [84.3964, 27.16052],
        [84.40231, 27.14418],
        [84.39851, 27.12575],
        [84.35792, 27.13934],
        [84.36678, 27.12735],
        [84.34882, 27.12753],
        [84.34685, 27.11483],
        [84.34028, 27.11117],
        [84.34646, 27.10712],
        [84.34383, 27.09983],
        [84.34922, 27.10043],
        [84.35882, 27.09267],
        [84.36693, 27.0704],
        [84.35988, 27.07109],
        [84.35356, 27.06481],
        [84.34037, 27.06976],
        [84.32096, 27.06903],
        [84.31443, 27.06165],
        [84.30478, 27.06312],
        [84.29997, 27.0733],
        [84.30221, 27.09428],
        [84.30959, 27.09584],
        [84.29308, 27.11091],
        [84.29517, 27.12043],
        [84.28111, 27.12386],
        [84.27529, 27.13577],
        [84.27319, 27.152],
        [84.2678, 27.15532],
        [84.27245, 27.16609],
        [84.2689, 27.16835],
        [84.27105, 27.18162],
        [84.26494, 27.1867],
        [84.25359, 27.18672],
        [84.25652, 27.17296],
        [84.2542, 27.166],
        [84.247, 27.16404],
        [84.23417, 27.17868],
        [84.23549, 27.19303],
        [84.2305, 27.19849],
        [84.23002, 27.21134],
        [84.22045, 27.22342],
        [84.21848, 27.24377],
        [84.20966, 27.25358],
        [84.21117, 27.26456],
        [84.2215, 27.26772],
        [84.2219, 27.27492],
        [84.22699, 27.277],
        [84.22517, 27.28504],
        [84.23428, 27.29565],
        [84.21687, 27.29811],
        [84.21041, 27.31327],
        [84.2, 27.31931],
        [84.15077, 27.3289],
        [84.13942, 27.34105],
        [84.1422, 27.34783],
        [84.1352, 27.35254],
        [84.13446, 27.3658],
        [84.12785, 27.37612],
        [84.12239, 27.37269],
        [84.11404, 27.37945],
        [84.11719, 27.38121],
        [84.11418, 27.38746],
        [84.12115, 27.38799],
        [84.12385, 27.39361],
        [84.10029, 27.39664],
        [84.09433, 27.40559],
        [84.08165, 27.41144],
        [84.07933, 27.42122],
        [84.06616, 27.41994],
        [84.02699, 27.43881],
        [84.05218, 27.44328],
        [84.06061, 27.45288],
        [84.05674, 27.46058],
        [84.06686, 27.46968],
        [84.0692, 27.48092],
        [84.09406, 27.4899],
        [84.09765, 27.51672],
        [84.10796, 27.52163],
        [84.11672, 27.51951],
        [84.11762, 27.51366],
        [84.1234, 27.51178],
        [84.14018, 27.51783],
        [84.15183, 27.51677],
        [84.1502, 27.50036],
        [84.14503, 27.49682],
        [84.14869, 27.4861],
        [84.16477, 27.4831],
        [84.17178, 27.47522],
        [84.20601, 27.4692],
        [84.20886, 27.44246],
        [84.22039, 27.44225],
        [84.22068, 27.44899],
        [84.23049, 27.4559],
        [84.2479, 27.45329]
      ]
    ]
  }
}
