{
  "type": "Feature",
  "id": "BR-AC-201",
  "properties": {
    "stateName": "BIHAR",
    "stateCode": "BR",
    "districtName": "BUXAR",
    "acNo": 201,
    "acName": "Dumraon",
    "seatType": null,
    "pcNo": 33,
    "pcName": "BUXAR",
    "quality": "unverified",
    "sources": [
      "TBD"
    ]
  },
  "geometry": {
    "type": "Polygon",
    "coordinates": [
      [
        [84.0923, 25.57641],
        [84.08767, 25.58357],
        [84.06853, 25.57627],
        [84.06812, 25.58336],
        [84.09328, 25.60745],
        [84.0969, 25.59938],
        [84.11604, 25.58728],
        [84.12986, 25.59027],
        [84.14242, 25.58522],
        [84.14527, 25.59392],
        [84.15298, 25.59037],
        [84.17176, 25.5996],
        [84.17823, 25.59568],
        [84.16592, 25.59397],
        [84.16655, 25.57842],
        [84.17913, 25.5787],
        [84.19108, 25.5712],
        [84.19535, 25.57531],
        [84.20289, 25.57091],
        [84.20619, 25.58062],
        [84.22611, 25.57549],
        [84.22925, 25.59525],
        [84.24234, 25.59661],
        [84.2432, 25.58753],
        [84.25351, 25.58719],
        [84.25672, 25.57188],
        [84.24509, 25.56552],
        [84.24614, 25.54685],
        [84.23487, 25.54314],
        [84.23542, 25.53517],
        [84.22368, 25.53464],
        [84.22405, 25.50067],
        [84.21095, 25.50025],
        [84.20285, 25.49338],
        [84.19077, 25.49847],
        [84.19394, 25.51226],
        [84.16403, 25.51108],
        [84.17321, 25.49567],
        [84.18712, 25.49653],
        [84.1942, 25.48275],
        [84.19998, 25.48091],
        [84.20754, 25.45023],
        [84.2143, 25.43796],
        [84.22219, 25.43444],
        [84.21981, 25.42913],
        [84.21166, 25.43103],
        [84.20717, 25.42112],
        [84.19599, 25.42595],
        [84.19551, 25.43482],
        [84.18815, 25.43451],
        [84.18744, 25.42412],
        [84.17691, 25.41346],
        [84.16626, 25.41587],
        [84.1635, 25.40294],
        [84.16703, 25.39005],
        [84.173, 25.38576],
        [84.17, 25.37805],
        [84.16399, 25.37726],
        [84.16739, 25.37103],
        [84.16413, 25.36716],
        [84.13921, 25.37335],
        [84.11829, 25.35852],
        [84.10281, 25.36249],
        [84.10344, 25.36789],
        [84.09869, 25.36844],
        [84.10001, 25.35967],
        [84.09668, 25.35953],
        [84.08668, 25.36671],
        [84.0462, 25.37574],
        [84.03864, 25.38452],
        [84.02793, 25.37885],
        [84.0128, 25.38286],
        [84.01054, 25.3674],
        [83.99477, 25.3735],
        [83.97397, 25.3743],
        [83.97372, 25.40538],
        [83.97125, 25.40955],
        [83.96111, 25.41037],
        [83.95834, 25.43272],
        [83.94399, 25.43644],
        [83.94566, 25.42304],
        [83.92951, 25.42469],
        [83.91333, 25.44558],
        [83.91536, 25.45261],
        [83.90568, 25.45603],
        [83.90269, 25.4649],
        [83.90699, 25.47347],
        [83.92187, 25.47614],
        [83.92458, 25.48592],
        [83.95083, 25.49322],
        [83.96842, 25.48764],
        [83.9795, 25.49417],
        [83.98445, 25.50302],
        [84, 25.50061],
        [83.99243, 25.50664],
        [83.99642, 25.51037],
        [84.00322, 25.50712],
        [84.01386, 25.51584],
        [84.02827, 25.5001],
        [84.04131, 25.50328],
        [84.04182, 25.51187],
        [84.04745, 25.51615],
        [84.05472, 25.51637],
        [84.06508, 25.50593],
        [84.08742, 25.51042],
        [84.08857, 25.52127],
        [84.09459, 25.52158],
        [84.09958, 25.53929],
        [84.09702, 25.55537],
        [84.08882, 25.5628],
        [84.09549, 25.56884],
        [84.0923, 25.57641]
      ]
    ]
  }
}
