{
  "type": "Feature",
  "id": "BR-AC-218",
  "properties": {
    "stateName": "BIHAR",
    "stateCode": "BR",
    "districtName": "JEHANABAD",
    "acNo": 218,
    "acName": "Makhdumpur (SC)",
    "seatType": null,
    "pcNo": 36,
    "pcName": "JAHANABAD",
    "quality": "unverified",
    "sources": [
      "TBD"
    ]
  },
  "geometry": {
    "type": "Polygon",
    "coordinates": [
      [
        [85.04526, 25.22497],
        [85.05225, 25.22432],
        [85.05461, 25.21595],
        [85.0656, 25.21226],
        [85.06652, 25.20744],
        [85.07543, 25.20676],
        [85.07503, 25.19115],
        [85.06745, 25.18416],
        [85.0689, 25.17487],
        [85.09224, 25.17106],
        [85.1011, 25.15543],
        [85.07791, 25.15194],
        [85.08056, 25.13837],
        [85.06859, 25.12505],
        [85.06241, 25.12694],
        [85.06047, 25.10762],
        [85.05676, 25.10575],
        [85.06077, 25.07179],
        [85.07526, 25.06816],
        [85.0633, 25.05355],
        [85.07807, 25.05296],
        [85.08123, 25.04095],
        [85.09863, 25.04172],
        [85.0947, 25.03313],
        [85.08344, 25.02683],
        [85.09181, 24.99529],
        [85.08818, 24.99186],
        [85.07678, 24.99289],
        [85.06643, 25.00257],
        [85.04892, 24.99757],
        [85.04397, 25.00417],
        [85.04312, 25.03082],
        [85.0341, 25.03224],
        [85.02516, 25.03045],
        [85.02191, 25.01881],
        [85.02532, 25.0178],
        [85.02175, 25.01726],
        [84.99116, 25.02585],
        [84.99372, 25.0122],
        [84.98523, 25.00931],
        [84.98344, 25.00295],
        [84.96635, 25.00517],
        [84.9563, 24.99497],
        [84.95622, 24.98739],
        [84.93467, 24.98674],
        [84.92768, 24.99538],
        [84.93156, 25.00061],
        [84.92834, 25.01567],
        [84.92164, 25.01774],
        [84.92141, 25.02345],
        [84.9085, 25.02626],
        [84.90915, 25.03536],
        [84.91955, 25.03845],
        [84.9266, 25.05503],
        [84.91963, 25.06071],
        [84.90864, 25.0605],
        [84.9098, 25.06602],
        [84.90639, 25.06585],
        [84.90942, 25.08302],
        [84.90384, 25.09143],
        [84.89849, 25.09149],
        [84.89723, 25.10454],
        [84.90511, 25.11679],
        [84.90127, 25.12268],
        [84.9081, 25.1252],
        [84.90211, 25.13514],
        [84.90938, 25.13379],
        [84.9112, 25.14079],
        [84.91832, 25.14136],
        [84.9204, 25.13708],
        [84.93256, 25.13853],
        [84.97084, 25.13146],
        [84.97287, 25.13488],
        [84.96706, 25.1404],
        [84.97259, 25.14299],
        [84.98073, 25.16624],
        [84.9937, 25.17118],
        [84.99753, 25.19473],
        [85.01886, 25.20205],
        [85.01968, 25.21593],
        [85.02908, 25.21874],
        [85.02989, 25.22376],
        [85.04526, 25.22497]
      ]
    ]
  }
}
