{
  "type": "Feature",
  "id": "BR-AC-236",
  "properties": {
    "stateName": "BIHAR",
    "stateCode": "BR",
    "districtName": "NAWADA",
    "acNo": 236,
    "acName": "Hisua",
    "seatType": null,
    "pcNo": 39,
    "pcName": "NAWADA",
    "quality": "unverified",
    "sources": [
      "TBD"
    ]
  },
  "geometry": {
    "type": "Polygon",
    "coordinates": [
      [
        [85.3749, 24.8947],
        [85.37851, 24.88393],
        [85.39343, 24.87853],
        [85.40667, 24.88447],
        [85.40178, 24.89539],
        [85.40712, 24.8988],
        [85.41502, 24.89776],
        [85.41681, 24.89294],
        [85.42918, 24.89288],
        [85.43015, 24.88754],
        [85.4376, 24.88552],
        [85.44478, 24.89508],
        [85.45538, 24.8932],
        [85.45794, 24.90294],
        [85.4675, 24.90112],
        [85.477, 24.89338],
        [85.47613, 24.8779],
        [85.48763, 24.87295],
        [85.4857, 24.86277],
        [85.50717, 24.86335],
        [85.5095, 24.86944],
        [85.53237, 24.86304],
        [85.53446, 24.86804],
        [85.54424, 24.86808],
        [85.54679, 24.87434],
        [85.57037, 24.85375],
        [85.5727, 24.86385],
        [85.58552, 24.87236],
        [85.59746, 24.8629],
        [85.61503, 24.81289],
        [85.60141, 24.80839],
        [85.6072, 24.79349],
        [85.58193, 24.78158],
        [85.58568, 24.77021],
        [85.60125, 24.77019],
        [85.59968, 24.75716],
        [85.59248, 24.75343],
        [85.59766, 24.74336],
        [85.58331, 24.7411],
        [85.5927, 24.73403],
        [85.59513, 24.72502],
        [85.60581, 24.7223],
        [85.59664, 24.71709],
        [85.60098, 24.70698],
        [85.59782, 24.70227],
        [85.5854, 24.6984],
        [85.5535, 24.70074],
        [85.52603, 24.72305],
        [85.51439, 24.72286],
        [85.51428, 24.72834],
        [85.50751, 24.72754],
        [85.50327, 24.73577],
        [85.49137, 24.7346],
        [85.46443, 24.74899],
        [85.46812, 24.7626],
        [85.45085, 24.76262],
        [85.45508, 24.75522],
        [85.45304, 24.74565],
        [85.4412, 24.74484],
        [85.44456, 24.72948],
        [85.424, 24.72936],
        [85.41966, 24.74545],
        [85.40899, 24.75384],
        [85.41248, 24.7567],
        [85.411, 24.7692],
        [85.41698, 24.77057],
        [85.41451, 24.78531],
        [85.39994, 24.78415],
        [85.40088, 24.79296],
        [85.3855, 24.79585],
        [85.3955, 24.83218],
        [85.38732, 24.83606],
        [85.37819, 24.83645],
        [85.38437, 24.83502],
        [85.37803, 24.8309],
        [85.37724, 24.8234],
        [85.36388, 24.81553],
        [85.34036, 24.81838],
        [85.33929, 24.79408],
        [85.32267, 24.79892],
        [85.30009, 24.78673],
        [85.29462, 24.7897],
        [85.30386, 24.80745],
        [85.30441, 24.82807],
        [85.32017, 24.83904],
        [85.3213, 24.85756],
        [85.33813, 24.85873],
        [85.33934, 24.86664],
        [85.33382, 24.86998],
        [85.33061, 24.88125],
        [85.34165, 24.88686],
        [85.36344, 24.88034],
        [85.36478, 24.89244],
        [85.3749, 24.8947]
      ]
    ]
  }
}
