{
  "type": "Feature",
  "id": "BR-AC-29",
  "properties": {
    "stateName": "BIHAR",
    "stateCode": "BR",
    "districtName": "SITAMARHI",
    "acNo": 29,
    "acName": "Runnisaidpur",
    "seatType": null,
    "pcNo": 5,
    "pcName": "SITAMARHI",
    "quality": "unverified",
    "sources": [
      "TBD"
    ]
  },
  "geometry": {
    "type": "Polygon",
    "coordinates": [
      [
        [85.50277, 26.49125],
        [85.51918, 26.48659],
        [85.52151, 26.49053],
        [85.53577, 26.48981],
        [85.53779, 26.49639],
        [85.54999, 26.48907],
        [85.55059, 26.47928],
        [85.56215, 26.47066],
        [85.58681, 26.47327],
        [85.59439, 26.46358],
        [85.58406, 26.42811],
        [85.61425, 26.42357],
        [85.60826, 26.42029],
        [85.60995, 26.4095],
        [85.61595, 26.40551],
        [85.63192, 26.40659],
        [85.64159, 26.39244],
        [85.63932, 26.382],
        [85.6319, 26.38363],
        [85.61603, 26.37109],
        [85.61171, 26.37609],
        [85.60296, 26.37606],
        [85.59966, 26.36511],
        [85.59021, 26.36746],
        [85.58781, 26.35932],
        [85.57548, 26.36176],
        [85.57302, 26.3661],
        [85.58216, 26.38322],
        [85.57964, 26.39309],
        [85.56545, 26.38444],
        [85.55729, 26.38506],
        [85.54976, 26.37121],
        [85.53272, 26.37069],
        [85.53157, 26.37856],
        [85.52088, 26.37403],
        [85.50442, 26.3808],
        [85.50005, 26.37475],
        [85.50103, 26.36215],
        [85.49487, 26.36248],
        [85.49338, 26.35422],
        [85.48627, 26.35406],
        [85.47916, 26.34647],
        [85.47815, 26.33496],
        [85.46619, 26.3325],
        [85.47117, 26.32688],
        [85.46265, 26.31991],
        [85.46148, 26.30092],
        [85.4563, 26.3012],
        [85.45309, 26.29074],
        [85.44824, 26.29097],
        [85.43979, 26.27246],
        [85.43742, 26.26925],
        [85.44076, 26.28342],
        [85.42047, 26.27184],
        [85.42657, 26.27691],
        [85.42625, 26.29193],
        [85.41194, 26.27145],
        [85.40288, 26.28865],
        [85.4111, 26.28904],
        [85.40701, 26.29292],
        [85.39223, 26.27964],
        [85.39186, 26.28982],
        [85.40295, 26.2951],
        [85.39884, 26.30507],
        [85.41199, 26.30085],
        [85.41505, 26.30448],
        [85.40947, 26.31822],
        [85.40166, 26.31778],
        [85.39693, 26.31012],
        [85.3872, 26.32395],
        [85.38128, 26.32204],
        [85.38728, 26.32067],
        [85.39338, 26.307],
        [85.37536, 26.31326],
        [85.37266, 26.33509],
        [85.37942, 26.33632],
        [85.37941, 26.34946],
        [85.38525, 26.3544],
        [85.37396, 26.35912],
        [85.37408, 26.36512],
        [85.36188, 26.36585],
        [85.36521, 26.37902],
        [85.40377, 26.38595],
        [85.40884, 26.38047],
        [85.42119, 26.38115],
        [85.43709, 26.39969],
        [85.44925, 26.40261],
        [85.44487, 26.41698],
        [85.42872, 26.41745],
        [85.42101, 26.43515],
        [85.42788, 26.44119],
        [85.428, 26.45153],
        [85.43603, 26.4518],
        [85.4456, 26.44508],
        [85.45557, 26.45555],
        [85.46222, 26.45564],
        [85.45494, 26.466],
        [85.45873, 26.48065],
        [85.46541, 26.48258],
        [85.4724, 26.49754],
        [85.47884, 26.49073],
        [85.49054, 26.495],
        [85.49614, 26.50348],
        [85.50277, 26.49125]
      ]
    ]
  }
}
