{
  "type": "Feature",
  "id": "BR-AC-4",
  "properties": {
    "stateName": "BIHAR",
    "stateCode": "BR",
    "districtName": "PASHCHIM CHAMPARAN",
    "acNo": 4,
    "acName": "Bagaha",
    "seatType": null,
    "pcNo": 1,
    "pcName": "VALMIKI NAGAR",
    "quality": "unverified",
    "sources": [
      "TBD"
    ]
  },
  "geometry": {
    "type": "Polygon",
    "coordinates": [
      [
        [84.2219, 27.27492],
        [84.2215, 27.26772],
        [84.21117, 27.26456],
        [84.20966, 27.25358],
        [84.21848, 27.24377],
        [84.22045, 27.22342],
        [84.23002, 27.21134],
        [84.2305, 27.19849],
        [84.23549, 27.19303],
        [84.23417, 27.17868],
        [84.247, 27.16404],
        [84.2542, 27.166],
        [84.25652, 27.17296],
        [84.25359, 27.18672],
        [84.26494, 27.1867],
        [84.27105, 27.18162],
        [84.2689, 27.16835],
        [84.27245, 27.16609],
        [84.2678, 27.15532],
        [84.27319, 27.152],
        [84.27529, 27.13577],
        [84.28111, 27.12386],
        [84.29517, 27.12043],
        [84.29308, 27.11091],
        [84.30959, 27.09584],
        [84.30221, 27.09428],
        [84.29997, 27.0733],
        [84.30478, 27.06312],
        [84.31421, 27.04052],
        [84.31968, 27.04437],
        [84.32032, 27.03826],
        [84.32835, 27.03526],
        [84.3357, 27.0381],
        [84.33997, 27.03387],
        [84.33485, 27.02128],
        [84.34038, 27.01573],
        [84.32728, 27.01247],
        [84.32448, 27.00024],
        [84.32338, 26.99384],
        [84.33105, 26.98107],
        [84.32461, 26.97152],
        [84.30943, 26.97736],
        [84.29945, 26.95628],
        [84.30864, 26.93662],
        [84.28748, 26.93969],
        [84.28355, 26.94397],
        [84.23893, 26.96911],
        [84.22318, 26.98285],
        [84.19378, 26.98472],
        [84.19034, 26.97793],
        [84.18741, 26.98522],
        [84.19233, 26.98823],
        [84.19407, 26.99851],
        [84.17526, 27.00536],
        [84.17404, 27.01416],
        [84.18213, 27.02068],
        [84.17181, 27.02675],
        [84.17618, 27.03375],
        [84.16141, 27.03546],
        [84.15967, 27.04906],
        [84.1323, 27.04123],
        [84.11154, 27.06497],
        [84.0833, 27.0727],
        [84.05961, 27.09081],
        [84.06751, 27.11545],
        [84.07867, 27.11108],
        [84.09703, 27.12431],
        [84.10655, 27.11887],
        [84.11504, 27.12473],
        [84.11723, 27.13573],
        [84.1267, 27.14031],
        [84.11813, 27.15196],
        [84.12488, 27.15199],
        [84.12793, 27.16068],
        [84.11747, 27.16563],
        [84.11456, 27.17464],
        [84.11718, 27.18177],
        [84.13421, 27.18343],
        [84.14055, 27.20463],
        [84.13216, 27.20987],
        [84.1417, 27.22956],
        [84.15534, 27.23444],
        [84.16852, 27.25954],
        [84.18344, 27.26362],
        [84.18703, 27.27607],
        [84.2219, 27.27492]
      ]
    ]
  }
}
