{
  "type": "Feature",
  "id": "BR-AC-41",
  "properties": {
    "stateName": "BIHAR",
    "stateCode": "BR",
    "districtName": "SUPAUL",
    "acNo": 41,
    "acName": "Nirmali",
    "seatType": null,
    "pcNo": 8,
    "pcName": "SUPAUL",
    "quality": "unverified",
    "sources": [
      "TBD"
    ]
  },
  "geometry": {
    "type": "Polygon",
    "coordinates": [
      [
        [86.72495, 26.42658],
        [86.73021, 26.42247],
        [86.74661, 26.42859],
        [86.74427, 26.43531],
        [86.76653, 26.45883],
        [86.83307, 26.43941],
        [86.83434, 26.41935],
        [86.82936, 26.41701],
        [86.8252, 26.40464],
        [86.83223, 26.39477],
        [86.82938, 26.39056],
        [86.83677, 26.38745],
        [86.84122, 26.37736],
        [86.84551, 26.37964],
        [86.84868, 26.37449],
        [86.8563, 26.38574],
        [86.86496, 26.38392],
        [86.87251, 26.40531],
        [86.87676, 26.40461],
        [86.87029, 26.41234],
        [86.87371, 26.42023],
        [86.90091, 26.42651],
        [86.90706, 26.42524],
        [86.90432, 26.41705],
        [86.9215, 26.41321],
        [86.92482, 26.41933],
        [86.93267, 26.41562],
        [86.94109, 26.38779],
        [86.97387, 26.38934],
        [86.97604, 26.37061],
        [86.96346, 26.37152],
        [86.9638, 26.36531],
        [86.97025, 26.36272],
        [86.96798, 26.35949],
        [86.93397, 26.35938],
        [86.93059, 26.36875],
        [86.92283, 26.36996],
        [86.91805, 26.3592],
        [86.91884, 26.34014],
        [86.9149, 26.34114],
        [86.91372, 26.33632],
        [86.91486, 26.32484],
        [86.90243, 26.32527],
        [86.90289, 26.33178],
        [86.8989, 26.33042],
        [86.89509, 26.32045],
        [86.9044, 26.31547],
        [86.88792, 26.30355],
        [86.89439, 26.29401],
        [86.89533, 26.27642],
        [86.90086, 26.27076],
        [86.89556, 26.24327],
        [86.91252, 26.24402],
        [86.91442, 26.23227],
        [86.90169, 26.21952],
        [86.89572, 26.20098],
        [86.89072, 26.22129],
        [86.87458, 26.22902],
        [86.86325, 26.22586],
        [86.8519, 26.22481],
        [86.84769, 26.23226],
        [86.83401, 26.23611],
        [86.79155, 26.22955],
        [86.79427, 26.23909],
        [86.7884, 26.24963],
        [86.79608, 26.26388],
        [86.7884, 26.27359],
        [86.76981, 26.27093],
        [86.75649, 26.27587],
        [86.74412, 26.27059],
        [86.74567, 26.26401],
        [86.73837, 26.25012],
        [86.70757, 26.26108],
        [86.6986, 26.25848],
        [86.69563, 26.24864],
        [86.68859, 26.25113],
        [86.68587, 26.24694],
        [86.6815, 26.26214],
        [86.68867, 26.27318],
        [86.68292, 26.27748],
        [86.67601, 26.27948],
        [86.67067, 26.27393],
        [86.66284, 26.27544],
        [86.6538, 26.27031],
        [86.65059, 26.27487],
        [86.6537, 26.2798],
        [86.6308, 26.28242],
        [86.63955, 26.2904],
        [86.64726, 26.28907],
        [86.64776, 26.29593],
        [86.65388, 26.29539],
        [86.66085, 26.30728],
        [86.64752, 26.29862],
        [86.64583, 26.31046],
        [86.61899, 26.31151],
        [86.62236, 26.32805],
        [86.61119, 26.31934],
        [86.61397, 26.30845],
        [86.57379, 26.29891],
        [86.56206, 26.30588],
        [86.56646, 26.31867],
        [86.57832, 26.32053],
        [86.58662, 26.33403],
        [86.59817, 26.33403],
        [86.59952, 26.34258],
        [86.6323, 26.33293],
        [86.63089, 26.3395],
        [86.6416, 26.3509],
        [86.63941, 26.35469],
        [86.65652, 26.36226],
        [86.65533, 26.36642],
        [86.66304, 26.36784],
        [86.67244, 26.36136],
        [86.67945, 26.36924],
        [86.68232, 26.36614],
        [86.68773, 26.3702],
        [86.70432, 26.36808],
        [86.70358, 26.37879],
        [86.70967, 26.37829],
        [86.70448, 26.38644],
        [86.71048, 26.38733],
        [86.72495, 26.42658]
      ]
    ]
  }
}
