{
  "type": "Feature",
  "id": "BR-AC-43",
  "properties": {
    "stateName": "BIHAR",
    "stateCode": "BR",
    "districtName": "SUPAUL",
    "acNo": 43,
    "acName": "Supaul",
    "seatType": null,
    "pcNo": 8,
    "pcName": "SUPAUL",
    "quality": "unverified",
    "sources": [
      "TBD"
    ]
  },
  "geometry": {
    "type": "Polygon",
    "coordinates": [
      [
        [86.61156, 26.30474],
        [86.60512, 26.28849],
        [86.59807, 26.28872],
        [86.58638, 26.27165],
        [86.58951, 26.25742],
        [86.60732, 26.25675],
        [86.612, 26.26176],
        [86.60416, 26.24831],
        [86.60626, 26.2235],
        [86.60255, 26.22469],
        [86.60147, 26.21804],
        [86.59144, 26.21674],
        [86.58543, 26.20863],
        [86.58147, 26.2085],
        [86.58351, 26.21314],
        [86.57852, 26.22009],
        [86.5755, 26.21012],
        [86.56433, 26.20874],
        [86.56763, 26.1929],
        [86.55361, 26.17609],
        [86.55737, 26.17176],
        [86.56901, 26.17086],
        [86.56747, 26.16092],
        [86.58919, 26.16075],
        [86.5907, 26.15449],
        [86.6042, 26.17197],
        [86.61158, 26.15833],
        [86.62957, 26.15271],
        [86.63903, 26.14122],
        [86.62681, 26.13344],
        [86.62412, 26.12559],
        [86.62795, 26.11119],
        [86.61873, 26.10696],
        [86.6087, 26.09292],
        [86.59852, 26.09429],
        [86.59254, 26.08335],
        [86.59861, 26.08156],
        [86.59759, 26.07541],
        [86.60691, 26.06392],
        [86.62106, 26.06539],
        [86.6379, 26.05569],
        [86.65632, 26.06642],
        [86.67351, 26.06273],
        [86.67246, 26.05208],
        [86.66258, 26.04228],
        [86.672, 26.03005],
        [86.69228, 26.02754],
        [86.69372, 26.02128],
        [86.67326, 26.01587],
        [86.64794, 26.02034],
        [86.6346, 26.02303],
        [86.61344, 26.01625],
        [86.55896, 26.02692],
        [86.55263, 26.00998],
        [86.53918, 26.0071],
        [86.53088, 25.99077],
        [86.52914, 25.99514],
        [86.52004, 25.99443],
        [86.51611, 26.00689],
        [86.50205, 26.01405],
        [86.49909, 26.02184],
        [86.50021, 26.02912],
        [86.51367, 26.03807],
        [86.51754, 26.05606],
        [86.48276, 26.04853],
        [86.46774, 26.05456],
        [86.47369, 26.06275],
        [86.46499, 26.07112],
        [86.44093, 26.06822],
        [86.44081, 26.07388],
        [86.44314, 26.09105],
        [86.44984, 26.09916],
        [86.45564, 26.09606],
        [86.45976, 26.10458],
        [86.46497, 26.10255],
        [86.47114, 26.11908],
        [86.47806, 26.12435],
        [86.49404, 26.12545],
        [86.51504, 26.11732],
        [86.53389, 26.13524],
        [86.54039, 26.15101],
        [86.53345, 26.15684],
        [86.51899, 26.15876],
        [86.51238, 26.16628],
        [86.50945, 26.15695],
        [86.48901, 26.15537],
        [86.4879, 26.1503],
        [86.47423, 26.14631],
        [86.46172, 26.15658],
        [86.45753, 26.17033],
        [86.45291, 26.16859],
        [86.45083, 26.15765],
        [86.43668, 26.15604],
        [86.43981, 26.1639],
        [86.43339, 26.1647],
        [86.43509, 26.15672],
        [86.42242, 26.1579],
        [86.42046, 26.16946],
        [86.40486, 26.16965],
        [86.41283, 26.18736],
        [86.40495, 26.20219],
        [86.41194, 26.20348],
        [86.41122, 26.19749],
        [86.43109, 26.19352],
        [86.44161, 26.20134],
        [86.44627, 26.22353],
        [86.45198, 26.22234],
        [86.45114, 26.21375],
        [86.45738, 26.21172],
        [86.4753, 26.21081],
        [86.4799, 26.21702],
        [86.49961, 26.21504],
        [86.50414, 26.22302],
        [86.51522, 26.21825],
        [86.52258, 26.23208],
        [86.51825, 26.24727],
        [86.52153, 26.25503],
        [86.50549, 26.25564],
        [86.50786, 26.27586],
        [86.52328, 26.27736],
        [86.53554, 26.3029],
        [86.56206, 26.30588],
        [86.57379, 26.29891],
        [86.61397, 26.30845],
        [86.61156, 26.30474]
      ]
    ]
  }
}
