{
  "type": "Feature",
  "id": "BR-AC-67",
  "properties": {
    "stateName": "BIHAR",
    "stateCode": "BR",
    "districtName": "KATIHAR",
    "acNo": 67,
    "acName": "Manihari (ST)",
    "seatType": null,
    "pcNo": 11,
    "pcName": "KATIHAR",
    "quality": "unverified",
    "sources": [
      "TBD"
    ]
  },
  "geometry": {
    "type": "Polygon",
    "coordinates": [
      [
        [87.76384, 25.40709],
        [87.76384, 25.40709],
        [87.76385, 25.40706],
        [87.77216, 25.40361],
        [87.76553, 25.38845],
        [87.76878, 25.37925],
        [87.77843, 25.37295],
        [87.79231, 25.37339],
        [87.78656, 25.33869],
        [87.79482, 25.32571],
        [87.81502, 25.3207],
        [87.83809, 25.30194],
        [87.85412, 25.29733],
        [87.8602, 25.28675],
        [87.8593, 25.27181],
        [87.85179, 25.26248],
        [87.85566, 25.25581],
        [87.84146, 25.25052],
        [87.82709, 25.23502],
        [87.83964, 25.20176],
        [87.8392, 25.20194],
        [87.80373, 25.21898],
        [87.77329, 25.22146],
        [87.77907, 25.247],
        [87.71186, 25.25766],
        [87.7117, 25.27466],
        [87.69329, 25.28493],
        [87.69875, 25.30388],
        [87.68508, 25.30591],
        [87.68447, 25.30966],
        [87.6923, 25.31148],
        [87.67336, 25.31272],
        [87.67534, 25.30692],
        [87.66431, 25.31112],
        [87.65506, 25.30745],
        [87.63681, 25.31308],
        [87.63046, 25.31967],
        [87.62713, 25.31148],
        [87.61747, 25.31808],
        [87.61212, 25.31253],
        [87.59231, 25.32232],
        [87.58418, 25.3312],
        [87.59171, 25.34187],
        [87.5841, 25.34913],
        [87.57101, 25.33315],
        [87.55176, 25.3324],
        [87.54141, 25.33052],
        [87.52705, 25.34248],
        [87.53003, 25.34754],
        [87.5264, 25.35612],
        [87.52569, 25.34812],
        [87.51495, 25.35338],
        [87.50082, 25.35139],
        [87.48707, 25.36906],
        [87.50138, 25.36741],
        [87.49755, 25.38881],
        [87.50501, 25.38391],
        [87.5087, 25.40413],
        [87.53309, 25.40317],
        [87.53829, 25.41962],
        [87.53172, 25.43253],
        [87.53859, 25.44891],
        [87.53636, 25.46837],
        [87.54388, 25.47833],
        [87.54945, 25.50761],
        [87.55575, 25.49667],
        [87.56205, 25.50503],
        [87.55742, 25.50536],
        [87.55504, 25.5126],
        [87.57468, 25.5102],
        [87.58157, 25.50031],
        [87.57606, 25.48976],
        [87.59985, 25.48339],
        [87.6113, 25.48846],
        [87.61011, 25.4944],
        [87.6182, 25.49868],
        [87.6177, 25.5034],
        [87.62621, 25.50034],
        [87.62441, 25.49713],
        [87.62942, 25.49849],
        [87.63492, 25.51164],
        [87.64406, 25.51114],
        [87.64805, 25.50421],
        [87.66298, 25.50142],
        [87.66238, 25.4941],
        [87.66727, 25.49019],
        [87.66278, 25.47949],
        [87.66847, 25.46725],
        [87.65963, 25.46848],
        [87.64691, 25.4608],
        [87.64851, 25.45569],
        [87.65883, 25.4529],
        [87.66693, 25.4408],
        [87.67154, 25.44533],
        [87.68156, 25.43914],
        [87.6967, 25.4216],
        [87.71269, 25.42269],
        [87.71953, 25.42878],
        [87.73179, 25.42578],
        [87.73454, 25.41693],
        [87.73983, 25.41705],
        [87.73982, 25.42732],
        [87.74275, 25.42217],
        [87.73943, 25.4069],
        [87.74907, 25.40671],
        [87.75115, 25.41124],
        [87.76384, 25.40709]
      ]
    ]
  }
}
