{
  "type": "Feature",
  "id": "BR-AC-7",
  "properties": {
    "stateName": "BIHAR",
    "stateCode": "BR",
    "districtName": "PASHCHIM CHAMPARAN",
    "acNo": 7,
    "acName": "Chanpatia",
    "seatType": null,
    "pcNo": 2,
    "pcName": "PASCHIM CHAMPARAN",
    "quality": "unverified",
    "sources": [
      "TBD"
    ]
  },
  "geometry": {
    "type": "Polygon",
    "coordinates": [
      [
        [84.57668, 26.95297],
        [84.58292, 26.95224],
        [84.58981, 26.96369],
        [84.58814, 26.96945],
        [84.59779, 26.97293],
        [84.6069, 26.954],
        [84.6265, 26.95064],
        [84.63081, 26.94581],
        [84.62454, 26.92331],
        [84.61753, 26.92059],
        [84.61458, 26.9118],
        [84.62292, 26.90993],
        [84.62686, 26.91483],
        [84.63311, 26.91186],
        [84.62948, 26.89546],
        [84.63336, 26.89173],
        [84.63752, 26.89401],
        [84.64094, 26.88052],
        [84.64767, 26.87767],
        [84.65927, 26.88701],
        [84.65834, 26.87812],
        [84.67034, 26.87818],
        [84.67331, 26.87172],
        [84.67474, 26.88411],
        [84.68112, 26.88978],
        [84.68594, 26.89376],
        [84.6898, 26.87654],
        [84.70225, 26.87441],
        [84.7036, 26.86699],
        [84.71879, 26.85613],
        [84.71097, 26.85469],
        [84.7194, 26.84755],
        [84.71653, 26.8413],
        [84.72671, 26.84892],
        [84.7282, 26.84301],
        [84.73339, 26.84338],
        [84.73152, 26.83621],
        [84.73524, 26.83371],
        [84.72575, 26.8337],
        [84.72622, 26.82487],
        [84.71993, 26.82511],
        [84.7032, 26.81297],
        [84.69962, 26.81762],
        [84.69174, 26.81415],
        [84.6868, 26.81672],
        [84.68326, 26.8015],
        [84.65562, 26.78578],
        [84.65054, 26.78763],
        [84.63855, 26.77111],
        [84.62359, 26.77021],
        [84.61872, 26.77375],
        [84.61979, 26.78064],
        [84.62868, 26.78051],
        [84.62606, 26.79316],
        [84.63314, 26.81049],
        [84.62105, 26.81508],
        [84.60787, 26.81781],
        [84.61255, 26.83869],
        [84.60381, 26.84385],
        [84.58832, 26.80958],
        [84.58068, 26.8159],
        [84.57403, 26.81079],
        [84.5602, 26.81416],
        [84.55659, 26.82557],
        [84.53991, 26.82153],
        [84.53929, 26.81004],
        [84.52836, 26.80888],
        [84.52548, 26.81412],
        [84.51851, 26.81375],
        [84.51805, 26.8178],
        [84.50133, 26.82575],
        [84.49392, 26.81052],
        [84.48578, 26.81449],
        [84.4792, 26.81174],
        [84.47417, 26.81049],
        [84.46711, 26.8176],
        [84.45748, 26.81691],
        [84.45293, 26.81195],
        [84.42904, 26.81867],
        [84.43421, 26.84125],
        [84.44373, 26.85891],
        [84.42787, 26.86874],
        [84.43237, 26.87631],
        [84.44205, 26.87618],
        [84.44011, 26.88655],
        [84.44806, 26.89041],
        [84.44267, 26.89294],
        [84.44772, 26.90242],
        [84.43478, 26.90299],
        [84.43906, 26.91954],
        [84.43626, 26.93164],
        [84.43157, 26.93542],
        [84.42663, 26.93147],
        [84.42869, 26.95389],
        [84.43644, 26.9676],
        [84.45694, 26.97287],
        [84.47813, 26.97039],
        [84.48578, 26.97897],
        [84.48778, 26.96339],
        [84.49787, 26.97038],
        [84.49963, 26.96779],
        [84.51029, 26.97189],
        [84.50897, 26.96039],
        [84.51412, 26.95318],
        [84.53129, 26.95496],
        [84.53885, 26.96031],
        [84.54386, 26.95505],
        [84.56283, 26.95493],
        [84.56377, 26.96096],
        [84.57668, 26.95297]
      ]
    ]
  }
}
