{
  "type": "Feature",
  "id": "BR-AC-86",
  "properties": {
    "stateName": "BIHAR",
    "stateCode": "BR",
    "districtName": "DARBHANGA",
    "acNo": 86,
    "acName": "Keoti",
    "seatType": null,
    "pcNo": 6,
    "pcName": "MADHUBANI",
    "quality": "unverified",
    "sources": [
      "TBD"
    ]
  },
  "geometry": {
    "type": "Polygon",
    "coordinates": [
      [
        [85.99747, 26.30938],
        [86.01326, 26.30169],
        [85.99786, 26.28589],
        [86.00377, 26.26897],
        [85.9999, 26.26231],
        [86.01272, 26.25784],
        [86.01427, 26.24797],
        [86.00864, 26.24829],
        [86.00854, 26.24004],
        [85.96682, 26.24403],
        [85.96766, 26.23908],
        [85.95996, 26.23475],
        [85.94973, 26.24349],
        [85.95038, 26.23108],
        [85.94103, 26.2194],
        [85.92291, 26.20947],
        [85.90803, 26.19306],
        [85.88846, 26.19975],
        [85.88884, 26.20977],
        [85.8793, 26.20979],
        [85.87713, 26.20569],
        [85.85366, 26.21091],
        [85.84508, 26.20433],
        [85.8266, 26.20559],
        [85.81336, 26.21052],
        [85.81149, 26.21922],
        [85.8066, 26.22025],
        [85.81164, 26.19871],
        [85.79527, 26.20277],
        [85.7926, 26.19713],
        [85.802, 26.19875],
        [85.80583, 26.19363],
        [85.80538, 26.18948],
        [85.7952, 26.18813],
        [85.7957, 26.18083],
        [85.80145, 26.17728],
        [85.79973, 26.16335],
        [85.78215, 26.16487],
        [85.78666, 26.15582],
        [85.81458, 26.14437],
        [85.81741, 26.13717],
        [85.80163, 26.12864],
        [85.79286, 26.13125],
        [85.78156, 26.1257],
        [85.7735, 26.09564],
        [85.76748, 26.10351],
        [85.74365, 26.1111],
        [85.73791, 26.10272],
        [85.71323, 26.09467],
        [85.71628, 26.10882],
        [85.73462, 26.10768],
        [85.72662, 26.11282],
        [85.72811, 26.12551],
        [85.73893, 26.12709],
        [85.74702, 26.13503],
        [85.75209, 26.14496],
        [85.74878, 26.15049],
        [85.76207, 26.15802],
        [85.7624, 26.16685],
        [85.75486, 26.16765],
        [85.75588, 26.17754],
        [85.77516, 26.18513],
        [85.77739, 26.19066],
        [85.76982, 26.20055],
        [85.76385, 26.1978],
        [85.75043, 26.20198],
        [85.75339, 26.20696],
        [85.76763, 26.20995],
        [85.76596, 26.22079],
        [85.77287, 26.21914],
        [85.77605, 26.22385],
        [85.77491, 26.23579],
        [85.76261, 26.24631],
        [85.76297, 26.25184],
        [85.78865, 26.25698],
        [85.79212, 26.26957],
        [85.80157, 26.26608],
        [85.80618, 26.27607],
        [85.81636, 26.27825],
        [85.8192, 26.28657],
        [85.82481, 26.28831],
        [85.84042, 26.27953],
        [85.84433, 26.28323],
        [85.85525, 26.27823],
        [85.86664, 26.28236],
        [85.8819, 26.27419],
        [85.88294, 26.27809],
        [85.89822, 26.2788],
        [85.90281, 26.28586],
        [85.9197, 26.28394],
        [85.9194, 26.30934],
        [85.92817, 26.30443],
        [85.93851, 26.30962],
        [85.96194, 26.3057],
        [85.96909, 26.30809],
        [85.97908, 26.32301],
        [85.99144, 26.32166],
        [85.99747, 26.30938]
      ]
    ]
  }
}
