{
  "type": "Feature",
  "id": "BR-AC-93",
  "properties": {
    "stateName": "BIHAR",
    "stateCode": "BR",
    "districtName": "MUZAFFARPUR",
    "acNo": 93,
    "acName": "Kurhani",
    "seatType": null,
    "pcNo": 15,
    "pcName": "MUZAFFARPUR",
    "quality": "unverified",
    "sources": [
      "TBD"
    ]
  },
  "geometry": {
    "type": "Polygon",
    "coordinates": [
      [
        [85.31058, 26.10749],
        [85.32408, 26.10096],
        [85.32181, 26.08985],
        [85.33228, 26.09398],
        [85.34792, 26.08463],
        [85.36061, 26.08733],
        [85.37593, 26.08624],
        [85.38153, 26.08155],
        [85.3847, 26.08922],
        [85.39091, 26.08808],
        [85.40352, 26.08134],
        [85.39537, 26.07466],
        [85.4147, 26.06825],
        [85.41507, 26.06061],
        [85.44104, 26.06324],
        [85.45344, 26.0506],
        [85.45605, 26.05487],
        [85.45948, 26.04551],
        [85.47327, 26.04372],
        [85.47652, 26.04971],
        [85.48487, 26.04899],
        [85.48947, 26.03959],
        [85.48502, 26.02775],
        [85.47797, 26.02664],
        [85.47592, 26.02153],
        [85.46486, 26.02096],
        [85.46257, 26.0132],
        [85.44639, 26.00312],
        [85.45211, 26.00045],
        [85.44622, 25.98001],
        [85.44906, 25.972],
        [85.44434, 25.95653],
        [85.43411, 25.94659],
        [85.42986, 25.9477],
        [85.42679, 25.938],
        [85.42652, 25.93799],
        [85.40893, 25.94485],
        [85.40202, 25.93325],
        [85.39224, 25.93594],
        [85.38779, 25.93072],
        [85.37096, 25.93249],
        [85.36415, 25.94075],
        [85.35105, 25.94363],
        [85.3341, 25.95445],
        [85.31529, 25.94584],
        [85.28596, 25.94996],
        [85.2836, 25.95508],
        [85.28899, 25.96114],
        [85.29367, 25.99819],
        [85.28198, 26.00525],
        [85.28511, 26.01211],
        [85.28458, 26.01771],
        [85.27081, 26.02477],
        [85.27885, 26.02685],
        [85.2845, 26.04575],
        [85.27276, 26.03816],
        [85.2593, 26.05101],
        [85.26772, 26.0564],
        [85.28345, 26.05768],
        [85.29042, 26.0682],
        [85.28149, 26.07197],
        [85.28177, 26.07577],
        [85.29188, 26.07559],
        [85.29432, 26.08662],
        [85.28961, 26.08942],
        [85.29082, 26.09551],
        [85.29777, 26.10427],
        [85.31058, 26.10749]
      ]
    ]
  }
}
