{
  "type": "Feature",
  "id": "AN-AC-1",
  "properties": {
    "stateName": "ANDAMAN AND NICOBAR ISLANDS",
    "stateCode": "AN",
    "districtName": "ANDAMAN AND NICOBAR ISLANDS",
    "acNo": 1,
    "acName": "Andaman and Nicobar Islands",
    "seatType": "LOK_SABHA",
    "pcNo": 1,
    "pcName": "Andaman and Nicobar Islands",
    "quality": "unverified",
    "sources": [
      "TBD"
    ]
  },
  "geometry": {
    "type": "Polygon",
    "coordinates": [
      [
        [92.7957, 12.86207],
        [92.7955, 12.86183],
        [92.82203, 12.85976],
        [92.84263, 12.85818],
        [92.86357, 12.86039],
        [92.87826, 12.87646],
        [92.88581, 12.8969],
        [92.89149, 12.91748],
        [92.907, 12.92203],
        [92.92538, 12.9168],
        [92.92221, 12.88264],
        [92.92233, 12.86353],
        [92.93929, 12.84313],
        [92.94877, 12.82331],
        [92.9552, 12.81136],
        [92.9463, 12.79678],
        [92.94436, 12.77593],
        [92.95704, 12.75016],
        [92.96838, 12.73022],
        [92.97971, 12.71029],
        [92.97654, 12.67623],
        [92.97407, 12.64974],
        [92.96518, 12.63519],
        [92.96137, 12.61453],
        [92.96808, 12.58547],
        [92.98127, 12.56543],
        [92.99731, 12.53566],
        [93.00302, 12.51621],
        [92.98374, 12.49107],
        [92.96826, 12.48655],
        [92.95343, 12.46868],
        [92.9435, 12.44284],
        [92.92377, 12.43296],
        [92.90527, 12.43627],
        [92.88654, 12.41682],
        [92.86787, 12.41824],
        [92.85597, 12.41156],
        [92.86204, 12.39591],
        [92.88065, 12.37361],
        [92.90381, 12.33958],
        [92.89378, 12.33276],
        [92.86865, 12.3252],
        [92.83896, 12.32937],
        [92.81773, 12.3234],
        [92.80042, 12.31904],
        [92.77903, 12.31119],
        [92.76492, 12.3009],
        [92.74219, 12.29885],
        [92.72253, 12.30983],
        [92.70933, 12.3298],
        [92.70563, 12.35095],
        [92.70822, 12.37921],
        [92.70607, 12.41734],
        [92.71122, 12.45302],
        [92.72215, 12.49019],
        [92.72104, 12.5397],
        [92.71259, 12.57078],
        [92.7055, 12.59606],
        [92.69857, 12.62324],
        [92.7263, 12.63825],
        [92.72603, 12.67637],
        [92.73458, 12.7081],
        [92.74993, 12.73171],
        [92.74997, 12.75268],
        [92.73539, 12.7786],
        [92.74173, 12.80673],
        [92.74756, 12.82919],
        [92.76646, 12.82965],
        [92.78318, 12.84746],
        [92.7957, 12.86207]
      ],
      [
        [92.76848, 12.93014],
        [92.77093, 12.94011],
        [92.78204, 12.95838],
        [92.78566, 12.97723],
        [92.77598, 12.99519],
        [92.7687, 13.01871],
        [92.77079, 13.04152],
        [92.76674, 13.05906],
        [92.7741, 13.07765],
        [92.7823, 13.08468],
        [92.7929, 13.09728],
        [92.80895, 13.10754],
        [92.81188, 13.11881],
        [92.80747, 13.13257],
        [92.79761, 13.14866],
        [92.78946, 13.16271],
        [92.79325, 13.18351],
        [92.796, 13.19289],
        [92.81399, 13.22412],
        [92.84407, 13.24293],
        [92.82277, 13.258],
        [92.79941, 13.27132],
        [92.7933, 13.28715],
        [92.79658, 13.30226],
        [92.80361, 13.31709],
        [92.81458, 13.33354],
        [92.82008, 13.35234],
        [92.82149, 13.36761],
        [92.81236, 13.41255],
        [92.81905, 13.42358],
        [92.83379, 13.43976],
        [92.84782, 13.44831],
        [92.85334, 13.46713],
        [92.85492, 13.48434],
        [92.86796, 13.5026],
        [92.89588, 13.51779],
        [92.89905, 13.55223],
        [92.91328, 13.5627],
        [92.94785, 13.56775],
        [92.98132, 13.60182],
        [93.00919, 13.59582],
        [93.01387, 13.5646],
        [93.01138, 13.53781],
        [93.01042, 13.50705],
        [93.00829, 13.4841],
        [93.00598, 13.45925],
        [93.00572, 13.43617],
        [93.01916, 13.41782],
        [93.04334, 13.39287],
        [93.05113, 13.37496],
        [93.06349, 13.34517],
        [93.05213, 13.3249],
        [93.03764, 13.33178],
        [93.0201, 13.34658],
        [93.00185, 13.35375],
        [92.98118, 13.35534],
        [92.96374, 13.35091],
        [92.94425, 13.34472],
        [92.94149, 13.33532],
        [92.94007, 13.32006],
        [92.94025, 13.32197],
        [92.95663, 13.31494],
        [92.97693, 13.30954],
        [92.98884, 13.29518],
        [93.00297, 13.28449],
        [93.02051, 13.26969],
        [93.03294, 13.26106],
        [93.02929, 13.24214],
        [93.02305, 13.21574],
        [93.01716, 13.19317],
        [93.01503, 13.17032],
        [93.01318, 13.13019],
        [93.00794, 13.09418],
        [92.99315, 13.05701],
        [92.98603, 13.02117],
        [92.9681, 13.01106],
        [92.94274, 13.02258],
        [92.92576, 13.04303],
        [92.90256, 13.03715],
        [92.88645, 13.00585],
        [92.89488, 12.97459],
        [92.90507, 12.96233],
        [92.90893, 12.94291],
        [92.88762, 12.9369],
        [92.87234, 12.95528],
        [92.86531, 12.94052],
        [92.85402, 12.92036],
        [92.8446, 12.90006],
        [92.82138, 12.87318],
        [92.79773, 12.88263],
        [92.78074, 12.90305],
        [92.76848, 12.93014]
      ],
      [
        [92.73697, 12.22156],
        [92.74898, 12.20928],
        [92.76217, 12.18934],
        [92.75905, 12.15551],
        [92.74679, 12.12429],
        [92.73319, 12.09886],
        [92.72991, 12.06319],
        [92.74937, 12.05037],
        [92.76778, 12.02629],
        [92.77995, 12.01592],
        [92.75912, 12.01373],
        [92.77394, 11.97106],
        [92.73787, 11.96627],
        [92.73005, 11.94233],
        [92.72712, 11.91049],
        [92.72808, 11.88024],
        [92.73311, 11.85347],
        [92.74458, 11.83564],
        [92.75491, 11.84615],
        [92.75547, 11.8725],
        [92.7662, 11.9075],
        [92.78074, 11.90262],
        [92.78018, 11.87627],
        [92.7752, 11.84272],
        [92.78256, 11.80072],
        [92.77335, 11.76188],
        [92.77651, 11.73529],
        [92.77763, 11.70699],
        [92.76087, 11.68758],
        [92.72721, 11.66758],
        [92.71098, 11.65378],
        [92.69743, 11.62851],
        [92.71566, 11.62336],
        [92.72869, 11.64304],
        [92.73884, 11.65166],
        [92.75591, 11.65412],
        [92.75889, 11.6257],
        [92.75428, 11.59599],
        [92.7561, 11.5752],
        [92.74708, 11.53834],
        [92.73755, 11.49592],
        [92.72769, 11.44979],
        [92.69141, 11.44131],
        [92.67745, 11.47237],
        [92.67311, 11.50646],
        [92.67348, 11.53082],
        [92.65898, 11.53568],
        [92.6441, 11.51617],
        [92.61827, 11.49938],
        [92.61086, 11.52058],
        [92.60954, 11.54695],
        [92.62255, 11.56661],
        [92.6332, 11.58082],
        [92.64942, 11.5946],
        [92.6383, 11.61611],
        [92.61283, 11.64436],
        [92.60204, 11.66961],
        [92.61018, 11.69719],
        [92.59294, 11.69287],
        [92.57351, 11.68495],
        [92.55932, 11.69355],
        [92.56187, 11.72157],
        [92.56915, 11.73983],
        [92.56731, 11.76066],
        [92.5565, 11.78596],
        [92.54704, 11.80551],
        [92.54012, 11.83241],
        [92.54284, 11.86235],
        [92.54929, 11.89201],
        [92.56181, 11.90614],
        [92.57519, 11.92963],
        [92.58466, 11.91005],
        [92.59683, 11.89969],
        [92.60966, 11.87609],
        [92.6232, 11.88071],
        [92.62594, 11.91067],
        [92.62613, 11.93329],
        [92.62921, 11.96702],
        [92.63702, 11.99096],
        [92.63486, 12.02889],
        [92.64523, 12.06021],
        [92.65153, 12.08808],
        [92.66614, 12.12478],
        [92.66737, 12.15874],
        [92.67316, 12.181],
        [92.68455, 12.20285],
        [92.69929, 12.19983],
        [92.71656, 12.18336],
        [92.72761, 12.20145],
        [92.73697, 12.22156]
      ],
      [
        [93.85682, 7.25028],
        [93.86367, 7.24623],
        [93.87485, 7.23121],
        [93.88711, 7.22675],
        [93.90351, 7.20957],
        [93.8997, 7.17266],
        [93.89627, 7.15698],
        [93.89661, 7.12509],
        [93.90831, 7.09768],
        [93.92416, 7.09295],
        [93.94126, 7.08283],
        [93.95602, 7.06758],
        [93.97401, 7.04855],
        [93.9657, 7.02089],
        [93.96119, 7.01239],
        [93.95632, 7.00039],
        [93.97196, 6.97625],
        [93.96151, 6.96291],
        [93.94926, 6.9497],
        [93.94366, 6.9307],
        [93.94454, 6.90416],
        [93.94578, 6.88113],
        [93.9463, 6.85112],
        [93.94735, 6.82636],
        [93.92721, 6.82434],
        [93.91283, 6.82541],
        [93.90096, 6.81573],
        [93.88243, 6.7942],
        [93.86319, 6.78331],
        [93.83012, 6.81397],
        [93.82689, 6.85299],
        [93.81843, 6.89418],
        [93.80026, 6.92906],
        [93.77057, 6.94011],
        [93.76175, 6.94253],
        [93.76858, 6.9738],
        [93.75669, 6.98175],
        [93.73779, 6.992],
        [93.73651, 7.01506],
        [93.70573, 7.0156],
        [93.67728, 7.02126],
        [93.67816, 7.0477],
        [93.69235, 7.08023],
        [93.69143, 7.10683],
        [93.68781, 7.12479],
        [93.69389, 7.16682],
        [93.71317, 7.17777],
        [93.73425, 7.18858],
        [93.7492, 7.19278],
        [93.7757, 7.2032],
        [93.79462, 7.21064],
        [93.80436, 7.21699],
        [93.81986, 7.22647],
        [93.83753, 7.23932],
        [93.85304, 7.2488],
        [93.85682, 7.25028]
      ],
      [
        [92.53347, 10.85781],
        [92.55514, 10.85059],
        [92.56218, 10.82588],
        [92.5741, 10.81383],
        [92.585, 10.7907],
        [92.59488, 10.75651],
        [92.60393, 10.73355],
        [92.61516, 10.71413],
        [92.62085, 10.69514],
        [92.62602, 10.67063],
        [92.62668, 10.65759],
        [92.62229, 10.63011],
        [92.60768, 10.61268],
        [92.59106, 10.59356],
        [92.57679, 10.57982],
        [92.57025, 10.5692],
        [92.58179, 10.53314],
        [92.57472, 10.49665],
        [92.55728, 10.46837],
        [92.52058, 10.45266],
        [92.49595, 10.46748],
        [92.48087, 10.48527],
        [92.44249, 10.49189],
        [92.42121, 10.4824],
        [92.39272, 10.47531],
        [92.39205, 10.48832],
        [92.38986, 10.50513],
        [92.40108, 10.52649],
        [92.4237, 10.5507],
        [92.43258, 10.56669],
        [92.43492, 10.59245],
        [92.423, 10.62485],
        [92.40572, 10.63914],
        [92.39967, 10.67484],
        [92.39798, 10.69723],
        [92.40351, 10.71722],
        [92.40837, 10.72984],
        [92.42397, 10.73794],
        [92.44361, 10.74944],
        [92.45956, 10.76123],
        [92.46628, 10.77372],
        [92.47652, 10.78408],
        [92.48139, 10.79672],
        [92.496, 10.81419],
        [92.52221, 10.83636],
        [92.53347, 10.85781]
      ],
      [
        [92.76571, 12.26862],
        [92.77981, 12.27891],
        [92.78796, 12.28587],
        [92.79968, 12.29066],
        [92.81495, 12.29328],
        [92.83396, 12.29562],
        [92.84533, 12.29664],
        [92.86043, 12.29738],
        [92.86772, 12.29493],
        [92.87279, 12.28886],
        [92.87781, 12.26194],
        [92.88457, 12.25384],
        [92.89774, 12.23389],
        [92.90316, 12.23158],
        [92.89261, 12.21913],
        [92.88731, 12.20249],
        [92.87508, 12.19207],
        [92.86558, 12.1909],
        [92.85265, 12.17296],
        [92.84788, 12.16197],
        [92.82906, 12.16151],
        [92.82429, 12.15053],
        [92.81952, 12.13954],
        [92.81487, 12.10963],
        [92.80079, 12.09936],
        [92.79468, 12.09416],
        [92.78229, 12.08187],
        [92.76769, 12.06597],
        [92.75955, 12.05904],
        [92.75551, 12.07635],
        [92.76266, 12.09282],
        [92.76573, 12.10582],
        [92.77392, 12.13357],
        [92.77903, 12.14831],
        [92.77687, 12.1655],
        [92.77522, 12.18834],
        [92.77305, 12.20555],
        [92.76646, 12.21552],
        [92.76797, 12.21162],
        [92.7524, 12.22606],
        [92.74667, 12.24544],
        [92.74381, 12.25513],
        [92.76528, 12.26835],
        [92.76571, 12.26862]
      ],
      [
        [93.02681, 12.14829],
        [93.02221, 12.13918],
        [93.01556, 12.12834],
        [93.01956, 12.11101],
        [93.02845, 12.08574],
        [93.05055, 12.06137],
        [93.062, 12.04348],
        [93.04808, 12.0351],
        [93.02777, 12.03854],
        [93.01367, 12.02828],
        [93.02105, 12.00694],
        [93.03144, 11.97782],
        [93.04271, 11.95808],
        [93.05477, 11.92696],
        [93.05683, 11.88908],
        [93.05117, 11.86877],
        [93.03425, 11.86818],
        [93.01997, 11.89567],
        [93.00888, 11.91726],
        [92.98964, 11.93194],
        [92.97819, 11.9498],
        [92.95097, 11.95943],
        [92.94457, 11.97124],
        [92.94836, 11.99172],
        [92.95384, 12.01019],
        [92.96216, 12.01899],
        [92.97794, 12.02723],
        [92.98574, 12.03042],
        [92.9726, 12.05032],
        [92.96486, 12.06792],
        [92.95934, 12.08913],
        [92.95364, 12.10848],
        [92.96605, 12.12077],
        [92.9671, 12.13204],
        [92.98493, 12.14203],
        [92.9946, 12.14507],
        [93.00445, 12.15],
        [93.01802, 12.15464],
        [93.02158, 12.15247],
        [93.02681, 12.14829]
      ],
      [
        [93.39556, 7.87582],
        [93.37873, 7.87172],
        [93.35741, 7.85902],
        [93.33533, 7.85711],
        [93.32733, 7.86843],
        [93.32692, 7.88276],
        [93.3372, 7.8945],
        [93.33772, 7.89982],
        [93.32808, 7.91306],
        [93.32153, 7.9207],
        [93.30739, 7.92534],
        [93.31224, 7.9375],
        [93.3151, 7.94802],
        [93.31633, 7.96045],
        [93.32299, 7.97248],
        [93.33129, 7.98259],
        [93.34883, 7.9938],
        [93.35859, 8.00023],
        [93.37795, 8.01131],
        [93.39498, 8.01719],
        [93.4024, 8.01843],
        [93.39176, 8.00311],
        [93.39561, 7.98671],
        [93.38951, 7.96211],
        [93.40747, 7.95897],
        [93.41945, 7.95092],
        [93.43306, 7.94095],
        [93.44556, 7.93822],
        [93.45122, 7.9217],
        [93.46249, 7.90655],
        [93.47048, 7.89522],
        [93.46403, 7.8671],
        [93.46169, 7.86192],
        [93.45847, 7.84786],
        [93.44504, 7.85959],
        [93.43126, 7.86778],
        [93.42402, 7.86832],
        [93.41373, 7.87056],
        [93.39556, 7.87582]
      ],
      [
        [93.46851, 8.11381],
        [93.46793, 8.12641],
        [93.46138, 8.13407],
        [93.46333, 8.15366],
        [93.46855, 8.16942],
        [93.47541, 8.18326],
        [93.48993, 8.18217],
        [93.50711, 8.20781],
        [93.52124, 8.22111],
        [93.53267, 8.22564],
        [93.55264, 8.22414],
        [93.54957, 8.2118],
        [93.54868, 8.20289],
        [93.54544, 8.18877],
        [93.5364, 8.1715],
        [93.52392, 8.15629],
        [93.51705, 8.14245],
        [93.51819, 8.11725],
        [93.52403, 8.10247],
        [93.54458, 8.07045],
        [93.54696, 8.05773],
        [93.5401, 8.04391],
        [93.52961, 8.03036],
        [93.5235, 8.00575],
        [93.54201, 7.99004],
        [93.55179, 7.99646],
        [93.55975, 8.00303],
        [93.56685, 7.9828],
        [93.57232, 7.96449],
        [93.57274, 7.93225],
        [93.56517, 7.91136],
        [93.54468, 7.92541],
        [93.51817, 7.95245],
        [93.50673, 7.96584],
        [93.50541, 7.9892],
        [93.5079, 8.01409],
        [93.50604, 8.03213],
        [93.49875, 8.0506],
        [93.49292, 8.06537],
        [93.48235, 8.08767],
        [93.46851, 8.11381]
      ],
      [
        [93.73156, 7.44782],
        [93.73897, 7.43127],
        [93.74962, 7.42869],
        [93.7601, 7.40659],
        [93.77311, 7.3914],
        [93.75849, 7.37297],
        [93.75128, 7.35575],
        [93.7347, 7.3357],
        [93.71829, 7.31741],
        [93.70027, 7.30102],
        [93.67937, 7.27421],
        [93.65701, 7.26879],
        [93.64833, 7.29072],
        [93.64541, 7.31577],
        [93.63853, 7.33757],
        [93.64969, 7.35804],
        [93.64245, 7.37633],
        [93.64423, 7.39395],
        [93.65469, 7.40738],
        [93.66732, 7.40643],
        [93.69077, 7.42244],
        [93.70683, 7.43723],
        [93.70989, 7.44944],
        [93.71781, 7.47373],
        [93.72722, 7.45881],
        [93.73156, 7.44782]
      ],
      [
        [92.70517, 12.71608],
        [92.69682, 12.70719],
        [92.68272, 12.7178],
        [92.68378, 12.75013],
        [92.68551, 12.76907],
        [92.67941, 12.7848],
        [92.67261, 12.79295],
        [92.66239, 12.78419],
        [92.65948, 12.77297],
        [92.65589, 12.75417],
        [92.645, 12.75882],
        [92.64111, 12.77819],
        [92.63722, 12.79757],
        [92.6352, 12.81681],
        [92.63879, 12.83562],
        [92.64052, 12.85458],
        [92.64239, 12.85444],
        [92.64428, 12.8753],
        [92.64993, 12.89588],
        [92.65114, 12.90916],
        [92.65626, 12.92406],
        [92.66156, 12.94085],
        [92.66756, 12.96525],
        [92.67217, 12.97446],
        [92.68036, 12.98148],
        [92.69552, 12.98223],
        [92.70146, 12.96456],
        [92.70483, 12.93945],
        [92.70244, 12.9339],
        [92.70088, 12.91681],
        [92.69932, 12.89973],
        [92.69911, 12.87682],
        [92.70061, 12.85188],
        [92.6994, 12.83861],
        [92.70259, 12.81164],
        [92.7053, 12.79998],
        [92.70662, 12.77317],
        [92.70863, 12.75394],
        [92.70673, 12.73311],
        [92.70517, 12.71608]
      ],
      [
        [92.61552, 11.44897],
        [92.63087, 11.45342],
        [92.64994, 11.45759],
        [92.65936, 11.43813],
        [92.67706, 11.42741],
        [92.69087, 11.41512],
        [92.68122, 11.3915],
        [92.66619, 11.37018],
        [92.69163, 11.36262],
        [92.6916, 11.34203],
        [92.6877, 11.31987],
        [92.66426, 11.30856],
        [92.6147, 11.29737],
        [92.58605, 11.2902],
        [92.58016, 11.30748],
        [92.58962, 11.32921],
        [92.60008, 11.34152],
        [92.61239, 11.35368],
        [92.61932, 11.36813],
        [92.61126, 11.40245],
        [92.61179, 11.42864],
        [92.61843, 11.44925],
        [92.61552, 11.44897]
      ],
      [
        [92.86128, 9.13074],
        [92.8609, 9.12701],
        [92.85558, 9.10936],
        [92.83743, 9.09257],
        [92.8238, 9.08451],
        [92.80885, 9.08201],
        [92.78477, 9.08019],
        [92.76222, 9.09461],
        [92.74098, 9.10348],
        [92.73706, 9.14011],
        [92.75006, 9.16094],
        [92.77317, 9.17192],
        [92.78779, 9.17082],
        [92.79879, 9.18999],
        [92.81099, 9.22182],
        [92.82065, 9.22655],
        [92.82608, 9.20612],
        [92.83551, 9.18904],
        [92.84294, 9.1703],
        [92.85636, 9.15656],
        [92.86099, 9.14712],
        [92.86128, 9.13074]
      ],
      [
        [93.14152, 8.31661],
        [93.14207, 8.30891],
        [93.1419, 8.30712],
        [93.1425, 8.2945],
        [93.13783, 8.28407],
        [93.13687, 8.25539],
        [93.14508, 8.24579],
        [93.15407, 8.22537],
        [93.16867, 8.20632],
        [93.2054, 8.1892],
        [93.20694, 8.16755],
        [93.20175, 8.15179],
        [93.18378, 8.15494],
        [93.15509, 8.16068],
        [93.13306, 8.17848],
        [93.11068, 8.19273],
        [93.09771, 8.20985],
        [93.09217, 8.22822],
        [93.09027, 8.24632],
        [93.09001, 8.26251],
        [93.09043, 8.28583],
        [93.10631, 8.30963],
        [93.14152, 8.31661]
      ],
      [
        [93.11806, 12.22917],
        [93.11681, 12.22661],
        [93.11041, 12.19869],
        [93.09515, 12.19607],
        [93.08645, 12.18348],
        [93.08281, 12.16482],
        [93.09657, 12.1316],
        [93.1019, 12.10849],
        [93.10936, 12.06822],
        [93.09508, 12.05608],
        [93.08275, 12.06458],
        [93.06855, 12.07323],
        [93.05489, 12.0875],
        [93.05408, 12.09891],
        [93.05212, 12.11797],
        [93.05353, 12.133],
        [93.05477, 12.14615],
        [93.05228, 12.15959],
        [93.04526, 12.18473],
        [93.05324, 12.1898],
        [93.05768, 12.19704],
        [93.06433, 12.20789],
        [93.06913, 12.21889],
        [93.07125, 12.24146],
        [93.07844, 12.25796],
        [93.08714, 12.27056],
        [93.09664, 12.27173],
        [93.10579, 12.26914],
        [93.11459, 12.26278],
        [93.1256, 12.26004],
        [93.12231, 12.24513],
        [93.11806, 12.22917]
      ],
      [
        [93.62818, 8.55703],
        [93.64025, 8.55055],
        [93.64046, 8.5343],
        [93.64865, 8.52466],
        [93.64885, 8.50842],
        [93.66526, 8.47113],
        [93.65765, 8.45008],
        [93.65877, 8.42478],
        [93.6388, 8.40828],
        [93.62697, 8.41817],
        [93.63568, 8.43192],
        [93.63765, 8.45159],
        [93.63563, 8.46796],
        [93.63325, 8.48075],
        [93.61558, 8.50552],
        [93.61519, 8.51997],
        [93.61571, 8.54338],
        [93.62817, 8.55703],
        [93.62818, 8.55703]
      ],
      [
        [92.23653, 11.55663],
        [92.26422, 11.55264],
        [92.27267, 11.54261],
        [92.2717, 11.5108],
        [92.25416, 11.50276],
        [92.2356, 11.50417],
        [92.21098, 11.50043],
        [92.19308, 11.50929],
        [92.21598, 11.53568],
        [92.21755, 11.55337],
        [92.23653, 11.55663]
      ],
      [
        [92.96907, 12.99605],
        [92.97231, 12.99543],
        [92.98713, 12.99238],
        [92.99802, 12.98772],
        [92.98946, 12.9769],
        [92.98073, 12.96418],
        [92.97557, 12.94927],
        [92.97246, 12.93613],
        [92.9556, 12.93742],
        [92.95888, 12.95246],
        [92.9552, 12.97379],
        [92.94296, 12.98429],
        [92.94321, 13.00723],
        [92.95802, 13.00418],
        [92.96907, 12.99605]
      ],
      [
        [92.96161, 12.29438],
        [92.96065, 12.28403],
        [92.95551, 12.26926],
        [92.95784, 12.25392],
        [92.95182, 12.22975],
        [92.94634, 12.21123],
        [92.93754, 12.21759],
        [92.94134, 12.23813],
        [92.93697, 12.25173],
        [92.93295, 12.26909],
        [92.93266, 12.28617],
        [92.94118, 12.2969],
        [92.95459, 12.29966],
        [92.95984, 12.29547],
        [92.96161, 12.29438]
      ],
      [
        [94.21191, 13.53029],
        [94.22565, 13.53502],
        [94.24031, 13.53004],
        [94.24142, 13.52224],
        [94.23592, 13.50531],
        [94.22309, 13.49087],
        [94.20333, 13.48275],
        [94.19773, 13.50246],
        [94.20472, 13.51542],
        [94.21191, 13.53029]
      ],
      [
        [93.59637, 8.11317],
        [93.60636, 8.10345],
        [93.61673, 8.07937],
        [93.61601, 8.07225],
        [93.61351, 8.04735],
        [93.61625, 8.03819],
        [93.60156, 8.0375],
        [93.59066, 8.05623],
        [93.59298, 8.07936],
        [93.59274, 8.11344],
        [93.59854, 8.11659],
        [93.59637, 8.11317]
      ],
      [
        [92.95263, 12.38677],
        [92.95299, 12.38325],
        [92.94324, 12.35933],
        [92.92043, 12.33641],
        [92.91968, 12.36872],
        [92.93281, 12.38859],
        [92.94675, 12.39702],
        [92.94868, 12.39881],
        [92.95263, 12.38677]
      ],
      [
        [93.67289, 8.38376],
        [93.66738, 8.36472],
        [93.66067, 8.35263],
        [93.65248, 8.36224],
        [93.64975, 8.37145],
        [93.65136, 8.38753],
        [93.66063, 8.38863],
        [93.67289, 8.38376]
      ],
      [
        [92.90548, 8.81119],
        [92.89997, 8.79215],
        [92.89326, 8.78006],
        [92.88507, 8.78968],
        [92.88234, 8.79888],
        [92.88395, 8.81496],
        [92.89322, 8.81606],
        [92.90548, 8.81119]
      ],
      [
        [92.51392, 8.22402],
        [92.52187, 8.22112],
        [92.52874, 8.21705],
        [92.5311, 8.20442],
        [92.521, 8.19451],
        [92.51413, 8.19858],
        [92.50925, 8.20428],
        [92.50887, 8.21854],
        [92.51392, 8.22402]
      ],
      [
        [93.64668, 7.51325],
        [93.65421, 7.51051],
        [93.66107, 7.50644],
        [93.66344, 7.49381],
        [93.65333, 7.4839],
        [93.64647, 7.48797],
        [93.64158, 7.49367],
        [93.6412, 7.50793],
        [93.64587, 7.51299],
        [93.64668, 7.51325]
      ],
      [
        [92.76848, 12.93014],
        [92.76787, 12.92768],
        [92.76819, 12.93077],
        [92.76848, 12.93014]
      ]
    ]
  }
}
