{
  "type": "Feature",
  "id": "SK-AC-11",
  "properties": {
    "stateName": "SIKKIM",
    "stateCode": "SK",
    "districtName": "SOUTH",
    "acNo": 11,
    "acName": "Namchi-Singhithang",
    "seatType": null,
    "pcNo": 1,
    "pcName": "SIKKIM",
    "quality": "unverified",
    "sources": [
      "TBD"
    ]
  },
  "geometry": {
    "type": "Polygon",
    "coordinates": [
      [
        [88.36456, 27.11945],
        [88.36133, 27.12421],
        [88.35773, 27.1272],
        [88.35773, 27.12988],
        [88.36121, 27.13654],
        [88.36102, 27.13849],
        [88.35059, 27.14056],
        [88.34821, 27.1424],
        [88.34546, 27.14325],
        [88.34564, 27.14465],
        [88.34729, 27.14532],
        [88.34845, 27.14697],
        [88.34943, 27.15961],
        [88.34015, 27.16376],
        [88.33154, 27.17212],
        [88.33618, 27.17365],
        [88.34399, 27.17865],
        [88.34705, 27.18134],
        [88.3501, 27.18622],
        [88.35266, 27.18219],
        [88.3576, 27.18201],
        [88.36365, 27.18427],
        [88.36786, 27.18848],
        [88.37115, 27.18707],
        [88.37177, 27.18353],
        [88.37299, 27.18231],
        [88.3772, 27.18188],
        [88.38123, 27.17957],
        [88.38477, 27.17865],
        [88.38953, 27.17865],
        [88.39252, 27.18011],
        [88.3949, 27.18347],
        [88.40009, 27.18665],
        [88.40015, 27.18378],
        [88.40497, 27.1745],
        [88.41187, 27.16797],
        [88.41034, 27.1593],
        [88.40656, 27.15442],
        [88.40533, 27.14386],
        [88.40558, 27.1424],
        [88.40894, 27.13965],
        [88.41119, 27.13599],
        [88.40985, 27.13361],
        [88.40985, 27.1297],
        [88.40625, 27.13159],
        [88.39984, 27.13904],
        [88.39105, 27.1358],
        [88.38525, 27.13477],
        [88.38165, 27.13635],
        [88.3775, 27.13635],
        [88.37555, 27.13556],
        [88.37256, 27.13165],
        [88.36871, 27.12213],
        [88.36456, 27.11945]
      ]
    ]
  }
}
