{
  "type": "Feature",
  "id": "SK-AC-13",
  "properties": {
    "stateName": "SIKKIM",
    "stateCode": "SK",
    "districtName": "SOUTH",
    "acNo": 13,
    "acName": "Namthang-Rateypani",
    "seatType": null,
    "pcNo": 1,
    "pcName": "SIKKIM",
    "quality": "unverified",
    "sources": [
      "TBD"
    ]
  },
  "geometry": {
    "type": "Polygon",
    "coordinates": [
      [
        [88.47021, 27.10901],
        [88.46753, 27.11169],
        [88.466, 27.11768],
        [88.46625, 27.12201],
        [88.46509, 27.12366],
        [88.4632, 27.12384],
        [88.45355, 27.12006],
        [88.44312, 27.12036],
        [88.44031, 27.11975],
        [88.44366, 27.1261],
        [88.44452, 27.13],
        [88.44238, 27.1319],
        [88.43457, 27.13531],
        [88.43274, 27.14087],
        [88.42883, 27.14685],
        [88.42273, 27.15063],
        [88.41589, 27.15332],
        [88.40771, 27.15369],
        [88.40649, 27.15308],
        [88.4071, 27.15576],
        [88.41034, 27.1593],
        [88.41187, 27.16797],
        [88.40735, 27.17181],
        [88.4035, 27.17688],
        [88.40002, 27.18475],
        [88.40033, 27.18982],
        [88.40564, 27.19653],
        [88.4129, 27.20154],
        [88.42194, 27.20538],
        [88.42865, 27.21045],
        [88.43207, 27.20959],
        [88.43628, 27.21082],
        [88.44031, 27.21045],
        [88.44312, 27.20844],
        [88.45349, 27.20667],
        [88.45801, 27.20752],
        [88.46228, 27.21045],
        [88.46442, 27.21045],
        [88.46899, 27.20599],
        [88.46979, 27.203],
        [88.47168, 27.2019],
        [88.47699, 27.20099],
        [88.48755, 27.20361],
        [88.4906, 27.20361],
        [88.49304, 27.19745],
        [88.49908, 27.18848],
        [88.50378, 27.18311],
        [88.52435, 27.17657],
        [88.5249, 27.17212],
        [88.53351, 27.16333],
        [88.53351, 27.16156],
        [88.53113, 27.15735],
        [88.53589, 27.15173],
        [88.53589, 27.15021],
        [88.53387, 27.14679],
        [88.52527, 27.14655],
        [88.52283, 27.14441],
        [88.52081, 27.14117],
        [88.51154, 27.13251],
        [88.50293, 27.12781],
        [88.49933, 27.12213],
        [88.49548, 27.12152],
        [88.49091, 27.12317],
        [88.48523, 27.1192],
        [88.47736, 27.11682],
        [88.47284, 27.11316],
        [88.47107, 27.11053],
        [88.47052, 27.10785],
        [88.47021, 27.10901]
      ]
    ]
  }
}
