{
  "type": "Feature",
  "id": "SK-AC-8",
  "properties": {
    "stateName": "SIKKIM",
    "stateCode": "SK",
    "districtName": "WEST",
    "acNo": 8,
    "acName": "Salghari-Zoom (SC)",
    "seatType": null,
    "pcNo": 1,
    "pcName": "SIKKIM",
    "quality": "unverified",
    "sources": [
      "TBD"
    ]
  },
  "geometry": {
    "type": "Polygon",
    "coordinates": [
      [
        [88.22211, 27.12732],
        [88.22302, 27.1283],
        [88.24225, 27.12988],
        [88.24701, 27.13318],
        [88.25, 27.13403],
        [88.25214, 27.13617],
        [88.25769, 27.14594],
        [88.26068, 27.14795],
        [88.26337, 27.15393],
        [88.26483, 27.15991],
        [88.26855, 27.16223],
        [88.27142, 27.16229],
        [88.26849, 27.16571],
        [88.26874, 27.16736],
        [88.27496, 27.17059],
        [88.27588, 27.17181],
        [88.27527, 27.17749],
        [88.27637, 27.17908],
        [88.27405, 27.18073],
        [88.26959, 27.1861],
        [88.2691, 27.18866],
        [88.27057, 27.19031],
        [88.27301, 27.19171],
        [88.27667, 27.19171],
        [88.28094, 27.18939],
        [88.29193, 27.18762],
        [88.29553, 27.18579],
        [88.30237, 27.18878],
        [88.30695, 27.19379],
        [88.3092, 27.19324],
        [88.30951, 27.18878],
        [88.31104, 27.18549],
        [88.31067, 27.18109],
        [88.31122, 27.17999],
        [88.30975, 27.17926],
        [88.3075, 27.17621],
        [88.3028, 27.17474],
        [88.29877, 27.17151],
        [88.29767, 27.1665],
        [88.29437, 27.16229],
        [88.29169, 27.1604],
        [88.28845, 27.15192],
        [88.28687, 27.15039],
        [88.28656, 27.14893],
        [88.29016, 27.14441],
        [88.29645, 27.14294],
        [88.29895, 27.13977],
        [88.30267, 27.13965],
        [88.30444, 27.14056],
        [88.31281, 27.14124],
        [88.31311, 27.13849],
        [88.30756, 27.13873],
        [88.30597, 27.13745],
        [88.30719, 27.13086],
        [88.30859, 27.12982],
        [88.31122, 27.12994],
        [88.31396, 27.12866],
        [88.31696, 27.12909],
        [88.31787, 27.12836],
        [88.31958, 27.12244],
        [88.32349, 27.11914],
        [88.32318, 27.11481],
        [88.31482, 27.12189],
        [88.30804, 27.12506],
        [88.30383, 27.12451],
        [88.29926, 27.12158],
        [88.29791, 27.12152],
        [88.28107, 27.12769],
        [88.27466, 27.12659],
        [88.26685, 27.12366],
        [88.25537, 27.12183],
        [88.2439, 27.11682],
        [88.23633, 27.11615],
        [88.23035, 27.11792],
        [88.2265, 27.12061],
        [88.22229, 27.12512],
        [88.22211, 27.12732]
      ]
    ]
  }
}
