{
  "type": "Feature",
  "id": "NL-AC-17",
  "properties": {
    "stateName": "NAGALAND",
    "stateCode": "NL",
    "districtName": "PHEK",
    "acNo": 17,
    "acName": "Chizami",
    "seatType": null,
    "pcNo": 1,
    "pcName": "NAGALAND",
    "quality": "unverified",
    "sources": [
      "TBD"
    ]
  },
  "geometry": {
    "type": "Polygon",
    "coordinates": [
      [
        [94.44072, 25.64029],
        [94.42497, 25.60916],
        [94.42676, 25.58711],
        [94.41906, 25.56995],
        [94.42246, 25.55333],
        [94.41665, 25.53659],
        [94.3853, 25.5325],
        [94.36582, 25.51743],
        [94.32898, 25.50457],
        [94.3009, 25.50635],
        [94.30914, 25.52182],
        [94.31487, 25.58779],
        [94.32075, 25.60357],
        [94.34178, 25.64517],
        [94.34256, 25.66883],
        [94.33613, 25.69133],
        [94.34854, 25.70285],
        [94.37027, 25.70787],
        [94.39232, 25.70735],
        [94.40684, 25.70224],
        [94.42756, 25.68186],
        [94.42654, 25.65639],
        [94.44072, 25.64029]
      ]
    ]
  }
}
