{
  "type": "Feature",
  "id": "NL-AC-32",
  "properties": {
    "stateName": "NAGALAND",
    "stateCode": "NL",
    "districtName": "ZUNHEBOTO",
    "acNo": 32,
    "acName": "Atoizu",
    "seatType": null,
    "pcNo": 1,
    "pcName": "NAGALAND",
    "quality": "unverified",
    "sources": [
      "TBD"
    ]
  },
  "geometry": {
    "type": "Polygon",
    "coordinates": [
      [
        [94.50687, 26.19674],
        [94.52428, 26.17309],
        [94.51602, 26.15483],
        [94.51667, 26.13559],
        [94.5342, 26.10457],
        [94.51273, 26.09404],
        [94.47958, 26.06111],
        [94.40976, 26.01642],
        [94.35902, 25.9937],
        [94.36181, 26.00202],
        [94.36017, 26.0071],
        [94.36258, 26.00913],
        [94.35598, 26.01016],
        [94.36023, 26.02786],
        [94.37028, 26.05283],
        [94.39055, 26.08394],
        [94.3833, 26.08697],
        [94.38442, 26.09541],
        [94.38093, 26.09405],
        [94.37986, 26.10043],
        [94.38687, 26.11129],
        [94.40648, 26.10786],
        [94.42482, 26.11782],
        [94.43852, 26.13193],
        [94.46475, 26.14014],
        [94.48222, 26.15101],
        [94.49235, 26.16],
        [94.50687, 26.19674]
      ]
    ]
  }
}
