{
  "type": "Feature",
  "id": "NL-AC-33",
  "properties": {
    "stateName": "NAGALAND",
    "stateCode": "NL",
    "districtName": "ZUNHEBOTO",
    "acNo": 33,
    "acName": "Suruhuto",
    "seatType": null,
    "pcNo": 1,
    "pcName": "NAGALAND",
    "quality": "unverified",
    "sources": [
      "TBD"
    ]
  },
  "geometry": {
    "type": "Polygon",
    "coordinates": [
      [
        [94.50811, 26.21371],
        [94.52611, 26.21207],
        [94.53114, 26.21688],
        [94.53748, 26.2074],
        [94.55353, 26.20178],
        [94.57202, 26.20703],
        [94.58339, 26.21894],
        [94.59969, 26.19739],
        [94.61242, 26.19351],
        [94.62376, 26.19982],
        [94.63824, 26.21724],
        [94.65644, 26.20319],
        [94.66631, 26.21259],
        [94.67152, 26.21101],
        [94.68093, 26.19853],
        [94.68941, 26.19813],
        [94.69498, 26.18092],
        [94.69661, 26.1714],
        [94.70339, 26.1736],
        [94.70414, 26.17041],
        [94.69833, 26.14973],
        [94.6891, 26.13653],
        [94.64771, 26.12547],
        [94.63204, 26.129],
        [94.58348, 26.12861],
        [94.55424, 26.13717],
        [94.51667, 26.13559],
        [94.51602, 26.15483],
        [94.52428, 26.17309],
        [94.50687, 26.19674],
        [94.50811, 26.21371]
      ]
    ]
  }
}
