{
  "type": "Feature",
  "id": "NL-AC-38",
  "properties": {
    "stateName": "NAGALAND",
    "stateCode": "NL",
    "districtName": "WOKHA",
    "acNo": 38,
    "acName": "Wokha",
    "seatType": null,
    "pcNo": 1,
    "pcName": "NAGALAND",
    "quality": "unverified",
    "sources": [
      "TBD"
    ]
  },
  "geometry": {
    "type": "Polygon",
    "coordinates": [
      [
        [94.22815, 26.16182],
        [94.26463, 26.14625],
        [94.27731, 26.12494],
        [94.27888, 26.11286],
        [94.27255, 26.07615],
        [94.2527, 26.04452],
        [94.25225, 26.03183],
        [94.23893, 26.00258],
        [94.2146, 26.02156],
        [94.21096, 26.00853],
        [94.19267, 25.98936],
        [94.17641, 25.98631],
        [94.16217, 25.97308],
        [94.1469, 25.98134],
        [94.13949, 25.99218],
        [94.10121, 25.9885],
        [94.0981, 25.98343],
        [94.10808, 26.01474],
        [94.13104, 26.03881],
        [94.18662, 26.1005],
        [94.22815, 26.16182]
      ]
    ]
  }
}
