{
  "type": "Feature",
  "id": "NL-AC-54",
  "properties": {
    "stateName": "NAGALAND",
    "stateCode": "NL",
    "districtName": "TUENSANG",
    "acNo": 54,
    "acName": "Tuensang Sadar-II",
    "seatType": null,
    "pcNo": 1,
    "pcName": "NAGALAND",
    "quality": "unverified",
    "sources": [
      "TBD"
    ]
  },
  "geometry": {
    "type": "Polygon",
    "coordinates": [
      [
        [94.92, 26.34637],
        [94.9247, 26.32671],
        [94.93969, 26.31692],
        [94.96238, 26.31269],
        [94.97909, 26.31637],
        [94.998, 26.31429],
        [94.98555, 26.29558],
        [94.97176, 26.19958],
        [94.97021, 26.1541],
        [94.96995, 26.11857],
        [94.94776, 26.12732],
        [94.86324, 26.12089],
        [94.79435, 26.09447],
        [94.77705, 26.14282],
        [94.74686, 26.16057],
        [94.70414, 26.17041],
        [94.70339, 26.1736],
        [94.69661, 26.1714],
        [94.69498, 26.18092],
        [94.70513, 26.19149],
        [94.737, 26.20444],
        [94.7536, 26.21639],
        [94.7577, 26.2087],
        [94.76924, 26.20379],
        [94.78747, 26.20374],
        [94.78819, 26.21822],
        [94.81179, 26.22117],
        [94.82775, 26.23583],
        [94.8299, 26.24567],
        [94.82251, 26.26738],
        [94.79528, 26.30947],
        [94.80132, 26.31797],
        [94.80396, 26.33959],
        [94.79247, 26.36997],
        [94.81938, 26.35799],
        [94.87071, 26.35616],
        [94.92, 26.34637]
      ]
    ]
  }
}
