{
  "type": "Feature",
  "id": "NL-AC-55",
  "properties": {
    "stateName": "NAGALAND",
    "stateCode": "NL",
    "districtName": "TUENSANG",
    "acNo": 55,
    "acName": "Tobu",
    "seatType": null,
    "pcNo": 1,
    "pcName": "NAGALAND",
    "quality": "unverified",
    "sources": [
      "TBD"
    ]
  },
  "geometry": {
    "type": "Polygon",
    "coordinates": [
      [
        [95.02478, 26.4871],
        [95.03991, 26.48588],
        [95.04629, 26.4755],
        [95.05356, 26.47916],
        [95.07283, 26.47226],
        [95.06175, 26.44989],
        [95.06316, 26.44464],
        [95.06675, 26.44157],
        [95.07258, 26.44771],
        [95.08444, 26.44732],
        [95.104, 26.42055],
        [95.09646, 26.40074],
        [95.0998, 26.39402],
        [95.10812, 26.39522],
        [95.08114, 26.37369],
        [95.04741, 26.35458],
        [94.998, 26.31429],
        [94.97909, 26.31637],
        [94.96238, 26.31269],
        [94.93969, 26.31692],
        [94.9247, 26.32671],
        [94.92, 26.34637],
        [94.92311, 26.39617],
        [94.90718, 26.39781],
        [94.89611, 26.41542],
        [94.89985, 26.43798],
        [94.91732, 26.43457],
        [94.93349, 26.43922],
        [94.94054, 26.45062],
        [94.96124, 26.45831],
        [94.9793, 26.48073],
        [94.9965, 26.49203],
        [95.01447, 26.49337],
        [95.02478, 26.4871]
      ]
    ]
  }
}
