{
  "type": "Feature",
  "id": "NL-AC-7",
  "properties": {
    "stateName": "NAGALAND",
    "stateCode": "NL",
    "districtName": "KOHIMA",
    "acNo": 7,
    "acName": "Peren",
    "seatType": null,
    "pcNo": 1,
    "pcName": "NAGALAND",
    "quality": "unverified",
    "sources": [
      "TBD"
    ]
  },
  "geometry": {
    "type": "Polygon",
    "coordinates": [
      [
        [93.79224, 25.66907],
        [93.88333, 25.65851],
        [93.90972, 25.66357],
        [93.94692, 25.68116],
        [93.93491, 25.55904],
        [93.8887, 25.56513],
        [93.86103, 25.55324],
        [93.83441, 25.5606],
        [93.8276, 25.55273],
        [93.82104, 25.55317],
        [93.81651, 25.5403],
        [93.80477, 25.54153],
        [93.77991, 25.53367],
        [93.77034, 25.53369],
        [93.76493, 25.53848],
        [93.76635, 25.51817],
        [93.76145, 25.51687],
        [93.75796, 25.50769],
        [93.76128, 25.49581],
        [93.76648, 25.49353],
        [93.78749, 25.50321],
        [93.80024, 25.49684],
        [93.80998, 25.48382],
        [93.80501, 25.46344],
        [93.78648, 25.4461],
        [93.7833, 25.43308],
        [93.77268, 25.42616],
        [93.77408, 25.41965],
        [93.76797, 25.42],
        [93.7422, 25.40404],
        [93.73475, 25.3943],
        [93.73589, 25.38516],
        [93.71582, 25.37184],
        [93.70935, 25.35718],
        [93.69681, 25.35614],
        [93.6887, 25.3601],
        [93.68332, 25.37864],
        [93.6803, 25.43275],
        [93.68901, 25.48291],
        [93.68741, 25.49581],
        [93.66074, 25.51762],
        [93.65047, 25.53324],
        [93.65566, 25.56186],
        [93.68687, 25.58881],
        [93.68736, 25.6025],
        [93.64635, 25.65011],
        [93.79224, 25.66907]
      ]
    ]
  }
}
