{
  "type": "Feature",
  "id": "GA-AC-1",
  "properties": {
    "stateName": "GOA",
    "stateCode": "GA",
    "districtName": "NORTH GOA",
    "acNo": 1,
    "acName": "Mandrem",
    "seatType": null,
    "pcNo": 1,
    "pcName": "NORTH GOA",
    "quality": "unverified",
    "sources": [
      "TBD"
    ]
  },
  "geometry": {
    "type": "Polygon",
    "coordinates": [
      [
        [73.67538, 15.72702],
        [73.68571, 15.7301],
        [73.6973, 15.72303],
        [73.7115, 15.72594],
        [73.72812, 15.72004],
        [73.73191, 15.72281],
        [73.74026, 15.7088],
        [73.73636, 15.70035],
        [73.74121, 15.69179],
        [73.74918, 15.69053],
        [73.75567, 15.68178],
        [73.76599, 15.67715],
        [73.78647, 15.6942],
        [73.81034, 15.67992],
        [73.80686, 15.6997],
        [73.8192, 15.7024],
        [73.82362, 15.69593],
        [73.81783, 15.67458],
        [73.82155, 15.66256],
        [73.81232, 15.65253],
        [73.7975, 15.64862],
        [73.78423, 15.65334],
        [73.77246, 15.63996],
        [73.73042, 15.62253],
        [73.71446, 15.65077],
        [73.70199, 15.69057],
        [73.69814, 15.6925],
        [73.69943, 15.69926],
        [73.6942, 15.70134],
        [73.69025, 15.72212],
        [73.67965, 15.72089],
        [73.6802, 15.72537],
        [73.67538, 15.72702]
      ]
    ]
  }
}
