{
  "type": "Feature",
  "id": "GA-AC-26",
  "properties": {
    "stateName": "GOA",
    "stateCode": "GA",
    "districtName": "SOUTH GOA",
    "acNo": 26,
    "acName": "Dabolim",
    "seatType": null,
    "pcNo": 2,
    "pcName": "SOUTH GOA",
    "quality": "unverified",
    "sources": [
      "TBD"
    ]
  },
  "geometry": {
    "type": "Polygon",
    "coordinates": [
      [
        [73.82915, 15.40707],
        [73.84127, 15.41016],
        [73.84657, 15.39817],
        [73.85417, 15.40115],
        [73.85866, 15.39766],
        [73.86291, 15.40144],
        [73.86536, 15.38974],
        [73.85813, 15.38081],
        [73.84846, 15.37905],
        [73.85437, 15.36633],
        [73.85166, 15.36115],
        [73.84175, 15.36031],
        [73.8333, 15.37033],
        [73.82432, 15.37082],
        [73.83796, 15.39281],
        [73.8307, 15.3968],
        [73.82915, 15.40707]
      ]
    ]
  }
}
