{
  "type": "Feature",
  "id": "GA-AC-37",
  "properties": {
    "stateName": "GOA",
    "stateCode": "GA",
    "districtName": "SOUTH GOA",
    "acNo": 37,
    "acName": "Curchorem",
    "seatType": null,
    "pcNo": 2,
    "pcName": "SOUTH GOA",
    "quality": "unverified",
    "sources": [
      "TBD"
    ]
  },
  "geometry": {
    "type": "Polygon",
    "coordinates": [
      [
        [74.0878, 15.27749],
        [74.09483, 15.27126],
        [74.10218, 15.27221],
        [74.11058, 15.26931],
        [74.12227, 15.27509],
        [74.12533, 15.26653],
        [74.12898, 15.25368],
        [74.1435, 15.25044],
        [74.14608, 15.24073],
        [74.1335, 15.23484],
        [74.13356, 15.21963],
        [74.12581, 15.21867],
        [74.11439, 15.20901],
        [74.10927, 15.21044],
        [74.11216, 15.19279],
        [74.09501, 15.19253],
        [74.09829, 15.19695],
        [74.09606, 15.20546],
        [74.0862, 15.21482],
        [74.08578, 15.2221],
        [74.08245, 15.22065],
        [74.08288, 15.22497],
        [74.06732, 15.23518],
        [74.06697, 15.24771],
        [74.05593, 15.25955],
        [74.07539, 15.2767],
        [74.08221, 15.2806],
        [74.0878, 15.27749]
      ]
    ]
  }
}
