{
  "type": "Feature",
  "id": "GA-AC-39",
  "properties": {
    "stateName": "GOA",
    "stateCode": "GA",
    "districtName": "SOUTH GOA",
    "acNo": 39,
    "acName": "Sanguem",
    "seatType": null,
    "pcNo": 2,
    "pcName": "SOUTH GOA",
    "quality": "unverified",
    "sources": [
      "TBD"
    ]
  },
  "geometry": {
    "type": "Polygon",
    "coordinates": [
      [
        [74.25136, 15.25787],
        [74.25961, 15.24076],
        [74.28704, 15.23198],
        [74.29106, 15.2347],
        [74.30135, 15.22445],
        [74.29991, 15.21912],
        [74.30484, 15.21607],
        [74.3105, 15.1944],
        [74.31674, 15.18695],
        [74.2957, 15.15148],
        [74.28506, 15.14836],
        [74.28298, 15.13056],
        [74.2867, 15.12138],
        [74.28243, 15.10661],
        [74.27635, 15.10518],
        [74.27257, 15.09743],
        [74.27898, 15.09536],
        [74.28054, 15.06906],
        [74.2899, 15.06474],
        [74.29545, 15.04556],
        [74.29625, 15.0412],
        [74.28336, 15.03166],
        [74.28359, 15.0238],
        [74.26684, 15.00716],
        [74.26783, 15.0019],
        [74.25347, 14.99738],
        [74.22831, 15.02085],
        [74.22991, 15.03822],
        [74.2145, 15.04761],
        [74.20198, 15.04339],
        [74.1775, 15.04454],
        [74.16113, 15.05469],
        [74.16891, 15.06298],
        [74.16095, 15.06991],
        [74.12648, 15.07171],
        [74.13128, 15.08436],
        [74.12482, 15.08815],
        [74.05997, 15.1022],
        [74.05863, 15.12341],
        [74.06525, 15.12712],
        [74.05318, 15.14171],
        [74.06975, 15.17044],
        [74.06575, 15.1787],
        [74.09501, 15.19253],
        [74.11216, 15.19279],
        [74.10927, 15.21044],
        [74.11439, 15.20901],
        [74.12581, 15.21867],
        [74.13356, 15.21963],
        [74.1335, 15.23484],
        [74.14608, 15.24073],
        [74.1435, 15.25044],
        [74.12898, 15.25368],
        [74.12533, 15.26653],
        [74.13668, 15.25457],
        [74.15423, 15.26394],
        [74.16313, 15.25151],
        [74.17488, 15.24565],
        [74.18616, 15.25817],
        [74.20529, 15.25143],
        [74.21566, 15.25571],
        [74.22245, 15.26576],
        [74.23647, 15.26586],
        [74.25136, 15.25787]
      ]
    ]
  }
}
