{
  "type": "Feature",
  "properties": {
    "ST_CODE": "KL",
    "ST_NAME": "KERALA",
    "TYPE": "STATE",
    "LEVEL": "STATE"
  },
  "geometry": {
    "type": "Polygon",
    "coordinates": [
      [
        [77.0263, 10.2483],
        [77.0404, 10.2527],
        [77.0509, 10.2627],
        [77.0529, 10.2725],
        [77.0435, 10.2837],
        [77.0565, 10.2869],
        [77.0662, 10.2977],
        [77.0912, 10.3141],
        [77.0931, 10.3115],
        [77.0959, 10.3091],
        [77.1016, 10.3156],
        [77.1205, 10.3181],
        [77.1765, 10.3581],
        [77.2358, 10.3522],
        [77.2363, 10.3397],
        [77.2291, 10.3306],
        [77.2278, 10.3164],
        [77.2629, 10.2639],
        [77.2569, 10.2592],
        [77.2593, 10.2302],
        [77.2694, 10.2371],
        [77.2881, 10.2317],
        [77.295, 10.2177],
        [77.2831, 10.2078],
        [77.2841, 10.1985],
        [77.2752, 10.185],
        [77.2714, 10.142],
        [77.275, 10.1321],
        [77.2668, 10.1222],
        [77.2666, 10.1223],
        [77.2393, 10.1306],
        [77.2392, 10.1306],
        [77.2391, 10.1306],
        [77.239, 10.1306],
        [77.2389, 10.1305],
        [77.2388, 10.1305],
        [77.2299, 10.1212],
        [77.2165, 10.1159],
        [77.2073, 10.1186],
        [77.2072, 10.1186],
        [77.2071, 10.1186],
        [77.207, 10.1186],
        [77.207, 10.1185],
        [77.2069, 10.1185],
        [77.2068, 10.1184],
        [77.2068, 10.1183],
        [77.2009, 10.1067],
        [77.2008, 10.1066],
        [77.2008, 10.1065],
        [77.2008, 10.1064],
        [77.2044, 10.0869],
        [77.2044, 10.0868],
        [77.2045, 10.0868],
        [77.2045, 10.0867],
        [77.2046, 10.0866],
        [77.2312, 10.0662],
        [77.2615, 10.0306],
        [77.2614, 10.0221],
        [77.2531, 10.0132],
        [77.2531, 10.0131],
        [77.253, 10.013],
        [77.253, 10.0129],
        [77.253, 10.0128],
        [77.253, 10.0127],
        [77.2531, 10.0126],
        [77.2532, 10.0125],
        [77.2646, 10.0027],
        [77.2604, 9.992],
        [77.2604, 9.9919],
        [77.2604, 9.9918],
        [77.2604, 9.9917],
        [77.2605, 9.9916],
        [77.2606, 9.9915],
        [77.2607, 9.9915],
        [77.266, 9.9898],
        [77.2641, 9.9873],
        [77.2641, 9.9872],
        [77.2641, 9.9871],
        [77.264, 9.9871],
        [77.264, 9.987],
        [77.264, 9.9869],
        [77.2641, 9.9868],
        [77.272, 9.9763],
        [77.2723, 9.9652],
        [77.2608, 9.953],
        [77.2468, 9.9531],
        [77.2467, 9.953],
        [77.2466, 9.953],
        [77.2465, 9.953],
        [77.2465, 9.9529],
        [77.2464, 9.9528],
        [77.2464, 9.9527],
        [77.2464, 9.9526],
        [77.2464, 9.9525],
        [77.2479, 9.9482],
        [77.2371, 9.9381],
        [77.2371, 9.938],
        [77.237, 9.9379],
        [77.2302, 9.9139],
        [77.2186, 9.9051],
        [77.2185, 9.905],
        [77.2184, 9.9049],
        [77.2184, 9.9048],
        [77.2184, 9.9047],
        [77.2206, 9.8853],
        [77.2122, 9.8787],
        [77.2121, 9.8786],
        [77.2121, 9.8785],
        [77.212, 9.8784],
        [77.212, 9.8783],
        [77.2121, 9.8782],
        [77.2121, 9.8781],
        [77.2204, 9.8643],
        [77.2205, 9.8642],
        [77.2205, 9.8641],
        [77.2206, 9.8641],
        [77.2207, 9.8641],
        [77.2361, 9.8604],
        [77.237, 9.8522],
        [77.223, 9.846],
        [77.223, 9.8459],
        [77.2229, 9.8459],
        [77.2228, 9.8458],
        [77.2228, 9.8457],
        [77.2228, 9.8456],
        [77.2228, 9.8455],
        [77.2228, 9.8454],
        [77.2228, 9.8453],
        [77.2273, 9.8391],
        [77.2216, 9.8234],
        [77.2215, 9.8234],
        [77.2215, 9.8233],
        [77.2216, 9.8232],
        [77.2216, 9.8231],
        [77.2216, 9.823],
        [77.2217, 9.8229],
        [77.2218, 9.8229],
        [77.2219, 9.8229],
        [77.222, 9.8228],
        [77.2325, 9.8218],
        [77.2323, 9.8179],
        [77.2323, 9.8178],
        [77.2323, 9.8177],
        [77.2323, 9.8176],
        [77.2324, 9.8176],
        [77.2324, 9.8175],
        [77.2325, 9.8175],
        [77.2326, 9.8174],
        [77.2327, 9.8174],
        [77.2411, 9.8163],
        [77.2464, 9.8085],
        [77.2463, 9.799],
        [77.2405, 9.7981],
        [77.2404, 9.798],
        [77.2403, 9.798],
        [77.2403, 9.7979],
        [77.2402, 9.7979],
        [77.2342, 9.7903],
        [77.2229, 9.7889],
        [77.2228, 9.7889],
        [77.2227, 9.7888],
        [77.2226, 9.7887],
        [77.2225, 9.7886],
        [77.2225, 9.7885],
        [77.2225, 9.7884],
        [77.2247, 9.7761],
        [77.2247, 9.776],
        [77.2248, 9.776],
        [77.2248, 9.7759],
        [77.232, 9.7694],
        [77.2199, 9.7453],
        [77.2199, 9.7452],
        [77.2199, 9.7451],
        [77.2199, 9.745],
        [77.2222, 9.7355],
        [77.2234, 9.7304],
        [77.2184, 9.7265],
        [77.2036, 9.7228],
        [77.2035, 9.7227],
        [77.2034, 9.7226],
        [77.2033, 9.7225],
        [77.2033, 9.7224],
        [77.2033, 9.7223],
        [77.2033, 9.7222],
        [77.2033, 9.7221],
        [77.2057, 9.7178],
        [77.2016, 9.704],
        [77.2016, 9.7039],
        [77.2016, 9.7038],
        [77.2016, 9.7037],
        [77.2017, 9.7036],
        [77.2063, 9.6947],
        [77.1942, 9.6714],
        [77.1865, 9.6667],
        [77.1864, 9.6666],
        [77.1863, 9.6665],
        [77.1863, 9.6664],
        [77.1863, 9.6663],
        [77.1863, 9.6662],
        [77.1872, 9.6618],
        [77.1805, 9.6586],
        [77.1804, 9.6586],
        [77.1803, 9.6585],
        [77.1802, 9.6584],
        [77.1802, 9.6583],
        [77.179, 9.6452],
        [77.1737, 9.6377],
        [77.1736, 9.6376],
        [77.1736, 9.6375],
        [77.1736, 9.6374],
        [77.1758, 9.6294],
        [77.1687, 9.6241],
        [77.1686, 9.624],
        [77.1685, 9.6239],
        [77.1652, 9.6141],
        [77.1652, 9.614],
        [77.1652, 9.6139],
        [77.1652, 9.6138],
        [77.1652, 9.6137],
        [77.1653, 9.6136],
        [77.168, 9.6104],
        [77.168, 9.6103],
        [77.1681, 9.6103],
        [77.1682, 9.6102],
        [77.1883, 9.6057],
        [77.1884, 9.6057],
        [77.1885, 9.6057],
        [77.1886, 9.6057],
        [77.1887, 9.6057],
        [77.1887, 9.6058],
        [77.1985, 9.614],
        [77.2086, 9.6133],
        [77.2095, 9.6052],
        [77.2095, 9.6051],
        [77.2096, 9.605],
        [77.2097, 9.6049],
        [77.2098, 9.6049],
        [77.2205, 9.5989],
        [77.2343, 9.5812],
        [77.2343, 9.5811],
        [77.2344, 9.5811],
        [77.2345, 9.581],
        [77.2346, 9.581],
        [77.2347, 9.581],
        [77.2348, 9.5811],
        [77.2429, 9.5849],
        [77.2529, 9.5827],
        [77.2685, 9.5727],
        [77.2686, 9.5726],
        [77.2687, 9.5726],
        [77.2688, 9.5726],
        [77.2689, 9.5726],
        [77.269, 9.5726],
        [77.2906, 9.5845],
        [77.2906, 9.5846],
        [77.2907, 9.5846],
        [77.2907, 9.5847],
        [77.2908, 9.5848],
        [77.2908, 9.5849],
        [77.2908, 9.585],
        [77.2906, 9.5888],
        [77.3037, 9.5983],
        [77.3177, 9.6022],
        [77.3221, 9.5981],
        [77.3222, 9.5981],
        [77.3223, 9.598],
        [77.3224, 9.598],
        [77.3225, 9.598],
        [77.3288, 9.5986],
        [77.3242, 9.5939],
        [77.3241, 9.5938],
        [77.3241, 9.5937],
        [77.3241, 9.5936],
        [77.3248, 9.5805],
        [77.3248, 9.5804],
        [77.3249, 9.5803],
        [77.325, 9.5802],
        [77.3393, 9.5729],
        [77.3394, 9.5729],
        [77.3395, 9.5729],
        [77.3396, 9.5729],
        [77.3397, 9.5729],
        [77.3397, 9.573],
        [77.3398, 9.573],
        [77.3399, 9.5731],
        [77.3399, 9.5732],
        [77.3549, 9.6036],
        [77.361, 9.602],
        [77.3654, 9.5963],
        [77.3578, 9.5957],
        [77.3577, 9.5957],
        [77.3576, 9.5956],
        [77.3575, 9.5956],
        [77.3575, 9.5955],
        [77.3574, 9.5954],
        [77.3546, 9.5869],
        [77.3546, 9.5868],
        [77.3546, 9.5867],
        [77.3547, 9.5866],
        [77.3594, 9.5778],
        [77.35, 9.5674],
        [77.3499, 9.5673],
        [77.3499, 9.5672],
        [77.3499, 9.5671],
        [77.3499, 9.567],
        [77.3525, 9.5596],
        [77.3526, 9.5595],
        [77.3527, 9.5594],
        [77.3528, 9.5593],
        [77.3529, 9.5593],
        [77.3608, 9.5579],
        [77.3651, 9.5519],
        [77.365, 9.5351],
        [77.3651, 9.535],
        [77.3651, 9.5349],
        [77.3651, 9.5348],
        [77.3652, 9.5348],
        [77.3848, 9.5191],
        [77.3849, 9.519],
        [77.385, 9.519],
        [77.3851, 9.519],
        [77.3852, 9.519],
        [77.3853, 9.519],
        [77.4001, 9.5269],
        [77.4019, 9.5251],
        [77.3999, 9.518],
        [77.3998, 9.5179],
        [77.3999, 9.5178],
        [77.3999, 9.5177],
        [77.3999, 9.5176],
        [77.4, 9.5176],
        [77.4001, 9.5175],
        [77.4083, 9.5143],
        [77.4109, 9.5076],
        [77.3983, 9.4957],
        [77.3982, 9.4956],
        [77.3981, 9.4955],
        [77.3981, 9.4954],
        [77.3979, 9.4817],
        [77.3979, 9.4816],
        [77.398, 9.4815],
        [77.398, 9.4814],
        [77.3981, 9.4813],
        [77.4013, 9.4785],
        [77.3909, 9.4688],
        [77.3908, 9.4688],
        [77.3908, 9.4687],
        [77.3908, 9.4686],
        [77.3907, 9.4685],
        [77.3907, 9.4684],
        [77.3919, 9.4595],
        [77.3772, 9.4533],
        [77.3645, 9.4596],
        [77.3644, 9.4596],
        [77.3643, 9.4596],
        [77.3642, 9.4596],
        [77.3641, 9.4596],
        [77.364, 9.4596],
        [77.364, 9.4595],
        [77.3639, 9.4595],
        [77.3482, 9.4405],
        [77.3481, 9.4404],
        [77.3481, 9.4403],
        [77.3447, 9.4264],
        [77.3388, 9.4205],
        [77.3388, 9.4204],
        [77.3387, 9.4204],
        [77.3387, 9.4203],
        [77.3359, 9.4117],
        [77.3359, 9.4116],
        [77.3359, 9.4115],
        [77.3359, 9.4114],
        [77.336, 9.4113],
        [77.3431, 9.4027],
        [77.3408, 9.3899],
        [77.334, 9.3817],
        [77.3339, 9.3816],
        [77.3339, 9.3815],
        [77.3339, 9.3814],
        [77.3354, 9.362],
        [77.3252, 9.3464],
        [77.3252, 9.3463],
        [77.3252, 9.3462],
        [77.3246, 9.3375],
        [77.2997, 9.3369],
        [77.2996, 9.3369],
        [77.2995, 9.3369],
        [77.2994, 9.3368],
        [77.2993, 9.3367],
        [77.2993, 9.3366],
        [77.2992, 9.3366],
        [77.2992, 9.3365],
        [77.2992, 9.3364],
        [77.3002, 9.3306],
        [77.2967, 9.3299],
        [77.2967, 9.3298],
        [77.2966, 9.3298],
        [77.2965, 9.3298],
        [77.2965, 9.3297],
        [77.2964, 9.3296],
        [77.2964, 9.3295],
        [77.2964, 9.3294],
        [77.2964, 9.3293],
        [77.2964, 9.3292],
        [77.3019, 9.3195],
        [77.293, 9.305],
        [77.2827, 9.3019],
        [77.2826, 9.3019],
        [77.2826, 9.3018],
        [77.2825, 9.3018],
        [77.2824, 9.3017],
        [77.2824, 9.3016],
        [77.2824, 9.3015],
        [77.2824, 9.3014],
        [77.288, 9.2747],
        [77.2818, 9.2736],
        [77.2817, 9.2735],
        [77.2816, 9.2735],
        [77.2815, 9.2734],
        [77.2814, 9.2733],
        [77.2814, 9.2732],
        [77.2814, 9.2731],
        [77.2795, 9.2409],
        [77.2738, 9.2355],
        [77.2737, 9.2355],
        [77.2737, 9.2354],
        [77.2736, 9.2353],
        [77.2736, 9.2352],
        [77.2736, 9.2351],
        [77.2737, 9.235],
        [77.2817, 9.2169],
        [77.2705, 9.2027],
        [77.2566, 9.1997],
        [77.2565, 9.1996],
        [77.2564, 9.1995],
        [77.2563, 9.1995],
        [77.2563, 9.1994],
        [77.2527, 9.1894],
        [77.2527, 9.1893],
        [77.2527, 9.1892],
        [77.2527, 9.1891],
        [77.2527, 9.189],
        [77.2528, 9.1889],
        [77.2529, 9.1889],
        [77.2658, 9.1815],
        [77.2669, 9.1544],
        [77.2527, 9.1396],
        [77.2526, 9.1395],
        [77.2526, 9.1394],
        [77.2468, 9.125],
        [77.2284, 9.1173],
        [77.2283, 9.1172],
        [77.2282, 9.1172],
        [77.2282, 9.1171],
        [77.2281, 9.1171],
        [77.2281, 9.117],
        [77.2257, 9.1081],
        [77.212, 9.1006],
        [77.2119, 9.1005],
        [77.2119, 9.1004],
        [77.2118, 9.1004],
        [77.2053, 9.0852],
        [77.2053, 9.0851],
        [77.2053, 9.085],
        [77.2072, 9.0723],
        [77.1965, 9.0569],
        [77.1964, 9.0568],
        [77.1964, 9.0567],
        [77.1964, 9.0566],
        [77.1971, 9.0473],
        [77.1912, 9.044],
        [77.1825, 9.0479],
        [77.1824, 9.048],
        [77.1823, 9.048],
        [77.1679, 9.046],
        [77.1678, 9.0459],
        [77.1677, 9.0459],
        [77.1676, 9.0458],
        [77.1601, 9.0362],
        [77.1601, 9.0361],
        [77.1601, 9.036],
        [77.1601, 9.0359],
        [77.1605, 9.0295],
        [77.1537, 9.023],
        [77.1466, 9.0224],
        [77.1465, 9.0224],
        [77.1464, 9.0223],
        [77.1463, 9.0223],
        [77.1463, 9.0222],
        [77.1462, 9.0221],
        [77.1462, 9.022],
        [77.1462, 9.0219],
        [77.149, 9.0097],
        [77.149, 9.0096],
        [77.1491, 9.0095],
        [77.1491, 9.0094],
        [77.1492, 9.0094],
        [77.1493, 9.0093],
        [77.1566, 9.0073],
        [77.1612, 8.9953],
        [77.1612, 8.9952],
        [77.1613, 8.9951],
        [77.1614, 8.9951],
        [77.1615, 8.995],
        [77.1731, 8.9912],
        [77.1777, 8.9692],
        [77.1778, 8.9691],
        [77.1778, 8.969],
        [77.1779, 8.9689],
        [77.178, 8.9688],
        [77.1781, 8.9688],
        [77.188, 8.9677],
        [77.196, 8.9542],
        [77.1934, 8.9436],
        [77.1934, 8.9435],
        [77.1934, 8.9434],
        [77.1934, 8.9433],
        [77.1967, 8.9353],
        [77.1928, 8.9261],
        [77.1928, 8.926],
        [77.1928, 8.9259],
        [77.1928, 8.9258],
        [77.1928, 8.9257],
        [77.1929, 8.9256],
        [77.1929, 8.9255],
        [77.193, 8.9255],
        [77.1931, 8.9254],
        [77.2179, 8.9181],
        [77.2211, 8.9037],
        [77.2212, 8.9036],
        [77.2212, 8.9035],
        [77.2213, 8.9035],
        [77.2213, 8.9034],
        [77.2214, 8.9034],
        [77.238, 8.8974],
        [77.238, 8.8847],
        [77.238, 8.8846],
        [77.2381, 8.8845],
        [77.2382, 8.8844],
        [77.2382, 8.8843],
        [77.2383, 8.8843],
        [77.2559, 8.8779],
        [77.258, 8.8655],
        [77.255, 8.861],
        [77.255, 8.8609],
        [77.255, 8.8608],
        [77.255, 8.8607],
        [77.255, 8.8606],
        [77.2551, 8.8605],
        [77.2551, 8.8604],
        [77.2607, 8.8563],
        [77.258, 8.8506],
        [77.2579, 8.8505],
        [77.2579, 8.8504],
        [77.2579, 8.8503],
        [77.258, 8.8502],
        [77.2618, 8.8418],
        [77.2466, 8.8237],
        [77.2465, 8.8237],
        [77.2465, 8.8236],
        [77.2465, 8.8235],
        [77.2465, 8.8234],
        [77.2465, 8.815],
        [77.2319, 8.8082],
        [77.2318, 8.8082],
        [77.2317, 8.8081],
        [77.2317, 8.808],
        [77.2316, 8.8079],
        [77.2295, 8.7856],
        [77.2131, 8.7796],
        [77.213, 8.7795],
        [77.2129, 8.7795],
        [77.2129, 8.7794],
        [77.2128, 8.7793],
        [77.2128, 8.7792],
        [77.2128, 8.7791],
        [77.2128, 8.779],
        [77.2173, 8.7686],
        [77.2095, 8.766],
        [77.2, 8.7704],
        [77.1999, 8.7704],
        [77.1998, 8.7704],
        [77.1997, 8.7704],
        [77.1996, 8.7704],
        [77.1967, 8.7688],
        [77.1967, 8.7687],
        [77.1966, 8.7687],
        [77.1965, 8.7686],
        [77.1965, 8.7685],
        [77.1965, 8.7684],
        [77.1965, 8.7683],
        [77.1981, 8.7536],
        [77.1912, 8.7429],
        [77.1787, 8.7446],
        [77.1731, 8.7506],
        [77.173, 8.7507],
        [77.1729, 8.7507],
        [77.1728, 8.7507],
        [77.1727, 8.7507],
        [77.1726, 8.7507],
        [77.1725, 8.7506],
        [77.1724, 8.7505],
        [77.1703, 8.747],
        [77.1702, 8.7469],
        [77.1702, 8.7468],
        [77.1702, 8.7467],
        [77.1702, 8.7466],
        [77.1828, 8.7167],
        [77.1829, 8.7166],
        [77.1829, 8.7165],
        [77.1947, 8.7076],
        [77.2067, 8.685],
        [77.2009, 8.6689],
        [77.2009, 8.6688],
        [77.2009, 8.6687],
        [77.2009, 8.6686],
        [77.2009, 8.6685],
        [77.201, 8.6684],
        [77.2011, 8.6684],
        [77.2083, 8.6633],
        [77.2148, 8.6481],
        [77.2149, 8.648],
        [77.2245, 8.639],
        [77.2246, 8.639],
        [77.2247, 8.6389],
        [77.2248, 8.6389],
        [77.2249, 8.6389],
        [77.2294, 8.6399],
        [77.2331, 8.6279],
        [77.2331, 8.6278],
        [77.2331, 8.6277],
        [77.2332, 8.6276],
        [77.2333, 8.6276],
        [77.2456, 8.6206],
        [77.2453, 8.6165],
        [77.2453, 8.6164],
        [77.2451, 8.6035],
        [77.2451, 8.6034],
        [77.2452, 8.6033],
        [77.2452, 8.6032],
        [77.2453, 8.6032],
        [77.2632, 8.5884],
        [77.2686, 8.5788],
        [77.2737, 8.56],
        [77.2737, 8.5599],
        [77.2737, 8.5598],
        [77.2831, 8.547],
        [77.2742, 8.538],
        [77.2742, 8.5379],
        [77.2741, 8.5378],
        [77.2615, 8.5069],
        [77.251, 8.506],
        [77.2509, 8.506],
        [77.2508, 8.5059],
        [77.2507, 8.5059],
        [77.2394, 8.4973],
        [77.2299, 8.5095],
        [77.2298, 8.5095],
        [77.2298, 8.5096],
        [77.2297, 8.5096],
        [77.2141, 8.5132],
        [77.214, 8.5132],
        [77.2139, 8.5132],
        [77.2138, 8.5132],
        [77.2137, 8.5131],
        [77.2019, 8.5022],
        [77.2018, 8.5021],
        [77.2018, 8.502],
        [77.2018, 8.5019],
        [77.2012, 8.4985],
        [77.2012, 8.4984],
        [77.2012, 8.4983],
        [77.2012, 8.4982],
        [77.2013, 8.4982],
        [77.2014, 8.4981],
        [77.2106, 8.4917],
        [77.2131, 8.4707],
        [77.2131, 8.4706],
        [77.2131, 8.4705],
        [77.2132, 8.4705],
        [77.2132, 8.4704],
        [77.2243, 8.4613],
        [77.2269, 8.448],
        [77.2062, 8.4451],
        [77.2061, 8.4451],
        [77.206, 8.445],
        [77.2059, 8.4449],
        [77.196, 8.4288],
        [77.1959, 8.4287],
        [77.1959, 8.4286],
        [77.1959, 8.4285],
        [77.1967, 8.4201],
        [77.1822, 8.4046],
        [77.1822, 8.4045],
        [77.1821, 8.4044],
        [77.1821, 8.4043],
        [77.1815, 8.3965],
        [77.1682, 8.3851],
        [77.161, 8.3902],
        [77.1609, 8.3903],
        [77.1608, 8.3903],
        [77.1607, 8.3903],
        [77.1606, 8.3903],
        [77.1605, 8.3902],
        [77.1512, 8.3852],
        [77.1511, 8.3851],
        [77.1511, 8.385],
        [77.151, 8.385],
        [77.151, 8.3849],
        [77.151, 8.3848],
        [77.151, 8.3847],
        [77.1513, 8.3809],
        [77.1513, 8.3808],
        [77.1513, 8.3807],
        [77.1514, 8.3806],
        [77.1515, 8.3806],
        [77.1515, 8.3805],
        [77.1516, 8.3805],
        [77.1517, 8.3805],
        [77.1594, 8.3806],
        [77.1602, 8.3742],
        [77.1517, 8.355],
        [77.1516, 8.3549],
        [77.1516, 8.3548],
        [77.1516, 8.3547],
        [77.1517, 8.3546],
        [77.1517, 8.3545],
        [77.1518, 8.3544],
        [77.1519, 8.3544],
        [77.152, 8.3544],
        [77.1521, 8.3544],
        [77.1522, 8.3544],
        [77.1523, 8.3544],
        [77.1679, 8.363],
        [77.1735, 8.3584],
        [77.1743, 8.3496],
        [77.1664, 8.3431],
        [77.1663, 8.343],
        [77.1663, 8.3429],
        [77.1662, 8.3428],
        [77.1662, 8.3427],
        [77.1662, 8.3426],
        [77.1678, 8.3349],
        [77.1678, 8.3348],
        [77.1679, 8.3347],
        [77.1679, 8.3346],
        [77.1681, 8.3345],
        [77.1541, 8.3282],
        [77.1487, 8.3326],
        [77.1486, 8.3326],
        [77.1485, 8.3327],
        [77.1484, 8.3327],
        [77.1483, 8.3327],
        [77.1286, 8.3255],
        [77.1285, 8.3255],
        [77.1284, 8.3254],
        [77.1284, 8.3253],
        [77.1283, 8.3253],
        [77.1283, 8.3252],
        [77.1283, 8.3251],
        [77.1283, 8.325],
        [77.1289, 8.3226],
        [77.1189, 8.3218],
        [77.1188, 8.3218],
        [77.1187, 8.3217],
        [77.1186, 8.3217],
        [77.1186, 8.3216],
        [77.1185, 8.3215],
        [77.1185, 8.3214],
        [77.1185, 8.3213],
        [77.1218, 8.31],
        [77.1166, 8.3106],
        [77.1165, 8.3106],
        [77.1164, 8.3106],
        [77.1163, 8.3106],
        [77.1162, 8.3106],
        [77.1162, 8.3105],
        [77.1161, 8.3104],
        [77.1132, 8.3053],
        [77.1031, 8.3074],
        [77.103, 8.3074],
        [77.1029, 8.3074],
        [77.1028, 8.3074],
        [77.1027, 8.3073],
        [77.1026, 8.3072],
        [77.1026, 8.3071],
        [77.0974, 8.2926],
        [77.0973, 8.2925],
        [77.0974, 8.2924],
        [77.0974, 8.2923],
        [77.0814, 8.3045],
        [77.01, 8.3572],
        [76.9863, 8.3756],
        [76.9777, 8.383],
        [76.9734, 8.3868],
        [76.9708, 8.3927],
        [76.9689, 8.4028],
        [76.9322, 8.4554],
        [76.9086, 8.4822],
        [76.8554, 8.5485],
        [76.7355, 8.6966],
        [76.6993, 8.7386],
        [76.6731, 8.7818],
        [76.6456, 8.8183],
        [76.6181, 8.8518],
        [76.5911, 8.8753],
        [76.5719, 8.8834],
        [76.566, 8.88],
        [76.5545, 8.8942],
        [76.5424, 8.9134],
        [76.5403, 8.9323],
        [76.5355, 8.934],
        [76.5441, 8.9363],
        [76.5408, 8.9393],
        [76.5356, 8.9363],
        [76.5167, 9.0178],
        [76.485, 9.0901],
        [76.4663, 9.129],
        [76.3846, 9.3075],
        [76.3432, 9.4007],
        [76.3183, 9.4939],
        [76.3063, 9.552],
        [76.2954, 9.6374],
        [76.2773, 9.7891],
        [76.261, 9.8815],
        [76.2378, 9.9565],
        [76.2402, 9.9746],
        [76.2388, 9.9846],
        [76.2257, 9.9904],
        [76.2207, 9.9989],
        [76.1675, 10.1711],
        [76.1671, 10.1823],
        [76.1627, 10.1839],
        [76.1535, 10.2091],
        [76.1102, 10.3505],
        [76.1005, 10.3818],
        [76.0671, 10.456],
        [76.0531, 10.4826],
        [76.0326, 10.516],
        [75.9566, 10.6866],
        [75.9129, 10.786],
        [75.8938, 10.8676],
        [75.8839, 10.9127],
        [75.8582, 11.0186],
        [75.8413, 11.0825],
        [75.8261, 11.1245],
        [75.8147, 11.1493],
        [75.8045, 11.1565],
        [75.8093, 11.163],
        [75.8016, 11.1664],
        [75.7857, 11.2095],
        [75.7716, 11.2501],
        [75.7517, 11.3091],
        [75.7468, 11.3212],
        [75.7367, 11.325],
        [75.732, 11.3562],
        [75.7157, 11.3931],
        [75.6807, 11.4509],
        [75.6753, 11.4511],
        [75.6635, 11.4607],
        [75.6474, 11.467],
        [75.6353, 11.4603],
        [75.6255, 11.473],
        [75.62, 11.4745],
        [75.6158, 11.4776],
        [75.5906, 11.5618],
        [75.5669, 11.6294],
        [75.5366, 11.6939],
        [75.542, 11.6987],
        [75.5443, 11.7046],
        [75.5359, 11.7099],
        [75.5306, 11.704],
        [75.5172, 11.7165],
        [75.5086, 11.732],
        [75.4978, 11.7317],
        [75.485, 11.7462],
        [75.4836, 11.7515],
        [75.4804, 11.7553],
        [75.4744, 11.7601],
        [75.4706, 11.7668],
        [75.4683, 11.7648],
        [75.4596, 11.7658],
        [75.4539, 11.7717],
        [75.4528, 11.7778],
        [75.4469, 11.7817],
        [75.4463, 11.7893],
        [75.424, 11.8126],
        [75.3846, 11.8548],
        [75.3743, 11.8526],
        [75.3669, 11.8508],
        [75.3542, 11.8602],
        [75.351, 11.8703],
        [75.3235, 11.9034],
        [75.3185, 11.9051],
        [75.3178, 11.9149],
        [75.2943, 11.9419],
        [75.2878, 11.9516],
        [75.2492, 12.0063],
        [75.2268, 12.0211],
        [75.2212, 12.0126],
        [75.2023, 12.0039],
        [75.163, 12.0909],
        [75.117, 12.2058],
        [75.104, 12.2424],
        [75.0511, 12.3649],
        [75.0398, 12.3881],
        [75.0317, 12.3918],
        [75.022, 12.4137],
        [75.015, 12.4181],
        [74.9919, 12.4669],
        [74.956, 12.5468],
        [74.9639, 12.5295],
        [74.9553, 12.559],
        [74.9622, 12.5662],
        [74.9756, 12.5708],
        [74.9599, 12.5663],
        [74.9538, 12.5584],
        [74.9546, 12.5493],
        [74.9385, 12.5914],
        [74.942, 12.5865],
        [74.9403, 12.5954],
        [74.9478, 12.6061],
        [74.9541, 12.6052],
        [74.9418, 12.6075],
        [74.9395, 12.5956],
        [74.9321, 12.6146],
        [74.9417, 12.6324],
        [74.95, 12.6364],
        [74.9424, 12.6374],
        [74.9281, 12.6118],
        [74.888, 12.7077],
        [74.8969, 12.6972],
        [74.9064, 12.6953],
        [74.8989, 12.6983],
        [74.8937, 12.7113],
        [74.8915, 12.7124],
        [74.8983, 12.7143],
        [74.8867, 12.7126],
        [74.8851, 12.7106],
        [74.887, 12.7089],
        [74.8847, 12.7104],
        [74.8677, 12.7514],
        [74.8697, 12.7608],
        [74.8744, 12.7552],
        [74.8825, 12.7543],
        [74.9331, 12.7808],
        [74.9584, 12.7849],
        [74.9602, 12.7791],
        [74.9646, 12.7819],
        [74.9686, 12.7766],
        [74.9875, 12.7832],
        [74.9923, 12.7885],
        [74.9892, 12.7957],
        [74.9985, 12.7862],
        [75.0028, 12.7886],
        [75.0014, 12.7919],
        [75.0056, 12.7908],
        [75.004, 12.7774],
        [75.0099, 12.7678],
        [74.9874, 12.7424],
        [74.9842, 12.7444],
        [74.9839, 12.7365],
        [74.9862, 12.7339],
        [74.9922, 12.7398],
        [75.0132, 12.7277],
        [75.0009, 12.7164],
        [75.0151, 12.7143],
        [75.0185, 12.7209],
        [75.0391, 12.724],
        [75.0523, 12.72],
        [75.0521, 12.7133],
        [75.054, 12.7071],
        [75.0499, 12.7041],
        [75.055, 12.6923],
        [75.0437, 12.6927],
        [75.0403, 12.6852],
        [75.0465, 12.6677],
        [75.0541, 12.6701],
        [75.0576, 12.6657],
        [75.0593, 12.6719],
        [75.0687, 12.6647],
        [75.074, 12.6723],
        [75.0859, 12.6755],
        [75.0851, 12.6956],
        [75.0808, 12.699],
        [75.0858, 12.704],
        [75.1063, 12.6964],
        [75.1111, 12.6818],
        [75.122, 12.6789],
        [75.1248, 12.6817],
        [75.1325, 12.6761],
        [75.1515, 12.683],
        [75.1496, 12.6735],
        [75.1618, 12.672],
        [75.1506, 12.6499],
        [75.138, 12.6432],
        [75.1477, 12.6344],
        [75.1541, 12.6243],
        [75.1607, 12.6222],
        [75.1715, 12.6232],
        [75.1822, 12.6327],
        [75.2016, 12.6302],
        [75.1992, 12.611],
        [75.2054, 12.609],
        [75.2096, 12.5999],
        [75.2016, 12.5932],
        [75.2009, 12.5874],
        [75.2094, 12.5908],
        [75.2124, 12.5785],
        [75.22, 12.5695],
        [75.2238, 12.5704],
        [75.2299, 12.5686],
        [75.2376, 12.5698],
        [75.2385, 12.5809],
        [75.2501, 12.5846],
        [75.261, 12.5976],
        [75.2672, 12.6145],
        [75.2789, 12.6166],
        [75.2894, 12.6102],
        [75.2916, 12.6017],
        [75.3021, 12.6049],
        [75.3122, 12.5892],
        [75.3275, 12.5916],
        [75.3281, 12.5842],
        [75.3157, 12.5723],
        [75.2905, 12.5825],
        [75.2859, 12.5703],
        [75.2728, 12.5686],
        [75.27, 12.5582],
        [75.274, 12.5347],
        [75.2794, 12.5258],
        [75.3034, 12.5237],
        [75.3039, 12.5049],
        [75.3136, 12.5032],
        [75.3146, 12.4985],
        [75.3246, 12.4962],
        [75.3325, 12.4993],
        [75.3376, 12.4884],
        [75.3358, 12.4778],
        [75.3417, 12.4701],
        [75.3368, 12.4643],
        [75.3456, 12.4628],
        [75.3593, 12.4642],
        [75.3717, 12.4756],
        [75.3677, 12.4912],
        [75.3826, 12.5018],
        [75.3918, 12.4998],
        [75.3982, 12.5039],
        [75.4039, 12.4977],
        [75.4162, 12.501],
        [75.4238, 12.4673],
        [75.4153, 12.4663],
        [75.4133, 12.4587],
        [75.3935, 12.4515],
        [75.3866, 12.4588],
        [75.3656, 12.4572],
        [75.3713, 12.4379],
        [75.3662, 12.4123],
        [75.3727, 12.4006],
        [75.3794, 12.3927],
        [75.3925, 12.3898],
        [75.3983, 12.3817],
        [75.4132, 12.3804],
        [75.4221, 12.3723],
        [75.4188, 12.3558],
        [75.4105, 12.3468],
        [75.4203, 12.3192],
        [75.4322, 12.3098],
        [75.4144, 12.2928],
        [75.4212, 12.2922],
        [75.431, 12.299],
        [75.4607, 12.2945],
        [75.4702, 12.3014],
        [75.4863, 12.2897],
        [75.4931, 12.2742],
        [75.5056, 12.2707],
        [75.5062, 12.2645],
        [75.5122, 12.2602],
        [75.5114, 12.2537],
        [75.5198, 12.2461],
        [75.521, 12.2362],
        [75.5279, 12.2317],
        [75.5269, 12.2254],
        [75.5394, 12.2168],
        [75.5319, 12.2014],
        [75.5394, 12.2029],
        [75.5415, 12.1968],
        [75.5519, 12.1935],
        [75.5549, 12.1832],
        [75.5699, 12.1722],
        [75.577, 12.1578],
        [75.5831, 12.1592],
        [75.5923, 12.1476],
        [75.5959, 12.1544],
        [75.6113, 12.1528],
        [75.6184, 12.1568],
        [75.6358, 12.1492],
        [75.6378, 12.1391],
        [75.6427, 12.1391],
        [75.6485, 12.1092],
        [75.6518, 12.1105],
        [75.6612, 12.0994],
        [75.6766, 12.0988],
        [75.6898, 12.1112],
        [75.7029, 12.1083],
        [75.702, 12.0925],
        [75.7175, 12.0858],
        [75.7148, 12.0705],
        [75.7358, 12.0791],
        [75.7469, 12.0785],
        [75.753, 12.0847],
        [75.7853, 12.0844],
        [75.8023, 12.0791],
        [75.7982, 12.0562],
        [75.7938, 12.0551],
        [75.8004, 12.0456],
        [75.8009, 12.0365],
        [75.8108, 12.0292],
        [75.8096, 12.0226],
        [75.8228, 12.0125],
        [75.82, 12.0029],
        [75.825, 12.0022],
        [75.8303, 11.9838],
        [75.8463, 11.9816],
        [75.8531, 11.9647],
        [75.8707, 11.9523],
        [75.8856, 11.9515],
        [75.897, 11.9455],
        [75.9136, 11.9475],
        [75.9293, 11.9405],
        [75.9403, 11.9436],
        [75.9558, 11.9421],
        [75.9763, 11.9336],
        [76.003, 11.9314],
        [76.0109, 11.9413],
        [76.0233, 11.944],
        [76.0345, 11.941],
        [76.0708, 11.9674],
        [76.0939, 11.9688],
        [76.1124, 11.9791],
        [76.1126, 11.8589],
        [76.1212, 11.851],
        [76.1219, 11.8512],
        [76.1577, 11.8709],
        [76.164, 11.8678],
        [76.1916, 11.8712],
        [76.2076, 11.8617],
        [76.2132, 11.843],
        [76.2101, 11.8289],
        [76.2229, 11.8091],
        [76.2464, 11.8029],
        [76.2801, 11.8115],
        [76.2903, 11.7929],
        [76.3077, 11.7839],
        [76.317, 11.7523],
        [76.3287, 11.7487],
        [76.3393, 11.7391],
        [76.3522, 11.7384],
        [76.3626, 11.7483],
        [76.3769, 11.7446],
        [76.3915, 11.7549],
        [76.3987, 11.751],
        [76.414, 11.7589],
        [76.4105, 11.7422],
        [76.4182, 11.7427],
        [76.4274, 11.7261],
        [76.414, 11.7113],
        [76.4085, 11.7151],
        [76.4035, 11.7078],
        [76.4089, 11.7065],
        [76.4124, 11.6951],
        [76.4084, 11.6898],
        [76.4159, 11.6729],
        [76.4309, 11.6665],
        [76.4358, 11.6538],
        [76.4438, 11.6472],
        [76.4325, 11.6316],
        [76.4064, 11.6341],
        [76.3879, 11.6297],
        [76.3776, 11.6019],
        [76.3547, 11.5894],
        [76.3402, 11.5871],
        [76.3358, 11.5957],
        [76.3212, 11.5863],
        [76.3159, 11.5766],
        [76.3102, 11.5773],
        [76.3022, 11.5713],
        [76.2957, 11.5907],
        [76.2861, 11.5903],
        [76.2787, 11.6009],
        [76.2742, 11.5939],
        [76.2649, 11.5938],
        [76.234, 11.5686],
        [76.2444, 11.5543],
        [76.2445, 11.543],
        [76.2514, 11.5379],
        [76.2502, 11.5275],
        [76.2378, 11.5275],
        [76.2482, 11.5167],
        [76.2508, 11.5028],
        [76.2474, 11.4683],
        [76.2644, 11.4809],
        [76.2756, 11.4769],
        [76.2845, 11.4829],
        [76.2943, 11.473],
        [76.2904, 11.4697],
        [76.2937, 11.4657],
        [76.3053, 11.468],
        [76.3256, 11.4534],
        [76.3422, 11.4678],
        [76.3712, 11.4544],
        [76.3979, 11.4349],
        [76.4189, 11.4418],
        [76.4153, 11.4225],
        [76.462, 11.3875],
        [76.5172, 11.3695],
        [76.5095, 11.3554],
        [76.5475, 11.3594],
        [76.5497, 11.3316],
        [76.537, 11.3146],
        [76.539, 11.3049],
        [76.5455, 11.3011],
        [76.526, 11.2884],
        [76.5219, 11.272],
        [76.4532, 11.2395],
        [76.45, 11.2129],
        [76.4491, 11.2055],
        [76.4426, 11.2039],
        [76.4388, 11.1991],
        [76.452, 11.1993],
        [76.4583, 11.1876],
        [76.4734, 11.1948],
        [76.4723, 11.2088],
        [76.499, 11.2115],
        [76.5102, 11.2115],
        [76.516, 11.2042],
        [76.534, 11.1967],
        [76.6004, 11.2061],
        [76.6292, 11.194],
        [76.6777, 11.2211],
        [76.6849, 11.2339],
        [76.6977, 11.2394],
        [76.7067, 11.2381],
        [76.7209, 11.225],
        [76.7253, 11.2256],
        [76.7254, 11.2191],
        [76.7317, 11.2156],
        [76.722, 11.2034],
        [76.7284, 11.1914],
        [76.7226, 11.1919],
        [76.7178, 11.1866],
        [76.7103, 11.1885],
        [76.7067, 11.1796],
        [76.6999, 11.1816],
        [76.7011, 11.1765],
        [76.6928, 11.1723],
        [76.6896, 11.1592],
        [76.7056, 11.1419],
        [76.7122, 11.1423],
        [76.7087, 11.1476],
        [76.7177, 11.1475],
        [76.7284, 11.1303],
        [76.7344, 11.1361],
        [76.7394, 11.1317],
        [76.7464, 11.1377],
        [76.7475, 11.1177],
        [76.7456, 11.1085],
        [76.7388, 11.1039],
        [76.7468, 11.0924],
        [76.7516, 11.0931],
        [76.7548, 11.079],
        [76.7413, 11.0731],
        [76.7442, 11.057],
        [76.7606, 11.0527],
        [76.7654, 11.0457],
        [76.7774, 11.0423],
        [76.7889, 11.046],
        [76.796, 11.0564],
        [76.8001, 11.0551],
        [76.7918, 11.038],
        [76.766, 11.0297],
        [76.738, 11.0396],
        [76.7109, 11.039],
        [76.71, 11.0343],
        [76.6946, 11.0228],
        [76.6859, 10.9902],
        [76.6671, 10.9693],
        [76.6647, 10.9436],
        [76.656, 10.9391],
        [76.6593, 10.9306],
        [76.6951, 10.9102],
        [76.7158, 10.9075],
        [76.7412, 10.8903],
        [76.7548, 10.8952],
        [76.7685, 10.8878],
        [76.7821, 10.8913],
        [76.7919, 10.8822],
        [76.8125, 10.8768],
        [76.8281, 10.873],
        [76.8332, 10.8599],
        [76.8475, 10.8499],
        [76.8528, 10.8342],
        [76.8448, 10.8258],
        [76.8505, 10.8189],
        [76.8632, 10.8181],
        [76.8716, 10.8086],
        [76.9, 10.8086],
        [76.9072, 10.7792],
        [76.9042, 10.7725],
        [76.9046, 10.7626],
        [76.8888, 10.7344],
        [76.8933, 10.7219],
        [76.8906, 10.7172],
        [76.8825, 10.7175],
        [76.8679, 10.6954],
        [76.8714, 10.6928],
        [76.8662, 10.6855],
        [76.8673, 10.6799],
        [76.8778, 10.6768],
        [76.8785, 10.6717],
        [76.8843, 10.6484],
        [76.8826, 10.6395],
        [76.8595, 10.6324],
        [76.8301, 10.6379],
        [76.8145, 10.6358],
        [76.8105, 10.6243],
        [76.8168, 10.6173],
        [76.8174, 10.6038],
        [76.8261, 10.5968],
        [76.8328, 10.6],
        [76.8388, 10.5971],
        [76.8341, 10.5747],
        [76.8397, 10.5649],
        [76.8353, 10.5457],
        [76.8431, 10.5374],
        [76.8305, 10.4985],
        [76.8283, 10.4508],
        [76.8162, 10.4237],
        [76.8245, 10.4103],
        [76.8303, 10.4117],
        [76.8335, 10.4081],
        [76.8338, 10.4036],
        [76.8237, 10.3954],
        [76.844, 10.3779],
        [76.8487, 10.3686],
        [76.8463, 10.3579],
        [76.8361, 10.3462],
        [76.8376, 10.338],
        [76.83, 10.3039],
        [76.8408, 10.2999],
        [76.8446, 10.2952],
        [76.8421, 10.2909],
        [76.8486, 10.2854],
        [76.8522, 10.2855],
        [76.855, 10.2931],
        [76.8627, 10.2923],
        [76.8732, 10.2985],
        [76.8733, 10.2767],
        [76.8975, 10.2626],
        [76.9011, 10.2519],
        [76.9056, 10.2482],
        [76.9031, 10.2406],
        [76.9084, 10.2411],
        [76.9128, 10.235],
        [76.9217, 10.2325],
        [76.9395, 10.2392],
        [76.9507, 10.2328],
        [76.9687, 10.2311],
        [76.9826, 10.2204],
        [77.0151, 10.2449],
        [77.0261, 10.2483],
        [77.0263, 10.2483]
      ]
    ]
  },
  "bbox": [74.8677, 8.2923, 77.4109, 12.7957]
}
