{
  "type": "Feature",
  "id": "MH-AC-126",
  "properties": {
    "stateName": "MAHARASHTRA",
    "stateCode": "MH",
    "districtName": "NASHIK",
    "acNo": 126,
    "acName": "DEOLALI (SC)",
    "seatType": null,
    "pcNo": null,
    "pcName": null,
    "quality": "unverified",
    "sources": [
      "TBD"
    ]
  },
  "geometry": {
    "type": "Polygon",
    "coordinates": [
      [
        [73.66708, 20.11814],
        [73.66793, 20.11896],
        [73.67081, 20.12175],
        [73.67443, 20.12829],
        [73.6751, 20.12949],
        [73.67544, 20.1295],
        [73.68083, 20.12959],
        [73.68579, 20.12211],
        [73.68577, 20.12025],
        [73.68569, 20.11268],
        [73.69165, 20.111],
        [73.69589, 20.10863],
        [73.69615, 20.10732],
        [73.69637, 20.10616],
        [73.69465, 20.09984],
        [73.69492, 20.09931],
        [73.695, 20.09916],
        [73.69593, 20.09734],
        [73.69669, 20.09587],
        [73.70338, 20.09515],
        [73.70795, 20.0975],
        [73.71099, 20.09542],
        [73.71669, 20.09488],
        [73.71837, 20.09593],
        [73.72462, 20.09985],
        [73.7315, 20.10178],
        [73.73374, 20.09976],
        [73.73663, 20.0987],
        [73.74005, 20.09744],
        [73.74873, 20.09269],
        [73.74955, 20.08792],
        [73.75184, 20.08291],
        [73.7535, 20.08219],
        [73.76325, 20.07793],
        [73.76597, 20.07789],
        [73.76248, 20.07276],
        [73.75743, 20.06816],
        [73.75835, 20.06068],
        [73.75677, 20.05499],
        [73.75597, 20.05244],
        [73.75199, 20.04913],
        [73.75062, 20.03987],
        [73.75218, 20.03614],
        [73.75419, 20.03077],
        [73.7568, 20.02377],
        [73.75645, 20.02296],
        [73.75546, 20.02294],
        [73.75252, 20.02253],
        [73.75142, 20.02205],
        [73.75022, 20.02087],
        [73.74889, 20.02003],
        [73.74717, 20.01977],
        [73.74606, 20.01986],
        [73.74469, 20.02076],
        [73.74294, 20.02164],
        [73.74096, 20.0223],
        [73.73886, 20.0226],
        [73.73599, 20.02427],
        [73.73486, 20.02494],
        [73.73275, 20.02582],
        [73.72897, 20.0292],
        [73.72561, 20.03063],
        [73.7242, 20.03303],
        [73.72305, 20.0345],
        [73.72156, 20.03493],
        [73.71985, 20.03444],
        [73.71594, 20.03081],
        [73.71119, 20.02641],
        [73.7026, 20.01766],
        [73.69833, 20.01134],
        [73.69718, 20.00785],
        [73.69499, 20.00677],
        [73.69281, 20.00546],
        [73.69137, 20.00416],
        [73.69092, 20.0023],
        [73.69097, 20.00057],
        [73.69089, 19.99884],
        [73.69007, 19.99686],
        [73.68912, 19.99557],
        [73.68903, 19.99419],
        [73.68908, 19.99223],
        [73.69001, 19.98948],
        [73.69017, 19.98804],
        [73.68972, 19.98641],
        [73.69011, 19.98573],
        [73.691, 19.98448],
        [73.69129, 19.98287],
        [73.69157, 19.98138],
        [73.69234, 19.98036],
        [73.69296, 19.97991],
        [73.69383, 19.97981],
        [73.69613, 19.98124],
        [73.69762, 19.98058],
        [73.70081, 19.98111],
        [73.70404, 19.97956],
        [73.70677, 19.97881],
        [73.7077, 19.97536],
        [73.70808, 19.97286],
        [73.71103, 19.9685],
        [73.71352, 19.96941],
        [73.71555, 19.97053],
        [73.71754, 19.97336],
        [73.7215, 19.97352],
        [73.72076, 19.9646],
        [73.71793, 19.96322],
        [73.7188, 19.95959],
        [73.72338, 19.95892],
        [73.73046, 19.95962],
        [73.74508, 19.9589],
        [73.75483, 19.95852],
        [73.7527, 19.94585],
        [73.75473, 19.94443],
        [73.79436, 19.94264],
        [73.79522, 19.96015],
        [73.80198, 19.96082],
        [73.81018, 19.95913],
        [73.81512, 19.96308],
        [73.82305, 19.97117],
        [73.82685, 19.97261],
        [73.83027, 19.96973],
        [73.83533, 19.96633],
        [73.83351, 19.9644],
        [73.83375, 19.96043],
        [73.84183, 19.95015],
        [73.84663, 19.94582],
        [73.85114, 19.94637],
        [73.85353, 19.94957],
        [73.85631, 19.95186],
        [73.85973, 19.95419],
        [73.86421, 19.95505],
        [73.8686, 19.95743],
        [73.87022, 19.96273],
        [73.87129, 19.96646],
        [73.8717, 19.97117],
        [73.87333, 19.97457],
        [73.86953, 19.97403],
        [73.86666, 19.97326],
        [73.8621, 19.97362],
        [73.86096, 19.97631],
        [73.86078, 19.97937],
        [73.85885, 19.98447],
        [73.86056, 19.988],
        [73.86092, 19.99444],
        [73.86105, 19.99978],
        [73.86093, 20.00499],
        [73.85999, 20.01176],
        [73.87596, 20.00965],
        [73.87609, 20.01083],
        [73.87745, 20.0229],
        [73.8786, 20.02459],
        [73.88063, 20.02645],
        [73.88098, 20.02815],
        [73.88156, 20.03095],
        [73.88227, 20.03897],
        [73.88273, 20.04153],
        [73.88413, 20.04265],
        [73.88851, 20.04334],
        [73.90063, 20.04495],
        [73.90451, 20.04547],
        [73.90526, 20.04633],
        [73.90527, 20.04693],
        [73.90528, 20.05094],
        [73.90562, 20.05301],
        [73.90659, 20.05594],
        [73.90669, 20.05716],
        [73.90386, 20.06078],
        [73.90567, 20.06078],
        [73.91366, 20.06299],
        [73.92261, 20.0641],
        [73.92745, 20.06585],
        [73.94062, 20.0684],
        [73.94073, 20.06842],
        [73.9542, 20.06421],
        [73.9549, 20.0626],
        [73.95647, 20.05897],
        [73.9568, 20.05507],
        [73.95593, 20.04968],
        [73.95464, 20.04704],
        [73.94967, 20.0438],
        [73.94959, 20.04316],
        [73.94918, 20.0399],
        [73.94986, 20.03674],
        [73.94562, 20.03016],
        [73.94548, 20.02925],
        [73.94489, 20.02564],
        [73.93991, 20.0249],
        [73.93925, 20.0248],
        [73.93682, 20.02343],
        [73.93842, 20.00591],
        [73.93946, 20.00349],
        [73.94042, 20.00259],
        [73.94232, 20.00083],
        [73.94236, 20.00069],
        [73.94525, 19.98871],
        [73.94608, 19.98525],
        [73.9419, 19.98245],
        [73.94164, 19.98227],
        [73.93677, 19.98057],
        [73.93768, 19.97794],
        [73.93822, 19.97637],
        [73.93845, 19.9757],
        [73.93892, 19.96342],
        [73.94003, 19.9575],
        [73.93926, 19.95638],
        [73.93807, 19.95464],
        [73.93769, 19.95067],
        [73.93159, 19.95547],
        [73.93124, 19.94742],
        [73.9325, 19.94513],
        [73.93738, 19.94104],
        [73.9388, 19.93627],
        [73.93618, 19.93682],
        [73.92954, 19.93821],
        [73.9264, 19.93642],
        [73.92455, 19.93536],
        [73.91095, 19.92954],
        [73.91163, 19.9272],
        [73.91243, 19.92449],
        [73.9133, 19.92149],
        [73.91451, 19.91737],
        [73.92226, 19.90473],
        [73.92171, 19.90098],
        [73.92162, 19.9004],
        [73.91613, 19.90365],
        [73.90327, 19.9024],
        [73.89831, 19.90274],
        [73.89418, 19.90169],
        [73.89528, 19.89724],
        [73.8959, 19.89472],
        [73.8965, 19.88571],
        [73.89652, 19.88551],
        [73.88786, 19.88784],
        [73.87753, 19.89198],
        [73.87674, 19.89165],
        [73.87194, 19.88964],
        [73.87011, 19.88745],
        [73.86856, 19.88251],
        [73.87002, 19.87754],
        [73.87094, 19.87442],
        [73.87121, 19.86873],
        [73.87009, 19.86024],
        [73.86958, 19.86029],
        [73.86594, 19.86066],
        [73.85752, 19.8615],
        [73.85366, 19.86188],
        [73.84607, 19.85691],
        [73.83557, 19.85483],
        [73.84135, 19.84843],
        [73.8414, 19.84484],
        [73.83906, 19.84318],
        [73.83221, 19.83834],
        [73.83173, 19.8295],
        [73.83154, 19.82616],
        [73.82977, 19.82291],
        [73.82491, 19.82061],
        [73.8195, 19.81859],
        [73.81308, 19.81619],
        [73.80478, 19.82677],
        [73.80143, 19.82601],
        [73.80053, 19.8258],
        [73.79652, 19.82426],
        [73.78877, 19.81628],
        [73.7797, 19.80693],
        [73.77759, 19.80475],
        [73.77431, 19.80299],
        [73.75655, 19.81501],
        [73.75596, 19.81562],
        [73.75354, 19.81811],
        [73.75189, 19.82924],
        [73.75405, 19.85093],
        [73.75412, 19.85166],
        [73.74719, 19.84737],
        [73.74408, 19.84422],
        [73.74021, 19.84521],
        [73.73596, 19.84453],
        [73.73075, 19.84276],
        [73.72925, 19.84179],
        [73.72431, 19.8386],
        [73.7219, 19.84244],
        [73.72065, 19.84892],
        [73.71705, 19.8573],
        [73.7142, 19.85639],
        [73.71075, 19.85691],
        [73.70815, 19.85841],
        [73.70345, 19.86421],
        [73.70315, 19.86488],
        [73.69999, 19.87189],
        [73.69942, 19.87314],
        [73.69817, 19.87592],
        [73.69662, 19.88159],
        [73.69735, 19.88978],
        [73.6977, 19.89358],
        [73.69198, 19.89149],
        [73.6824, 19.88799],
        [73.67755, 19.88822],
        [73.67488, 19.89022],
        [73.66999, 19.89386],
        [73.66667, 19.89426],
        [73.66289, 19.89283],
        [73.65548, 19.89004],
        [73.64324, 19.88542],
        [73.63697, 19.8813],
        [73.63252, 19.87939],
        [73.63218, 19.87924],
        [73.62589, 19.88269],
        [73.6211, 19.88369],
        [73.62365, 19.88924],
        [73.62499, 19.89399],
        [73.62723, 19.8968],
        [73.62612, 19.89934],
        [73.62416, 19.90186],
        [73.62368, 19.90421],
        [73.62425, 19.90659],
        [73.62711, 19.9096],
        [73.63228, 19.91306],
        [73.62978, 19.9205],
        [73.62777, 19.92499],
        [73.62922, 19.9287],
        [73.63094, 19.93096],
        [73.63403, 19.934],
        [73.63552, 19.93775],
        [73.63506, 19.94015],
        [73.63519, 19.94294],
        [73.63449, 19.94702],
        [73.636, 19.95002],
        [73.63948, 19.95362],
        [73.64232, 19.95851],
        [73.64478, 19.96303],
        [73.64488, 19.96693],
        [73.64208, 19.96799],
        [73.64046, 19.96944],
        [73.6394, 19.97202],
        [73.63777, 19.97384],
        [73.63516, 19.97527],
        [73.62874, 19.97837],
        [73.62334, 19.97609],
        [73.61866, 19.98305],
        [73.61554, 19.982],
        [73.61447, 19.98615],
        [73.6122, 19.9926],
        [73.60851, 19.99725],
        [73.59674, 19.997],
        [73.59209, 19.99789],
        [73.58687, 19.99872],
        [73.58708, 20.00022],
        [73.58454, 20.00096],
        [73.58408, 20.00252],
        [73.58572, 20.00479],
        [73.58245, 20.00906],
        [73.57643, 20.01445],
        [73.57676, 20.02128],
        [73.57684, 20.02293],
        [73.57341, 20.02542],
        [73.57244, 20.03032],
        [73.57194, 20.03347],
        [73.57207, 20.03492],
        [73.57226, 20.03702],
        [73.57384, 20.0412],
        [73.57499, 20.04363],
        [73.57563, 20.04498],
        [73.57713, 20.05191],
        [73.57771, 20.05877],
        [73.56888, 20.06267],
        [73.56302, 20.06598],
        [73.56032, 20.0692],
        [73.55731, 20.07093],
        [73.55908, 20.07525],
        [73.56008, 20.07826],
        [73.56089, 20.0809],
        [73.56256, 20.08388],
        [73.56518, 20.08759],
        [73.5663, 20.08635],
        [73.56716, 20.08567],
        [73.56951, 20.08503],
        [73.57058, 20.08485],
        [73.57081, 20.08386],
        [73.57063, 20.08286],
        [73.57002, 20.08186],
        [73.5693, 20.08095],
        [73.56911, 20.07995],
        [73.56946, 20.07896],
        [73.57171, 20.07792],
        [73.57287, 20.07804],
        [73.57342, 20.07756],
        [73.57366, 20.07627],
        [73.57412, 20.07499],
        [73.57594, 20.07433],
        [73.57882, 20.0739],
        [73.58061, 20.07433],
        [73.581, 20.07554],
        [73.58127, 20.07733],
        [73.582, 20.07794],
        [73.58327, 20.07797],
        [73.58463, 20.0785],
        [73.58481, 20.07989],
        [73.58489, 20.08099],
        [73.58647, 20.08132],
        [73.58795, 20.08145],
        [73.58931, 20.08227],
        [73.59013, 20.08348],
        [73.59097, 20.0837],
        [73.59368, 20.08317],
        [73.5942, 20.08469],
        [73.59457, 20.08882],
        [73.5971, 20.09847],
        [73.59797, 20.10139],
        [73.59473, 20.10333],
        [73.59335, 20.1051],
        [73.59344, 20.10746],
        [73.588, 20.11794],
        [73.58889, 20.11845],
        [73.5941, 20.12143],
        [73.59832, 20.12549],
        [73.59899, 20.12666],
        [73.60638, 20.13947],
        [73.61175, 20.14094],
        [73.6168, 20.13926],
        [73.62251, 20.13208],
        [73.62687, 20.12915],
        [73.63171, 20.12772],
        [73.63231, 20.12754],
        [73.63717, 20.12763],
        [73.6381, 20.12764],
        [73.64229, 20.12654],
        [73.65349, 20.12163],
        [73.6622, 20.11655],
        [73.66708, 20.11814]
      ]
    ]
  }
}
