{
  "type": "Feature",
  "id": "MH-AC-139",
  "properties": {
    "stateName": "MAHARASHTRA",
    "stateCode": "MH",
    "districtName": "THANE",
    "acNo": 139,
    "acName": "MURBAD",
    "seatType": null,
    "pcNo": null,
    "pcName": null,
    "quality": "unverified",
    "sources": [
      "TBD"
    ]
  },
  "geometry": {
    "type": "Polygon",
    "coordinates": [
      [
        [73.68667, 19.44288],
        [73.68766, 19.44195],
        [73.68831, 19.44138],
        [73.68895, 19.44081],
        [73.68844, 19.44042],
        [73.68792, 19.44003],
        [73.68815, 19.43965],
        [73.68839, 19.43928],
        [73.68902, 19.43851],
        [73.68964, 19.43775],
        [73.69028, 19.43686],
        [73.69092, 19.43597],
        [73.69144, 19.43531],
        [73.69196, 19.43464],
        [73.69221, 19.4344],
        [73.69236, 19.43426],
        [73.69259, 19.43411],
        [73.69279, 19.43402],
        [73.69299, 19.43392],
        [73.69317, 19.43379],
        [73.69342, 19.43368],
        [73.69371, 19.43355],
        [73.69407, 19.4337],
        [73.69418, 19.43391],
        [73.69439, 19.43413],
        [73.69456, 19.43434],
        [73.69472, 19.43453],
        [73.69502, 19.43468],
        [73.69533, 19.43461],
        [73.69558, 19.43448],
        [73.69584, 19.43431],
        [73.69605, 19.43414],
        [73.69634, 19.43405],
        [73.69658, 19.43418],
        [73.69677, 19.43435],
        [73.69695, 19.4345],
        [73.69716, 19.43469],
        [73.69745, 19.43481],
        [73.6977, 19.43479],
        [73.69798, 19.4347],
        [73.69822, 19.43453],
        [73.69851, 19.43436],
        [73.69873, 19.4343],
        [73.69893, 19.43429],
        [73.69913, 19.43427],
        [73.69943, 19.43427],
        [73.69972, 19.43432],
        [73.70001, 19.43431],
        [73.70024, 19.43427],
        [73.70046, 19.43423],
        [73.70079, 19.43407],
        [73.70111, 19.43391],
        [73.70131, 19.4338],
        [73.7015, 19.43372],
        [73.70173, 19.43367],
        [73.70196, 19.43361],
        [73.70216, 19.43355],
        [73.70241, 19.43345],
        [73.7027, 19.43328],
        [73.70295, 19.43309],
        [73.70317, 19.4329],
        [73.70335, 19.43278],
        [73.70357, 19.43267],
        [73.70388, 19.43255],
        [73.70413, 19.43242],
        [73.70438, 19.43229],
        [73.70467, 19.43208],
        [73.70494, 19.43177],
        [73.7052, 19.43146],
        [73.7054, 19.43108],
        [73.70561, 19.43069],
        [73.70576, 19.43033],
        [73.70591, 19.42996],
        [73.70608, 19.42956],
        [73.70625, 19.42915],
        [73.70636, 19.42861],
        [73.70647, 19.42806],
        [73.70651, 19.42767],
        [73.70655, 19.42728],
        [73.70687, 19.4273],
        [73.70694, 19.42753],
        [73.70698, 19.42776],
        [73.70696, 19.42804],
        [73.7069, 19.42867],
        [73.70685, 19.4293],
        [73.70684, 19.42949],
        [73.70688, 19.42983],
        [73.70708, 19.42996],
        [73.70733, 19.43009],
        [73.7076, 19.43019],
        [73.70789, 19.4303],
        [73.70831, 19.43038],
        [73.70872, 19.43047],
        [73.70957, 19.43065],
        [73.71043, 19.43084],
        [73.71076, 19.43093],
        [73.71099, 19.43098],
        [73.71121, 19.43103],
        [73.71144, 19.43116],
        [73.71169, 19.43129],
        [73.71187, 19.43137],
        [73.71223, 19.43137],
        [73.71243, 19.43137],
        [73.71277, 19.43141],
        [73.71312, 19.43145],
        [73.71353, 19.43157],
        [73.71393, 19.43168],
        [73.71436, 19.4318],
        [73.71478, 19.43191],
        [73.71521, 19.43209],
        [73.71564, 19.43228],
        [73.716, 19.43238],
        [73.71631, 19.43244],
        [73.71652, 19.43245],
        [73.71671, 19.43246],
        [73.71707, 19.43244],
        [73.71752, 19.43237],
        [73.71795, 19.43231],
        [73.7185, 19.43221],
        [73.71905, 19.43211],
        [73.71942, 19.43202],
        [73.71979, 19.43192],
        [73.72016, 19.43167],
        [73.72053, 19.43142],
        [73.7207, 19.43129],
        [73.72086, 19.43115],
        [73.72106, 19.43108],
        [73.72127, 19.43102],
        [73.72154, 19.431],
        [73.72187, 19.43099],
        [73.72216, 19.431],
        [73.72246, 19.43101],
        [73.72324, 19.43112],
        [73.72403, 19.43122],
        [73.72533, 19.43143],
        [73.72665, 19.43164],
        [73.72727, 19.43168],
        [73.72791, 19.43172],
        [73.72815, 19.43171],
        [73.72839, 19.4317],
        [73.72873, 19.43172],
        [73.729, 19.43163],
        [73.7297, 19.43134],
        [73.73028, 19.43109],
        [73.73069, 19.43084],
        [73.73111, 19.43058],
        [73.73117, 19.43032],
        [73.73106, 19.43011],
        [73.73093, 19.42983],
        [73.73079, 19.42957],
        [73.73065, 19.4293],
        [73.73028, 19.42876],
        [73.7299, 19.42822],
        [73.72974, 19.42794],
        [73.72957, 19.42767],
        [73.72934, 19.42674],
        [73.72911, 19.42581],
        [73.7289, 19.42454],
        [73.72869, 19.42326],
        [73.72851, 19.42233],
        [73.72833, 19.4214],
        [73.72818, 19.42102],
        [73.72803, 19.42064],
        [73.72778, 19.42017],
        [73.72753, 19.4197],
        [73.72704, 19.41912],
        [73.72654, 19.41854],
        [73.72645, 19.41835],
        [73.72636, 19.41817],
        [73.72637, 19.41758],
        [73.72637, 19.41698],
        [73.72657, 19.41687],
        [73.72689, 19.41687],
        [73.7272, 19.41691],
        [73.72758, 19.41696],
        [73.72797, 19.41702],
        [73.72853, 19.41709],
        [73.72909, 19.41716],
        [73.72942, 19.41715],
        [73.72974, 19.41714],
        [73.73001, 19.41712],
        [73.73027, 19.41702],
        [73.73052, 19.41668],
        [73.73072, 19.41637],
        [73.73089, 19.41587],
        [73.73106, 19.41536],
        [73.73156, 19.41436],
        [73.73206, 19.41336],
        [73.73239, 19.41297],
        [73.73273, 19.41259],
        [73.73302, 19.41247],
        [73.73331, 19.41235],
        [73.73408, 19.41218],
        [73.73486, 19.412],
        [73.73556, 19.41176],
        [73.73625, 19.41152],
        [73.73681, 19.41123],
        [73.73737, 19.41095],
        [73.73772, 19.41079],
        [73.73805, 19.41076],
        [73.73838, 19.41072],
        [73.7387, 19.41067],
        [73.73902, 19.41062],
        [73.73982, 19.41046],
        [73.74062, 19.4103],
        [73.74154, 19.41016],
        [73.74245, 19.41003],
        [73.74276, 19.40996],
        [73.74307, 19.40989],
        [73.74342, 19.40982],
        [73.74377, 19.40976],
        [73.74418, 19.40965],
        [73.7446, 19.40953],
        [73.74493, 19.40945],
        [73.74526, 19.40937],
        [73.74576, 19.40921],
        [73.74624, 19.40905],
        [73.74683, 19.4088],
        [73.74742, 19.40854],
        [73.74782, 19.40838],
        [73.74824, 19.40821],
        [73.74876, 19.4081],
        [73.74932, 19.40798],
        [73.75067, 19.4077],
        [73.75204, 19.40724],
        [73.75242, 19.4067],
        [73.75234, 19.4044],
        [73.75219, 19.40254],
        [73.75194, 19.4006],
        [73.75242, 19.39774],
        [73.75285, 19.39648],
        [73.75361, 19.39601],
        [73.75572, 19.39487],
        [73.75795, 19.39413],
        [73.75916, 19.39404],
        [73.76106, 19.39414],
        [73.76198, 19.39427],
        [73.76289, 19.3946],
        [73.76414, 19.39419],
        [73.76665, 19.39429],
        [73.76947, 19.39447],
        [73.77067, 19.39283],
        [73.77166, 19.39049],
        [73.77158, 19.38874],
        [73.77107, 19.38676],
        [73.77098, 19.38574],
        [73.77339, 19.38643],
        [73.77627, 19.38693],
        [73.77699, 19.38696],
        [73.77947, 19.38682],
        [73.78025, 19.38461],
        [73.78089, 19.38314],
        [73.78146, 19.3817],
        [73.78201, 19.38023],
        [73.78247, 19.3792],
        [73.78301, 19.3777],
        [73.78361, 19.37625],
        [73.78411, 19.37512],
        [73.78469, 19.37378],
        [73.78532, 19.37234],
        [73.78598, 19.37086],
        [73.78652, 19.36962],
        [73.78707, 19.36822],
        [73.78824, 19.36549],
        [73.78887, 19.36395],
        [73.78913, 19.36318],
        [73.78909, 19.36279],
        [73.78874, 19.36172],
        [73.7887, 19.36145],
        [73.78874, 19.36093],
        [73.78894, 19.36072],
        [73.78936, 19.36075],
        [73.79015, 19.36099],
        [73.79035, 19.3609],
        [73.79112, 19.36031],
        [73.79224, 19.35935],
        [73.79233, 19.35918],
        [73.79236, 19.3587],
        [73.79182, 19.35726],
        [73.79172, 19.35684],
        [73.7917, 19.35656],
        [73.79179, 19.35605],
        [73.79209, 19.35524],
        [73.79227, 19.35492],
        [73.79244, 19.35471],
        [73.79257, 19.35446],
        [73.79258, 19.35426],
        [73.79243, 19.35234],
        [73.79243, 19.35188],
        [73.79243, 19.35167],
        [73.79243, 19.35146],
        [73.79258, 19.35115],
        [73.79275, 19.34955],
        [73.79287, 19.34866],
        [73.79292, 19.34837],
        [73.79314, 19.34772],
        [73.79338, 19.34747],
        [73.79454, 19.34653],
        [73.7947, 19.34628],
        [73.795, 19.34472],
        [73.7953, 19.34313],
        [73.79536, 19.34287],
        [73.79541, 19.34269],
        [73.7958, 19.34179],
        [73.79653, 19.3404],
        [73.79683, 19.33987],
        [73.7969, 19.33964],
        [73.79678, 19.33888],
        [73.79654, 19.33734],
        [73.7963, 19.33588],
        [73.79611, 19.33443],
        [73.79594, 19.33309],
        [73.79568, 19.33165],
        [73.79547, 19.33064],
        [73.79359, 19.3306],
        [73.79277, 19.33197],
        [73.79258, 19.33221],
        [73.78904, 19.33635],
        [73.78915, 19.33717],
        [73.78448, 19.33716],
        [73.78421, 19.33484],
        [73.77772, 19.33642],
        [73.77306, 19.34189],
        [73.77393, 19.33093],
        [73.77044, 19.32963],
        [73.76991, 19.32974],
        [73.7687, 19.33],
        [73.76076, 19.32996],
        [73.7555, 19.32707],
        [73.74932, 19.32389],
        [73.74896, 19.32377],
        [73.74878, 19.32371],
        [73.74844, 19.32359],
        [73.7482, 19.32351],
        [73.74797, 19.32343],
        [73.74775, 19.32335],
        [73.74749, 19.32327],
        [73.74707, 19.32328],
        [73.7466, 19.32328],
        [73.74485, 19.32324],
        [73.74295, 19.32325],
        [73.74321, 19.32361],
        [73.74347, 19.32396],
        [73.74415, 19.32485],
        [73.74484, 19.32573],
        [73.7453, 19.32625],
        [73.74578, 19.32676],
        [73.74611, 19.3273],
        [73.74645, 19.32783],
        [73.74676, 19.32858],
        [73.74707, 19.32932],
        [73.74733, 19.33039],
        [73.74759, 19.33145],
        [73.7477, 19.33208],
        [73.74782, 19.3327],
        [73.74799, 19.33392],
        [73.74816, 19.33528],
        [73.74813, 19.33558],
        [73.74798, 19.33573],
        [73.74778, 19.33573],
        [73.74758, 19.33569],
        [73.74731, 19.33561],
        [73.7471, 19.33558],
        [73.7469, 19.33554],
        [73.74669, 19.33549],
        [73.74649, 19.33544],
        [73.74622, 19.33537],
        [73.74596, 19.33529],
        [73.74556, 19.3352],
        [73.74517, 19.33511],
        [73.74485, 19.33507],
        [73.74453, 19.33504],
        [73.74418, 19.33503],
        [73.74383, 19.33503],
        [73.74348, 19.33502],
        [73.74313, 19.33501],
        [73.74286, 19.33501],
        [73.74259, 19.33501],
        [73.7423, 19.33504],
        [73.742, 19.33506],
        [73.74156, 19.33496],
        [73.74114, 19.33486],
        [73.74076, 19.33472],
        [73.7404, 19.33459],
        [73.73898, 19.33387],
        [73.73756, 19.33314],
        [73.73622, 19.33256],
        [73.73487, 19.33197],
        [73.73377, 19.33147],
        [73.73267, 19.33097],
        [73.73238, 19.33087],
        [73.73191, 19.33084],
        [73.73164, 19.33094],
        [73.73147, 19.33108],
        [73.73119, 19.33111],
        [73.73096, 19.33108],
        [73.73065, 19.33093],
        [73.73042, 19.3308],
        [73.73018, 19.33066],
        [73.72996, 19.33048],
        [73.72972, 19.33031],
        [73.72925, 19.33004],
        [73.7288, 19.32978],
        [73.72841, 19.32956],
        [73.72804, 19.32933],
        [73.72756, 19.32918],
        [73.72708, 19.32903],
        [73.72611, 19.32878],
        [73.72513, 19.32852],
        [73.72379, 19.32826],
        [73.72245, 19.32799],
        [73.721, 19.32759],
        [73.71956, 19.32719],
        [73.719, 19.3271],
        [73.71845, 19.327],
        [73.71758, 19.3269],
        [73.71672, 19.32679],
        [73.71545, 19.32649],
        [73.7142, 19.3262],
        [73.71333, 19.32605],
        [73.71246, 19.32591],
        [73.71185, 19.3258],
        [73.71123, 19.32569],
        [73.71067, 19.32561],
        [73.7101, 19.32553],
        [73.70931, 19.32535],
        [73.70853, 19.32517],
        [73.70764, 19.32476],
        [73.70676, 19.32435],
        [73.70631, 19.32408],
        [73.70585, 19.32382],
        [73.70559, 19.32361],
        [73.70533, 19.32341],
        [73.70507, 19.32318],
        [73.70482, 19.32295],
        [73.70461, 19.32265],
        [73.70439, 19.32235],
        [73.70415, 19.322],
        [73.70391, 19.32165],
        [73.70339, 19.32078],
        [73.70286, 19.31991],
        [73.70259, 19.31947],
        [73.70232, 19.31902],
        [73.70216, 19.31882],
        [73.70201, 19.31861],
        [73.70153, 19.31824],
        [73.70106, 19.31787],
        [73.70072, 19.3176],
        [73.70037, 19.31734],
        [73.6995, 19.31684],
        [73.69863, 19.31634],
        [73.6978, 19.31581],
        [73.69698, 19.31528],
        [73.69544, 19.31432],
        [73.6939, 19.31336],
        [73.69344, 19.31304],
        [73.69296, 19.31273],
        [73.69197, 19.31242],
        [73.69097, 19.31212],
        [73.69001, 19.31191],
        [73.68904, 19.31171],
        [73.68808, 19.31145],
        [73.68713, 19.31119],
        [73.68631, 19.31113],
        [73.68551, 19.31107],
        [73.68515, 19.31101],
        [73.6848, 19.31096],
        [73.6846, 19.31083],
        [73.68441, 19.3107],
        [73.68383, 19.30996],
        [73.68324, 19.30922],
        [73.68275, 19.30852],
        [73.68226, 19.30782],
        [73.68207, 19.30737],
        [73.68188, 19.30692],
        [73.68174, 19.30641],
        [73.68161, 19.30591],
        [73.68167, 19.30548],
        [73.68173, 19.30505],
        [73.68171, 19.30453],
        [73.68171, 19.30401],
        [73.68137, 19.30389],
        [73.68065, 19.30378],
        [73.6801, 19.3037],
        [73.67962, 19.30367],
        [73.67914, 19.30364],
        [73.67868, 19.30358],
        [73.6782, 19.30352],
        [73.6776, 19.30353],
        [73.677, 19.30353],
        [73.67615, 19.30343],
        [73.67531, 19.30333],
        [73.67474, 19.30317],
        [73.67417, 19.30301],
        [73.67366, 19.30278],
        [73.67315, 19.30255],
        [73.67278, 19.30229],
        [73.67241, 19.30202],
        [73.67223, 19.30181],
        [73.67205, 19.3016],
        [73.67172, 19.30114],
        [73.67139, 19.30068],
        [73.67105, 19.29989],
        [73.67071, 19.2991],
        [73.66999, 19.29749],
        [73.66928, 19.29588],
        [73.66875, 19.29491],
        [73.66823, 19.29395],
        [73.66819, 19.29373],
        [73.66815, 19.2935],
        [73.66812, 19.29229],
        [73.66808, 19.29107],
        [73.66846, 19.29081],
        [73.66882, 19.29054],
        [73.66991, 19.29007],
        [73.671, 19.2896],
        [73.67142, 19.28938],
        [73.67183, 19.28917],
        [73.67223, 19.28889],
        [73.67264, 19.28861],
        [73.67297, 19.2883],
        [73.6733, 19.28798],
        [73.67358, 19.28757],
        [73.67386, 19.28716],
        [73.67455, 19.2859],
        [73.67525, 19.28464],
        [73.67598, 19.28343],
        [73.6767, 19.28222],
        [73.67715, 19.28172],
        [73.6776, 19.28121],
        [73.67826, 19.28059],
        [73.67891, 19.27997],
        [73.6795, 19.27955],
        [73.6801, 19.27913],
        [73.6803, 19.27894],
        [73.68042, 19.27872],
        [73.68043, 19.27846],
        [73.68045, 19.2782],
        [73.68049, 19.2769],
        [73.68053, 19.2756],
        [73.68062, 19.2754],
        [73.68128, 19.27471],
        [73.68194, 19.27403],
        [73.68211, 19.27386],
        [73.68229, 19.2737],
        [73.68258, 19.2736],
        [73.68286, 19.27349],
        [73.68313, 19.2735],
        [73.68345, 19.27348],
        [73.68389, 19.2735],
        [73.68413, 19.27351],
        [73.68454, 19.27358],
        [73.68513, 19.27367],
        [73.68545, 19.27365],
        [73.68575, 19.2736],
        [73.68598, 19.27345],
        [73.6864, 19.27313],
        [73.68666, 19.27291],
        [73.68703, 19.27254],
        [73.68741, 19.27219],
        [73.68811, 19.27151],
        [73.68881, 19.27084],
        [73.68943, 19.27016],
        [73.69005, 19.26948],
        [73.69022, 19.2693],
        [73.69039, 19.26913],
        [73.69055, 19.26881],
        [73.69068, 19.26832],
        [73.69081, 19.26782],
        [73.69088, 19.26714],
        [73.69095, 19.26646],
        [73.69095, 19.26617],
        [73.69097, 19.26582],
        [73.69103, 19.26547],
        [73.69112, 19.26509],
        [73.6912, 19.2647],
        [73.69139, 19.2642],
        [73.69157, 19.26369],
        [73.69184, 19.26304],
        [73.69211, 19.2624],
        [73.69221, 19.26217],
        [73.69223, 19.26199],
        [73.69226, 19.2618],
        [73.69225, 19.26158],
        [73.69223, 19.26136],
        [73.69217, 19.26042],
        [73.69211, 19.25948],
        [73.69214, 19.25929],
        [73.69217, 19.2591],
        [73.69233, 19.25888],
        [73.69263, 19.25874],
        [73.69294, 19.25869],
        [73.69321, 19.25871],
        [73.69374, 19.25879],
        [73.69427, 19.25887],
        [73.69461, 19.25893],
        [73.69494, 19.25898],
        [73.6952, 19.25893],
        [73.6952, 19.25868],
        [73.69509, 19.25849],
        [73.69497, 19.25834],
        [73.69485, 19.25816],
        [73.69464, 19.25726],
        [73.69443, 19.25635],
        [73.69423, 19.25503],
        [73.69403, 19.25371],
        [73.69399, 19.25287],
        [73.69397, 19.25204],
        [73.69392, 19.25179],
        [73.69362, 19.25166],
        [73.69339, 19.2517],
        [73.69313, 19.25181],
        [73.69287, 19.2519],
        [73.69265, 19.25191],
        [73.69245, 19.25191],
        [73.69217, 19.25181],
        [73.6919, 19.25168],
        [73.69172, 19.2516],
        [73.69139, 19.25138],
        [73.69106, 19.25115],
        [73.69073, 19.25094],
        [73.69014, 19.2509],
        [73.68928, 19.25041],
        [73.68923, 19.25021],
        [73.68918, 19.25001],
        [73.68911, 19.24981],
        [73.68907, 19.24961],
        [73.68902, 19.24941],
        [73.68896, 19.24921],
        [73.68889, 19.24901],
        [73.68881, 19.24882],
        [73.68873, 19.24863],
        [73.68864, 19.24844],
        [73.68854, 19.24826],
        [73.68843, 19.24808],
        [73.68834, 19.24785],
        [73.68826, 19.24761],
        [73.6882, 19.24737],
        [73.68815, 19.24713],
        [73.68811, 19.24688],
        [73.68808, 19.24664],
        [73.68807, 19.24639],
        [73.68807, 19.24614],
        [73.68808, 19.24589],
        [73.68806, 19.24563],
        [73.68791, 19.24551],
        [73.68756, 19.24565],
        [73.68741, 19.24581],
        [73.68713, 19.24586],
        [73.68687, 19.24574],
        [73.68676, 19.24559],
        [73.6866, 19.2453],
        [73.68645, 19.245],
        [73.68631, 19.24469],
        [73.68618, 19.24438],
        [73.68606, 19.24407],
        [73.68596, 19.24374],
        [73.68588, 19.24342],
        [73.6858, 19.24309],
        [73.68574, 19.24276],
        [73.68567, 19.24257],
        [73.68535, 19.24246],
        [73.68504, 19.24242],
        [73.68473, 19.24233],
        [73.68412, 19.24212],
        [73.6835, 19.24192],
        [73.68287, 19.24172],
        [73.68225, 19.24153],
        [73.68163, 19.24134],
        [73.68101, 19.24115],
        [73.68038, 19.24096],
        [73.67975, 19.24077],
        [73.67913, 19.24059],
        [73.6785, 19.24042],
        [73.67787, 19.24025],
        [73.67724, 19.24006],
        [73.67662, 19.23988],
        [73.676, 19.23968],
        [73.67537, 19.23948],
        [73.67476, 19.23928],
        [73.67414, 19.23906],
        [73.67352, 19.23885],
        [73.67333, 19.23877],
        [73.67314, 19.2387],
        [73.67294, 19.23865],
        [73.67274, 19.23861],
        [73.67254, 19.23859],
        [73.67233, 19.23858],
        [73.67213, 19.23858],
        [73.67192, 19.2386],
        [73.67172, 19.23863],
        [73.67128, 19.23878],
        [73.67085, 19.23891],
        [73.67041, 19.23905],
        [73.66997, 19.23917],
        [73.66953, 19.2393],
        [73.66909, 19.23941],
        [73.66864, 19.23953],
        [73.6682, 19.23963],
        [73.66775, 19.23974],
        [73.66722, 19.23984],
        [73.66669, 19.23994],
        [73.66616, 19.24004],
        [73.66562, 19.24014],
        [73.6651, 19.24025],
        [73.66456, 19.24036],
        [73.66404, 19.24047],
        [73.66351, 19.24058],
        [73.66276, 19.24071],
        [73.66247, 19.24067],
        [73.66223, 19.24052],
        [73.662, 19.24033],
        [73.66177, 19.24016],
        [73.66153, 19.23999],
        [73.66129, 19.23984],
        [73.66093, 19.23961],
        [73.66059, 19.23937],
        [73.66025, 19.23912],
        [73.65991, 19.23887],
        [73.65959, 19.2386],
        [73.65927, 19.23832],
        [73.65897, 19.23803],
        [73.65866, 19.23774],
        [73.65837, 19.23744],
        [73.65784, 19.23676],
        [73.6573, 19.2361],
        [73.65674, 19.23544],
        [73.65618, 19.23479],
        [73.65561, 19.23415],
        [73.65504, 19.23351],
        [73.65445, 19.23288],
        [73.65386, 19.23226],
        [73.65326, 19.23165],
        [73.65286, 19.23126],
        [73.65247, 19.23086],
        [73.65209, 19.23045],
        [73.65172, 19.23002],
        [73.65137, 19.22959],
        [73.65103, 19.22915],
        [73.6507, 19.2287],
        [73.65038, 19.22824],
        [73.65008, 19.22777],
        [73.64979, 19.22732],
        [73.64951, 19.22686],
        [73.64926, 19.2264],
        [73.64902, 19.22592],
        [73.6488, 19.22544],
        [73.64859, 19.22494],
        [73.64841, 19.22444],
        [73.64824, 19.22394],
        [73.64809, 19.22343],
        [73.64795, 19.22303],
        [73.64778, 19.22265],
        [73.6476, 19.22227],
        [73.64739, 19.22191],
        [73.64716, 19.22155],
        [73.64691, 19.22122],
        [73.64664, 19.22089],
        [73.64635, 19.22059],
        [73.64605, 19.2203],
        [73.64572, 19.22001],
        [73.64539, 19.21973],
        [73.64505, 19.21946],
        [73.6447, 19.21921],
        [73.64434, 19.21897],
        [73.64398, 19.21874],
        [73.6436, 19.21852],
        [73.64354, 19.21849],
        [73.64322, 19.21832],
        [73.64283, 19.21813],
        [73.64235, 19.21791],
        [73.64188, 19.21768],
        [73.64141, 19.21744],
        [73.64094, 19.2172],
        [73.64048, 19.21695],
        [73.64002, 19.21669],
        [73.63957, 19.21642],
        [73.63912, 19.21615],
        [73.63867, 19.21587],
        [73.63835, 19.21571],
        [73.63804, 19.21553],
        [73.63773, 19.21534],
        [73.63743, 19.21514],
        [73.63714, 19.21493],
        [73.63686, 19.2147],
        [73.63659, 19.21447],
        [73.63632, 19.21422],
        [73.63607, 19.21397],
        [73.63596, 19.21378],
        [73.63585, 19.2136],
        [73.63573, 19.21342],
        [73.63561, 19.21324],
        [73.63548, 19.21298],
        [73.63543, 19.2128],
        [73.63538, 19.21261],
        [73.63534, 19.21243],
        [73.63531, 19.21224],
        [73.63528, 19.21205],
        [73.63526, 19.21186],
        [73.63519, 19.21155],
        [73.63512, 19.21123],
        [73.63504, 19.21092],
        [73.63497, 19.21061],
        [73.63489, 19.21029],
        [73.63482, 19.20998],
        [73.63475, 19.20966],
        [73.63467, 19.20935],
        [73.6346, 19.20904],
        [73.63455, 19.20885],
        [73.63449, 19.20867],
        [73.63442, 19.2085],
        [73.63434, 19.20832],
        [73.63424, 19.20816],
        [73.63414, 19.208],
        [73.63402, 19.20785],
        [73.63389, 19.20771],
        [73.63376, 19.20757],
        [73.63211, 19.20582],
        [73.63125, 19.20507],
        [73.63089, 19.20476],
        [73.63046, 19.20499],
        [73.63009, 19.2052],
        [73.62973, 19.20539],
        [73.62935, 19.20558],
        [73.62898, 19.20576],
        [73.6286, 19.20593],
        [73.62821, 19.20609],
        [73.62782, 19.20625],
        [73.62729, 19.20645],
        [73.62702, 19.20662],
        [73.62679, 19.20684],
        [73.62661, 19.2071],
        [73.62649, 19.2074],
        [73.62639, 19.20773],
        [73.62632, 19.20806],
        [73.62626, 19.2084],
        [73.62623, 19.20874],
        [73.62621, 19.20905],
        [73.62617, 19.20934],
        [73.62611, 19.20962],
        [73.62602, 19.20989],
        [73.62591, 19.21016],
        [73.62584, 19.21036],
        [73.62577, 19.21056],
        [73.62569, 19.21076],
        [73.62561, 19.21096],
        [73.62552, 19.21115],
        [73.62543, 19.21135],
        [73.62533, 19.21154],
        [73.62522, 19.21172],
        [73.62502, 19.21204],
        [73.62485, 19.21231],
        [73.62468, 19.21259],
        [73.62452, 19.21286],
        [73.62437, 19.21314],
        [73.62424, 19.21332],
        [73.62412, 19.21351],
        [73.62401, 19.21371],
        [73.62391, 19.2139],
        [73.62381, 19.21411],
        [73.62373, 19.21431],
        [73.62365, 19.21452],
        [73.62359, 19.21474],
        [73.62353, 19.21495],
        [73.62343, 19.2152],
        [73.62332, 19.21546],
        [73.62322, 19.21571],
        [73.62311, 19.21597],
        [73.62298, 19.21613],
        [73.62276, 19.21589],
        [73.62266, 19.21569],
        [73.62258, 19.21544],
        [73.62251, 19.21519],
        [73.62247, 19.21493],
        [73.62244, 19.21467],
        [73.62246, 19.21441],
        [73.62249, 19.21415],
        [73.62251, 19.2139],
        [73.62254, 19.21364],
        [73.62252, 19.21339],
        [73.62216, 19.21327],
        [73.62192, 19.21323],
        [73.62167, 19.21319],
        [73.62144, 19.21314],
        [73.6212, 19.21308],
        [73.62096, 19.21301],
        [73.62073, 19.21294],
        [73.6205, 19.21285],
        [73.62027, 19.21276],
        [73.62007, 19.21268],
        [73.61986, 19.2126],
        [73.61965, 19.21253],
        [73.61944, 19.21246],
        [73.61923, 19.2124],
        [73.61901, 19.21235],
        [73.6188, 19.2123],
        [73.61858, 19.21226],
        [73.61836, 19.21222],
        [73.61803, 19.21221],
        [73.6177, 19.21219],
        [73.61737, 19.21217],
        [73.61704, 19.21214],
        [73.61671, 19.2121],
        [73.61638, 19.21206],
        [73.61605, 19.21201],
        [73.61572, 19.21196],
        [73.61539, 19.2119],
        [73.615, 19.21186],
        [73.6146, 19.21181],
        [73.61421, 19.21175],
        [73.61381, 19.21168],
        [73.61342, 19.21159],
        [73.61304, 19.21149],
        [73.61265, 19.21138],
        [73.61227, 19.21126],
        [73.6119, 19.21112],
        [73.61174, 19.21008],
        [73.61162, 19.20918],
        [73.61149, 19.20829],
        [73.61136, 19.20739],
        [73.61122, 19.2065],
        [73.61107, 19.20561],
        [73.61091, 19.20472],
        [73.61074, 19.20383],
        [73.61057, 19.20294],
        [73.61039, 19.20205],
        [73.61028, 19.20151],
        [73.61018, 19.20096],
        [73.61008, 19.20042],
        [73.60998, 19.19987],
        [73.60989, 19.19932],
        [73.6098, 19.19878],
        [73.60971, 19.19823],
        [73.60962, 19.19768],
        [73.60953, 19.19713],
        [73.60944, 19.19669],
        [73.60935, 19.19624],
        [73.60927, 19.1958],
        [73.6092, 19.19535],
        [73.60913, 19.1949],
        [73.60907, 19.19445],
        [73.60901, 19.194],
        [73.60897, 19.19355],
        [73.60892, 19.1931],
        [73.60859, 19.19335],
        [73.60825, 19.19359],
        [73.60791, 19.19384],
        [73.60756, 19.19408],
        [73.60722, 19.19432],
        [73.60687, 19.19456],
        [73.60653, 19.1948],
        [73.60618, 19.19503],
        [73.60583, 19.19526],
        [73.6058, 19.19491],
        [73.60577, 19.19456],
        [73.60574, 19.19421],
        [73.60572, 19.19386],
        [73.6057, 19.19351],
        [73.60568, 19.19316],
        [73.60567, 19.1928],
        [73.60566, 19.19245],
        [73.60565, 19.1921],
        [73.60522, 19.19226],
        [73.60496, 19.19241],
        [73.60472, 19.1926],
        [73.60451, 19.19281],
        [73.60435, 19.19293],
        [73.60419, 19.19305],
        [73.60403, 19.19317],
        [73.60386, 19.19329],
        [73.6037, 19.1934],
        [73.60353, 19.19351],
        [73.60336, 19.19362],
        [73.60319, 19.19373],
        [73.60288, 19.19387],
        [73.60265, 19.19371],
        [73.60243, 19.19344],
        [73.6023, 19.19317],
        [73.60194, 19.19315],
        [73.6017, 19.19321],
        [73.60145, 19.19327],
        [73.60121, 19.19334],
        [73.60098, 19.19337],
        [73.60077, 19.19319],
        [73.60062, 19.19292],
        [73.60048, 19.19264],
        [73.60037, 19.19235],
        [73.60028, 19.19205],
        [73.60004, 19.19192],
        [73.59988, 19.19207],
        [73.59972, 19.19221],
        [73.59955, 19.19235],
        [73.59938, 19.19249],
        [73.59921, 19.19263],
        [73.59904, 19.19277],
        [73.59887, 19.1929],
        [73.59869, 19.19303],
        [73.59851, 19.19315],
        [73.59837, 19.19328],
        [73.59823, 19.1934],
        [73.59793, 19.19365],
        [73.59764, 19.19388],
        [73.59733, 19.1941],
        [73.5969, 19.19424],
        [73.59655, 19.1941],
        [73.59642, 19.19396],
        [73.5963, 19.19372],
        [73.59617, 19.19348],
        [73.59603, 19.19324],
        [73.59589, 19.19301],
        [73.59574, 19.19278],
        [73.59559, 19.19255],
        [73.59544, 19.19233],
        [73.59527, 19.19211],
        [73.59511, 19.1919],
        [73.59485, 19.19166],
        [73.59458, 19.19144],
        [73.59429, 19.19124],
        [73.59399, 19.19106],
        [73.59368, 19.19089],
        [73.59336, 19.19075],
        [73.59302, 19.19064],
        [73.59269, 19.19054],
        [73.59234, 19.19047],
        [73.59215, 19.19042],
        [73.59195, 19.19039],
        [73.59175, 19.19038],
        [73.59155, 19.1904],
        [73.59135, 19.19043],
        [73.59116, 19.19049],
        [73.59098, 19.19057],
        [73.5908, 19.19067],
        [73.59064, 19.19078],
        [73.5904, 19.19097],
        [73.59012, 19.19109],
        [73.58982, 19.19113],
        [73.58951, 19.19109],
        [73.58883, 19.19082],
        [73.5878, 19.19043],
        [73.58691, 19.18985],
        [73.5861, 19.18929],
        [73.58582, 19.18919],
        [73.58555, 19.18909],
        [73.58527, 19.189],
        [73.58499, 19.18892],
        [73.5847, 19.18886],
        [73.58442, 19.1888],
        [73.58413, 19.18876],
        [73.58384, 19.18872],
        [73.58361, 19.18872],
        [73.58338, 19.18874],
        [73.58315, 19.18877],
        [73.58293, 19.18881],
        [73.58271, 19.18886],
        [73.58249, 19.18893],
        [73.58228, 19.18901],
        [73.58207, 19.18911],
        [73.58187, 19.18921],
        [73.5816, 19.18935],
        [73.58133, 19.1895],
        [73.58107, 19.18964],
        [73.5808, 19.18978],
        [73.58054, 19.18992],
        [73.58027, 19.19006],
        [73.58001, 19.19021],
        [73.57975, 19.19035],
        [73.57948, 19.1905],
        [73.57927, 19.19058],
        [73.57905, 19.19065],
        [73.57882, 19.19071],
        [73.5786, 19.19075],
        [73.57837, 19.19077],
        [73.57814, 19.19078],
        [73.57791, 19.19077],
        [73.57768, 19.19075],
        [73.57745, 19.19071],
        [73.5772, 19.19059],
        [73.57694, 19.19048],
        [73.57669, 19.19038],
        [73.57643, 19.19028],
        [73.57601, 19.19043],
        [73.57599, 19.19071],
        [73.57599, 19.19091],
        [73.576, 19.19111],
        [73.576, 19.19132],
        [73.57601, 19.19152],
        [73.57601, 19.19172],
        [73.57602, 19.19192],
        [73.57603, 19.19213],
        [73.57589, 19.19242],
        [73.57559, 19.19229],
        [73.57529, 19.19217],
        [73.57445, 19.19187],
        [73.57375, 19.19162],
        [73.57306, 19.19137],
        [73.57236, 19.19111],
        [73.57167, 19.19086],
        [73.57098, 19.1906],
        [73.57028, 19.19035],
        [73.56959, 19.19009],
        [73.56889, 19.18984],
        [73.56852, 19.18968],
        [73.56814, 19.18953],
        [73.56775, 19.18939],
        [73.56736, 19.18926],
        [73.56698, 19.18913],
        [73.56658, 19.18901],
        [73.56619, 19.1889],
        [73.56579, 19.1888],
        [73.5654, 19.18871],
        [73.56525, 19.18838],
        [73.56522, 19.1881],
        [73.5652, 19.18781],
        [73.56518, 19.18753],
        [73.56517, 19.18724],
        [73.56516, 19.18696],
        [73.56516, 19.18667],
        [73.56516, 19.18639],
        [73.56517, 19.1861],
        [73.56513, 19.18578],
        [73.5651, 19.18546],
        [73.56507, 19.18513],
        [73.56505, 19.18481],
        [73.56504, 19.18448],
        [73.56503, 19.18416],
        [73.56503, 19.18383],
        [73.56504, 19.18351],
        [73.56506, 19.18318],
        [73.56471, 19.1832],
        [73.5645, 19.18331],
        [73.56429, 19.18341],
        [73.56408, 19.18352],
        [73.56386, 19.18362],
        [73.56365, 19.18371],
        [73.56343, 19.18381],
        [73.56322, 19.1839],
        [73.563, 19.18399],
        [73.56261, 19.18422],
        [73.56222, 19.18444],
        [73.56183, 19.18465],
        [73.56143, 19.18485],
        [73.56103, 19.18505],
        [73.56062, 19.18523],
        [73.56021, 19.18541],
        [73.5598, 19.18558],
        [73.55934, 19.18577],
        [73.55914, 19.1858],
        [73.55894, 19.18575],
        [73.55868, 19.1856],
        [73.55844, 19.18542],
        [73.55798, 19.18503],
        [73.55757, 19.18469],
        [73.55716, 19.18435],
        [73.55675, 19.18401],
        [73.55633, 19.18368],
        [73.5559, 19.18336],
        [73.55548, 19.18304],
        [73.55505, 19.18272],
        [73.55462, 19.18241],
        [73.55413, 19.18226],
        [73.55391, 19.1823],
        [73.55368, 19.18236],
        [73.55347, 19.18245],
        [73.55326, 19.18256],
        [73.55281, 19.18278],
        [73.55235, 19.183],
        [73.55189, 19.18321],
        [73.55143, 19.18342],
        [73.55097, 19.18363],
        [73.5505, 19.18383],
        [73.55004, 19.18402],
        [73.54957, 19.18421],
        [73.5491, 19.18439],
        [73.54858, 19.18457],
        [73.54807, 19.18472],
        [73.54754, 19.18485],
        [73.54701, 19.18496],
        [73.54648, 19.18505],
        [73.54594, 19.18512],
        [73.54541, 19.18517],
        [73.54487, 19.18519],
        [73.54433, 19.1852],
        [73.54435, 19.18484],
        [73.54438, 19.18449],
        [73.54441, 19.18414],
        [73.54444, 19.18379],
        [73.54448, 19.18344],
        [73.54453, 19.18309],
        [73.54457, 19.18274],
        [73.54462, 19.18239],
        [73.54467, 19.18204],
        [73.54473, 19.18173],
        [73.54477, 19.18142],
        [73.5448, 19.1811],
        [73.54481, 19.18078],
        [73.54481, 19.18047],
        [73.54479, 19.18015],
        [73.54475, 19.17984],
        [73.5447, 19.17952],
        [73.54464, 19.17921],
        [73.54452, 19.1788],
        [73.54441, 19.17839],
        [73.54432, 19.17797],
        [73.54425, 19.17755],
        [73.5442, 19.17713],
        [73.54417, 19.1767],
        [73.54415, 19.17628],
        [73.54415, 19.17585],
        [73.54416, 19.17543],
        [73.54387, 19.17534],
        [73.54367, 19.17546],
        [73.5435, 19.1756],
        [73.54335, 19.17578],
        [73.54324, 19.17597],
        [73.543, 19.17618],
        [73.54271, 19.17634],
        [73.5424, 19.17642],
        [73.54208, 19.17643],
        [73.54162, 19.17633],
        [73.54132, 19.17626],
        [73.54102, 19.17616],
        [73.54072, 19.17606],
        [73.54043, 19.17595],
        [73.54015, 19.17583],
        [73.53987, 19.17569],
        [73.53959, 19.17555],
        [73.53933, 19.17539],
        [73.53911, 19.17522],
        [73.53885, 19.17513],
        [73.53857, 19.17514],
        [73.53832, 19.17524],
        [73.5381, 19.1754],
        [73.5379, 19.17555],
        [73.53772, 19.17573],
        [73.53757, 19.17592],
        [73.53744, 19.17613],
        [73.53726, 19.17642],
        [73.53707, 19.17669],
        [73.53685, 19.17695],
        [73.53661, 19.17719],
        [73.53635, 19.1774],
        [73.53608, 19.1776],
        [73.53579, 19.17777],
        [73.53549, 19.17792],
        [73.53518, 19.17804],
        [73.53517, 19.17783],
        [73.53516, 19.17761],
        [73.53517, 19.1774],
        [73.53518, 19.17718],
        [73.5352, 19.17697],
        [73.53523, 19.17676],
        [73.53528, 19.17654],
        [73.53533, 19.17634],
        [73.53539, 19.17613],
        [73.53546, 19.17553],
        [73.53555, 19.17493],
        [73.53564, 19.17433],
        [73.53575, 19.17374],
        [73.53588, 19.17315],
        [73.53601, 19.17256],
        [73.53616, 19.17197],
        [73.53632, 19.17139],
        [73.5365, 19.17081],
        [73.53657, 19.17045],
        [73.53666, 19.1701],
        [73.53675, 19.16975],
        [73.53685, 19.1694],
        [73.53696, 19.16905],
        [73.53708, 19.1687],
        [73.5372, 19.16836],
        [73.53733, 19.16802],
        [73.53747, 19.16768],
        [73.53786, 19.16704],
        [73.53826, 19.16639],
        [73.53865, 19.16575],
        [73.53906, 19.16511],
        [73.53947, 19.16448],
        [73.53988, 19.16385],
        [73.54031, 19.16322],
        [73.54073, 19.16259],
        [73.54116, 19.16197],
        [73.54131, 19.16167],
        [73.54145, 19.16136],
        [73.54157, 19.16105],
        [73.54169, 19.16073],
        [73.5418, 19.16041],
        [73.54189, 19.16009],
        [73.54198, 19.15976],
        [73.54205, 19.15943],
        [73.54211, 19.1591],
        [73.54181, 19.15915],
        [73.54159, 19.15924],
        [73.54137, 19.15932],
        [73.54116, 19.1594],
        [73.54094, 19.15949],
        [73.54073, 19.15958],
        [73.54052, 19.15968],
        [73.54032, 19.15979],
        [73.54011, 19.15989],
        [73.53991, 19.16001],
        [73.53971, 19.16012],
        [73.53938, 19.16022],
        [73.53905, 19.16029],
        [73.53871, 19.16035],
        [73.53837, 19.16038],
        [73.53803, 19.16039],
        [73.53769, 19.16038],
        [73.53735, 19.16035],
        [73.53701, 19.1603],
        [73.53668, 19.16023],
        [73.53641, 19.16017],
        [73.53614, 19.1601],
        [73.53587, 19.16001],
        [73.53561, 19.15991],
        [73.53535, 19.15979],
        [73.53511, 19.15966],
        [73.53487, 19.15951],
        [73.53464, 19.15935],
        [73.53442, 19.15918],
        [73.53426, 19.15896],
        [73.53409, 19.15875],
        [73.53391, 19.15855],
        [73.53372, 19.15836],
        [73.53352, 19.15818],
        [73.53331, 19.158],
        [73.5331, 19.15784],
        [73.53288, 19.15769],
        [73.53265, 19.15755],
        [73.53235, 19.15742],
        [73.53205, 19.15731],
        [73.53174, 19.15721],
        [73.53142, 19.15712],
        [73.53111, 19.15705],
        [73.53079, 19.157],
        [73.53045, 19.15696],
        [73.53037, 19.15678],
        [73.53041, 19.15657],
        [73.53045, 19.15636],
        [73.53048, 19.15615],
        [73.53051, 19.15594],
        [73.53063, 19.15535],
        [73.53075, 19.15476],
        [73.53087, 19.15417],
        [73.53101, 19.15358],
        [73.53115, 19.153],
        [73.5313, 19.15241],
        [73.53145, 19.15183],
        [73.53162, 19.15125],
        [73.53178, 19.15068],
        [73.53194, 19.15022],
        [73.5321, 19.14977],
        [73.53226, 19.14932],
        [73.53242, 19.14887],
        [73.53259, 19.14842],
        [73.53277, 19.14797],
        [73.53295, 19.14753],
        [73.53313, 19.14708],
        [73.53332, 19.14664],
        [73.53342, 19.14647],
        [73.53355, 19.14631],
        [73.53372, 19.14619],
        [73.5339, 19.1461],
        [73.5341, 19.14606],
        [73.5343, 19.14605],
        [73.5345, 19.14609],
        [73.53469, 19.14617],
        [73.53486, 19.14628],
        [73.53501, 19.14661],
        [73.53514, 19.14695],
        [73.53526, 19.1473],
        [73.53535, 19.14765],
        [73.53542, 19.14804],
        [73.53559, 19.14828],
        [73.53587, 19.14843],
        [73.5362, 19.14856],
        [73.53654, 19.14867],
        [73.53688, 19.14876],
        [73.53723, 19.14883],
        [73.53743, 19.14889],
        [73.53763, 19.14887],
        [73.53781, 19.14879],
        [73.53796, 19.14864],
        [73.53819, 19.14821],
        [73.53837, 19.14786],
        [73.53854, 19.14752],
        [73.53871, 19.14717],
        [73.53888, 19.14682],
        [73.53904, 19.14647],
        [73.5392, 19.14611],
        [73.53936, 19.14576],
        [73.53952, 19.1454],
        [73.5397, 19.14513],
        [73.53995, 19.1449],
        [73.54024, 19.14474],
        [73.54057, 19.14466],
        [73.54107, 19.1447],
        [73.5417, 19.14463],
        [73.54189, 19.14456],
        [73.54207, 19.14448],
        [73.54225, 19.14439],
        [73.54242, 19.14428],
        [73.54258, 19.14416],
        [73.54273, 19.14404],
        [73.54288, 19.1439],
        [73.54313, 19.14358],
        [73.54339, 19.14327],
        [73.54365, 19.14296],
        [73.54392, 19.14266],
        [73.54418, 19.14236],
        [73.54446, 19.14206],
        [73.54473, 19.14177],
        [73.54501, 19.14148],
        [73.5453, 19.14119],
        [73.54546, 19.14107],
        [73.54556, 19.1409],
        [73.54558, 19.1407],
        [73.54552, 19.14051],
        [73.54539, 19.14035],
        [73.54525, 19.14019],
        [73.54511, 19.14003],
        [73.54496, 19.13988],
        [73.5448, 19.13974],
        [73.54461, 19.13954],
        [73.54444, 19.13933],
        [73.54428, 19.13911],
        [73.54413, 19.13888],
        [73.544, 19.13864],
        [73.54389, 19.13839],
        [73.5438, 19.13813],
        [73.54372, 19.13787],
        [73.54367, 19.1376],
        [73.54356, 19.13726],
        [73.54346, 19.13691],
        [73.54337, 19.13656],
        [73.54329, 19.1362],
        [73.54322, 19.13585],
        [73.54316, 19.13549],
        [73.5431, 19.13513],
        [73.54306, 19.13477],
        [73.54302, 19.13441],
        [73.54298, 19.13389],
        [73.54293, 19.13336],
        [73.54289, 19.13284],
        [73.54284, 19.13232],
        [73.54279, 19.1318],
        [73.54274, 19.13128],
        [73.54269, 19.13076],
        [73.54264, 19.13024],
        [73.54259, 19.12971],
        [73.54252, 19.12924],
        [73.54244, 19.12877],
        [73.54236, 19.1283],
        [73.54226, 19.12782],
        [73.54216, 19.12736],
        [73.54205, 19.12689],
        [73.54193, 19.12642],
        [73.54181, 19.12596],
        [73.54168, 19.1255],
        [73.54162, 19.12513],
        [73.54157, 19.12476],
        [73.54154, 19.12439],
        [73.54151, 19.12401],
        [73.54149, 19.12364],
        [73.54149, 19.12326],
        [73.54149, 19.12289],
        [73.54151, 19.12252],
        [73.54153, 19.12214],
        [73.5416, 19.12169],
        [73.54167, 19.12123],
        [73.54172, 19.12077],
        [73.54177, 19.12031],
        [73.54181, 19.11985],
        [73.54184, 19.11939],
        [73.54186, 19.11893],
        [73.54187, 19.11847],
        [73.54159, 19.11843],
        [73.54148, 19.1186],
        [73.54136, 19.11877],
        [73.54123, 19.11901],
        [73.5411, 19.11924],
        [73.54097, 19.11948],
        [73.54084, 19.11971],
        [73.54071, 19.11995],
        [73.54059, 19.12018],
        [73.54046, 19.12042],
        [73.54033, 19.12066],
        [73.54021, 19.12089],
        [73.54003, 19.12115],
        [73.53985, 19.1214],
        [73.53966, 19.12165],
        [73.53948, 19.1219],
        [73.53929, 19.12215],
        [73.53909, 19.12239],
        [73.5389, 19.12263],
        [73.5387, 19.12287],
        [73.5385, 19.12311],
        [73.53835, 19.12342],
        [73.53818, 19.12373],
        [73.53801, 19.12402],
        [73.53782, 19.12431],
        [73.53761, 19.12459],
        [73.5374, 19.12486],
        [73.53717, 19.12512],
        [73.53693, 19.12537],
        [73.53668, 19.12561],
        [73.53643, 19.12589],
        [73.53617, 19.12616],
        [73.5359, 19.12643],
        [73.53562, 19.12668],
        [73.53533, 19.12693],
        [73.53504, 19.12716],
        [73.53473, 19.12739],
        [73.53442, 19.1276],
        [73.5341, 19.1278],
        [73.53384, 19.12793],
        [73.53358, 19.12804],
        [73.5333, 19.12813],
        [73.53302, 19.12821],
        [73.53274, 19.12827],
        [73.53245, 19.12832],
        [73.53216, 19.12834],
        [73.53188, 19.12835],
        [73.53159, 19.12835],
        [73.5312, 19.12837],
        [73.53081, 19.12838],
        [73.53042, 19.1284],
        [73.53004, 19.12842],
        [73.52965, 19.12843],
        [73.52926, 19.12845],
        [73.52888, 19.12846],
        [73.52849, 19.12848],
        [73.5281, 19.12849],
        [73.52781, 19.1285],
        [73.52753, 19.12855],
        [73.52726, 19.12864],
        [73.527, 19.12876],
        [73.52678, 19.12891],
        [73.52658, 19.12905],
        [73.52638, 19.12919],
        [73.52619, 19.12933],
        [73.52599, 19.12947],
        [73.52578, 19.12958],
        [73.52557, 19.1297],
        [73.52535, 19.12981],
        [73.52514, 19.12992],
        [73.52492, 19.13003],
        [73.52471, 19.13013],
        [73.52449, 19.13024],
        [73.52427, 19.13034],
        [73.52405, 19.13043],
        [73.52385, 19.13056],
        [73.52361, 19.13063],
        [73.52337, 19.13064],
        [73.52313, 19.13059],
        [73.52281, 19.13048],
        [73.52259, 19.13044],
        [73.52237, 19.1304],
        [73.52215, 19.13037],
        [73.52193, 19.13035],
        [73.52171, 19.13034],
        [73.52149, 19.13035],
        [73.52126, 19.13036],
        [73.52104, 19.13038],
        [73.52078, 19.13041],
        [73.52052, 19.13047],
        [73.52027, 19.13057],
        [73.52004, 19.1307],
        [73.51984, 19.1308],
        [73.51964, 19.13084],
        [73.51945, 19.13088],
        [73.51925, 19.13089],
        [73.51905, 19.1309],
        [73.51877, 19.13073],
        [73.51852, 19.13051],
        [73.51833, 19.13031],
        [73.51818, 19.13017],
        [73.51803, 19.13004],
        [73.51788, 19.12992],
        [73.51773, 19.12979],
        [73.51757, 19.12967],
        [73.51741, 19.12955],
        [73.51725, 19.12944],
        [73.51708, 19.12933],
        [73.5169, 19.12925],
        [73.51672, 19.12915],
        [73.51656, 19.12905],
        [73.51639, 19.12893],
        [73.5158, 19.12838],
        [73.51556, 19.12816],
        [73.51527, 19.12803],
        [73.5148, 19.12803],
        [73.5145, 19.12815],
        [73.51353, 19.12863],
        [73.51323, 19.12881],
        [73.51289, 19.12894],
        [73.51254, 19.12902],
        [73.51219, 19.12903],
        [73.51181, 19.12902],
        [73.51143, 19.12901],
        [73.51105, 19.129],
        [73.51067, 19.12899],
        [73.51029, 19.12898],
        [73.50991, 19.12898],
        [73.50953, 19.12897],
        [73.50915, 19.12897],
        [73.50877, 19.12897],
        [73.50822, 19.12903],
        [73.50766, 19.12907],
        [73.5071, 19.12909],
        [73.50654, 19.12909],
        [73.50598, 19.12907],
        [73.50542, 19.12902],
        [73.50487, 19.12896],
        [73.50431, 19.12887],
        [73.50377, 19.12876],
        [73.49935, 19.12803],
        [73.49884, 19.12821],
        [73.49603, 19.12882],
        [73.49315, 19.12943],
        [73.49018, 19.12993],
        [73.48986, 19.12951],
        [73.48881, 19.12791],
        [73.48763, 19.12615],
        [73.48549, 19.12362],
        [73.48464, 19.12476],
        [73.48359, 19.12624],
        [73.48328, 19.12678],
        [73.48196, 19.12823],
        [73.48036, 19.12972],
        [73.47875, 19.13121],
        [73.47734, 19.13269],
        [73.47543, 19.13465],
        [73.47519, 19.13476],
        [73.47387, 19.13486],
        [73.47142, 19.13475],
        [73.471, 19.13489],
        [73.46901, 19.1358],
        [73.46775, 19.1361],
        [73.46668, 19.13622],
        [73.46561, 19.13535],
        [73.46401, 19.13544],
        [73.46376, 19.13496],
        [73.46347, 19.13347],
        [73.46328, 19.13296],
        [73.46146, 19.1327],
        [73.46003, 19.13225],
        [73.45779, 19.13126],
        [73.45552, 19.13116],
        [73.45275, 19.132],
        [73.44942, 19.13289],
        [73.44648, 19.13381],
        [73.44475, 19.13333],
        [73.44258, 19.13271],
        [73.44071, 19.13196],
        [73.43857, 19.1305],
        [73.43733, 19.12994],
        [73.43514, 19.1286],
        [73.43251, 19.12721],
        [73.4298, 19.12565],
        [73.42911, 19.12696],
        [73.4274, 19.12878],
        [73.42621, 19.1288],
        [73.42543, 19.12901],
        [73.42437, 19.12953],
        [73.42327, 19.1298],
        [73.42225, 19.12989],
        [73.41921, 19.12951],
        [73.41742, 19.1294],
        [73.41487, 19.12945],
        [73.41325, 19.12982],
        [73.41147, 19.13044],
        [73.40966, 19.13097],
        [73.40839, 19.13135],
        [73.40683, 19.13218],
        [73.40506, 19.13328],
        [73.40373, 19.13383],
        [73.40245, 19.13358],
        [73.40059, 19.13305],
        [73.39773, 19.13223],
        [73.39533, 19.13115],
        [73.39435, 19.13117],
        [73.39239, 19.13168],
        [73.39044, 19.13266],
        [73.38857, 19.13302],
        [73.38746, 19.13298],
        [73.38575, 19.13264],
        [73.38367, 19.13214],
        [73.3822, 19.1314],
        [73.37963, 19.12963],
        [73.37621, 19.12802],
        [73.37313, 19.12672],
        [73.37104, 19.12689],
        [73.36949, 19.12704],
        [73.36838, 19.12707],
        [73.36685, 19.12758],
        [73.36499, 19.12848],
        [73.36296, 19.12914],
        [73.36104, 19.12984],
        [73.35908, 19.13081],
        [73.35633, 19.13078],
        [73.35441, 19.13066],
        [73.35268, 19.12994],
        [73.34976, 19.12885],
        [73.34634, 19.12749],
        [73.34361, 19.12623],
        [73.34291, 19.12576],
        [73.34145, 19.12383],
        [73.34082, 19.12377],
        [73.33867, 19.12359],
        [73.33638, 19.12333],
        [73.33424, 19.12317],
        [73.33426, 19.12122],
        [73.33403, 19.1208],
        [73.33326, 19.12033],
        [73.33132, 19.1196],
        [73.32985, 19.11934],
        [73.32822, 19.11919],
        [73.32616, 19.11944],
        [73.32554, 19.11872],
        [73.32501, 19.11773],
        [73.32271, 19.11692],
        [73.32164, 19.11622],
        [73.32165, 19.11563],
        [73.32082, 19.11404],
        [73.31991, 19.11237],
        [73.3188, 19.11076],
        [73.31781, 19.10927],
        [73.31762, 19.10873],
        [73.31617, 19.10723],
        [73.31544, 19.10667],
        [73.31464, 19.10636],
        [73.31375, 19.10625],
        [73.31059, 19.10626],
        [73.30744, 19.10628],
        [73.30786, 19.10551],
        [73.30844, 19.10454],
        [73.30884, 19.10377],
        [73.30905, 19.10281],
        [73.30922, 19.101],
        [73.30931, 19.09931],
        [73.3095, 19.09883],
        [73.30979, 19.09841],
        [73.31066, 19.09765],
        [73.31252, 19.09669],
        [73.31328, 19.09623],
        [73.31391, 19.09553],
        [73.31477, 19.09434],
        [73.31553, 19.0928],
        [73.31615, 19.09204],
        [73.31699, 19.09134],
        [73.31846, 19.09004],
        [73.32003, 19.08875],
        [73.32069, 19.08796],
        [73.32104, 19.08746],
        [73.32127, 19.08646],
        [73.32147, 19.08522],
        [73.32146, 19.08446],
        [73.32134, 19.08407],
        [73.32101, 19.08366],
        [73.31988, 19.08284],
        [73.31959, 19.08242],
        [73.31926, 19.08136],
        [73.31887, 19.07981],
        [73.31701, 19.07979],
        [73.31608, 19.07879],
        [73.31598, 19.07795],
        [73.31309, 19.07619],
        [73.31254, 19.07728],
        [73.31172, 19.07927],
        [73.31088, 19.07912],
        [73.30922, 19.07878],
        [73.30704, 19.07839],
        [73.30479, 19.07796],
        [73.30384, 19.07684],
        [73.3024, 19.07495],
        [73.3018, 19.07442],
        [73.30123, 19.07258],
        [73.30062, 19.0719],
        [73.29976, 19.07187],
        [73.29713, 19.07184],
        [73.29725, 19.07379],
        [73.29698, 19.07557],
        [73.29708, 19.07724],
        [73.29782, 19.07904],
        [73.29836, 19.08028],
        [73.29829, 19.08111],
        [73.29793, 19.08308],
        [73.296, 19.08375],
        [73.29396, 19.08419],
        [73.29289, 19.08432],
        [73.29039, 19.0844],
        [73.28949, 19.08535],
        [73.28853, 19.08671],
        [73.28772, 19.08684],
        [73.28527, 19.08701],
        [73.28375, 19.08698],
        [73.28257, 19.0868],
        [73.27992, 19.08633],
        [73.27772, 19.08554],
        [73.27697, 19.08462],
        [73.27505, 19.08309],
        [73.27426, 19.08208],
        [73.27364, 19.08099],
        [73.27322, 19.07932],
        [73.27271, 19.07761],
        [73.27247, 19.07733],
        [73.27141, 19.07635],
        [73.26956, 19.07524],
        [73.26902, 19.07522],
        [73.26774, 19.07461],
        [73.26701, 19.07323],
        [73.26438, 19.07198],
        [73.26471, 19.07042],
        [73.26481, 19.06939],
        [73.2647, 19.06762],
        [73.26489, 19.06628],
        [73.26346, 19.06592],
        [73.26319, 19.06587],
        [73.26118, 19.06554],
        [73.26057, 19.06518],
        [73.25933, 19.06417],
        [73.25805, 19.06297],
        [73.25699, 19.0617],
        [73.25657, 19.06167],
        [73.25552, 19.0616],
        [73.25477, 19.06213],
        [73.25369, 19.06272],
        [73.25104, 19.06123],
        [73.24926, 19.06241],
        [73.24896, 19.06249],
        [73.24868, 19.06254],
        [73.2484, 19.06253],
        [73.24795, 19.0625],
        [73.24774, 19.06258],
        [73.24757, 19.06271],
        [73.2474, 19.06289],
        [73.24714, 19.06315],
        [73.24682, 19.06343],
        [73.24628, 19.06382],
        [73.2458, 19.06411],
        [73.24533, 19.06435],
        [73.24488, 19.06456],
        [73.24445, 19.06475],
        [73.24388, 19.06502],
        [73.24349, 19.06519],
        [73.24314, 19.06538],
        [73.24281, 19.06558],
        [73.24238, 19.06587],
        [73.24187, 19.06624],
        [73.24142, 19.06656],
        [73.24087, 19.06693],
        [73.24016, 19.06739],
        [73.23979, 19.06771],
        [73.23951, 19.06805],
        [73.2392, 19.06856],
        [73.23906, 19.0689],
        [73.23895, 19.06924],
        [73.23885, 19.06952],
        [73.23858, 19.06978],
        [73.23806, 19.06996],
        [73.23737, 19.07017],
        [73.23678, 19.07039],
        [73.23637, 19.07066],
        [73.23604, 19.07099],
        [73.23574, 19.07148],
        [73.23561, 19.07188],
        [73.23555, 19.07216],
        [73.23546, 19.07274],
        [73.23543, 19.07304],
        [73.23538, 19.07343],
        [73.23524, 19.07408],
        [73.23514, 19.07442],
        [73.23495, 19.07493],
        [73.23479, 19.07546],
        [73.23466, 19.07601],
        [73.23452, 19.07653],
        [73.23437, 19.0769],
        [73.23425, 19.07714],
        [73.23398, 19.07756],
        [73.23374, 19.07786],
        [73.23342, 19.0782],
        [73.23311, 19.07868],
        [73.23294, 19.07911],
        [73.23286, 19.07954],
        [73.23278, 19.07998],
        [73.23256, 19.08052],
        [73.23227, 19.081],
        [73.23191, 19.08146],
        [73.23161, 19.0818],
        [73.23128, 19.08222],
        [73.23088, 19.0828],
        [73.23066, 19.08315],
        [73.23032, 19.08383],
        [73.22999, 19.08448],
        [73.22973, 19.0849],
        [73.2293, 19.08551],
        [73.22898, 19.08596],
        [73.22854, 19.08658],
        [73.22802, 19.08708],
        [73.22755, 19.08737],
        [73.22707, 19.08769],
        [73.22658, 19.08807],
        [73.22625, 19.08837],
        [73.22609, 19.08854],
        [73.22584, 19.08881],
        [73.22557, 19.08904],
        [73.22521, 19.08919],
        [73.22487, 19.08924],
        [73.22432, 19.08923],
        [73.22398, 19.08931],
        [73.2237, 19.0895],
        [73.22347, 19.08979],
        [73.2231, 19.09033],
        [73.22272, 19.09093],
        [73.22245, 19.09138],
        [73.22214, 19.09192],
        [73.22185, 19.09248],
        [73.22162, 19.09297],
        [73.22133, 19.09364],
        [73.22104, 19.0944],
        [73.22093, 19.09464],
        [73.22077, 19.09491],
        [73.22058, 19.09505],
        [73.22038, 19.09511],
        [73.22012, 19.09512],
        [73.21975, 19.09514],
        [73.21907, 19.09523],
        [73.21815, 19.09543],
        [73.21737, 19.09569],
        [73.21664, 19.09601],
        [73.21584, 19.09646],
        [73.21525, 19.09687],
        [73.21459, 19.09744],
        [73.21393, 19.09814],
        [73.21346, 19.09876],
        [73.21327, 19.09906],
        [73.21306, 19.09945],
        [73.21292, 19.09979],
        [73.21281, 19.10022],
        [73.21276, 19.10089],
        [73.21276, 19.10127],
        [73.21273, 19.10169],
        [73.21268, 19.10213],
        [73.21258, 19.1026],
        [73.21244, 19.10311],
        [73.21229, 19.10352],
        [73.2121, 19.10395],
        [73.21182, 19.10448],
        [73.21167, 19.10473],
        [73.21139, 19.10512],
        [73.211, 19.1056],
        [73.2107, 19.10595],
        [73.21041, 19.10627],
        [73.2102, 19.10648],
        [73.2099, 19.10678],
        [73.20964, 19.10708],
        [73.20932, 19.10754],
        [73.20904, 19.10803],
        [73.20882, 19.10855],
        [73.20868, 19.10891],
        [73.20856, 19.10919],
        [73.20841, 19.1095],
        [73.20823, 19.10984],
        [73.20796, 19.11032],
        [73.20759, 19.11087],
        [73.20739, 19.11114],
        [73.20718, 19.11137],
        [73.20699, 19.11152],
        [73.20669, 19.11167],
        [73.20643, 19.11174],
        [73.20621, 19.11181],
        [73.20599, 19.11192],
        [73.20581, 19.11208],
        [73.20562, 19.11232],
        [73.20547, 19.11259],
        [73.2053, 19.11286],
        [73.20502, 19.11322],
        [73.2047, 19.11355],
        [73.20432, 19.11391],
        [73.20399, 19.11431],
        [73.20372, 19.11472],
        [73.20347, 19.1151],
        [73.20311, 19.11562],
        [73.20277, 19.11609],
        [73.20241, 19.11657],
        [73.20211, 19.11697],
        [73.20164, 19.11756],
        [73.20118, 19.11817],
        [73.20082, 19.11872],
        [73.20057, 19.11912],
        [73.20029, 19.11962],
        [73.20002, 19.12008],
        [73.19976, 19.1205],
        [73.19941, 19.12104],
        [73.19902, 19.1216],
        [73.19873, 19.12198],
        [73.19841, 19.1224],
        [73.19805, 19.12289],
        [73.20072, 19.12565],
        [73.20063, 19.12699],
        [73.19944, 19.13181],
        [73.19977, 19.13501],
        [73.19908, 19.1375],
        [73.19961, 19.13879],
        [73.1992, 19.13851],
        [73.19816, 19.13948],
        [73.1973, 19.14029],
        [73.19713, 19.14297],
        [73.19759, 19.147],
        [73.19777, 19.14986],
        [73.19977, 19.15227],
        [73.20558, 19.1589],
        [73.20705, 19.16975],
        [73.20835, 19.17781],
        [73.20749, 19.18188],
        [73.21186, 19.1863],
        [73.21643, 19.19178],
        [73.22044, 19.19441],
        [73.21687, 19.19884],
        [73.21772, 19.20182],
        [73.21759, 19.20211],
        [73.21574, 19.20618],
        [73.21652, 19.2093],
        [73.21665, 19.2098],
        [73.21261, 19.21386],
        [73.21106, 19.21856],
        [73.21088, 19.21881],
        [73.20792, 19.22301],
        [73.20895, 19.23059],
        [73.20951, 19.23399],
        [73.21002, 19.23708],
        [73.21071, 19.2397],
        [73.21241, 19.24619],
        [73.21573, 19.25219],
        [73.21679, 19.25451],
        [73.21757, 19.2562],
        [73.21506, 19.25695],
        [73.21439, 19.25933],
        [73.21538, 19.26118],
        [73.2183, 19.26208],
        [73.21468, 19.26443],
        [73.21173, 19.2647],
        [73.21086, 19.26611],
        [73.21321, 19.26801],
        [73.2155, 19.27079],
        [73.21959, 19.2743],
        [73.21947, 19.27509],
        [73.21715, 19.28177],
        [73.21635, 19.28438],
        [73.22497, 19.28682],
        [73.23406, 19.28971],
        [73.23698, 19.28667],
        [73.23861, 19.28813],
        [73.24061, 19.29111],
        [73.24316, 19.29413],
        [73.24275, 19.29879],
        [73.24345, 19.30222],
        [73.24203, 19.30708],
        [73.23829, 19.30972],
        [73.2318, 19.31158],
        [73.22846, 19.31331],
        [73.22196, 19.31141],
        [73.21586, 19.30891],
        [73.20854, 19.31094],
        [73.20859, 19.31419],
        [73.20835, 19.31701],
        [73.20815, 19.31682],
        [73.20569, 19.31452],
        [73.2034, 19.31322],
        [73.20325, 19.31329],
        [73.20166, 19.31373],
        [73.20017, 19.31305],
        [73.19823, 19.31191],
        [73.19968, 19.30878],
        [73.19957, 19.30609],
        [73.20082, 19.30313],
        [73.20049, 19.30106],
        [73.19936, 19.29953],
        [73.1982, 19.29844],
        [73.19713, 19.29823],
        [73.19379, 19.29744],
        [73.19237, 19.29794],
        [73.19006, 19.29852],
        [73.18656, 19.29855],
        [73.18222, 19.2995],
        [73.17975, 19.30026],
        [73.18119, 19.30229],
        [73.18127, 19.30239],
        [73.18252, 19.30521],
        [73.18257, 19.30531],
        [73.18431, 19.30921],
        [73.18835, 19.31823],
        [73.19314, 19.32197],
        [73.19356, 19.3223],
        [73.19451, 19.32621],
        [73.19465, 19.32677],
        [73.19337, 19.33138],
        [73.1932, 19.33199],
        [73.19321, 19.3383],
        [73.19418, 19.33957],
        [73.19763, 19.3441],
        [73.19834, 19.34452],
        [73.20368, 19.3477],
        [73.2069, 19.34961],
        [73.20719, 19.34978],
        [73.21336, 19.35345],
        [73.21505, 19.35678],
        [73.21483, 19.35898],
        [73.21457, 19.3616],
        [73.21277, 19.36447],
        [73.21277, 19.36768],
        [73.21603, 19.36854],
        [73.2202, 19.36756],
        [73.22423, 19.3666],
        [73.2257, 19.36625],
        [73.22739, 19.36728],
        [73.22884, 19.3705],
        [73.22751, 19.37313],
        [73.22783, 19.37681],
        [73.22912, 19.37821],
        [73.22958, 19.3787],
        [73.23241, 19.37904],
        [73.23448, 19.37928],
        [73.23509, 19.37958],
        [73.23647, 19.38025],
        [73.23865, 19.38261],
        [73.24198, 19.38887],
        [73.24289, 19.39058],
        [73.2452, 19.39688],
        [73.24673, 19.40105],
        [73.24775, 19.40383],
        [73.2513, 19.40416],
        [73.25314, 19.40441],
        [73.25568, 19.40468],
        [73.25799, 19.40472],
        [73.25946, 19.40527],
        [73.25837, 19.40808],
        [73.25773, 19.41207],
        [73.25869, 19.41367],
        [73.26246, 19.42043],
        [73.26233, 19.42557],
        [73.26664, 19.42966],
        [73.26845, 19.43169],
        [73.2687, 19.43081],
        [73.26814, 19.42499],
        [73.2708, 19.42035],
        [73.27254, 19.41546],
        [73.27356, 19.41169],
        [73.27477, 19.40925],
        [73.27491, 19.40323],
        [73.27443, 19.40041],
        [73.27518, 19.39954],
        [73.27668, 19.39679],
        [73.27892, 19.39271],
        [73.28013, 19.39048],
        [73.28042, 19.38996],
        [73.28453, 19.38675],
        [73.28959, 19.38429],
        [73.29213, 19.38506],
        [73.29377, 19.38555],
        [73.29259, 19.37006],
        [73.29409, 19.36675],
        [73.29542, 19.36381],
        [73.29595, 19.35917],
        [73.29498, 19.35642],
        [73.28917, 19.35418],
        [73.28513, 19.35263],
        [73.28551, 19.35107],
        [73.28584, 19.34971],
        [73.28695, 19.34514],
        [73.28795, 19.34104],
        [73.28915, 19.33611],
        [73.29343, 19.33554],
        [73.29221, 19.33285],
        [73.29058, 19.32923],
        [73.28768, 19.32768],
        [73.2846, 19.32756],
        [73.28037, 19.32912],
        [73.27934, 19.32825],
        [73.27861, 19.32432],
        [73.27696, 19.3154],
        [73.27728, 19.31431],
        [73.27792, 19.31213],
        [73.28197, 19.3119],
        [73.29309, 19.31438],
        [73.29461, 19.31742],
        [73.29515, 19.31851],
        [73.29926, 19.31983],
        [73.30069, 19.31972],
        [73.30426, 19.31945],
        [73.30458, 19.31942],
        [73.30967, 19.32198],
        [73.31691, 19.32562],
        [73.32044, 19.32943],
        [73.32447, 19.33378],
        [73.32595, 19.33538],
        [73.33126, 19.34111],
        [73.33712, 19.34306],
        [73.33735, 19.34293],
        [73.33869, 19.34214],
        [73.34025, 19.33588],
        [73.34103, 19.33564],
        [73.34354, 19.33484],
        [73.34415, 19.33465],
        [73.34605, 19.33405],
        [73.35106, 19.3313],
        [73.35468, 19.32791],
        [73.35466, 19.32663],
        [73.35453, 19.3157],
        [73.35705, 19.31389],
        [73.35947, 19.31215],
        [73.36455, 19.31039],
        [73.36545, 19.31008],
        [73.36907, 19.30715],
        [73.37207, 19.30193],
        [73.37429, 19.30019],
        [73.37515, 19.29953],
        [73.38294, 19.2982],
        [73.38493, 19.30033],
        [73.38365, 19.30504],
        [73.38218, 19.31042],
        [73.38013, 19.31392],
        [73.38063, 19.31696],
        [73.38068, 19.31725],
        [73.38715, 19.31901],
        [73.39368, 19.3208],
        [73.4019, 19.32148],
        [73.40462, 19.32171],
        [73.4062, 19.32664],
        [73.40476, 19.33043],
        [73.40381, 19.33754],
        [73.40442, 19.33911],
        [73.40551, 19.3419],
        [73.40739, 19.34379],
        [73.41113, 19.34299],
        [73.41176, 19.34236],
        [73.41903, 19.33513],
        [73.42111, 19.33339],
        [73.42946, 19.3264],
        [73.43253, 19.32491],
        [73.43368, 19.32732],
        [73.43692, 19.33103],
        [73.43853, 19.33288],
        [73.4436, 19.33424],
        [73.44494, 19.33459],
        [73.44521, 19.33459],
        [73.44821, 19.33448],
        [73.45335, 19.3378],
        [73.46044, 19.33544],
        [73.46326, 19.3345],
        [73.46422, 19.33418],
        [73.46517, 19.33034],
        [73.46697, 19.32922],
        [73.46753, 19.32887],
        [73.47502, 19.32419],
        [73.47868, 19.3219],
        [73.4843, 19.32504],
        [73.48854, 19.3274],
        [73.49277, 19.32842],
        [73.49482, 19.3294],
        [73.49594, 19.32993],
        [73.4963, 19.3301],
        [73.49834, 19.33106],
        [73.50316, 19.33116],
        [73.50372, 19.33117],
        [73.50921, 19.32985],
        [73.5115, 19.32818],
        [73.51875, 19.32989],
        [73.5213, 19.33184],
        [73.52207, 19.33505],
        [73.52228, 19.33591],
        [73.52404, 19.33774],
        [73.52652, 19.34032],
        [73.52986, 19.33843],
        [73.53242, 19.33699],
        [73.53684, 19.33556],
        [73.53826, 19.3344],
        [73.54528, 19.32868],
        [73.55623, 19.31976],
        [73.55799, 19.32079],
        [73.55938, 19.32308],
        [73.55957, 19.32696],
        [73.55971, 19.32985],
        [73.56123, 19.33157],
        [73.56173, 19.33173],
        [73.56461, 19.33271],
        [73.5689, 19.33167],
        [73.57219, 19.32278],
        [73.57369, 19.32161],
        [73.5758, 19.31997],
        [73.57744, 19.32134],
        [73.57901, 19.32266],
        [73.57995, 19.33011],
        [73.57881, 19.3343],
        [73.57869, 19.33742],
        [73.57865, 19.33866],
        [73.57981, 19.34147],
        [73.57964, 19.34434],
        [73.57958, 19.34537],
        [73.57802, 19.34749],
        [73.57419, 19.34158],
        [73.56911, 19.34576],
        [73.56593, 19.3471],
        [73.56365, 19.34963],
        [73.56257, 19.35262],
        [73.56323, 19.35481],
        [73.5633, 19.35502],
        [73.56711, 19.35668],
        [73.57924, 19.3526],
        [73.5819, 19.35368],
        [73.58249, 19.35435],
        [73.58385, 19.35591],
        [73.58352, 19.35769],
        [73.58344, 19.35815],
        [73.58175, 19.36028],
        [73.57281, 19.36207],
        [73.57142, 19.3631],
        [73.57113, 19.3643],
        [73.57246, 19.3659],
        [73.57335, 19.36647],
        [73.57715, 19.36888],
        [73.58185, 19.37187],
        [73.58192, 19.37645],
        [73.58048, 19.37783],
        [73.58056, 19.37796],
        [73.58711, 19.38837],
        [73.58688, 19.39227],
        [73.589, 19.39456],
        [73.59734, 19.3949],
        [73.59874, 19.39701],
        [73.59851, 19.39902],
        [73.59537, 19.40006],
        [73.59296, 19.40236],
        [73.59351, 19.40367],
        [73.60004, 19.40602],
        [73.60059, 19.41237],
        [73.60066, 19.41315],
        [73.60074, 19.4141],
        [73.60517, 19.42006],
        [73.60488, 19.42316],
        [73.60332, 19.42637],
        [73.60115, 19.42914],
        [73.5996, 19.43114],
        [73.60737, 19.44087],
        [73.60878, 19.44354],
        [73.60938, 19.44467],
        [73.6098, 19.44546],
        [73.61223, 19.44706],
        [73.61263, 19.44797],
        [73.61515, 19.45371],
        [73.6177, 19.45646],
        [73.61909, 19.45663],
        [73.62089, 19.45597],
        [73.6235, 19.45501],
        [73.62346, 19.44372],
        [73.62577, 19.44345],
        [73.62703, 19.44331],
        [73.63667, 19.43825],
        [73.65053, 19.42629],
        [73.65458, 19.42566],
        [73.65598, 19.42621],
        [73.66917, 19.43137],
        [73.67614, 19.43497],
        [73.68068, 19.43892],
        [73.68294, 19.44241],
        [73.68548, 19.44398],
        [73.68567, 19.44381],
        [73.68667, 19.44288]
      ]
    ]
  }
}
