{
  "type": "Feature",
  "id": "MH-AC-158",
  "properties": {
    "stateName": "MAHARASHTRA",
    "stateCode": "MH",
    "districtName": "MUMBAI (SUBURBAN)",
    "acNo": 158,
    "acName": "JOGESHWARI EAST",
    "seatType": null,
    "pcNo": null,
    "pcName": null,
    "quality": "unverified",
    "sources": [
      "TBD"
    ]
  },
  "geometry": {
    "type": "Polygon",
    "coordinates": [
      [
        [72.89047, 19.15249],
        [72.89057, 19.15106],
        [72.89213, 19.15023],
        [72.89456, 19.14845],
        [72.8952, 19.1468],
        [72.89537, 19.14563],
        [72.89782, 19.14217],
        [72.89929, 19.13872],
        [72.89864, 19.13565],
        [72.89775, 19.13493],
        [72.89703, 19.13319],
        [72.89718, 19.131],
        [72.896, 19.12834],
        [72.89374, 19.126],
        [72.89246, 19.12533],
        [72.89166, 19.12542],
        [72.89084, 19.12507],
        [72.88893, 19.12505],
        [72.88761, 19.12558],
        [72.88675, 19.12583],
        [72.88634, 19.1255],
        [72.88497, 19.12541],
        [72.88386, 19.12605],
        [72.88314, 19.12722],
        [72.88171, 19.12956],
        [72.87927, 19.13102],
        [72.87684, 19.13239],
        [72.87609, 19.13254],
        [72.87368, 19.13351],
        [72.87262, 19.13344],
        [72.87301, 19.13246],
        [72.87528, 19.13037],
        [72.87793, 19.12579],
        [72.87572, 19.12383],
        [72.87497, 19.12399],
        [72.87235, 19.12342],
        [72.87047, 19.1229],
        [72.86951, 19.12153],
        [72.8686, 19.11925],
        [72.86792, 19.1183],
        [72.86708, 19.11815],
        [72.86569, 19.11827],
        [72.86489, 19.11902],
        [72.86336, 19.11974],
        [72.86166, 19.11963],
        [72.85955, 19.1194],
        [72.85812, 19.11861],
        [72.85773, 19.11969],
        [72.857, 19.12106],
        [72.85588, 19.1219],
        [72.85267, 19.12221],
        [72.8484, 19.12194],
        [72.84917, 19.1287],
        [72.84921, 19.12902],
        [72.84979, 19.12915],
        [72.85046, 19.13239],
        [72.85108, 19.13778],
        [72.85112, 19.13786],
        [72.85143, 19.13846],
        [72.85363, 19.13813],
        [72.85536, 19.13739],
        [72.85635, 19.13736],
        [72.85682, 19.14199],
        [72.85701, 19.1435],
        [72.85818, 19.15541],
        [72.85921, 19.17015],
        [72.8608, 19.16945],
        [72.86441, 19.16978],
        [72.86683, 19.16993],
        [72.87167, 19.17002],
        [72.8748, 19.16937],
        [72.87614, 19.16746],
        [72.87648, 19.16424],
        [72.87717, 19.16208],
        [72.88027, 19.16039],
        [72.88454, 19.15918],
        [72.8874, 19.15758],
        [72.89077, 19.15674],
        [72.89337, 19.15641],
        [72.89282, 19.15448],
        [72.89047, 19.15249]
      ]
    ]
  }
}
