{
  "type": "Feature",
  "id": "MH-AC-169",
  "properties": {
    "stateName": "MAHARASHTRA",
    "stateCode": "MH",
    "districtName": "MUMBAI (SUBURBAN)",
    "acNo": 169,
    "acName": "GHATKOPAR WEST",
    "seatType": null,
    "pcNo": null,
    "pcName": null,
    "quality": "unverified",
    "sources": [
      "TBD"
    ]
  },
  "geometry": {
    "type": "Polygon",
    "coordinates": [
      [
        [72.90775, 19.06335],
        [72.9067, 19.062],
        [72.9057, 19.0609],
        [72.90573, 19.06087],
        [72.90572, 19.06086],
        [72.90576, 19.06084],
        [72.90367, 19.06034],
        [72.90211, 19.05874],
        [72.89969, 19.05662],
        [72.89785, 19.05604],
        [72.89736, 19.05751],
        [72.89753, 19.0608],
        [72.89863, 19.06631],
        [72.89922, 19.06925],
        [72.89902, 19.06922],
        [72.89964, 19.07063],
        [72.89836, 19.07489],
        [72.89791, 19.07713],
        [72.89645, 19.07959],
        [72.89618, 19.08062],
        [72.89603, 19.08146],
        [72.89746, 19.0823],
        [72.89938, 19.08185],
        [72.90197, 19.08173],
        [72.90647, 19.08276],
        [72.90172, 19.08539],
        [72.90163, 19.08662],
        [72.90066, 19.08779],
        [72.8996, 19.08876],
        [72.89884, 19.09117],
        [72.89873, 19.09277],
        [72.89963, 19.09424],
        [72.90011, 19.09436],
        [72.90219, 19.09449],
        [72.90561, 19.09385],
        [72.90621, 19.09379],
        [72.9083, 19.09373],
        [72.90883, 19.0948],
        [72.9118, 19.09489],
        [72.91307, 19.09677],
        [72.91457, 19.09848],
        [72.91476, 19.09837],
        [72.91578, 19.09778],
        [72.91851, 19.0971],
        [72.91984, 19.0951],
        [72.92102, 19.09234],
        [72.92268, 19.09122],
        [72.92507, 19.08966],
        [72.92517, 19.08868],
        [72.925, 19.0886],
        [72.9249, 19.0886],
        [72.92483, 19.0885],
        [72.9247, 19.0883],
        [72.9242, 19.0874],
        [72.9237, 19.0863],
        [72.923, 19.0854],
        [72.92252, 19.08484],
        [72.9224, 19.0847],
        [72.9217, 19.0839],
        [72.92103, 19.08298],
        [72.92091, 19.08283],
        [72.92076, 19.08266],
        [72.92062, 19.08245],
        [72.92042, 19.08222],
        [72.9204, 19.0822],
        [72.9202, 19.082],
        [72.92017, 19.08195],
        [72.9201, 19.0818],
        [72.91968, 19.0813],
        [72.91962, 19.08122],
        [72.9196, 19.0812],
        [72.9189, 19.0804],
        [72.91888, 19.08039],
        [72.9187, 19.0803],
        [72.91869, 19.08028],
        [72.91867, 19.08027],
        [72.91818, 19.07936],
        [72.9167, 19.0767],
        [72.91677, 19.0767],
        [72.91678, 19.07669],
        [72.91707, 19.0764],
        [72.9177, 19.0757],
        [72.91778, 19.07503],
        [72.9179, 19.074],
        [72.91748, 19.07292],
        [72.91734, 19.07256],
        [72.91721, 19.07223],
        [72.9172, 19.0722],
        [72.9148, 19.0729],
        [72.9125, 19.0729],
        [72.9108, 19.0729],
        [72.90967, 19.07197],
        [72.90799, 19.0706],
        [72.90825, 19.07041],
        [72.9097, 19.0693],
        [72.9098, 19.0678],
        [72.90925, 19.06609],
        [72.9088, 19.0647],
        [72.90775, 19.06335]
      ]
    ]
  }
}
