{
  "type": "Feature",
  "id": "MH-AC-183",
  "properties": {
    "stateName": "MAHARASHTRA",
    "stateCode": "MH",
    "districtName": "MUMBAI",
    "acNo": 183,
    "acName": "SHIVADI",
    "seatType": null,
    "pcNo": null,
    "pcName": null,
    "quality": "unverified",
    "sources": [
      "TBD"
    ]
  },
  "geometry": {
    "type": "Polygon",
    "coordinates": [
      [
        [72.8514, 18.9802],
        [72.85007, 18.98053],
        [72.8498, 18.9806],
        [72.8496, 18.9799],
        [72.8496, 18.97987],
        [72.84669, 18.98051],
        [72.84634, 18.98055],
        [72.8455, 18.98004],
        [72.84525, 18.98021],
        [72.84549, 18.98052],
        [72.84516, 18.98106],
        [72.8431, 18.98209],
        [72.843, 18.98239],
        [72.84078, 18.98351],
        [72.84013, 18.9836],
        [72.83732, 18.98358],
        [72.83727, 18.98473],
        [72.83776, 18.98648],
        [72.83776, 18.98809],
        [72.83667, 18.98815],
        [72.83589, 18.98826],
        [72.8342, 18.9882],
        [72.8336, 18.98837],
        [72.8327, 18.98834],
        [72.83204, 18.98867],
        [72.8317, 18.98901],
        [72.83083, 18.98895],
        [72.83062, 18.98843],
        [72.83008, 18.9882],
        [72.82921, 18.98819],
        [72.82901, 18.98768],
        [72.82863, 18.98802],
        [72.82851, 18.98864],
        [72.82832, 18.99058],
        [72.82832, 18.99416],
        [72.82815, 18.99465],
        [72.82803, 18.99606],
        [72.82772, 18.99975],
        [72.82763, 19.00343],
        [72.82762, 19.00517],
        [72.82727, 19.00911],
        [72.82771, 19.00997],
        [72.82859, 19.01058],
        [72.82935, 19.00927],
        [72.83608, 19.0053],
        [72.83995, 19.00515],
        [72.84177, 19.00558],
        [72.8431, 19.00574],
        [72.84799, 19.00532],
        [72.85119, 19.00512],
        [72.85128, 19.00368],
        [72.85118, 19.00246],
        [72.85122, 19.00139],
        [72.8509, 19.00087],
        [72.85159, 19.00057],
        [72.85281, 19.00038],
        [72.85353, 19.00073],
        [72.85398, 19.00086],
        [72.85492, 19.00105],
        [72.85542, 19.00155],
        [72.85595, 19.00263],
        [72.8562, 19.00365],
        [72.85606, 19.00465],
        [72.85658, 19.00468],
        [72.8574, 19.0046],
        [72.85685, 19.00436],
        [72.85683, 19.00369],
        [72.85686, 19.00325],
        [72.85733, 19.00315],
        [72.85752, 19.00282],
        [72.85728, 19.00278],
        [72.85689, 19.00285],
        [72.85681, 19.00187],
        [72.85664, 19.00132],
        [72.85639, 19.00073],
        [72.85609, 18.99994],
        [72.85602, 18.99943],
        [72.85602, 18.99893],
        [72.85628, 18.99829],
        [72.85539, 18.99802],
        [72.85538, 18.99802],
        [72.85405, 18.99761],
        [72.854, 18.9976],
        [72.8605, 18.9825],
        [72.8571, 18.979],
        [72.8514, 18.9802]
      ]
    ]
  }
}
