{
  "type": "Feature",
  "id": "MH-AC-216",
  "properties": {
    "stateName": "MAHARASHTRA",
    "stateCode": "MH",
    "districtName": "AHMADNAGAR",
    "acNo": 216,
    "acName": "AKOLE (ST)",
    "seatType": null,
    "pcNo": null,
    "pcName": null,
    "quality": "unverified",
    "sources": [
      "TBD"
    ]
  },
  "geometry": {
    "type": "Polygon",
    "coordinates": [
      [
        [74.12059, 19.62186],
        [74.12258, 19.61735],
        [74.12255, 19.61615],
        [74.12245, 19.61194],
        [74.11548, 19.61239],
        [74.11217, 19.61029],
        [74.11162, 19.60432],
        [74.11029, 19.60132],
        [74.10872, 19.5978],
        [74.10832, 19.59499],
        [74.10799, 19.59268],
        [74.10456, 19.59006],
        [74.09328, 19.58495],
        [74.09096, 19.5846],
        [74.08125, 19.58316],
        [74.07943, 19.58378],
        [74.07707, 19.58347],
        [74.06837, 19.58131],
        [74.06025, 19.58249],
        [74.05713, 19.58544],
        [74.056, 19.58459],
        [74.0528, 19.58218],
        [74.05374, 19.57335],
        [74.05624, 19.5713],
        [74.06297, 19.57092],
        [74.06639, 19.56419],
        [74.06646, 19.56405],
        [74.06979, 19.5575],
        [74.07231, 19.55254],
        [74.07354, 19.55012],
        [74.07703, 19.54619],
        [74.0839, 19.54353],
        [74.08524, 19.54301],
        [74.08765, 19.53849],
        [74.08583, 19.5332],
        [74.08992, 19.5278],
        [74.09006, 19.52761],
        [74.08906, 19.52437],
        [74.0859, 19.51413],
        [74.08482, 19.512],
        [74.08469, 19.51174],
        [74.08362, 19.50964],
        [74.08218, 19.50752],
        [74.08025, 19.50465],
        [74.0715, 19.50088],
        [74.0666, 19.49584],
        [74.06296, 19.50218],
        [74.06273, 19.50202],
        [74.0601, 19.50025],
        [74.05244, 19.4951],
        [74.04862, 19.49253],
        [74.04857, 19.4925],
        [74.04727, 19.49162],
        [74.04363, 19.49308],
        [74.03866, 19.4932],
        [74.0349, 19.48433],
        [74.03311, 19.48011],
        [74.03239, 19.47964],
        [74.02696, 19.48343],
        [74.02635, 19.47889],
        [74.02441, 19.47301],
        [74.02039, 19.46929],
        [74.02102, 19.46754],
        [74.02121, 19.467],
        [74.02972, 19.46858],
        [74.02985, 19.46829],
        [74.03348, 19.4753],
        [74.03483, 19.47666],
        [74.03829, 19.47717],
        [74.04179, 19.47655],
        [74.04604, 19.47415],
        [74.05003, 19.47265],
        [74.05284, 19.47202],
        [74.05513, 19.47295],
        [74.05509, 19.4743],
        [74.05341, 19.47584],
        [74.05234, 19.47683],
        [74.05544, 19.47767],
        [74.05728, 19.47814],
        [74.0596, 19.47841],
        [74.06035, 19.4764],
        [74.06107, 19.47574],
        [74.06748, 19.47831],
        [74.07041, 19.47439],
        [74.07063, 19.4741],
        [74.07, 19.47207],
        [74.0669, 19.46732],
        [74.06535, 19.46505],
        [74.06685, 19.46149],
        [74.07502, 19.46005],
        [74.07881, 19.45742],
        [74.07976, 19.45676],
        [74.08162, 19.45657],
        [74.08028, 19.45475],
        [74.07729, 19.45426],
        [74.07617, 19.45267],
        [74.0765, 19.44954],
        [74.08021, 19.44982],
        [74.08343, 19.45054],
        [74.08395, 19.44876],
        [74.08696, 19.44881],
        [74.09066, 19.445],
        [74.09348, 19.45063],
        [74.09609, 19.45627],
        [74.09889, 19.45587],
        [74.101, 19.45501],
        [74.10357, 19.4546],
        [74.1052, 19.45417],
        [74.1099, 19.45223],
        [74.11339, 19.45206],
        [74.11499, 19.45253],
        [74.11558, 19.45264],
        [74.11555, 19.45508],
        [74.11594, 19.45755],
        [74.11771, 19.46027],
        [74.11506, 19.46337],
        [74.11316, 19.46468],
        [74.11007, 19.4671],
        [74.1061, 19.46816],
        [74.10719, 19.47019],
        [74.10995, 19.47113],
        [74.1118, 19.47116],
        [74.11367, 19.47074],
        [74.1179, 19.46902],
        [74.11976, 19.46882],
        [74.12015, 19.47129],
        [74.12006, 19.47421],
        [74.11953, 19.47782],
        [74.11947, 19.47961],
        [74.12275, 19.47854],
        [74.12555, 19.47791],
        [74.1297, 19.47887],
        [74.13867, 19.48125],
        [74.14107, 19.4786],
        [74.14155, 19.47816],
        [74.14296, 19.47773],
        [74.14731, 19.48067],
        [74.14695, 19.47827],
        [74.14618, 19.47311],
        [74.14464, 19.47039],
        [74.1426, 19.46879],
        [74.14247, 19.46417],
        [74.14162, 19.46147],
        [74.14329, 19.45992],
        [74.14327, 19.45914],
        [74.14783, 19.45971],
        [74.15467, 19.46176],
        [74.15882, 19.46682],
        [74.16596, 19.4686],
        [74.16961, 19.47143],
        [74.17239, 19.47453],
        [74.17864, 19.47685],
        [74.18377, 19.48389],
        [74.18569, 19.48224],
        [74.18683, 19.47225],
        [74.18723, 19.46864],
        [74.18311, 19.46247],
        [74.18578, 19.45946],
        [74.19009, 19.4598],
        [74.19777, 19.45269],
        [74.1944, 19.45014],
        [74.19576, 19.44322],
        [74.19951, 19.443],
        [74.19959, 19.44022],
        [74.19996, 19.43955],
        [74.19927, 19.43641],
        [74.19755, 19.43251],
        [74.19342, 19.43099],
        [74.18957, 19.43125],
        [74.18669, 19.42999],
        [74.1876, 19.42977],
        [74.19335, 19.4221],
        [74.19131, 19.41787],
        [74.19088, 19.4156],
        [74.19377, 19.40973],
        [74.19618, 19.40615],
        [74.20041, 19.40205],
        [74.20017, 19.40168],
        [74.19854, 19.3986],
        [74.19627, 19.39773],
        [74.19633, 19.39578],
        [74.19493, 19.39437],
        [74.19441, 19.3927],
        [74.19478, 19.38993],
        [74.19654, 19.38857],
        [74.19859, 19.38748],
        [74.19893, 19.38582],
        [74.19843, 19.38332],
        [74.19823, 19.38054],
        [74.1992, 19.37705],
        [74.19787, 19.37342],
        [74.19592, 19.37145],
        [74.19586, 19.37067],
        [74.19508, 19.36116],
        [74.19597, 19.35759],
        [74.20116, 19.35975],
        [74.20481, 19.3623],
        [74.20915, 19.36126],
        [74.21417, 19.35689],
        [74.21889, 19.3536],
        [74.22009, 19.35543],
        [74.22147, 19.35712],
        [74.22637, 19.35664],
        [74.23182, 19.35672],
        [74.23255, 19.35673],
        [74.23441, 19.35676],
        [74.23448, 19.3566],
        [74.23594, 19.35345],
        [74.23864, 19.3496],
        [74.24308, 19.3455],
        [74.24575, 19.34248],
        [74.24674, 19.33833],
        [74.2477, 19.33501],
        [74.2498, 19.33199],
        [74.25211, 19.33146],
        [74.25303, 19.32953],
        [74.25507, 19.3279],
        [74.25485, 19.32651],
        [74.25057, 19.32533],
        [74.2486, 19.32419],
        [74.24908, 19.31781],
        [74.24952, 19.31254],
        [74.25294, 19.31342],
        [74.2564, 19.31292],
        [74.25879, 19.3099],
        [74.26405, 19.30692],
        [74.26796, 19.3057],
        [74.2681, 19.30587],
        [74.2706, 19.30868],
        [74.27664, 19.30822],
        [74.27977, 19.30909],
        [74.28322, 19.31313],
        [74.29, 19.30826],
        [74.29697, 19.29913],
        [74.28944, 19.2966],
        [74.29215, 19.29094],
        [74.29262, 19.28629],
        [74.29048, 19.2888],
        [74.28636, 19.28962],
        [74.28271, 19.29251],
        [74.27734, 19.28379],
        [74.26575, 19.28231],
        [74.26205, 19.284],
        [74.26115, 19.2842],
        [74.25375, 19.28594],
        [74.25177, 19.28425],
        [74.25156, 19.27988],
        [74.25332, 19.27856],
        [74.25407, 19.27801],
        [74.25428, 19.27359],
        [74.25972, 19.2548],
        [74.25966, 19.25483],
        [74.2533, 19.25612],
        [74.24769, 19.25521],
        [74.24411, 19.25609],
        [74.23698, 19.25509],
        [74.23579, 19.25492],
        [74.22772, 19.25106],
        [74.21907, 19.25045],
        [74.21093, 19.24987],
        [74.20517, 19.25188],
        [74.2021, 19.25616],
        [74.19925, 19.25832],
        [74.19752, 19.25771],
        [74.1934, 19.25625],
        [74.18943, 19.25567],
        [74.18115, 19.25447],
        [74.17872, 19.2495],
        [74.17885, 19.23589],
        [74.17787, 19.23109],
        [74.1777, 19.23026],
        [74.17199, 19.22186],
        [74.17121, 19.22218],
        [74.1685, 19.22348],
        [74.16837, 19.22324],
        [74.16791, 19.22192],
        [74.16735, 19.22008],
        [74.16692, 19.21904],
        [74.16657, 19.21807],
        [74.16646, 19.21709],
        [74.16649, 19.2162],
        [74.16551, 19.21484],
        [74.16455, 19.21434],
        [74.16441, 19.21402],
        [74.16426, 19.21337],
        [74.16425, 19.21135],
        [74.16435, 19.21067],
        [74.16477, 19.20977],
        [74.16538, 19.20895],
        [74.16578, 19.20811],
        [74.16587, 19.20723],
        [74.16538, 19.20682],
        [74.16379, 19.2057],
        [74.16179, 19.20483],
        [74.16111, 19.20438],
        [74.15886, 19.20266],
        [74.15847, 19.20253],
        [74.15789, 19.2025],
        [74.15746, 19.2026],
        [74.15698, 19.20288],
        [74.15625, 19.20344],
        [74.15593, 19.20384],
        [74.15577, 19.20441],
        [74.15571, 19.20496],
        [74.1558, 19.20563],
        [74.15591, 19.20598],
        [74.15582, 19.20677],
        [74.15546, 19.20772],
        [74.15552, 19.20899],
        [74.15551, 19.20946],
        [74.15511, 19.20998],
        [74.15498, 19.21025],
        [74.15495, 19.21091],
        [74.15444, 19.21188],
        [74.15427, 19.21261],
        [74.15404, 19.21338],
        [74.15365, 19.21463],
        [74.15323, 19.21564],
        [74.15309, 19.21654],
        [74.15306, 19.21759],
        [74.1544, 19.21866],
        [74.15623, 19.2201],
        [74.15631, 19.22036],
        [74.15482, 19.22088],
        [74.15306, 19.22142],
        [74.15289, 19.22203],
        [74.15258, 19.22388],
        [74.15229, 19.22615],
        [74.1507, 19.22584],
        [74.14924, 19.22581],
        [74.14796, 19.2254],
        [74.14636, 19.22487],
        [74.14438, 19.22496],
        [74.14267, 19.22499],
        [74.1407, 19.22517],
        [74.13875, 19.22551],
        [74.13816, 19.22476],
        [74.1375, 19.22436],
        [74.13632, 19.22387],
        [74.13437, 19.22345],
        [74.13268, 19.223],
        [74.13054, 19.22253],
        [74.12864, 19.22202],
        [74.12719, 19.22202],
        [74.12623, 19.22213],
        [74.12536, 19.22258],
        [74.12363, 19.22348],
        [74.1218, 19.22454],
        [74.12008, 19.22547],
        [74.11804, 19.22625],
        [74.1173, 19.22736],
        [74.11594, 19.22921],
        [74.11445, 19.22877],
        [74.11332, 19.22655],
        [74.11299, 19.22657],
        [74.11259, 19.22649],
        [74.11214, 19.22659],
        [74.11187, 19.22681],
        [74.11166, 19.22704],
        [74.1114, 19.22725],
        [74.11105, 19.22749],
        [74.11009, 19.22796],
        [74.10954, 19.22817],
        [74.10925, 19.22825],
        [74.10899, 19.22826],
        [74.10867, 19.22828],
        [74.10826, 19.22841],
        [74.10805, 19.2286],
        [74.10792, 19.22887],
        [74.10777, 19.2291],
        [74.10755, 19.22919],
        [74.10721, 19.22932],
        [74.10699, 19.22949],
        [74.10683, 19.22977],
        [74.10666, 19.22993],
        [74.10648, 19.23011],
        [74.10612, 19.23024],
        [74.10591, 19.23023],
        [74.10536, 19.23007],
        [74.10496, 19.23011],
        [74.10461, 19.23028],
        [74.10441, 19.23031],
        [74.10415, 19.23029],
        [74.10396, 19.23017],
        [74.1038, 19.22994],
        [74.10371, 19.22966],
        [74.10357, 19.22944],
        [74.10313, 19.22962],
        [74.10296, 19.22992],
        [74.10271, 19.23007],
        [74.10244, 19.23016],
        [74.10167, 19.23038],
        [74.10139, 19.23048],
        [74.10117, 19.23058],
        [74.101, 19.2307],
        [74.10089, 19.23091],
        [74.10089, 19.23127],
        [74.10093, 19.23165],
        [74.10088, 19.23211],
        [74.10083, 19.23233],
        [74.1008, 19.23253],
        [74.10076, 19.23291],
        [74.10057, 19.23314],
        [74.10029, 19.23308],
        [74.09996, 19.23296],
        [74.09958, 19.23292],
        [74.09935, 19.23292],
        [74.09907, 19.23285],
        [74.09876, 19.23269],
        [74.09826, 19.23235],
        [74.0981, 19.23223],
        [74.0979, 19.2321],
        [74.09771, 19.23202],
        [74.09718, 19.23194],
        [74.09686, 19.23197],
        [74.09672, 19.23215],
        [74.09676, 19.23234],
        [74.09701, 19.23262],
        [74.09697, 19.23291],
        [74.09676, 19.23292],
        [74.09602, 19.23283],
        [74.09569, 19.23283],
        [74.09547, 19.23295],
        [74.09514, 19.23358],
        [74.09499, 19.23374],
        [74.09457, 19.23414],
        [74.0943, 19.23421],
        [74.09354, 19.23405],
        [74.09306, 19.23409],
        [74.09288, 19.2342],
        [74.09269, 19.23449],
        [74.09243, 19.23473],
        [74.09184, 19.23509],
        [74.09147, 19.23522],
        [74.09046, 19.23513],
        [74.09021, 19.2352],
        [74.09003, 19.23533],
        [74.08937, 19.23592],
        [74.08867, 19.23687],
        [74.08852, 19.23705],
        [74.08842, 19.23723],
        [74.0884, 19.23751],
        [74.08823, 19.23777],
        [74.08717, 19.2381],
        [74.08685, 19.23817],
        [74.08655, 19.23818],
        [74.08632, 19.23818],
        [74.08582, 19.23825],
        [74.08546, 19.23839],
        [74.08486, 19.23863],
        [74.08414, 19.23872],
        [74.08414, 19.23846],
        [74.08429, 19.23735],
        [74.08446, 19.23681],
        [74.08517, 19.23508],
        [74.0854, 19.23463],
        [74.08537, 19.23442],
        [74.08524, 19.2339],
        [74.08524, 19.23349],
        [74.08531, 19.23293],
        [74.08547, 19.23258],
        [74.08577, 19.23213],
        [74.0865, 19.23157],
        [74.08737, 19.23121],
        [74.08816, 19.23107],
        [74.08935, 19.23081],
        [74.09028, 19.23057],
        [74.09113, 19.23012],
        [74.0918, 19.22962],
        [74.09267, 19.22862],
        [74.09303, 19.2276],
        [74.09305, 19.22681],
        [74.0925, 19.227],
        [74.0914, 19.22729],
        [74.09028, 19.2274],
        [74.08953, 19.22761],
        [74.08874, 19.22819],
        [74.08699, 19.22946],
        [74.08548, 19.23077],
        [74.08478, 19.23129],
        [74.08365, 19.23247],
        [74.08206, 19.23422],
        [74.08126, 19.23477],
        [74.07998, 19.23531],
        [74.07751, 19.23601],
        [74.07551, 19.23639],
        [74.07457, 19.23612],
        [74.07218, 19.23494],
        [74.07131, 19.23585],
        [74.06957, 19.23735],
        [74.06783, 19.23882],
        [74.06594, 19.24052],
        [74.06413, 19.24189],
        [74.06197, 19.24347],
        [74.05935, 19.24546],
        [74.05699, 19.24327],
        [74.05601, 19.24263],
        [74.05533, 19.24284],
        [74.05301, 19.24323],
        [74.05109, 19.24354],
        [74.05043, 19.24422],
        [74.04962, 19.24593],
        [74.04941, 19.24676],
        [74.04937, 19.24751],
        [74.04959, 19.2481],
        [74.04999, 19.24966],
        [74.05013, 19.25037],
        [74.05008, 19.25072],
        [74.05001, 19.25123],
        [74.04965, 19.25111],
        [74.04887, 19.25098],
        [74.0486, 19.25103],
        [74.04848, 19.25119],
        [74.04821, 19.25212],
        [74.04776, 19.25309],
        [74.04721, 19.25428],
        [74.04641, 19.25603],
        [74.04607, 19.25689],
        [74.0459, 19.25774],
        [74.04577, 19.25986],
        [74.04562, 19.26069],
        [74.04527, 19.26133],
        [74.0451, 19.26156],
        [74.04482, 19.26177],
        [74.04461, 19.26182],
        [74.04442, 19.26182],
        [74.04411, 19.26176],
        [74.04396, 19.26162],
        [74.04339, 19.26082],
        [74.04272, 19.25981],
        [74.0411, 19.25793],
        [74.03983, 19.25672],
        [74.03821, 19.25547],
        [74.03666, 19.25444],
        [74.03546, 19.25371],
        [74.03494, 19.25315],
        [74.03388, 19.25151],
        [74.0333, 19.25073],
        [74.03332, 19.25028],
        [74.03162, 19.25086],
        [74.03232, 19.25213],
        [74.03269, 19.25301],
        [74.03283, 19.25366],
        [74.03309, 19.25478],
        [74.03302, 19.25605],
        [74.03276, 19.25674],
        [74.03216, 19.25816],
        [74.03118, 19.2599],
        [74.03064, 19.26069],
        [74.02968, 19.26228],
        [74.02862, 19.26378],
        [74.02753, 19.26526],
        [74.02664, 19.26608],
        [74.02581, 19.26654],
        [74.02485, 19.26661],
        [74.02349, 19.26655],
        [74.02472, 19.2692],
        [74.02534, 19.27033],
        [74.02607, 19.2692],
        [74.02773, 19.27032],
        [74.02782, 19.27094],
        [74.02776, 19.27151],
        [74.02724, 19.27265],
        [74.02654, 19.27362],
        [74.02752, 19.2758],
        [74.03067, 19.2757],
        [74.0317, 19.27775],
        [74.03217, 19.27916],
        [74.03145, 19.28093],
        [74.03071, 19.28278],
        [74.02979, 19.28355],
        [74.02932, 19.28411],
        [74.02883, 19.28489],
        [74.02636, 19.28586],
        [74.02575, 19.28624],
        [74.02504, 19.28727],
        [74.02392, 19.28883],
        [74.02295, 19.28741],
        [74.02179, 19.2858],
        [74.02096, 19.28451],
        [74.02061, 19.28364],
        [74.02024, 19.28238],
        [74.0191, 19.28375],
        [74.01811, 19.28545],
        [74.01725, 19.28672],
        [74.01803, 19.28805],
        [74.01806, 19.28847],
        [74.01795, 19.29013],
        [74.01758, 19.29154],
        [74.017, 19.29275],
        [74.01625, 19.29223],
        [74.01491, 19.29072],
        [74.014, 19.29219],
        [74.01332, 19.29317],
        [74.01285, 19.29405],
        [74.01264, 19.29511],
        [74.01236, 19.29644],
        [74.0121, 19.2985],
        [74.01616, 19.29876],
        [74.01621, 19.29757],
        [74.01672, 19.29723],
        [74.01805, 19.2966],
        [74.01995, 19.29565],
        [74.02093, 19.29597],
        [74.02159, 19.29643],
        [74.02166, 19.29785],
        [74.02255, 19.29765],
        [74.02305, 19.299],
        [74.02337, 19.29865],
        [74.02342, 19.29827],
        [74.02361, 19.29751],
        [74.02555, 19.29777],
        [74.02562, 19.2988],
        [74.02544, 19.30005],
        [74.02495, 19.30171],
        [74.02587, 19.30176],
        [74.02532, 19.30379],
        [74.02467, 19.30629],
        [74.02426, 19.30779],
        [74.02378, 19.30862],
        [74.02329, 19.30897],
        [74.02064, 19.30918],
        [74.02068, 19.30998],
        [74.02351, 19.3101],
        [74.02624, 19.31017],
        [74.02638, 19.31218],
        [74.02646, 19.31433],
        [74.02435, 19.31346],
        [74.02279, 19.31339],
        [74.02277, 19.31518],
        [74.01961, 19.31537],
        [74.01881, 19.31596],
        [74.0182, 19.31569],
        [74.01796, 19.31599],
        [74.01805, 19.31627],
        [74.01805, 19.31662],
        [74.01794, 19.31698],
        [74.01781, 19.31728],
        [74.01778, 19.31756],
        [74.0178, 19.31804],
        [74.01786, 19.31831],
        [74.01796, 19.31854],
        [74.0181, 19.31874],
        [74.01845, 19.31908],
        [74.01874, 19.3194],
        [74.01888, 19.31969],
        [74.01891, 19.32055],
        [74.019, 19.32074],
        [74.01911, 19.32093],
        [74.01936, 19.3214],
        [74.01937, 19.32176],
        [74.01828, 19.32258],
        [74.01787, 19.32291],
        [74.01745, 19.3233],
        [74.01686, 19.32408],
        [74.0158, 19.32546],
        [74.01558, 19.32575],
        [74.0149, 19.32601],
        [74.01446, 19.32612],
        [74.01416, 19.32619],
        [74.01388, 19.32622],
        [74.01344, 19.32624],
        [74.01204, 19.32636],
        [74.0121, 19.32912],
        [74.01215, 19.33372],
        [74.01214, 19.33476],
        [74.01199, 19.33534],
        [74.01176, 19.33568],
        [74.01127, 19.33608],
        [74.01063, 19.33673],
        [74.01006, 19.33741],
        [74.00931, 19.33843],
        [74.00896, 19.33873],
        [74.0079, 19.33916],
        [74.00706, 19.33965],
        [74.00628, 19.34017],
        [74.00548, 19.34049],
        [74.0043, 19.34078],
        [74.0023, 19.34117],
        [74.00226, 19.34638],
        [74.00215, 19.35012],
        [74.00212, 19.35331],
        [74.00214, 19.35584],
        [74.00207, 19.35671],
        [74.00146, 19.35739],
        [74.00123, 19.35779],
        [74.00126, 19.3586],
        [73.99929, 19.36049],
        [73.99892, 19.36024],
        [73.99822, 19.35869],
        [73.99751, 19.35723],
        [73.99679, 19.35572],
        [73.99616, 19.35436],
        [73.99544, 19.35282],
        [73.99524, 19.35281],
        [73.99228, 19.35258],
        [73.99095, 19.35248],
        [73.98854, 19.3519],
        [73.98659, 19.35024],
        [73.98546, 19.34994],
        [73.98066, 19.34928],
        [73.98017, 19.34929],
        [73.97669, 19.35019],
        [73.97283, 19.34833],
        [73.97187, 19.3479],
        [73.97136, 19.34997],
        [73.9706, 19.35245],
        [73.96985, 19.35354],
        [73.96897, 19.35424],
        [73.96824, 19.35299],
        [73.96729, 19.35174],
        [73.96674, 19.35079],
        [73.96483, 19.35166],
        [73.96412, 19.35192],
        [73.96369, 19.35004],
        [73.96318, 19.3484],
        [73.96005, 19.3486],
        [73.95876, 19.3487],
        [73.95595, 19.34741],
        [73.95384, 19.34774],
        [73.9543, 19.34483],
        [73.95473, 19.34248],
        [73.9531, 19.34219],
        [73.94955, 19.34084],
        [73.94908, 19.34238],
        [73.94828, 19.34281],
        [73.94753, 19.3428],
        [73.94689, 19.34236],
        [73.94591, 19.34049],
        [73.94558, 19.33992],
        [73.94498, 19.33943],
        [73.94453, 19.33951],
        [73.94415, 19.33998],
        [73.94391, 19.3408],
        [73.94384, 19.34205],
        [73.94356, 19.3439],
        [73.9432, 19.34422],
        [73.94291, 19.34434],
        [73.94236, 19.34405],
        [73.9418, 19.34281],
        [73.9414, 19.34279],
        [73.94034, 19.34311],
        [73.9398, 19.34302],
        [73.93863, 19.34309],
        [73.9377, 19.34316],
        [73.93744, 19.34306],
        [73.93727, 19.34278],
        [73.93728, 19.34254],
        [73.93741, 19.34182],
        [73.93772, 19.3408],
        [73.93776, 19.34035],
        [73.93776, 19.34011],
        [73.93761, 19.33981],
        [73.93709, 19.33935],
        [73.93599, 19.33909],
        [73.93534, 19.33909],
        [73.9349, 19.33942],
        [73.93412, 19.34047],
        [73.93352, 19.34094],
        [73.93296, 19.34118],
        [73.93226, 19.34094],
        [73.93095, 19.33998],
        [73.93039, 19.33964],
        [73.92879, 19.33959],
        [73.92767, 19.33962],
        [73.92739, 19.33919],
        [73.92746, 19.33851],
        [73.927, 19.33894],
        [73.92613, 19.34087],
        [73.92486, 19.3437],
        [73.92371, 19.34523],
        [73.92325, 19.34597],
        [73.92128, 19.34767],
        [73.91955, 19.34936],
        [73.91896, 19.35],
        [73.91873, 19.35072],
        [73.91853, 19.35191],
        [73.9183, 19.35406],
        [73.91805, 19.35582],
        [73.91798, 19.35615],
        [73.9174, 19.35677],
        [73.91554, 19.35909],
        [73.91337, 19.36201],
        [73.91267, 19.36296],
        [73.90911, 19.36209],
        [73.90693, 19.3627],
        [73.90531, 19.36267],
        [73.90337, 19.3639],
        [73.89976, 19.36714],
        [73.89613, 19.37055],
        [73.89388, 19.37213],
        [73.89145, 19.37333],
        [73.88756, 19.37352],
        [73.88504, 19.37447],
        [73.88185, 19.37037],
        [73.87951, 19.36839],
        [73.87904, 19.36725],
        [73.87757, 19.3634],
        [73.87659, 19.3613],
        [73.8762, 19.36067],
        [73.87508, 19.3594],
        [73.87449, 19.35881],
        [73.87386, 19.35876],
        [73.87242, 19.35871],
        [73.86769, 19.35627],
        [73.86671, 19.35579],
        [73.86626, 19.35539],
        [73.86561, 19.35532],
        [73.86449, 19.35545],
        [73.86397, 19.35536],
        [73.86054, 19.35651],
        [73.85746, 19.35651],
        [73.85639, 19.35665],
        [73.85463, 19.35653],
        [73.85381, 19.35621],
        [73.85188, 19.35785],
        [73.8496, 19.35986],
        [73.84727, 19.36168],
        [73.84431, 19.36428],
        [73.84147, 19.36674],
        [73.84264, 19.36834],
        [73.8441, 19.37056],
        [73.841, 19.37397],
        [73.8388, 19.37644],
        [73.83734, 19.37764],
        [73.83652, 19.37807],
        [73.83425, 19.37819],
        [73.8338, 19.37823],
        [73.83203, 19.37888],
        [73.82808, 19.38125],
        [73.82561, 19.38294],
        [73.82445, 19.38422],
        [73.82215, 19.38745],
        [73.82182, 19.38782],
        [73.81676, 19.38689],
        [73.81554, 19.38674],
        [73.8152, 19.38676],
        [73.81492, 19.38685],
        [73.81456, 19.38702],
        [73.81237, 19.38896],
        [73.81113, 19.39144],
        [73.81083, 19.39188],
        [73.81067, 19.39208],
        [73.81038, 19.3923],
        [73.81019, 19.39238],
        [73.80865, 19.3924],
        [73.80779, 19.39248],
        [73.80734, 19.39256],
        [73.80672, 19.39287],
        [73.80459, 19.39424],
        [73.80334, 19.39473],
        [73.80031, 19.39353],
        [73.79673, 19.39204],
        [73.795, 19.39113],
        [73.79223, 19.39189],
        [73.79107, 19.39209],
        [73.78779, 19.39025],
        [73.78423, 19.38857],
        [73.77947, 19.38682],
        [73.77699, 19.38696],
        [73.77627, 19.38693],
        [73.77339, 19.38643],
        [73.77098, 19.38574],
        [73.77107, 19.38676],
        [73.77158, 19.38874],
        [73.77166, 19.39049],
        [73.77067, 19.39283],
        [73.76947, 19.39447],
        [73.76665, 19.39429],
        [73.76414, 19.39419],
        [73.76289, 19.3946],
        [73.76198, 19.39427],
        [73.76106, 19.39414],
        [73.75916, 19.39404],
        [73.75795, 19.39413],
        [73.75572, 19.39487],
        [73.75361, 19.39601],
        [73.75285, 19.39648],
        [73.75242, 19.39774],
        [73.75194, 19.4006],
        [73.75219, 19.40254],
        [73.75234, 19.4044],
        [73.75242, 19.4067],
        [73.75204, 19.40724],
        [73.75067, 19.4077],
        [73.74932, 19.40798],
        [73.74876, 19.4081],
        [73.74824, 19.40821],
        [73.74782, 19.40838],
        [73.74742, 19.40854],
        [73.74683, 19.4088],
        [73.74624, 19.40905],
        [73.74576, 19.40921],
        [73.74526, 19.40937],
        [73.74493, 19.40945],
        [73.7446, 19.40953],
        [73.74418, 19.40965],
        [73.74377, 19.40976],
        [73.74342, 19.40982],
        [73.74307, 19.40989],
        [73.74276, 19.40996],
        [73.74245, 19.41003],
        [73.74154, 19.41016],
        [73.74062, 19.4103],
        [73.73982, 19.41046],
        [73.73902, 19.41062],
        [73.7387, 19.41067],
        [73.73838, 19.41072],
        [73.73805, 19.41076],
        [73.73772, 19.41079],
        [73.73737, 19.41095],
        [73.73681, 19.41123],
        [73.73625, 19.41152],
        [73.73556, 19.41176],
        [73.73486, 19.412],
        [73.73408, 19.41218],
        [73.73331, 19.41235],
        [73.73302, 19.41247],
        [73.73273, 19.41259],
        [73.73239, 19.41297],
        [73.73206, 19.41336],
        [73.73156, 19.41436],
        [73.73106, 19.41536],
        [73.73089, 19.41587],
        [73.73072, 19.41637],
        [73.73052, 19.41668],
        [73.73027, 19.41702],
        [73.73001, 19.41712],
        [73.72974, 19.41714],
        [73.72942, 19.41715],
        [73.72909, 19.41716],
        [73.72853, 19.41709],
        [73.72797, 19.41702],
        [73.72758, 19.41696],
        [73.7272, 19.41691],
        [73.72689, 19.41687],
        [73.72657, 19.41687],
        [73.72637, 19.41698],
        [73.72637, 19.41758],
        [73.72636, 19.41817],
        [73.72645, 19.41835],
        [73.72654, 19.41854],
        [73.72704, 19.41912],
        [73.72753, 19.4197],
        [73.72778, 19.42017],
        [73.72803, 19.42064],
        [73.72818, 19.42102],
        [73.72833, 19.4214],
        [73.72851, 19.42233],
        [73.72869, 19.42326],
        [73.7289, 19.42454],
        [73.72911, 19.42581],
        [73.72934, 19.42674],
        [73.72957, 19.42767],
        [73.72974, 19.42794],
        [73.7299, 19.42822],
        [73.73028, 19.42876],
        [73.73065, 19.4293],
        [73.73079, 19.42957],
        [73.73093, 19.42983],
        [73.73106, 19.43011],
        [73.73117, 19.43032],
        [73.73111, 19.43058],
        [73.73069, 19.43084],
        [73.73028, 19.43109],
        [73.7297, 19.43134],
        [73.729, 19.43163],
        [73.72873, 19.43172],
        [73.72839, 19.4317],
        [73.72815, 19.43171],
        [73.72791, 19.43172],
        [73.72727, 19.43168],
        [73.72665, 19.43164],
        [73.72533, 19.43143],
        [73.72403, 19.43122],
        [73.72324, 19.43112],
        [73.72246, 19.43101],
        [73.72216, 19.431],
        [73.72187, 19.43099],
        [73.72154, 19.431],
        [73.72127, 19.43102],
        [73.72106, 19.43108],
        [73.72086, 19.43115],
        [73.7207, 19.43129],
        [73.72053, 19.43142],
        [73.72016, 19.43167],
        [73.71979, 19.43192],
        [73.71942, 19.43202],
        [73.71905, 19.43211],
        [73.7185, 19.43221],
        [73.71795, 19.43231],
        [73.71752, 19.43237],
        [73.71707, 19.43244],
        [73.71671, 19.43246],
        [73.71652, 19.43245],
        [73.71631, 19.43244],
        [73.716, 19.43238],
        [73.71564, 19.43228],
        [73.71521, 19.43209],
        [73.71478, 19.43191],
        [73.71436, 19.4318],
        [73.71393, 19.43168],
        [73.71353, 19.43157],
        [73.71312, 19.43145],
        [73.71277, 19.43141],
        [73.71243, 19.43137],
        [73.71223, 19.43137],
        [73.71187, 19.43137],
        [73.71169, 19.43129],
        [73.71144, 19.43116],
        [73.71121, 19.43103],
        [73.71099, 19.43098],
        [73.71076, 19.43093],
        [73.71043, 19.43084],
        [73.70957, 19.43065],
        [73.70872, 19.43047],
        [73.70831, 19.43038],
        [73.70789, 19.4303],
        [73.7076, 19.43019],
        [73.70733, 19.43009],
        [73.70708, 19.42996],
        [73.70688, 19.42983],
        [73.70684, 19.42949],
        [73.70685, 19.4293],
        [73.7069, 19.42867],
        [73.70696, 19.42804],
        [73.70698, 19.42776],
        [73.70694, 19.42753],
        [73.70687, 19.4273],
        [73.70655, 19.42728],
        [73.70651, 19.42767],
        [73.70647, 19.42806],
        [73.70636, 19.42861],
        [73.70625, 19.42915],
        [73.70608, 19.42956],
        [73.70591, 19.42996],
        [73.70576, 19.43033],
        [73.70561, 19.43069],
        [73.7054, 19.43108],
        [73.7052, 19.43146],
        [73.70494, 19.43177],
        [73.70467, 19.43208],
        [73.70438, 19.43229],
        [73.70413, 19.43242],
        [73.70388, 19.43255],
        [73.70357, 19.43267],
        [73.70335, 19.43278],
        [73.70317, 19.4329],
        [73.70295, 19.43309],
        [73.7027, 19.43328],
        [73.70241, 19.43345],
        [73.70216, 19.43355],
        [73.70196, 19.43361],
        [73.70173, 19.43367],
        [73.7015, 19.43372],
        [73.70131, 19.4338],
        [73.70111, 19.43391],
        [73.70079, 19.43407],
        [73.70046, 19.43423],
        [73.70024, 19.43427],
        [73.70001, 19.43431],
        [73.69972, 19.43432],
        [73.69943, 19.43427],
        [73.69913, 19.43427],
        [73.69893, 19.43429],
        [73.69873, 19.4343],
        [73.69851, 19.43436],
        [73.69822, 19.43453],
        [73.69798, 19.4347],
        [73.6977, 19.43479],
        [73.69745, 19.43481],
        [73.69716, 19.43469],
        [73.69695, 19.4345],
        [73.69677, 19.43435],
        [73.69658, 19.43418],
        [73.69634, 19.43405],
        [73.69605, 19.43414],
        [73.69584, 19.43431],
        [73.69558, 19.43448],
        [73.69533, 19.43461],
        [73.69502, 19.43468],
        [73.69472, 19.43453],
        [73.69456, 19.43434],
        [73.69439, 19.43413],
        [73.69418, 19.43391],
        [73.69407, 19.4337],
        [73.69371, 19.43355],
        [73.69342, 19.43368],
        [73.69317, 19.43379],
        [73.69299, 19.43392],
        [73.69279, 19.43402],
        [73.69259, 19.43411],
        [73.69236, 19.43426],
        [73.69221, 19.4344],
        [73.69196, 19.43464],
        [73.69144, 19.43531],
        [73.69092, 19.43597],
        [73.69028, 19.43686],
        [73.68964, 19.43775],
        [73.68902, 19.43851],
        [73.68839, 19.43928],
        [73.68815, 19.43965],
        [73.68792, 19.44003],
        [73.68844, 19.44042],
        [73.68895, 19.44081],
        [73.68831, 19.44138],
        [73.68766, 19.44195],
        [73.68667, 19.44288],
        [73.68567, 19.44381],
        [73.68548, 19.44398],
        [73.68513, 19.44427],
        [73.6846, 19.44473],
        [73.68448, 19.4449],
        [73.68436, 19.44507],
        [73.68433, 19.44531],
        [73.68435, 19.44558],
        [73.68455, 19.44641],
        [73.68474, 19.44725],
        [73.68477, 19.44768],
        [73.68479, 19.44812],
        [73.68475, 19.44924],
        [73.68471, 19.45036],
        [73.68465, 19.45167],
        [73.68457, 19.45298],
        [73.68425, 19.45428],
        [73.68393, 19.45558],
        [73.68374, 19.45647],
        [73.68355, 19.45735],
        [73.68346, 19.45752],
        [73.68338, 19.45769],
        [73.68319, 19.45782],
        [73.68279, 19.45796],
        [73.68239, 19.4581],
        [73.68173, 19.4582],
        [73.68107, 19.4583],
        [73.68016, 19.45847],
        [73.67925, 19.45864],
        [73.679, 19.45868],
        [73.67876, 19.45871],
        [73.67847, 19.45871],
        [73.67815, 19.45865],
        [73.67788, 19.45861],
        [73.67766, 19.45853],
        [73.67743, 19.45846],
        [73.67718, 19.45835],
        [73.67696, 19.45823],
        [73.67676, 19.45812],
        [73.6764, 19.45799],
        [73.67535, 19.4594],
        [73.6743, 19.46082],
        [73.67542, 19.46139],
        [73.67655, 19.46196],
        [73.67795, 19.46263],
        [73.67934, 19.46329],
        [73.6803, 19.4638],
        [73.68125, 19.46431],
        [73.68193, 19.46493],
        [73.68261, 19.46556],
        [73.68308, 19.46585],
        [73.68355, 19.46615],
        [73.68401, 19.46639],
        [73.68448, 19.46662],
        [73.6849, 19.46682],
        [73.68533, 19.46702],
        [73.68558, 19.46708],
        [73.68583, 19.46715],
        [73.68648, 19.46728],
        [73.68712, 19.46742],
        [73.688, 19.46751],
        [73.68888, 19.4676],
        [73.68916, 19.46762],
        [73.68944, 19.46764],
        [73.68978, 19.46766],
        [73.69011, 19.46768],
        [73.69062, 19.46782],
        [73.69112, 19.46796],
        [73.69149, 19.46813],
        [73.69185, 19.4683],
        [73.69223, 19.46853],
        [73.69263, 19.46876],
        [73.6931, 19.46905],
        [73.69355, 19.46934],
        [73.69395, 19.46953],
        [73.69434, 19.46971],
        [73.69465, 19.47006],
        [73.69495, 19.4704],
        [73.69534, 19.4713],
        [73.69572, 19.47221],
        [73.69585, 19.47274],
        [73.69597, 19.47327],
        [73.69611, 19.47415],
        [73.69624, 19.47504],
        [73.69626, 19.47553],
        [73.69629, 19.47602],
        [73.69627, 19.47621],
        [73.69627, 19.47644],
        [73.6962, 19.47666],
        [73.6961, 19.47685],
        [73.69583, 19.47727],
        [73.69552, 19.47781],
        [73.69546, 19.47807],
        [73.69549, 19.47836],
        [73.69558, 19.47853],
        [73.69577, 19.47866],
        [73.69603, 19.47879],
        [73.69701, 19.47879],
        [73.69783, 19.47878],
        [73.69953, 19.47874],
        [73.70122, 19.47871],
        [73.70158, 19.47879],
        [73.70178, 19.47901],
        [73.70198, 19.47916],
        [73.70227, 19.4792],
        [73.70354, 19.47902],
        [73.70465, 19.47882],
        [73.70503, 19.47882],
        [73.70523, 19.47882],
        [73.70544, 19.47882],
        [73.70577, 19.47882],
        [73.70604, 19.4789],
        [73.70629, 19.47905],
        [73.70645, 19.47926],
        [73.70663, 19.47972],
        [73.70681, 19.48018],
        [73.70702, 19.48098],
        [73.70722, 19.48178],
        [73.70737, 19.48312],
        [73.70752, 19.48446],
        [73.71065, 19.48431],
        [73.71378, 19.48416],
        [73.71308, 19.48527],
        [73.71238, 19.48638],
        [73.7122, 19.48668],
        [73.71198, 19.48684],
        [73.71177, 19.487],
        [73.71148, 19.48724],
        [73.71093, 19.48759],
        [73.71039, 19.48794],
        [73.71018, 19.48815],
        [73.70996, 19.48835],
        [73.70974, 19.48868],
        [73.70952, 19.48901],
        [73.70917, 19.48957],
        [73.70883, 19.49012],
        [73.70841, 19.4909],
        [73.708, 19.49168],
        [73.70782, 19.49206],
        [73.70764, 19.49245],
        [73.70768, 19.49266],
        [73.70771, 19.49287],
        [73.70777, 19.49305],
        [73.70783, 19.49323],
        [73.7081, 19.49385],
        [73.7084, 19.49465],
        [73.70835, 19.49498],
        [73.70787, 19.4956],
        [73.70737, 19.49622],
        [73.70694, 19.49663],
        [73.70652, 19.49704],
        [73.70631, 19.49718],
        [73.70609, 19.49731],
        [73.70585, 19.49737],
        [73.7056, 19.49742],
        [73.70528, 19.49749],
        [73.70495, 19.49755],
        [73.70458, 19.49761],
        [73.70421, 19.49766],
        [73.70368, 19.4977],
        [73.70316, 19.49773],
        [73.70214, 19.49779],
        [73.70111, 19.49784],
        [73.69946, 19.49787],
        [73.6978, 19.4979],
        [73.69636, 19.49797],
        [73.69493, 19.49804],
        [73.69431, 19.49807],
        [73.69369, 19.49809],
        [73.69341, 19.49813],
        [73.69313, 19.49818],
        [73.69291, 19.49825],
        [73.6927, 19.49833],
        [73.69246, 19.4984],
        [73.69221, 19.49848],
        [73.69198, 19.49856],
        [73.69176, 19.49863],
        [73.6913, 19.49877],
        [73.69085, 19.49891],
        [73.68978, 19.49917],
        [73.68871, 19.49943],
        [73.68816, 19.49952],
        [73.68761, 19.4996],
        [73.68715, 19.4997],
        [73.6867, 19.4998],
        [73.68651, 19.49985],
        [73.68613, 19.49995],
        [73.68644, 19.50033],
        [73.68671, 19.50073],
        [73.68789, 19.50217],
        [73.68969, 19.50439],
        [73.69005, 19.50478],
        [73.69018, 19.50498],
        [73.69025, 19.50516],
        [73.69031, 19.50538],
        [73.6903, 19.50568],
        [73.69014, 19.50597],
        [73.68984, 19.50627],
        [73.68961, 19.50657],
        [73.68872, 19.50758],
        [73.68754, 19.50895],
        [73.68732, 19.5092],
        [73.68679, 19.50993],
        [73.68652, 19.51028],
        [73.68639, 19.51051],
        [73.68633, 19.51077],
        [73.68634, 19.51143],
        [73.68635, 19.51229],
        [73.68625, 19.51345],
        [73.68625, 19.51377],
        [73.68623, 19.5143],
        [73.68605, 19.5145],
        [73.68551, 19.51459],
        [73.68451, 19.51474],
        [73.68391, 19.51481],
        [73.68326, 19.51489],
        [73.68267, 19.515],
        [73.68239, 19.51509],
        [73.6821, 19.51533],
        [73.6819, 19.51563],
        [73.6815, 19.51616],
        [73.68114, 19.51679],
        [73.68076, 19.51748],
        [73.68048, 19.51811],
        [73.68026, 19.51836],
        [73.68007, 19.51847],
        [73.67982, 19.51861],
        [73.6795, 19.51869],
        [73.67929, 19.51871],
        [73.67906, 19.5187],
        [73.67919, 19.51596],
        [73.6792, 19.5139],
        [73.67914, 19.51352],
        [73.67898, 19.51315],
        [73.67874, 19.5129],
        [73.67797, 19.51243],
        [73.67719, 19.51209],
        [73.67699, 19.51188],
        [73.67664, 19.51115],
        [73.67576, 19.50969],
        [73.67552, 19.50947],
        [73.6753, 19.50939],
        [73.67474, 19.50939],
        [73.67428, 19.50953],
        [73.67387, 19.50994],
        [73.67293, 19.51135],
        [73.67181, 19.51237],
        [73.67101, 19.51279],
        [73.67023, 19.51318],
        [73.66968, 19.51338],
        [73.66927, 19.51345],
        [73.66876, 19.51344],
        [73.66758, 19.51327],
        [73.66451, 19.51197],
        [73.66447, 19.51323],
        [73.66417, 19.51494],
        [73.66409, 19.51541],
        [73.66373, 19.51737],
        [73.66349, 19.51898],
        [73.66317, 19.52085],
        [73.6629, 19.52159],
        [73.66226, 19.52247],
        [73.66114, 19.52385],
        [73.66, 19.52571],
        [73.66003, 19.52615],
        [73.66032, 19.52737],
        [73.66044, 19.52841],
        [73.66042, 19.52942],
        [73.65991, 19.5302],
        [73.65871, 19.53184],
        [73.65821, 19.53273],
        [73.65785, 19.53375],
        [73.65769, 19.53471],
        [73.65771, 19.53576],
        [73.65775, 19.53655],
        [73.65607, 19.53689],
        [73.65486, 19.53718],
        [73.65408, 19.53739],
        [73.65283, 19.53763],
        [73.65107, 19.53792],
        [73.64917, 19.5382],
        [73.64824, 19.53827],
        [73.64799, 19.53825],
        [73.64732, 19.53779],
        [73.6471, 19.53765],
        [73.64658, 19.53765],
        [73.64639, 19.53717],
        [73.64608, 19.53696],
        [73.6455, 19.53695],
        [73.64501, 19.53746],
        [73.64459, 19.53834],
        [73.644, 19.53824],
        [73.64353, 19.53817],
        [73.64334, 19.53818],
        [73.6426, 19.53848],
        [73.64154, 19.53895],
        [73.64096, 19.53917],
        [73.6406, 19.53875],
        [73.64034, 19.53875],
        [73.63996, 19.53879],
        [73.6391, 19.5391],
        [73.63892, 19.53844],
        [73.63862, 19.538],
        [73.63806, 19.53739],
        [73.63779, 19.53674],
        [73.6377, 19.53636],
        [73.63739, 19.53598],
        [73.63713, 19.53568],
        [73.63706, 19.53533],
        [73.63699, 19.53465],
        [73.63674, 19.53447],
        [73.63627, 19.53432],
        [73.63605, 19.53423],
        [73.63588, 19.53395],
        [73.63509, 19.53277],
        [73.63282, 19.53279],
        [73.63289, 19.53509],
        [73.63307, 19.53692],
        [73.63311, 19.53846],
        [73.63307, 19.53942],
        [73.63275, 19.53962],
        [73.63234, 19.54003],
        [73.63224, 19.54035],
        [73.63222, 19.54095],
        [73.63208, 19.54163],
        [73.63169, 19.54159],
        [73.63012, 19.54088],
        [73.62961, 19.54078],
        [73.62915, 19.54078],
        [73.62889, 19.54094],
        [73.62842, 19.54154],
        [73.62814, 19.54179],
        [73.62777, 19.54191],
        [73.62722, 19.54209],
        [73.62681, 19.54243],
        [73.62553, 19.54355],
        [73.62462, 19.54303],
        [73.62327, 19.54217],
        [73.62276, 19.54206],
        [73.6232, 19.54318],
        [73.62343, 19.5444],
        [73.62356, 19.54543],
        [73.62355, 19.54601],
        [73.62298, 19.54711],
        [73.62201, 19.54858],
        [73.62485, 19.55037],
        [73.62568, 19.55103],
        [73.62617, 19.55155],
        [73.62711, 19.55326],
        [73.62815, 19.55331],
        [73.62811, 19.55362],
        [73.62758, 19.55456],
        [73.62747, 19.55508],
        [73.62774, 19.55659],
        [73.62781, 19.55742],
        [73.62771, 19.55793],
        [73.62725, 19.55975],
        [73.6266, 19.56155],
        [73.62624, 19.56279],
        [73.62609, 19.5646],
        [73.62603, 19.56593],
        [73.62598, 19.56693],
        [73.62636, 19.56689],
        [73.62685, 19.56693],
        [73.62724, 19.56717],
        [73.62793, 19.56804],
        [73.62831, 19.56881],
        [73.62841, 19.56933],
        [73.62816, 19.57007],
        [73.62757, 19.57217],
        [73.62735, 19.57289],
        [73.62706, 19.57395],
        [73.62698, 19.57477],
        [73.62573, 19.57398],
        [73.6237, 19.57647],
        [73.62243, 19.57785],
        [73.62101, 19.57919],
        [73.62036, 19.57999],
        [73.61899, 19.58194],
        [73.61873, 19.58225],
        [73.61849, 19.58238],
        [73.61815, 19.58236],
        [73.61762, 19.58158],
        [73.61645, 19.57917],
        [73.61584, 19.57819],
        [73.61507, 19.57746],
        [73.61558, 19.57856],
        [73.61585, 19.57933],
        [73.616, 19.57995],
        [73.61613, 19.58193],
        [73.61607, 19.58375],
        [73.61596, 19.5854],
        [73.6177, 19.58722],
        [73.61856, 19.58629],
        [73.62034, 19.58759],
        [73.62301, 19.5896],
        [73.62455, 19.59061],
        [73.62786, 19.59292],
        [73.6289, 19.59353],
        [73.62906, 19.59363],
        [73.63081, 19.59458],
        [73.63299, 19.59559],
        [73.63365, 19.59579],
        [73.63427, 19.59588],
        [73.63483, 19.59584],
        [73.63584, 19.59547],
        [73.63746, 19.59446],
        [73.63864, 19.59329],
        [73.64016, 19.5914],
        [73.64096, 19.59011],
        [73.64326, 19.58992],
        [73.64392, 19.58968],
        [73.64659, 19.58864],
        [73.64899, 19.58938],
        [73.64975, 19.58863],
        [73.65016, 19.58787],
        [73.65101, 19.58792],
        [73.65262, 19.58782],
        [73.65373, 19.58764],
        [73.65448, 19.58732],
        [73.65547, 19.58681],
        [73.65701, 19.58627],
        [73.65813, 19.58594],
        [73.65898, 19.5855],
        [73.65998, 19.58505],
        [73.66096, 19.58448],
        [73.66148, 19.58407],
        [73.66252, 19.58455],
        [73.66507, 19.58556],
        [73.66585, 19.58617],
        [73.66626, 19.58681],
        [73.66633, 19.5874],
        [73.66652, 19.58777],
        [73.66717, 19.58842],
        [73.66804, 19.58904],
        [73.66839, 19.58966],
        [73.66861, 19.59033],
        [73.66927, 19.59057],
        [73.67044, 19.59061],
        [73.67254, 19.59054],
        [73.67367, 19.5903],
        [73.67415, 19.59008],
        [73.67546, 19.58894],
        [73.6763, 19.5881],
        [73.6766, 19.58804],
        [73.6773, 19.58806],
        [73.67908, 19.58851],
        [73.67947, 19.58855],
        [73.67992, 19.58851],
        [73.68089, 19.58824],
        [73.68142, 19.5882],
        [73.68201, 19.58825],
        [73.68247, 19.58845],
        [73.68332, 19.5891],
        [73.68394, 19.5898],
        [73.68425, 19.59027],
        [73.68474, 19.5916],
        [73.68494, 19.59252],
        [73.68506, 19.59312],
        [73.6852, 19.59332],
        [73.68572, 19.59354],
        [73.68683, 19.59385],
        [73.6879, 19.59403],
        [73.68835, 19.59406],
        [73.68879, 19.59401],
        [73.68924, 19.59385],
        [73.68957, 19.59372],
        [73.68996, 19.59363],
        [73.69043, 19.59361],
        [73.6913, 19.59367],
        [73.69197, 19.59377],
        [73.6931, 19.59374],
        [73.69506, 19.59364],
        [73.69624, 19.59342],
        [73.697, 19.59325],
        [73.69725, 19.59323],
        [73.69794, 19.59373],
        [73.69931, 19.59482],
        [73.70001, 19.59519],
        [73.70216, 19.5958],
        [73.70345, 19.59618],
        [73.70392, 19.59639],
        [73.70442, 19.59674],
        [73.70689, 19.59909],
        [73.70821, 19.60037],
        [73.70933, 19.60128],
        [73.70928, 19.60209],
        [73.70893, 19.60319],
        [73.70873, 19.60414],
        [73.7086, 19.60572],
        [73.7087, 19.6066],
        [73.7088, 19.60833],
        [73.70876, 19.60923],
        [73.70889, 19.61164],
        [73.70963, 19.61217],
        [73.7103, 19.61264],
        [73.71047, 19.61277],
        [73.71099, 19.61315],
        [73.71155, 19.61409],
        [73.71272, 19.61574],
        [73.71323, 19.61616],
        [73.71376, 19.61641],
        [73.71688, 19.61731],
        [73.71814, 19.6177],
        [73.71899, 19.61802],
        [73.72156, 19.61955],
        [73.72203, 19.61978],
        [73.72398, 19.62043],
        [73.72591, 19.62089],
        [73.72761, 19.62121],
        [73.72828, 19.6203],
        [73.72909, 19.61899],
        [73.73009, 19.61738],
        [73.73185, 19.61823],
        [73.73272, 19.61787],
        [73.73358, 19.61779],
        [73.73535, 19.61784],
        [73.7374, 19.6178],
        [73.73854, 19.61772],
        [73.73926, 19.61955],
        [73.73995, 19.62016],
        [73.74067, 19.62062],
        [73.74222, 19.62191],
        [73.74326, 19.62233],
        [73.74382, 19.62249],
        [73.74419, 19.62286],
        [73.74454, 19.62366],
        [73.74635, 19.62253],
        [73.74721, 19.62204],
        [73.74785, 19.62191],
        [73.74895, 19.62184],
        [73.74935, 19.62186],
        [73.75062, 19.62347],
        [73.75301, 19.62558],
        [73.75468, 19.62669],
        [73.75681, 19.62807],
        [73.75936, 19.62958],
        [73.75982, 19.6296],
        [73.76111, 19.62953],
        [73.7629, 19.62886],
        [73.76383, 19.62833],
        [73.76469, 19.62901],
        [73.76667, 19.63038],
        [73.76704, 19.6308],
        [73.76654, 19.63329],
        [73.76816, 19.63132],
        [73.76883, 19.63061],
        [73.77019, 19.62979],
        [73.77207, 19.62872],
        [73.77525, 19.62688],
        [73.77505, 19.62933],
        [73.77522, 19.63112],
        [73.77548, 19.6329],
        [73.77651, 19.63284],
        [73.77697, 19.63291],
        [73.7769, 19.63509],
        [73.77701, 19.63571],
        [73.77791, 19.63578],
        [73.77672, 19.63961],
        [73.77644, 19.641],
        [73.78051, 19.64041],
        [73.78338, 19.64019],
        [73.78441, 19.64036],
        [73.78551, 19.64063],
        [73.78619, 19.64088],
        [73.7871, 19.64106],
        [73.78777, 19.64124],
        [73.78892, 19.64226],
        [73.78957, 19.64263],
        [73.7904, 19.64276],
        [73.79207, 19.64257],
        [73.79302, 19.64246],
        [73.79171, 19.64497],
        [73.79121, 19.64568],
        [73.79098, 19.6459],
        [73.78925, 19.6469],
        [73.78822, 19.64758],
        [73.78771, 19.64779],
        [73.78627, 19.64786],
        [73.78402, 19.64791],
        [73.78243, 19.64799],
        [73.78201, 19.64809],
        [73.78109, 19.64908],
        [73.78032, 19.65001],
        [73.77985, 19.65091],
        [73.77962, 19.65217],
        [73.77974, 19.65354],
        [73.78003, 19.65528],
        [73.78007, 19.65635],
        [73.78125, 19.65636],
        [73.78143, 19.65741],
        [73.78181, 19.66009],
        [73.78331, 19.65991],
        [73.78396, 19.65997],
        [73.78484, 19.66046],
        [73.78586, 19.66119],
        [73.78696, 19.66175],
        [73.78822, 19.66233],
        [73.78882, 19.66274],
        [73.78902, 19.66311],
        [73.78942, 19.66366],
        [73.78987, 19.66363],
        [73.7904, 19.66377],
        [73.79007, 19.66485],
        [73.78996, 19.66573],
        [73.78997, 19.66634],
        [73.79011, 19.66684],
        [73.79073, 19.6676],
        [73.79066, 19.66779],
        [73.79012, 19.66787],
        [73.78998, 19.66881],
        [73.7902, 19.66936],
        [73.79058, 19.66967],
        [73.79129, 19.66995],
        [73.79165, 19.67007],
        [73.79182, 19.67112],
        [73.79285, 19.67138],
        [73.79315, 19.67182],
        [73.79398, 19.67368],
        [73.79447, 19.67367],
        [73.79493, 19.6749],
        [73.79569, 19.67642],
        [73.80001, 19.67645],
        [73.7998, 19.67805],
        [73.80229, 19.67662],
        [73.8038, 19.6779],
        [73.80492, 19.67669],
        [73.8062, 19.67697],
        [73.80651, 19.67813],
        [73.80423, 19.67961],
        [73.80273, 19.68073],
        [73.80225, 19.6812],
        [73.80177, 19.68187],
        [73.80138, 19.68242],
        [73.80121, 19.68307],
        [73.80116, 19.68359],
        [73.79918, 19.68366],
        [73.79729, 19.68387],
        [73.79535, 19.6843],
        [73.79486, 19.68456],
        [73.79421, 19.68505],
        [73.79345, 19.68575],
        [73.7931, 19.68635],
        [73.79282, 19.68741],
        [73.79267, 19.68803],
        [73.79331, 19.68861],
        [73.79382, 19.68894],
        [73.79423, 19.68949],
        [73.79467, 19.68986],
        [73.7951, 19.68945],
        [73.79566, 19.68927],
        [73.79643, 19.68907],
        [73.79851, 19.6887],
        [73.80025, 19.68843],
        [73.80161, 19.68837],
        [73.8024, 19.68832],
        [73.80289, 19.68838],
        [73.80334, 19.68856],
        [73.80422, 19.68999],
        [73.80521, 19.68979],
        [73.80522, 19.68785],
        [73.80537, 19.6871],
        [73.80587, 19.68638],
        [73.80621, 19.68544],
        [73.80672, 19.68497],
        [73.80764, 19.68434],
        [73.80854, 19.68373],
        [73.80913, 19.68354],
        [73.80946, 19.68354],
        [73.80973, 19.68367],
        [73.81004, 19.6841],
        [73.81016, 19.68518],
        [73.81032, 19.68632],
        [73.8107, 19.68844],
        [73.81103, 19.69023],
        [73.81114, 19.69105],
        [73.81134, 19.69122],
        [73.8119, 19.69134],
        [73.81235, 19.69134],
        [73.81273, 19.69145],
        [73.81293, 19.69165],
        [73.81298, 19.69192],
        [73.81285, 19.69247],
        [73.8128, 19.69368],
        [73.81276, 19.69472],
        [73.8125, 19.69734],
        [73.81258, 19.69763],
        [73.81286, 19.69801],
        [73.81347, 19.69896],
        [73.81361, 19.6993],
        [73.81381, 19.70013],
        [73.81387, 19.70142],
        [73.81404, 19.70251],
        [73.8142, 19.70397],
        [73.81433, 19.7051],
        [73.81439, 19.70572],
        [73.81446, 19.70594],
        [73.8148, 19.70624],
        [73.81618, 19.70745],
        [73.81707, 19.70831],
        [73.81767, 19.70872],
        [73.81783, 19.70887],
        [73.81802, 19.70995],
        [73.81801, 19.71114],
        [73.8181, 19.71143],
        [73.81846, 19.71222],
        [73.81879, 19.71348],
        [73.81893, 19.71418],
        [73.81898, 19.71439],
        [73.81915, 19.71455],
        [73.82014, 19.7149],
        [73.8211, 19.71523],
        [73.82233, 19.71545],
        [73.8236, 19.71554],
        [73.82522, 19.71569],
        [73.82693, 19.71587],
        [73.8284, 19.71598],
        [73.82938, 19.71613],
        [73.83017, 19.71635],
        [73.83106, 19.71675],
        [73.83207, 19.71718],
        [73.83392, 19.71798],
        [73.83476, 19.71878],
        [73.83614, 19.72004],
        [73.83767, 19.72134],
        [73.83822, 19.72196],
        [73.83866, 19.72252],
        [73.83895, 19.72347],
        [73.83941, 19.72593],
        [73.83966, 19.72753],
        [73.83986, 19.72894],
        [73.83984, 19.73075],
        [73.83976, 19.73248],
        [73.83974, 19.73382],
        [73.83909, 19.73535],
        [73.83836, 19.73664],
        [73.83769, 19.73781],
        [73.83707, 19.73859],
        [73.8368, 19.73904],
        [73.83674, 19.73946],
        [73.83682, 19.73992],
        [73.837, 19.74027],
        [73.83736, 19.74055],
        [73.83767, 19.74064],
        [73.83824, 19.74062],
        [73.84098, 19.74049],
        [73.84177, 19.7405],
        [73.84257, 19.74108],
        [73.8434, 19.74167],
        [73.84475, 19.74275],
        [73.84552, 19.74323],
        [73.84602, 19.74352],
        [73.84681, 19.74359],
        [73.84756, 19.74366],
        [73.84831, 19.74375],
        [73.84946, 19.74393],
        [73.84974, 19.74421],
        [73.84989, 19.7446],
        [73.85004, 19.7455],
        [73.85041, 19.74564],
        [73.85162, 19.74556],
        [73.85258, 19.74535],
        [73.85321, 19.74508],
        [73.8551, 19.74433],
        [73.85714, 19.74349],
        [73.85773, 19.7433],
        [73.85821, 19.74323],
        [73.85788, 19.74376],
        [73.8568, 19.74505],
        [73.85604, 19.7459],
        [73.85529, 19.7467],
        [73.8552, 19.74694],
        [73.85535, 19.74723],
        [73.85712, 19.74742],
        [73.85803, 19.74753],
        [73.85849, 19.74756],
        [73.85927, 19.74688],
        [73.85961, 19.74687],
        [73.86101, 19.7471],
        [73.86252, 19.7474],
        [73.86392, 19.74762],
        [73.86468, 19.74775],
        [73.86487, 19.74773],
        [73.8655, 19.74674],
        [73.86592, 19.74521],
        [73.8662, 19.74343],
        [73.86643, 19.74284],
        [73.86672, 19.74222],
        [73.86701, 19.74176],
        [73.86775, 19.74109],
        [73.86825, 19.74075],
        [73.86862, 19.74052],
        [73.86906, 19.74029],
        [73.8696, 19.74004],
        [73.87017, 19.73998],
        [73.87067, 19.74001],
        [73.87135, 19.73996],
        [73.87184, 19.73993],
        [73.87224, 19.73987],
        [73.8726, 19.73967],
        [73.87319, 19.7394],
        [73.87348, 19.73929],
        [73.8736, 19.74047],
        [73.87366, 19.7411],
        [73.87487, 19.74038],
        [73.876, 19.73957],
        [73.87631, 19.73953],
        [73.87655, 19.73963],
        [73.87677, 19.73966],
        [73.87765, 19.73957],
        [73.87887, 19.7392],
        [73.88005, 19.73869],
        [73.88086, 19.73817],
        [73.88104, 19.74071],
        [73.88448, 19.74057],
        [73.88458, 19.7426],
        [73.88655, 19.74262],
        [73.88656, 19.74393],
        [73.88654, 19.74558],
        [73.8866, 19.74685],
        [73.88698, 19.74781],
        [73.88755, 19.74904],
        [73.88826, 19.74994],
        [73.88888, 19.75055],
        [73.88907, 19.75],
        [73.88952, 19.74741],
        [73.89003, 19.74689],
        [73.8912, 19.74616],
        [73.89174, 19.74594],
        [73.8929, 19.74575],
        [73.89442, 19.74571],
        [73.89561, 19.74572],
        [73.8966, 19.74587],
        [73.89751, 19.74604],
        [73.89837, 19.74555],
        [73.89893, 19.74482],
        [73.89935, 19.74378],
        [73.89954, 19.74263],
        [73.89964, 19.74122],
        [73.89967, 19.74075],
        [73.89964, 19.74022],
        [73.89956, 19.73997],
        [73.89947, 19.73963],
        [73.8994, 19.7393],
        [73.89933, 19.73875],
        [73.89917, 19.73806],
        [73.89908, 19.73772],
        [73.8989, 19.73729],
        [73.89875, 19.73673],
        [73.89873, 19.73593],
        [73.89869, 19.73558],
        [73.89851, 19.73496],
        [73.89842, 19.73445],
        [73.89824, 19.73376],
        [73.89805, 19.73324],
        [73.89786, 19.73279],
        [73.89775, 19.73251],
        [73.89769, 19.73161],
        [73.89758, 19.73075],
        [73.89756, 19.73041],
        [73.89758, 19.73009],
        [73.89749, 19.72957],
        [73.89759, 19.72895],
        [73.89777, 19.72823],
        [73.89798, 19.72767],
        [73.8981, 19.72714],
        [73.89807, 19.72655],
        [73.89794, 19.72583],
        [73.89779, 19.72521],
        [73.89741, 19.72452],
        [73.89677, 19.72317],
        [73.89639, 19.72243],
        [73.89593, 19.72121],
        [73.89578, 19.7207],
        [73.89522, 19.71942],
        [73.89507, 19.71895],
        [73.89482, 19.71832],
        [73.89472, 19.71783],
        [73.89475, 19.71696],
        [73.8949, 19.71646],
        [73.89517, 19.71577],
        [73.89549, 19.71513],
        [73.89625, 19.71394],
        [73.89668, 19.71343],
        [73.8981, 19.71182],
        [73.89884, 19.71114],
        [73.89907, 19.71098],
        [73.89926, 19.71096],
        [73.89986, 19.71099],
        [73.90031, 19.71102],
        [73.90062, 19.71105],
        [73.90128, 19.71096],
        [73.90162, 19.71076],
        [73.90205, 19.71034],
        [73.90261, 19.70944],
        [73.90289, 19.70908],
        [73.90351, 19.70856],
        [73.90395, 19.70828],
        [73.90418, 19.70809],
        [73.90429, 19.70782],
        [73.90455, 19.70683],
        [73.90466, 19.70642],
        [73.90477, 19.70616],
        [73.90496, 19.7054],
        [73.90513, 19.70429],
        [73.9052, 19.70392],
        [73.90581, 19.70416],
        [73.90641, 19.7047],
        [73.90664, 19.70491],
        [73.90791, 19.70396],
        [73.90915, 19.70321],
        [73.91021, 19.70274],
        [73.91132, 19.7023],
        [73.91119, 19.70079],
        [73.91117, 19.6993],
        [73.91111, 19.69844],
        [73.91136, 19.69822],
        [73.9118, 19.69795],
        [73.91201, 19.69783],
        [73.91237, 19.69762],
        [73.91262, 19.69745],
        [73.91291, 19.69711],
        [73.913, 19.69694],
        [73.91305, 19.69676],
        [73.91306, 19.69614],
        [73.91303, 19.69577],
        [73.91316, 19.69535],
        [73.91328, 19.69483],
        [73.91334, 19.69464],
        [73.91343, 19.69437],
        [73.91357, 19.6941],
        [73.91374, 19.69383],
        [73.91375, 19.69344],
        [73.91144, 19.69465],
        [73.91023, 19.69508],
        [73.90933, 19.69536],
        [73.9089, 19.69569],
        [73.90844, 19.69624],
        [73.90795, 19.69658],
        [73.90755, 19.69668],
        [73.9068, 19.69657],
        [73.90623, 19.6962],
        [73.90596, 19.69602],
        [73.90569, 19.69597],
        [73.90544, 19.69598],
        [73.90522, 19.69604],
        [73.90509, 19.69575],
        [73.90505, 19.69515],
        [73.90501, 19.69487],
        [73.90489, 19.6946],
        [73.90477, 19.69436],
        [73.9045, 19.69396],
        [73.90433, 19.69344],
        [73.90431, 19.69304],
        [73.90433, 19.69268],
        [73.90444, 19.69242],
        [73.90451, 19.69223],
        [73.90465, 19.6921],
        [73.90482, 19.69197],
        [73.90512, 19.69182],
        [73.90538, 19.69173],
        [73.90556, 19.69167],
        [73.906, 19.69151],
        [73.90615, 19.69095],
        [73.90627, 19.69047],
        [73.9064, 19.69005],
        [73.90663, 19.68967],
        [73.90656, 19.68885],
        [73.90628, 19.68787],
        [73.90623, 19.68748],
        [73.90687, 19.68607],
        [73.90757, 19.68457],
        [73.90867, 19.68279],
        [73.9089, 19.68244],
        [73.90941, 19.68237],
        [73.91063, 19.6823],
        [73.91162, 19.68185],
        [73.91445, 19.6809],
        [73.91491, 19.68046],
        [73.91621, 19.67936],
        [73.91734, 19.67857],
        [73.91795, 19.67832],
        [73.91843, 19.67808],
        [73.91897, 19.67725],
        [73.92065, 19.67659],
        [73.92249, 19.6759],
        [73.92348, 19.67576],
        [73.92366, 19.67397],
        [73.92451, 19.67405],
        [73.92481, 19.67359],
        [73.92549, 19.67275],
        [73.92587, 19.67238],
        [73.92712, 19.67284],
        [73.92773, 19.67296],
        [73.92841, 19.67306],
        [73.92866, 19.67296],
        [73.92894, 19.67264],
        [73.92935, 19.67257],
        [73.9297, 19.67367],
        [73.92991, 19.67394],
        [73.93017, 19.67384],
        [73.93052, 19.67357],
        [73.93124, 19.67198],
        [73.93144, 19.67122],
        [73.93203, 19.67076],
        [73.93287, 19.67062],
        [73.93399, 19.67088],
        [73.93626, 19.67135],
        [73.93758, 19.67103],
        [73.93912, 19.67053],
        [73.93983, 19.67043],
        [73.94076, 19.67058],
        [73.94175, 19.67085],
        [73.94248, 19.67116],
        [73.94304, 19.67126],
        [73.94383, 19.67116],
        [73.94467, 19.67089],
        [73.94503, 19.67077],
        [73.94533, 19.67094],
        [73.94615, 19.6716],
        [73.94663, 19.67184],
        [73.94709, 19.67191],
        [73.94791, 19.6715],
        [73.94839, 19.67148],
        [73.94903, 19.67174],
        [73.94999, 19.67208],
        [73.95108, 19.67203],
        [73.95335, 19.67132],
        [73.95675, 19.66924],
        [73.95724, 19.66917],
        [73.95868, 19.672],
        [73.95906, 19.67268],
        [73.96051, 19.67419],
        [73.96092, 19.67431],
        [73.96166, 19.67422],
        [73.96495, 19.67314],
        [73.96551, 19.67275],
        [73.96706, 19.67157],
        [73.96788, 19.67114],
        [73.96875, 19.67077],
        [73.96901, 19.67079],
        [73.96941, 19.67106],
        [73.96992, 19.67182],
        [73.97043, 19.67289],
        [73.97078, 19.67333],
        [73.97167, 19.67406],
        [73.97274, 19.67472],
        [73.97332, 19.67491],
        [73.97534, 19.67513],
        [73.97733, 19.6754],
        [73.97801, 19.67567],
        [73.97937, 19.67332],
        [73.98036, 19.67142],
        [73.98095, 19.67093],
        [73.98192, 19.67037],
        [73.98284, 19.67003],
        [73.98342, 19.66981],
        [73.9853, 19.66934],
        [73.98591, 19.66907],
        [73.98708, 19.66853],
        [73.98792, 19.66826],
        [73.98841, 19.66812],
        [73.98889, 19.66804],
        [73.98938, 19.66807],
        [73.99016, 19.66841],
        [73.99088, 19.66833],
        [73.99342, 19.66779],
        [73.99574, 19.66713],
        [73.99645, 19.66706],
        [73.99703, 19.66706],
        [73.99772, 19.66728],
        [73.99853, 19.66786],
        [73.99876, 19.66806],
        [73.99912, 19.66839],
        [73.99928, 19.66858],
        [74.00089, 19.66928],
        [74.00184, 19.66892],
        [74.00356, 19.66789],
        [74.00438, 19.66876],
        [74.0061, 19.67008],
        [74.00804, 19.67189],
        [74.00884, 19.67244],
        [74.01154, 19.67067],
        [74.01223, 19.67021],
        [74.01471, 19.67238],
        [74.01657, 19.67263],
        [74.01871, 19.67287],
        [74.02102, 19.67344],
        [74.02202, 19.67377],
        [74.02313, 19.67197],
        [74.02374, 19.67093],
        [74.02614, 19.67053],
        [74.02846, 19.67018],
        [74.02989, 19.66978],
        [74.0304, 19.66961],
        [74.03107, 19.66925],
        [74.03267, 19.6683],
        [74.03331, 19.66801],
        [74.03434, 19.66787],
        [74.03659, 19.6677],
        [74.03804, 19.66748],
        [74.04096, 19.66739],
        [74.04335, 19.66718],
        [74.04443, 19.66712],
        [74.04498, 19.66682],
        [74.04585, 19.66649],
        [74.04633, 19.66589],
        [74.04809, 19.66429],
        [74.04856, 19.66394],
        [74.04905, 19.66349],
        [74.05036, 19.66302],
        [74.05263, 19.66248],
        [74.05367, 19.66242],
        [74.05577, 19.66274],
        [74.05686, 19.66301],
        [74.06022, 19.66193],
        [74.0619, 19.66132],
        [74.06413, 19.66169],
        [74.06721, 19.66176],
        [74.0688, 19.6616],
        [74.07079, 19.66116],
        [74.0714, 19.66091],
        [74.07291, 19.65885],
        [74.07395, 19.65889],
        [74.07503, 19.65871],
        [74.07618, 19.65843],
        [74.07722, 19.65793],
        [74.07806, 19.65742],
        [74.07857, 19.65706],
        [74.07874, 19.65579],
        [74.07872, 19.65492],
        [74.07849, 19.6542],
        [74.07823, 19.65338],
        [74.07863, 19.65285],
        [74.07914, 19.65205],
        [74.07968, 19.6517],
        [74.08072, 19.65129],
        [74.08175, 19.65052],
        [74.08373, 19.6491],
        [74.08415, 19.64917],
        [74.08525, 19.64974],
        [74.08622, 19.65053],
        [74.0865, 19.65068],
        [74.08687, 19.65052],
        [74.0889, 19.64954],
        [74.08958, 19.64907],
        [74.09013, 19.6483],
        [74.09059, 19.64742],
        [74.09109, 19.64656],
        [74.0918, 19.64514],
        [74.09221, 19.64446],
        [74.09296, 19.64376],
        [74.09405, 19.643],
        [74.09596, 19.64204],
        [74.09721, 19.64135],
        [74.09823, 19.64175],
        [74.09923, 19.64228],
        [74.10007, 19.64291],
        [74.10061, 19.64377],
        [74.10078, 19.64468],
        [74.10101, 19.64607],
        [74.1012, 19.64696],
        [74.10158, 19.64889],
        [74.10475, 19.64716],
        [74.10657, 19.64602],
        [74.10801, 19.64523],
        [74.10909, 19.64472],
        [74.10993, 19.64443],
        [74.11095, 19.64435],
        [74.11277, 19.64485],
        [74.11432, 19.64518],
        [74.11567, 19.64578],
        [74.11608, 19.64604],
        [74.11636, 19.64568],
        [74.11672, 19.6453],
        [74.11708, 19.64499],
        [74.11772, 19.64462],
        [74.11812, 19.6443],
        [74.11839, 19.64408],
        [74.11866, 19.64369],
        [74.11897, 19.64319],
        [74.11914, 19.64262],
        [74.11964, 19.64149],
        [74.11992, 19.64103],
        [74.12058, 19.64324],
        [74.12072, 19.64368],
        [74.12072, 19.64303],
        [74.12059, 19.62186]
      ]
    ]
  }
}
