{
  "type": "Feature",
  "id": "MH-AC-226",
  "properties": {
    "stateName": "MAHARASHTRA",
    "stateCode": "MH",
    "districtName": "AHMADNAGAR",
    "acNo": 226,
    "acName": "SHRIGONDA",
    "seatType": null,
    "pcNo": null,
    "pcName": null,
    "quality": "unverified",
    "sources": [
      "TBD"
    ]
  },
  "geometry": {
    "type": "Polygon",
    "coordinates": [
      [
        [74.94428, 19.13307],
        [74.94174, 19.1336],
        [74.94058, 19.13195],
        [74.93946, 19.12955],
        [74.9386, 19.12757],
        [74.93805, 19.12582],
        [74.93688, 19.12303],
        [74.93626, 19.12227],
        [74.93472, 19.1205],
        [74.93419, 19.11956],
        [74.93386, 19.11798],
        [74.93372, 19.11687],
        [74.93379, 19.11442],
        [74.93389, 19.11369],
        [74.93395, 19.11262],
        [74.93356, 19.11108],
        [74.93297, 19.10998],
        [74.93273, 19.10914],
        [74.93251, 19.10858],
        [74.93077, 19.10619],
        [74.92942, 19.10461],
        [74.92866, 19.10368],
        [74.92662, 19.10098],
        [74.92609, 19.10017],
        [74.92571, 19.09987],
        [74.92503, 19.09946],
        [74.92425, 19.09895],
        [74.92384, 19.09851],
        [74.92346, 19.09787],
        [74.92169, 19.09592],
        [74.92055, 19.0945],
        [74.92035, 19.09386],
        [74.92026, 19.09221],
        [74.92013, 19.09084],
        [74.91996, 19.08922],
        [74.91954, 19.08598],
        [74.91954, 19.08523],
        [74.91988, 19.08441],
        [74.92079, 19.08296],
        [74.92118, 19.08246],
        [74.92121, 19.08204],
        [74.92097, 19.08016],
        [74.92073, 19.07915],
        [74.92036, 19.07658],
        [74.91976, 19.07301],
        [74.91961, 19.07233],
        [74.91911, 19.07077],
        [74.91848, 19.06945],
        [74.91758, 19.06791],
        [74.91721, 19.06717],
        [74.91699, 19.06665],
        [74.91693, 19.06601],
        [74.91689, 19.06537],
        [74.91702, 19.06458],
        [74.91743, 19.06327],
        [74.91787, 19.06024],
        [74.91792, 19.0591],
        [74.91773, 19.05695],
        [74.91709, 19.05327],
        [74.91659, 19.04967],
        [74.916, 19.04676],
        [74.91595, 19.04601],
        [74.91528, 19.04335],
        [74.9151, 19.04267],
        [74.91476, 19.04051],
        [74.9147, 19.03944],
        [74.91462, 19.0377],
        [74.91689, 19.036],
        [74.91914, 19.0343],
        [74.92001, 19.03334],
        [74.92076, 19.0327],
        [74.92169, 19.03202],
        [74.92274, 19.03191],
        [74.92754, 19.03183],
        [74.92874, 19.03192],
        [74.93038, 19.03208],
        [74.93228, 19.03254],
        [74.93618, 19.03325],
        [74.93748, 19.0336],
        [74.93881, 19.03382],
        [74.94079, 19.03363],
        [74.94225, 19.03344],
        [74.94406, 19.03328],
        [74.94587, 19.03298],
        [74.94684, 19.03282],
        [74.94837, 19.03278],
        [74.94984, 19.03287],
        [74.94994, 19.02923],
        [74.94985, 19.02702],
        [74.94964, 19.02567],
        [74.94949, 19.0241],
        [74.94918, 19.02194],
        [74.94904, 19.02013],
        [74.94907, 19.01825],
        [74.94921, 19.01722],
        [74.94932, 19.01494],
        [74.94946, 19.01353],
        [74.94955, 19.0125],
        [74.94958, 19.01066],
        [74.94959, 19.00997],
        [74.94939, 19.00855],
        [74.94897, 19.00647],
        [74.94854, 19.0048],
        [74.94989, 19.00452],
        [74.95175, 19.00407],
        [74.95487, 19.00326],
        [74.95783, 19.00244],
        [74.95935, 19.00197],
        [74.95993, 19.00171],
        [74.9601, 19.00126],
        [74.96011, 19.00081],
        [74.96023, 18.9999],
        [74.96039, 18.99906],
        [74.96018, 18.99829],
        [74.95979, 18.99747],
        [74.95929, 18.99666],
        [74.9588, 18.99615],
        [74.95794, 18.99531],
        [74.95741, 18.99479],
        [74.95661, 18.99401],
        [74.9561, 18.99343],
        [74.95594, 18.99313],
        [74.95572, 18.99273],
        [74.95559, 18.99226],
        [74.95545, 18.99172],
        [74.95534, 18.99132],
        [74.95512, 18.99098],
        [74.95475, 18.99053],
        [74.95465, 18.99018],
        [74.95413, 18.9898],
        [74.95364, 18.98963],
        [74.95347, 18.98951],
        [74.95336, 18.98918],
        [74.95339, 18.9887],
        [74.95352, 18.98814],
        [74.95378, 18.98748],
        [74.95415, 18.98641],
        [74.95433, 18.98578],
        [74.95466, 18.98463],
        [74.95462, 18.98408],
        [74.95463, 18.98338],
        [74.95468, 18.9828],
        [74.95487, 18.98197],
        [74.95504, 18.98117],
        [74.9552, 18.98024],
        [74.9551, 18.97982],
        [74.95486, 18.9795],
        [74.95494, 18.97877],
        [74.95503, 18.97839],
        [74.95506, 18.97758],
        [74.95512, 18.9773],
        [74.9551, 18.97706],
        [74.95474, 18.97701],
        [74.9543, 18.97695],
        [74.95364, 18.97666],
        [74.95326, 18.97628],
        [74.95303, 18.97603],
        [74.95253, 18.97567],
        [74.95237, 18.97533],
        [74.95244, 18.97504],
        [74.95277, 18.97469],
        [74.95342, 18.97397],
        [74.95365, 18.97374],
        [74.95375, 18.97355],
        [74.95365, 18.97326],
        [74.95324, 18.9728],
        [74.95289, 18.97242],
        [74.95245, 18.97204],
        [74.95212, 18.97172],
        [74.9513, 18.97133],
        [74.95065, 18.97111],
        [74.95015, 18.97092],
        [74.94937, 18.97075],
        [74.94864, 18.9707],
        [74.94815, 18.97061],
        [74.94729, 18.9704],
        [74.94661, 18.97024],
        [74.94596, 18.96997],
        [74.94536, 18.96971],
        [74.94481, 18.96974],
        [74.94414, 18.96997],
        [74.94334, 18.9703],
        [74.94274, 18.97062],
        [74.94217, 18.97092],
        [74.94151, 18.97152],
        [74.94084, 18.9718],
        [74.93973, 18.97204],
        [74.93925, 18.97223],
        [74.93887, 18.97255],
        [74.93807, 18.97304],
        [74.93756, 18.97349],
        [74.93722, 18.97393],
        [74.9369, 18.97471],
        [74.93647, 18.97533],
        [74.93615, 18.9756],
        [74.93557, 18.97581],
        [74.93516, 18.97581],
        [74.93473, 18.9757],
        [74.93431, 18.97536],
        [74.93383, 18.97497],
        [74.93336, 18.97445],
        [74.93299, 18.97402],
        [74.93255, 18.97348],
        [74.93215, 18.97299],
        [74.93162, 18.97232],
        [74.93126, 18.97175],
        [74.93113, 18.97139],
        [74.92988, 18.97148],
        [74.92842, 18.97161],
        [74.92687, 18.97172],
        [74.92574, 18.97183],
        [74.9234, 18.97191],
        [74.92237, 18.97136],
        [74.92174, 18.97085],
        [74.9211, 18.97045],
        [74.91998, 18.96969],
        [74.91947, 18.96926],
        [74.91936, 18.96891],
        [74.91942, 18.96855],
        [74.91954, 18.96843],
        [74.92014, 18.96807],
        [74.9204, 18.9678],
        [74.92044, 18.96724],
        [74.92039, 18.96694],
        [74.92015, 18.96639],
        [74.91985, 18.96596],
        [74.91944, 18.96548],
        [74.91885, 18.96504],
        [74.91856, 18.96471],
        [74.91842, 18.96439],
        [74.91848, 18.96369],
        [74.91864, 18.96318],
        [74.91876, 18.96272],
        [74.9187, 18.96233],
        [74.91868, 18.96187],
        [74.9185, 18.9614],
        [74.91841, 18.96065],
        [74.91844, 18.96017],
        [74.91843, 18.95971],
        [74.91841, 18.95957],
        [74.91833, 18.95941],
        [74.91766, 18.95891],
        [74.91727, 18.95865],
        [74.91671, 18.95843],
        [74.91645, 18.9585],
        [74.91559, 18.95887],
        [74.91472, 18.95931],
        [74.91392, 18.95959],
        [74.91313, 18.95982],
        [74.91202, 18.96014],
        [74.91101, 18.96065],
        [74.91, 18.96117],
        [74.90942, 18.96153],
        [74.90878, 18.96173],
        [74.90765, 18.96214],
        [74.90665, 18.96254],
        [74.90478, 18.96338],
        [74.904, 18.9638],
        [74.90347, 18.96432],
        [74.90337, 18.96462],
        [74.90344, 18.96546],
        [74.90352, 18.96659],
        [74.90355, 18.96726],
        [74.90351, 18.96848],
        [74.90359, 18.96931],
        [74.90374, 18.97016],
        [74.90388, 18.97124],
        [74.90375, 18.97184],
        [74.90367, 18.97237],
        [74.90348, 18.97297],
        [74.90316, 18.97362],
        [74.90261, 18.9745],
        [74.90199, 18.97526],
        [74.90152, 18.97588],
        [74.90096, 18.97674],
        [74.90056, 18.97751],
        [74.90028, 18.97801],
        [74.89986, 18.97911],
        [74.89868, 18.97932],
        [74.89764, 18.97965],
        [74.89668, 18.97987],
        [74.89558, 18.98011],
        [74.89391, 18.98027],
        [74.89276, 18.98035],
        [74.89112, 18.98044],
        [74.88982, 18.98049],
        [74.88786, 18.98065],
        [74.8858, 18.98078],
        [74.8838, 18.9811],
        [74.88286, 18.98128],
        [74.88199, 18.98171],
        [74.88122, 18.98223],
        [74.88025, 18.98271],
        [74.87904, 18.98331],
        [74.87844, 18.98364],
        [74.87774, 18.98406],
        [74.87738, 18.98428],
        [74.87687, 18.98438],
        [74.87585, 18.98442],
        [74.87485, 18.9844],
        [74.87389, 18.98448],
        [74.87346, 18.98501],
        [74.87342, 18.98504],
        [74.87311, 18.98494],
        [74.87264, 18.98472],
        [74.87222, 18.98458],
        [74.87167, 18.98453],
        [74.87139, 18.98473],
        [74.87097, 18.98524],
        [74.87073, 18.98496],
        [74.87018, 18.984],
        [74.86967, 18.98329],
        [74.86915, 18.98248],
        [74.8688, 18.98187],
        [74.86831, 18.98118],
        [74.86797, 18.9807],
        [74.86744, 18.98023],
        [74.86711, 18.98001],
        [74.86638, 18.9798],
        [74.86577, 18.97958],
        [74.8653, 18.97943],
        [74.86347, 18.97874],
        [74.86272, 18.97843],
        [74.86102, 18.97781],
        [74.86033, 18.97745],
        [74.8595, 18.97712],
        [74.85856, 18.97666],
        [74.85773, 18.97631],
        [74.85585, 18.97555],
        [74.85518, 18.97528],
        [74.85336, 18.97471],
        [74.85244, 18.97444],
        [74.85002, 18.97357],
        [74.8478, 18.97258],
        [74.84599, 18.97191],
        [74.84541, 18.97164],
        [74.84403, 18.97112],
        [74.84335, 18.97095],
        [74.84214, 18.97075],
        [74.84156, 18.97057],
        [74.84114, 18.97038],
        [74.84073, 18.97028],
        [74.83975, 18.97026],
        [74.83881, 18.97023],
        [74.83695, 18.97019],
        [74.83625, 18.97024],
        [74.83592, 18.97071],
        [74.83545, 18.9715],
        [74.83494, 18.97245],
        [74.8346, 18.97307],
        [74.83407, 18.97394],
        [74.8336, 18.97463],
        [74.83306, 18.97546],
        [74.83265, 18.97612],
        [74.83196, 18.97746],
        [74.83123, 18.9788],
        [74.83053, 18.9802],
        [74.83016, 18.98111],
        [74.82978, 18.98183],
        [74.8291, 18.98335],
        [74.82837, 18.98475],
        [74.82765, 18.98621],
        [74.82729, 18.98675],
        [74.82683, 18.98764],
        [74.82641, 18.98854],
        [74.82595, 18.98935],
        [74.82562, 18.99017],
        [74.82535, 18.99069],
        [74.82486, 18.99061],
        [74.82408, 18.99007],
        [74.82287, 18.98938],
        [74.82251, 18.98902],
        [74.82178, 18.98749],
        [74.82088, 18.98583],
        [74.82006, 18.98423],
        [74.81976, 18.98379],
        [74.8196, 18.98316],
        [74.81958, 18.98261],
        [74.81819, 18.98188],
        [74.81706, 18.98137],
        [74.81561, 18.98057],
        [74.81393, 18.97974],
        [74.81266, 18.97907],
        [74.8106, 18.97797],
        [74.80983, 18.97756],
        [74.80964, 18.97736],
        [74.80909, 18.97716],
        [74.80854, 18.97697],
        [74.80807, 18.97683],
        [74.80804, 18.97641],
        [74.80811, 18.97567],
        [74.80812, 18.97551],
        [74.80821, 18.97459],
        [74.80829, 18.97367],
        [74.80838, 18.97311],
        [74.80854, 18.97193],
        [74.80866, 18.9709],
        [74.80873, 18.9703],
        [74.80905, 18.96917],
        [74.80917, 18.96843],
        [74.80973, 18.96748],
        [74.80989, 18.96652],
        [74.8102, 18.96581],
        [74.81065, 18.96485],
        [74.81083, 18.96414],
        [74.81159, 18.96339],
        [74.81233, 18.96272],
        [74.81286, 18.96218],
        [74.81459, 18.96114],
        [74.81531, 18.96084],
        [74.81575, 18.96075],
        [74.81641, 18.96075],
        [74.81689, 18.96084],
        [74.81742, 18.96101],
        [74.81818, 18.96154],
        [74.81896, 18.96221],
        [74.81953, 18.96266],
        [74.82011, 18.96284],
        [74.82126, 18.96296],
        [74.8223, 18.96283],
        [74.82374, 18.96267],
        [74.82494, 18.96258],
        [74.82631, 18.96251],
        [74.82742, 18.96241],
        [74.82814, 18.96232],
        [74.82905, 18.96194],
        [74.82942, 18.96155],
        [74.82972, 18.96087],
        [74.82992, 18.96041],
        [74.83007, 18.9596],
        [74.82984, 18.95863],
        [74.8295, 18.95778],
        [74.82947, 18.95726],
        [74.82961, 18.9568],
        [74.82991, 18.95644],
        [74.83028, 18.95596],
        [74.83124, 18.95493],
        [74.83213, 18.95433],
        [74.8334, 18.95413],
        [74.83429, 18.95381],
        [74.83503, 18.95344],
        [74.83531, 18.95304],
        [74.83545, 18.9525],
        [74.83554, 18.95215],
        [74.83547, 18.95154],
        [74.83541, 18.95079],
        [74.83526, 18.94966],
        [74.83523, 18.94904],
        [74.83513, 18.94801],
        [74.83528, 18.94758],
        [74.83534, 18.94708],
        [74.83573, 18.9462],
        [74.83611, 18.94535],
        [74.83622, 18.94447],
        [74.83592, 18.94358],
        [74.8356, 18.94273],
        [74.83525, 18.94192],
        [74.83454, 18.94029],
        [74.83405, 18.93939],
        [74.83374, 18.93869],
        [74.83298, 18.93807],
        [74.83133, 18.93743],
        [74.83015, 18.937],
        [74.82823, 18.93646],
        [74.82738, 18.93619],
        [74.82662, 18.93571],
        [74.82589, 18.93493],
        [74.82567, 18.93475],
        [74.82523, 18.93352],
        [74.82519, 18.93307],
        [74.82543, 18.93231],
        [74.82601, 18.9315],
        [74.82647, 18.93107],
        [74.82693, 18.93085],
        [74.82778, 18.93053],
        [74.82949, 18.92991],
        [74.83116, 18.92922],
        [74.83335, 18.92831],
        [74.83528, 18.92751],
        [74.83644, 18.92696],
        [74.83751, 18.92654],
        [74.83949, 18.92585],
        [74.84102, 18.92505],
        [74.84204, 18.92453],
        [74.84274, 18.92383],
        [74.84342, 18.92308],
        [74.84397, 18.92227],
        [74.8449, 18.92073],
        [74.84539, 18.91988],
        [74.84574, 18.9192],
        [74.8461, 18.91827],
        [74.84636, 18.91776],
        [74.84636, 18.91713],
        [74.84601, 18.91649],
        [74.84569, 18.91578],
        [74.84515, 18.9143],
        [74.84482, 18.91347],
        [74.84515, 18.91254],
        [74.84529, 18.91177],
        [74.84574, 18.91103],
        [74.84638, 18.91024],
        [74.84712, 18.90958],
        [74.84835, 18.90839],
        [74.84969, 18.9074],
        [74.85137, 18.90644],
        [74.853, 18.90556],
        [74.85394, 18.90502],
        [74.85471, 18.90467],
        [74.85624, 18.90356],
        [74.85756, 18.90236],
        [74.85794, 18.90132],
        [74.85852, 18.90017],
        [74.85934, 18.89946],
        [74.85997, 18.89906],
        [74.8614, 18.89855],
        [74.86366, 18.89805],
        [74.86441, 18.89799],
        [74.86477, 18.8983],
        [74.866, 18.90032],
        [74.86716, 18.90209],
        [74.86858, 18.90417],
        [74.87052, 18.90711],
        [74.87251, 18.90999],
        [74.87421, 18.91267],
        [74.87512, 18.91312],
        [74.87621, 18.91326],
        [74.87688, 18.91344],
        [74.87868, 18.91448],
        [74.8807, 18.91453],
        [74.88318, 18.91442],
        [74.88333, 18.9144],
        [74.88359, 18.91277],
        [74.8837, 18.91125],
        [74.88378, 18.91099],
        [74.88344, 18.91058],
        [74.88328, 18.91005],
        [74.88355, 18.90944],
        [74.88405, 18.90812],
        [74.88509, 18.90561],
        [74.88619, 18.90365],
        [74.8863, 18.90327],
        [74.88609, 18.90297],
        [74.88549, 18.90224],
        [74.88531, 18.90129],
        [74.88521, 18.90011],
        [74.88511, 18.89812],
        [74.88503, 18.89734],
        [74.88502, 18.89537],
        [74.88497, 18.89379],
        [74.88483, 18.89057],
        [74.88465, 18.88698],
        [74.88468, 18.88592],
        [74.88551, 18.88599],
        [74.88698, 18.88645],
        [74.88763, 18.88658],
        [74.88807, 18.8866],
        [74.88897, 18.886],
        [74.89045, 18.88482],
        [74.89116, 18.88427],
        [74.89173, 18.88351],
        [74.89259, 18.88206],
        [74.8935, 18.88056],
        [74.89429, 18.87958],
        [74.89508, 18.87893],
        [74.89579, 18.87858],
        [74.89672, 18.87831],
        [74.89715, 18.87805],
        [74.89756, 18.87738],
        [74.89792, 18.87659],
        [74.898, 18.87579],
        [74.89789, 18.875],
        [74.89778, 18.87415],
        [74.89739, 18.87338],
        [74.8969, 18.87256],
        [74.89675, 18.8718],
        [74.89651, 18.87096],
        [74.89645, 18.86994],
        [74.89652, 18.86903],
        [74.89633, 18.86826],
        [74.89582, 18.86725],
        [74.89565, 18.86646],
        [74.89547, 18.86567],
        [74.89547, 18.8648],
        [74.89565, 18.86303],
        [74.89568, 18.86225],
        [74.89569, 18.86212],
        [74.89552, 18.86175],
        [74.89538, 18.86137],
        [74.89535, 18.861],
        [74.89531, 18.8602],
        [74.89543, 18.85872],
        [74.89556, 18.85721],
        [74.89559, 18.85618],
        [74.89551, 18.85564],
        [74.8953, 18.85424],
        [74.89509, 18.85295],
        [74.89477, 18.85224],
        [74.89447, 18.85158],
        [74.89439, 18.85127],
        [74.89438, 18.8512],
        [74.89425, 18.84996],
        [74.89411, 18.84884],
        [74.89413, 18.84737],
        [74.89399, 18.8466],
        [74.8947, 18.84649],
        [74.89685, 18.84672],
        [74.89974, 18.84707],
        [74.9013, 18.84733],
        [74.90286, 18.84724],
        [74.90502, 18.84682],
        [74.90689, 18.84642],
        [74.90739, 18.84633],
        [74.90872, 18.84669],
        [74.90984, 18.84699],
        [74.91038, 18.8472],
        [74.91158, 18.84812],
        [74.91314, 18.84933],
        [74.91433, 18.85033],
        [74.9168, 18.85265],
        [74.91753, 18.85311],
        [74.91813, 18.85327],
        [74.91907, 18.85175],
        [74.91976, 18.85055],
        [74.92108, 18.84881],
        [74.92179, 18.84783],
        [74.92284, 18.84669],
        [74.92345, 18.84624],
        [74.92409, 18.84585],
        [74.92497, 18.84547],
        [74.92587, 18.84493],
        [74.92702, 18.84345],
        [74.92728, 18.84259],
        [74.92722, 18.84201],
        [74.92711, 18.84175],
        [74.92657, 18.84093],
        [74.92584, 18.83995],
        [74.92492, 18.83882],
        [74.92398, 18.83784],
        [74.92334, 18.83705],
        [74.92254, 18.83614],
        [74.92133, 18.83458],
        [74.92061, 18.83343],
        [74.92027, 18.83266],
        [74.92006, 18.83208],
        [74.91998, 18.83094],
        [74.92011, 18.82991],
        [74.92063, 18.8287],
        [74.92113, 18.8275],
        [74.92198, 18.82611],
        [74.92304, 18.82565],
        [74.92455, 18.82532],
        [74.92587, 18.82552],
        [74.92745, 18.82614],
        [74.9295, 18.82706],
        [74.93005, 18.82703],
        [74.93092, 18.82703],
        [74.93181, 18.82686],
        [74.93276, 18.82683],
        [74.93401, 18.82713],
        [74.93556, 18.82751],
        [74.93571, 18.82756],
        [74.93708, 18.82765],
        [74.93749, 18.82765],
        [74.93649, 18.82253],
        [74.93761, 18.81413],
        [74.93758, 18.80795],
        [74.93754, 18.80102],
        [74.93804, 18.79879],
        [74.93855, 18.79805],
        [74.94025, 18.79669],
        [74.93835, 18.79249],
        [74.93267, 18.78626],
        [74.93171, 18.78425],
        [74.93169, 18.77952],
        [74.92943, 18.77896],
        [74.92117, 18.78329],
        [74.91629, 18.78509],
        [74.91167, 18.78814],
        [74.90659, 18.78162],
        [74.90366, 18.78057],
        [74.8986, 18.7802],
        [74.89522, 18.78121],
        [74.89089, 18.7801],
        [74.89083, 18.7798],
        [74.88928, 18.77155],
        [74.89039, 18.76318],
        [74.89058, 18.76179],
        [74.88937, 18.7561],
        [74.86539, 18.75698],
        [74.85928, 18.75407],
        [74.85646, 18.75072],
        [74.85523, 18.74927],
        [74.85134, 18.74165],
        [74.8479, 18.72899],
        [74.85192, 18.73132],
        [74.85527, 18.72646],
        [74.85572, 18.72551],
        [74.86018, 18.71621],
        [74.86425, 18.71291],
        [74.86877, 18.71185],
        [74.87145, 18.70949],
        [74.87157, 18.70939],
        [74.86681, 18.70344],
        [74.86208, 18.70042],
        [74.86066, 18.7034],
        [74.85644, 18.70458],
        [74.85374, 18.70318],
        [74.85188, 18.69662],
        [74.85169, 18.69134],
        [74.84292, 18.69006],
        [74.83407, 18.69023],
        [74.83331, 18.65661],
        [74.83921, 18.65385],
        [74.83984, 18.65356],
        [74.83616, 18.63607],
        [74.83379, 18.61903],
        [74.83149, 18.6025],
        [74.82643, 18.60298],
        [74.82289, 18.60134],
        [74.81865, 18.59833],
        [74.81857, 18.59753],
        [74.81816, 18.59373],
        [74.83633, 18.58748],
        [74.84012, 18.58723],
        [74.84029, 18.58725],
        [74.8355, 18.58222],
        [74.83527, 18.58198],
        [74.84049, 18.5776],
        [74.84288, 18.57269],
        [74.84311, 18.57058],
        [74.84358, 18.56707],
        [74.84357, 18.56449],
        [74.84186, 18.56213],
        [74.83724, 18.55507],
        [74.83649, 18.55178],
        [74.83599, 18.54803],
        [74.83622, 18.54498],
        [74.83765, 18.5403],
        [74.83789, 18.54007],
        [74.82748, 18.53696],
        [74.819, 18.53363],
        [74.81513, 18.5329],
        [74.8103, 18.53381],
        [74.80741, 18.5352],
        [74.80426, 18.53518],
        [74.79824, 18.53524],
        [74.79842, 18.53293],
        [74.79313, 18.52429],
        [74.7928, 18.52375],
        [74.79182, 18.51921],
        [74.79355, 18.51601],
        [74.79375, 18.51319],
        [74.79127, 18.50949],
        [74.78975, 18.50874],
        [74.78869, 18.50821],
        [74.77483, 18.51122],
        [74.77325, 18.50701],
        [74.76803, 18.50074],
        [74.76672, 18.49915],
        [74.76042, 18.49779],
        [74.75667, 18.49925],
        [74.75065, 18.49984],
        [74.73723, 18.50692],
        [74.72994, 18.50736],
        [74.72966, 18.50738],
        [74.72714, 18.50645],
        [74.71954, 18.49657],
        [74.71963, 18.49227],
        [74.71922, 18.49266],
        [74.71766, 18.49394],
        [74.7154, 18.49588],
        [74.71472, 18.49647],
        [74.71331, 18.4976],
        [74.71217, 18.49907],
        [74.71173, 18.49968],
        [74.71143, 18.50051],
        [74.71137, 18.50081],
        [74.71105, 18.50104],
        [74.70852, 18.50424],
        [74.70824, 18.50443],
        [74.70684, 18.50522],
        [74.7049, 18.50611],
        [74.7036, 18.50645],
        [74.7022, 18.50661],
        [74.70061, 18.50661],
        [74.69948, 18.50647],
        [74.69764, 18.50604],
        [74.69582, 18.50536],
        [74.69457, 18.50484],
        [74.69271, 18.50372],
        [74.68981, 18.50175],
        [74.68853, 18.50081],
        [74.68648, 18.49951],
        [74.68495, 18.49841],
        [74.68198, 18.49673],
        [74.68074, 18.49608],
        [74.67802, 18.49534],
        [74.67505, 18.49426],
        [74.67385, 18.49399],
        [74.67264, 18.49394],
        [74.67151, 18.49393],
        [74.67096, 18.49397],
        [74.66969, 18.49397],
        [74.66852, 18.49392],
        [74.66735, 18.49378],
        [74.66614, 18.49325],
        [74.66317, 18.49192],
        [74.66073, 18.49065],
        [74.65964, 18.48982],
        [74.65887, 18.48863],
        [74.65739, 18.48495],
        [74.65586, 18.47894],
        [74.65571, 18.47737],
        [74.65571, 18.47681],
        [74.6558, 18.47618],
        [74.65597, 18.4755],
        [74.65638, 18.47478],
        [74.65733, 18.47337],
        [74.6589, 18.47193],
        [74.65995, 18.47124],
        [74.6621, 18.46968],
        [74.66302, 18.46917],
        [74.66364, 18.46896],
        [74.66444, 18.46884],
        [74.66497, 18.46877],
        [74.66556, 18.46874],
        [74.6662, 18.46892],
        [74.66747, 18.46912],
        [74.66867, 18.46914],
        [74.66991, 18.46905],
        [74.67065, 18.46881],
        [74.67204, 18.46832],
        [74.67321, 18.46752],
        [74.67444, 18.46612],
        [74.67499, 18.46513],
        [74.67505, 18.46465],
        [74.67505, 18.46424],
        [74.67495, 18.46343],
        [74.67455, 18.46248],
        [74.67334, 18.461],
        [74.67148, 18.45972],
        [74.66981, 18.45881],
        [74.66876, 18.4586],
        [74.66722, 18.45861],
        [74.66456, 18.45871],
        [74.6633, 18.45863],
        [74.66233, 18.45838],
        [74.65979, 18.45768],
        [74.65828, 18.45709],
        [74.65723, 18.45635],
        [74.65636, 18.45555],
        [74.65198, 18.45175],
        [74.65066, 18.4509],
        [74.64967, 18.45039],
        [74.64778, 18.45014],
        [74.64616, 18.44995],
        [74.64208, 18.45029],
        [74.63949, 18.45063],
        [74.63791, 18.45094],
        [74.63665, 18.45136],
        [74.63554, 18.45193],
        [74.63369, 18.45323],
        [74.63153, 18.45446],
        [74.63011, 18.45515],
        [74.6287, 18.45611],
        [74.62577, 18.45848],
        [74.62456, 18.45955],
        [74.62373, 18.46036],
        [74.62272, 18.46179],
        [74.62174, 18.46333],
        [74.62105, 18.46425],
        [74.61972, 18.46523],
        [74.61882, 18.46563],
        [74.61789, 18.46612],
        [74.61675, 18.46689],
        [74.61545, 18.46767],
        [74.61467, 18.46798],
        [74.61399, 18.46817],
        [74.61349, 18.46826],
        [74.61263, 18.46829],
        [74.61158, 18.46851],
        [74.61023, 18.46863],
        [74.60868, 18.46861],
        [74.6072, 18.46859],
        [74.6063, 18.46865],
        [74.60421, 18.46911],
        [74.60181, 18.46936],
        [74.59937, 18.46988],
        [74.59638, 18.47073],
        [74.59475, 18.47104],
        [74.59234, 18.47132],
        [74.58916, 18.47157],
        [74.58558, 18.4715],
        [74.58405, 18.47165],
        [74.58228, 18.47211],
        [74.58094, 18.47263],
        [74.57931, 18.47359],
        [74.57752, 18.47476],
        [74.57681, 18.47537],
        [74.57592, 18.47647],
        [74.57457, 18.4783],
        [74.57383, 18.4797],
        [74.57328, 18.48143],
        [74.57304, 18.48206],
        [74.57253, 18.48265],
        [74.57164, 18.48337],
        [74.56912, 18.48496],
        [74.56687, 18.48637],
        [74.56452, 18.48772],
        [74.56306, 18.48843],
        [74.56174, 18.48909],
        [74.55848, 18.49128],
        [74.5578, 18.49179],
        [74.55669, 18.49305],
        [74.55513, 18.49557],
        [74.55248, 18.50066],
        [74.55233, 18.5008],
        [74.55126, 18.50242],
        [74.55051, 18.50341],
        [74.54871, 18.5054],
        [74.54651, 18.5076],
        [74.54714, 18.50897],
        [74.54766, 18.5101],
        [74.54859, 18.51193],
        [74.54937, 18.5131],
        [74.55008, 18.5138],
        [74.55138, 18.51468],
        [74.55334, 18.51547],
        [74.55588, 18.51631],
        [74.55752, 18.51678],
        [74.55806, 18.51716],
        [74.55907, 18.51786],
        [74.56028, 18.51907],
        [74.56069, 18.5199],
        [74.56119, 18.52111],
        [74.56136, 18.52161],
        [74.56173, 18.52194],
        [74.56249, 18.52245],
        [74.56507, 18.52378],
        [74.56557, 18.52411],
        [74.56586, 18.52453],
        [74.56623, 18.52502],
        [74.56695, 18.52656],
        [74.568, 18.52897],
        [74.56841, 18.5298],
        [74.56912, 18.5306],
        [74.57033, 18.5321],
        [74.57062, 18.53297],
        [74.57066, 18.53338],
        [74.57066, 18.53384],
        [74.57049, 18.53493],
        [74.57041, 18.53551],
        [74.57053, 18.53593],
        [74.57091, 18.53671],
        [74.57141, 18.53801],
        [74.57162, 18.53863],
        [74.57162, 18.53905],
        [74.57137, 18.5398],
        [74.57091, 18.54032],
        [74.5697, 18.5417],
        [74.56933, 18.54253],
        [74.5692, 18.54315],
        [74.56928, 18.54382],
        [74.56949, 18.54444],
        [74.57008, 18.54528],
        [74.57074, 18.54573],
        [74.57137, 18.54582],
        [74.57304, 18.54548],
        [74.5752, 18.54436],
        [74.57645, 18.54403],
        [74.57696, 18.54407],
        [74.57713, 18.5442],
        [74.5775, 18.54465],
        [74.57804, 18.54574],
        [74.57825, 18.54694],
        [74.57821, 18.5484],
        [74.57791, 18.54927],
        [74.57733, 18.55011],
        [74.5762, 18.55094],
        [74.57416, 18.55198],
        [74.5724, 18.55263],
        [74.57115, 18.55313],
        [74.56764, 18.55463],
        [74.56635, 18.55546],
        [74.56556, 18.55629],
        [74.56477, 18.55754],
        [74.56431, 18.55838],
        [74.56355, 18.56054],
        [74.56306, 18.56158],
        [74.56183, 18.56331],
        [74.56037, 18.56494],
        [74.5585, 18.56627],
        [74.55757, 18.56685],
        [74.55658, 18.5676],
        [74.55561, 18.56872],
        [74.55507, 18.56955],
        [74.55462, 18.5706],
        [74.55395, 18.57226],
        [74.55316, 18.57351],
        [74.55165, 18.575],
        [74.55023, 18.5762],
        [74.54852, 18.57691],
        [74.54676, 18.57745],
        [74.5456, 18.57783],
        [74.54409, 18.57849],
        [74.54239, 18.57962],
        [74.54155, 18.58041],
        [74.54118, 18.58145],
        [74.5411, 18.58303],
        [74.54126, 18.58424],
        [74.54147, 18.58513],
        [74.54289, 18.5885],
        [74.54338, 18.58996],
        [74.54368, 18.59114],
        [74.54377, 18.59227],
        [74.54372, 18.59339],
        [74.54338, 18.59626],
        [74.54335, 18.59843],
        [74.54343, 18.5988],
        [74.5438, 18.59972],
        [74.54447, 18.60063],
        [74.54584, 18.60221],
        [74.5476, 18.60358],
        [74.54927, 18.60449],
        [74.55072, 18.60508],
        [74.55147, 18.60562],
        [74.55197, 18.60616],
        [74.55214, 18.60674],
        [74.55206, 18.60737],
        [74.55176, 18.60828],
        [74.55126, 18.60974],
        [74.55018, 18.61136],
        [74.54893, 18.61257],
        [74.54718, 18.61344],
        [74.5443, 18.6144],
        [74.54217, 18.61519],
        [74.54021, 18.61636],
        [74.53909, 18.61706],
        [74.53814, 18.61761],
        [74.53698, 18.61794],
        [74.53523, 18.61806],
        [74.53423, 18.6179],
        [74.53331, 18.61756],
        [74.53181, 18.61665],
        [74.52989, 18.61511],
        [74.52889, 18.61469],
        [74.52718, 18.61452],
        [74.52426, 18.61419],
        [74.5226, 18.61406],
        [74.52105, 18.61369],
        [74.5193, 18.6131],
        [74.51746, 18.61277],
        [74.51567, 18.61269],
        [74.51252, 18.61266],
        [74.51093, 18.61266],
        [74.50973, 18.61283],
        [74.50898, 18.61312],
        [74.50819, 18.61362],
        [74.50752, 18.61441],
        [74.50718, 18.61545],
        [74.50706, 18.6162],
        [74.50694, 18.61803],
        [74.50685, 18.61916],
        [74.50656, 18.62099],
        [74.50635, 18.6219],
        [74.50593, 18.62274],
        [74.5053, 18.62332],
        [74.50451, 18.62382],
        [74.50351, 18.62411],
        [74.50256, 18.62423],
        [74.50172, 18.62432],
        [74.5006, 18.62457],
        [74.49924, 18.62523],
        [74.48983, 18.62817],
        [74.48788, 18.62855],
        [74.48533, 18.62915],
        [74.48328, 18.62984],
        [74.48159, 18.63084],
        [74.47956, 18.63229],
        [74.47781, 18.6337],
        [74.4767, 18.63492],
        [74.47533, 18.63744],
        [74.47426, 18.63898],
        [74.4733, 18.64001],
        [74.47211, 18.64135],
        [74.47182, 18.64206],
        [74.47159, 18.64296],
        [74.47141, 18.64413],
        [74.47113, 18.6453],
        [74.47121, 18.6461],
        [74.47141, 18.64662],
        [74.47192, 18.64715],
        [74.47268, 18.64798],
        [74.47361, 18.64885],
        [74.47422, 18.64917],
        [74.47518, 18.64946],
        [74.47627, 18.64953],
        [74.47723, 18.6495],
        [74.47822, 18.64935],
        [74.47917, 18.649],
        [74.48096, 18.64828],
        [74.48298, 18.64764],
        [74.48484, 18.64698],
        [74.48584, 18.64683],
        [74.48653, 18.64692],
        [74.4868, 18.64724],
        [74.48719, 18.6479],
        [74.48736, 18.64858],
        [74.4876, 18.64977],
        [74.48772, 18.65062],
        [74.48772, 18.6513],
        [74.48752, 18.65218],
        [74.48764, 18.65279],
        [74.48813, 18.6534],
        [74.48886, 18.65393],
        [74.48964, 18.65464],
        [74.49053, 18.65515],
        [74.49162, 18.65575],
        [74.49235, 18.65609],
        [74.49305, 18.65627],
        [74.49924, 18.65781],
        [74.50002, 18.65826],
        [74.50061, 18.6587],
        [74.50156, 18.65932],
        [74.50266, 18.66004],
        [74.50307, 18.66038],
        [74.50338, 18.66074],
        [74.50395, 18.66143],
        [74.5042, 18.6616],
        [74.50482, 18.6618],
        [74.5056, 18.66207],
        [74.50595, 18.66224],
        [74.5062, 18.66239],
        [74.50678, 18.66285],
        [74.50746, 18.66352],
        [74.5078, 18.66389],
        [74.50858, 18.66479],
        [74.50897, 18.66537],
        [74.50952, 18.6663],
        [74.5098, 18.66695],
        [74.50986, 18.66715],
        [74.50987, 18.66734],
        [74.5099, 18.66764],
        [74.50989, 18.66786],
        [74.50986, 18.66813],
        [74.50978, 18.66849],
        [74.50954, 18.66939],
        [74.50933, 18.67007],
        [74.50873, 18.67175],
        [74.50828, 18.67292],
        [74.50787, 18.67379],
        [74.50723, 18.67484],
        [74.50682, 18.67542],
        [74.50625, 18.67593],
        [74.50549, 18.67664],
        [74.50459, 18.67742],
        [74.50394, 18.6779],
        [74.50334, 18.67826],
        [74.50298, 18.67842],
        [74.50245, 18.67861],
        [74.50218, 18.67863],
        [74.50149, 18.67867],
        [74.50053, 18.67863],
        [74.49983, 18.67867],
        [74.49964, 18.67876],
        [74.49918, 18.67897],
        [74.49896, 18.67907],
        [74.49877, 18.67908],
        [74.4985, 18.67916],
        [74.49824, 18.67925],
        [74.49801, 18.67933],
        [74.49778, 18.67938],
        [74.49755, 18.6794],
        [74.49731, 18.6794],
        [74.49696, 18.67938],
        [74.49672, 18.67937],
        [74.49649, 18.67937],
        [74.49625, 18.67937],
        [74.49601, 18.67937],
        [74.49578, 18.67937],
        [74.49554, 18.67937],
        [74.4953, 18.67937],
        [74.49507, 18.67938],
        [74.49488, 18.67936],
        [74.49469, 18.67932],
        [74.4945, 18.67928],
        [74.49431, 18.67922],
        [74.49413, 18.67915],
        [74.49396, 18.67907],
        [74.49379, 18.67898],
        [74.49362, 18.67888],
        [74.49346, 18.67877],
        [74.49297, 18.67846],
        [74.49247, 18.67814],
        [74.49197, 18.67783],
        [74.49147, 18.67752],
        [74.49096, 18.67722],
        [74.49046, 18.67691],
        [74.48995, 18.67661],
        [74.48945, 18.67631],
        [74.48894, 18.67602],
        [74.48869, 18.67584],
        [74.48841, 18.67575],
        [74.48796, 18.67578],
        [74.48769, 18.6759],
        [74.4873, 18.67606],
        [74.48691, 18.67622],
        [74.48653, 18.67639],
        [74.48614, 18.67656],
        [74.48576, 18.67674],
        [74.48538, 18.67691],
        [74.485, 18.67709],
        [74.48462, 18.67728],
        [74.48424, 18.67746],
        [74.4841, 18.67759],
        [74.48396, 18.67772],
        [74.48383, 18.67785],
        [74.48369, 18.67798],
        [74.48354, 18.6781],
        [74.4834, 18.67823],
        [74.48326, 18.67835],
        [74.48312, 18.67848],
        [74.48297, 18.6786],
        [74.48274, 18.67887],
        [74.4825, 18.67914],
        [74.48227, 18.6794],
        [74.48202, 18.67966],
        [74.48178, 18.67992],
        [74.48154, 18.68018],
        [74.48129, 18.68043],
        [74.48104, 18.68069],
        [74.48079, 18.68094],
        [74.48056, 18.68119],
        [74.48033, 18.68145],
        [74.48011, 18.6817],
        [74.47988, 18.68196],
        [74.47966, 18.68221],
        [74.47943, 18.68246],
        [74.47921, 18.68272],
        [74.47898, 18.68297],
        [74.47875, 18.68323],
        [74.4785, 18.68348],
        [74.47825, 18.68373],
        [74.47801, 18.68398],
        [74.47777, 18.68424],
        [74.47752, 18.6845],
        [74.47729, 18.68476],
        [74.47705, 18.68502],
        [74.47682, 18.68528],
        [74.47658, 18.68555],
        [74.47643, 18.68571],
        [74.47627, 18.68587],
        [74.47612, 18.68603],
        [74.47597, 18.6862],
        [74.47582, 18.68638],
        [74.47569, 18.68655],
        [74.47555, 18.68673],
        [74.47542, 18.68692],
        [74.4753, 18.6871],
        [74.47514, 18.68734],
        [74.475, 18.68759],
        [74.47487, 18.68785],
        [74.47475, 18.6881],
        [74.47465, 18.68837],
        [74.47455, 18.68864],
        [74.47447, 18.68891],
        [74.47439, 18.68919],
        [74.47433, 18.68946],
        [74.47428, 18.68972],
        [74.47422, 18.68997],
        [74.47416, 18.69023],
        [74.4741, 18.69048],
        [74.47405, 18.69074],
        [74.47399, 18.69099],
        [74.47393, 18.69125],
        [74.47387, 18.6915],
        [74.47377, 18.69185],
        [74.47375, 18.69205],
        [74.47379, 18.69225],
        [74.4739, 18.69243],
        [74.47406, 18.69256],
        [74.47426, 18.69276],
        [74.47446, 18.69297],
        [74.47467, 18.69317],
        [74.47488, 18.69337],
        [74.47509, 18.69357],
        [74.47529, 18.69377],
        [74.4755, 18.69397],
        [74.47571, 18.69417],
        [74.47593, 18.69436],
        [74.47616, 18.69465],
        [74.47639, 18.69493],
        [74.47662, 18.69523],
        [74.47684, 18.69553],
        [74.47705, 18.69583],
        [74.47726, 18.69614],
        [74.47746, 18.69645],
        [74.47765, 18.69676],
        [74.47784, 18.69708],
        [74.478, 18.69731],
        [74.47815, 18.69753],
        [74.47832, 18.69775],
        [74.47848, 18.69798],
        [74.47865, 18.69819],
        [74.47882, 18.69841],
        [74.47899, 18.69862],
        [74.47916, 18.69883],
        [74.47934, 18.69904],
        [74.4795, 18.69924],
        [74.47965, 18.69944],
        [74.47981, 18.69963],
        [74.47997, 18.69983],
        [74.48012, 18.70003],
        [74.48028, 18.70022],
        [74.48043, 18.70042],
        [74.48059, 18.70062],
        [74.48086, 18.70096],
        [74.48104, 18.70127],
        [74.48117, 18.70161],
        [74.48124, 18.70197],
        [74.48125, 18.70234],
        [74.48128, 18.70268],
        [74.48131, 18.70302],
        [74.48132, 18.70336],
        [74.48133, 18.7037],
        [74.48133, 18.70404],
        [74.48132, 18.70438],
        [74.4813, 18.70473],
        [74.48127, 18.70506],
        [74.48123, 18.7054],
        [74.48118, 18.70573],
        [74.48114, 18.70605],
        [74.48109, 18.70637],
        [74.48105, 18.7067],
        [74.48101, 18.70702],
        [74.48097, 18.70734],
        [74.48094, 18.70767],
        [74.48091, 18.70799],
        [74.48088, 18.70832],
        [74.48083, 18.70864],
        [74.48078, 18.70897],
        [74.48073, 18.70929],
        [74.48067, 18.70962],
        [74.48061, 18.70994],
        [74.48055, 18.71027],
        [74.48048, 18.71059],
        [74.48041, 18.71091],
        [74.48034, 18.71123],
        [74.48028, 18.71153],
        [74.48023, 18.71183],
        [74.48017, 18.71213],
        [74.48011, 18.71243],
        [74.48005, 18.71273],
        [74.47999, 18.71303],
        [74.47992, 18.71333],
        [74.47985, 18.71363],
        [74.47978, 18.71393],
        [74.47973, 18.71431],
        [74.47966, 18.71469],
        [74.47957, 18.71506],
        [74.47946, 18.71544],
        [74.47935, 18.7158],
        [74.47921, 18.71616],
        [74.47906, 18.71651],
        [74.47889, 18.71686],
        [74.47871, 18.7172],
        [74.47854, 18.7175],
        [74.47836, 18.71779],
        [74.47818, 18.71807],
        [74.47798, 18.71835],
        [74.47779, 18.71863],
        [74.47758, 18.7189],
        [74.47737, 18.71917],
        [74.47716, 18.71943],
        [74.47693, 18.71969],
        [74.47664, 18.71995],
        [74.47634, 18.72022],
        [74.47604, 18.72048],
        [74.47574, 18.72074],
        [74.47543, 18.72099],
        [74.47512, 18.72125],
        [74.47481, 18.7215],
        [74.4745, 18.72174],
        [74.47418, 18.72199],
        [74.47378, 18.72228],
        [74.47337, 18.72256],
        [74.47295, 18.72283],
        [74.47253, 18.72308],
        [74.47209, 18.72332],
        [74.47165, 18.72355],
        [74.4712, 18.72377],
        [74.47075, 18.72397],
        [74.47029, 18.72415],
        [74.46995, 18.72425],
        [74.46961, 18.72436],
        [74.46927, 18.72447],
        [74.46894, 18.72458],
        [74.4686, 18.72469],
        [74.46827, 18.72481],
        [74.46794, 18.72493],
        [74.4676, 18.72505],
        [74.46727, 18.72518],
        [74.46695, 18.72529],
        [74.46663, 18.72538],
        [74.46629, 18.72543],
        [74.46595, 18.72546],
        [74.46561, 18.72545],
        [74.46528, 18.72541],
        [74.46495, 18.72534],
        [74.46462, 18.72525],
        [74.46431, 18.72512],
        [74.46367, 18.72491],
        [74.46303, 18.72471],
        [74.46239, 18.72451],
        [74.46175, 18.72432],
        [74.46111, 18.72413],
        [74.46047, 18.72394],
        [74.45982, 18.72375],
        [74.45918, 18.72357],
        [74.45853, 18.72339],
        [74.45791, 18.72319],
        [74.45728, 18.72299],
        [74.45665, 18.7228],
        [74.45602, 18.72261],
        [74.45539, 18.72243],
        [74.45476, 18.72225],
        [74.45412, 18.72208],
        [74.45349, 18.7219],
        [74.45285, 18.72174],
        [74.4525, 18.72165],
        [74.45214, 18.72156],
        [74.45178, 18.72148],
        [74.45142, 18.72141],
        [74.45105, 18.72135],
        [74.45069, 18.72129],
        [74.45033, 18.72124],
        [74.44996, 18.7212],
        [74.44959, 18.72116],
        [74.44908, 18.72115],
        [74.44856, 18.72115],
        [74.44805, 18.72117],
        [74.44753, 18.72119],
        [74.44702, 18.72123],
        [74.4465, 18.72127],
        [74.44599, 18.72133],
        [74.44548, 18.7214],
        [74.4448, 18.7215],
        [74.44447, 18.72156],
        [74.44415, 18.72166],
        [74.44385, 18.7218],
        [74.44356, 18.72198],
        [74.44341, 18.72213],
        [74.44326, 18.72229],
        [74.44314, 18.72246],
        [74.44303, 18.72265],
        [74.44294, 18.72285],
        [74.44287, 18.72305],
        [74.44282, 18.72326],
        [74.44279, 18.72348],
        [74.44278, 18.72369],
        [74.44282, 18.72405],
        [74.44287, 18.72442],
        [74.44291, 18.72478],
        [74.44296, 18.72514],
        [74.443, 18.7255],
        [74.44304, 18.72586],
        [74.44307, 18.72622],
        [74.44311, 18.72658],
        [74.44314, 18.72694],
        [74.44318, 18.72716],
        [74.44321, 18.72738],
        [74.44323, 18.7276],
        [74.44324, 18.72782],
        [74.44324, 18.72803],
        [74.44324, 18.72825],
        [74.44322, 18.72847],
        [74.4432, 18.72869],
        [74.44318, 18.72891],
        [74.44319, 18.72928],
        [74.44319, 18.72966],
        [74.44317, 18.73003],
        [74.44314, 18.7304],
        [74.4431, 18.73078],
        [74.44305, 18.73115],
        [74.44298, 18.73151],
        [74.44289, 18.73188],
        [74.4428, 18.73224],
        [74.44274, 18.73252],
        [74.44268, 18.73279],
        [74.44262, 18.73306],
        [74.44255, 18.73333],
        [74.44247, 18.7336],
        [74.44238, 18.73387],
        [74.44229, 18.73414],
        [74.44219, 18.7344],
        [74.44209, 18.73466],
        [74.44201, 18.73492],
        [74.44193, 18.73517],
        [74.44184, 18.73542],
        [74.44175, 18.73567],
        [74.44165, 18.73592],
        [74.44154, 18.73616],
        [74.44143, 18.73641],
        [74.44132, 18.73665],
        [74.44117, 18.73697],
        [74.44099, 18.73728],
        [74.4407, 18.7375],
        [74.44034, 18.73777],
        [74.43998, 18.73805],
        [74.43962, 18.73831],
        [74.43925, 18.73858],
        [74.43888, 18.73883],
        [74.43851, 18.73908],
        [74.43813, 18.73933],
        [74.43774, 18.73956],
        [74.43736, 18.7398],
        [74.43719, 18.73991],
        [74.43701, 18.74003],
        [74.43684, 18.74015],
        [74.43668, 18.74027],
        [74.43651, 18.74039],
        [74.43635, 18.74052],
        [74.43618, 18.74065],
        [74.43602, 18.74078],
        [74.43586, 18.74091],
        [74.43565, 18.74103],
        [74.43543, 18.74117],
        [74.43523, 18.7413],
        [74.43503, 18.74145],
        [74.43483, 18.74161],
        [74.43465, 18.74177],
        [74.43447, 18.74194],
        [74.43429, 18.74212],
        [74.43413, 18.7423],
        [74.43383, 18.74266],
        [74.43353, 18.74301],
        [74.43322, 18.74336],
        [74.43292, 18.7437],
        [74.43261, 18.74405],
        [74.4323, 18.74439],
        [74.43198, 18.74473],
        [74.43167, 18.74506],
        [74.43135, 18.7454],
        [74.43118, 18.74555],
        [74.43101, 18.7457],
        [74.43083, 18.74584],
        [74.43066, 18.74599],
        [74.43049, 18.74613],
        [74.43031, 18.74627],
        [74.43013, 18.74641],
        [74.42995, 18.74655],
        [74.42977, 18.74669],
        [74.42962, 18.74684],
        [74.42946, 18.74699],
        [74.42929, 18.74713],
        [74.42912, 18.74726],
        [74.42893, 18.74738],
        [74.42876, 18.74752],
        [74.42859, 18.74768],
        [74.42843, 18.74784],
        [74.42828, 18.74801],
        [74.42807, 18.7482],
        [74.42787, 18.74839],
        [74.42767, 18.74859],
        [74.42748, 18.7488],
        [74.42728, 18.74903],
        [74.42704, 18.74924],
        [74.42675, 18.7494],
        [74.42644, 18.74948],
        [74.42611, 18.7495],
        [74.42588, 18.7495],
        [74.42564, 18.74951],
        [74.42541, 18.74952],
        [74.42517, 18.74953],
        [74.42494, 18.74954],
        [74.4247, 18.74955],
        [74.42447, 18.74957],
        [74.42423, 18.74958],
        [74.424, 18.7496],
        [74.4237, 18.74956],
        [74.42342, 18.74949],
        [74.42314, 18.74939],
        [74.42288, 18.74926],
        [74.42241, 18.74897],
        [74.42207, 18.74876],
        [74.42173, 18.74854],
        [74.4214, 18.74832],
        [74.42106, 18.7481],
        [74.42073, 18.74787],
        [74.4204, 18.74764],
        [74.42008, 18.74741],
        [74.41975, 18.74717],
        [74.41954, 18.74701],
        [74.41931, 18.74687],
        [74.41907, 18.74676],
        [74.41881, 18.74667],
        [74.41851, 18.7466],
        [74.41815, 18.74654],
        [74.41762, 18.7465],
        [74.41726, 18.74651],
        [74.41694, 18.74654],
        [74.41664, 18.7465],
        [74.41636, 18.74639],
        [74.41612, 18.74621],
        [74.41594, 18.74597],
        [74.41578, 18.74572],
        [74.41561, 18.74548],
        [74.41542, 18.74524],
        [74.41522, 18.74502],
        [74.41501, 18.7448],
        [74.41479, 18.7446],
        [74.41457, 18.7444],
        [74.41433, 18.74422],
        [74.41408, 18.74405],
        [74.41385, 18.74388],
        [74.41361, 18.7437],
        [74.41338, 18.74353],
        [74.41315, 18.74336],
        [74.41291, 18.74319],
        [74.41267, 18.74303],
        [74.41243, 18.74286],
        [74.41219, 18.7427],
        [74.41195, 18.74254],
        [74.41174, 18.74243],
        [74.41153, 18.74232],
        [74.41132, 18.7422],
        [74.41111, 18.74208],
        [74.4109, 18.74196],
        [74.4107, 18.74183],
        [74.4105, 18.7417],
        [74.4103, 18.74156],
        [74.4101, 18.74143],
        [74.4099, 18.74136],
        [74.40969, 18.74131],
        [74.40948, 18.74128],
        [74.40926, 18.74127],
        [74.40905, 18.74128],
        [74.40883, 18.74132],
        [74.40863, 18.74138],
        [74.40843, 18.74146],
        [74.40823, 18.74156],
        [74.40804, 18.74163],
        [74.40785, 18.74171],
        [74.40765, 18.74177],
        [74.40745, 18.74184],
        [74.40726, 18.7419],
        [74.40706, 18.74196],
        [74.40686, 18.74201],
        [74.40666, 18.74206],
        [74.40645, 18.74211],
        [74.40626, 18.74214],
        [74.40606, 18.74217],
        [74.40587, 18.74221],
        [74.40567, 18.74224],
        [74.40548, 18.74227],
        [74.40528, 18.7423],
        [74.40509, 18.74233],
        [74.40489, 18.74236],
        [74.40454, 18.74244],
        [74.40423, 18.74256],
        [74.40396, 18.74269],
        [74.4037, 18.74278],
        [74.40343, 18.74285],
        [74.40316, 18.74288],
        [74.40288, 18.74288],
        [74.40265, 18.74285],
        [74.40242, 18.74281],
        [74.4022, 18.74276],
        [74.40198, 18.74269],
        [74.40176, 18.7426],
        [74.40155, 18.7425],
        [74.40135, 18.74238],
        [74.40116, 18.74225],
        [74.40098, 18.74211],
        [74.40077, 18.74199],
        [74.40055, 18.74192],
        [74.40032, 18.7419],
        [74.40008, 18.74192],
        [74.39986, 18.74198],
        [74.39965, 18.74209],
        [74.39947, 18.74224],
        [74.39931, 18.74242],
        [74.3992, 18.74262],
        [74.39911, 18.74282],
        [74.39902, 18.74303],
        [74.39894, 18.74323],
        [74.39885, 18.74343],
        [74.39877, 18.74364],
        [74.39869, 18.74384],
        [74.39861, 18.74405],
        [74.39852, 18.74425],
        [74.39844, 18.74446],
        [74.39837, 18.74464],
        [74.3983, 18.74483],
        [74.39823, 18.74502],
        [74.39817, 18.7452],
        [74.39811, 18.74539],
        [74.39805, 18.74558],
        [74.39799, 18.74577],
        [74.39793, 18.74597],
        [74.39788, 18.74638],
        [74.39788, 18.74667],
        [74.39792, 18.74693],
        [74.39794, 18.74717],
        [74.39793, 18.7474],
        [74.39786, 18.74763],
        [74.39776, 18.74784],
        [74.39771, 18.74812],
        [74.39766, 18.7484],
        [74.39762, 18.74868],
        [74.39759, 18.74896],
        [74.39756, 18.74924],
        [74.39753, 18.74952],
        [74.39751, 18.7498],
        [74.3975, 18.75008],
        [74.39748, 18.75037],
        [74.39748, 18.75078],
        [74.39646, 18.75533],
        [74.39551, 18.75901],
        [74.39534, 18.76073],
        [74.39526, 18.76246],
        [74.39479, 18.76562],
        [74.39472, 18.76581],
        [74.39462, 18.76598],
        [74.39448, 18.76612],
        [74.39431, 18.76622],
        [74.3936, 18.76647],
        [74.39346, 18.76667],
        [74.39344, 18.76691],
        [74.39399, 18.76775],
        [74.39412, 18.76802],
        [74.3943, 18.76826],
        [74.39452, 18.76847],
        [74.39476, 18.76864],
        [74.39675, 18.77038],
        [74.39979, 18.77329],
        [74.39992, 18.77348],
        [74.40005, 18.77367],
        [74.40018, 18.77387],
        [74.40031, 18.77406],
        [74.4008, 18.77653],
        [74.4007, 18.77679],
        [74.40051, 18.77699],
        [74.40001, 18.77718],
        [74.39848, 18.77759],
        [74.39806, 18.77766],
        [74.39765, 18.77774],
        [74.39724, 18.77785],
        [74.39683, 18.77797],
        [74.39643, 18.77812],
        [74.39604, 18.77828],
        [74.39566, 18.77846],
        [74.39529, 18.77866],
        [74.39492, 18.77888],
        [74.39182, 18.7807],
        [74.39159, 18.78085],
        [74.39136, 18.78101],
        [74.39114, 18.78117],
        [74.39092, 18.78135],
        [74.39071, 18.78154],
        [74.39051, 18.78173],
        [74.39032, 18.78193],
        [74.39013, 18.78214],
        [74.38996, 18.78235],
        [74.38892, 18.78355],
        [74.38877, 18.78384],
        [74.38863, 18.78414],
        [74.38851, 18.78445],
        [74.38841, 18.78476],
        [74.38834, 18.78509],
        [74.38829, 18.78541],
        [74.38826, 18.78574],
        [74.38825, 18.78607],
        [74.38826, 18.7864],
        [74.38855, 18.78752],
        [74.38862, 18.78787],
        [74.38866, 18.78822],
        [74.38868, 18.78858],
        [74.38866, 18.78893],
        [74.38862, 18.78929],
        [74.38855, 18.78964],
        [74.38845, 18.78998],
        [74.38833, 18.79031],
        [74.38818, 18.79064],
        [74.38706, 18.7927],
        [74.38693, 18.79301],
        [74.38682, 18.79331],
        [74.3867, 18.79362],
        [74.3866, 18.79393],
        [74.3865, 18.79424],
        [74.38641, 18.79456],
        [74.38633, 18.79488],
        [74.38626, 18.79519],
        [74.38619, 18.79552],
        [74.3859, 18.79754],
        [74.38587, 18.79789],
        [74.38583, 18.79823],
        [74.38577, 18.79857],
        [74.38569, 18.79891],
        [74.3856, 18.79924],
        [74.38549, 18.79957],
        [74.38537, 18.79989],
        [74.38523, 18.80021],
        [74.38508, 18.80052],
        [74.38429, 18.80265],
        [74.38412, 18.8032],
        [74.38404, 18.80376],
        [74.38403, 18.80432],
        [74.38411, 18.80489],
        [74.38426, 18.80543],
        [74.38449, 18.80595],
        [74.38479, 18.80643],
        [74.38515, 18.80686],
        [74.38557, 18.80724],
        [74.38793, 18.80853],
        [74.38832, 18.80883],
        [74.38869, 18.80916],
        [74.38905, 18.8095],
        [74.38939, 18.80985],
        [74.38972, 18.81022],
        [74.39004, 18.81061],
        [74.39033, 18.811],
        [74.39061, 18.81141],
        [74.39087, 18.81183],
        [74.39149, 18.81396],
        [74.39164, 18.81448],
        [74.3918, 18.81499],
        [74.39198, 18.81549],
        [74.39218, 18.81599],
        [74.3924, 18.81648],
        [74.39263, 18.81696],
        [74.39288, 18.81743],
        [74.39315, 18.81789],
        [74.39344, 18.81835],
        [74.39451, 18.8193],
        [74.39683, 18.82091],
        [74.39711, 18.82105],
        [74.39737, 18.82121],
        [74.39761, 18.8214],
        [74.39784, 18.82162],
        [74.39804, 18.82185],
        [74.39822, 18.8221],
        [74.39838, 18.82236],
        [74.39851, 18.82265],
        [74.39861, 18.82294],
        [74.39857, 18.82424],
        [74.39855, 18.82486],
        [74.39845, 18.82547],
        [74.39829, 18.82607],
        [74.39806, 18.82665],
        [74.39777, 18.82719],
        [74.39742, 18.8277],
        [74.39701, 18.82817],
        [74.39655, 18.82859],
        [74.39604, 18.82895],
        [74.39355, 18.83048],
        [74.38999, 18.8323],
        [74.38957, 18.8325],
        [74.38751, 18.85085],
        [74.39353, 18.85151],
        [74.39948, 18.85217],
        [74.40594, 18.85074],
        [74.41885, 18.84477],
        [74.42635, 18.84254],
        [74.43152, 18.84437],
        [74.43495, 18.84559],
        [74.43565, 18.84584],
        [74.4488, 18.85411],
        [74.44973, 18.85242],
        [74.45107, 18.84994],
        [74.45763, 18.84173],
        [74.46354, 18.83639],
        [74.46547, 18.83578],
        [74.47236, 18.8336],
        [74.48226, 18.8415],
        [74.49529, 18.85046],
        [74.49688, 18.85018],
        [74.50254, 18.8492],
        [74.51032, 18.847],
        [74.51378, 18.84602],
        [74.51894, 18.85376],
        [74.52128, 18.85941],
        [74.52476, 18.86336],
        [74.52562, 18.86433],
        [74.53414, 18.8671],
        [74.53844, 18.86553],
        [74.5426, 18.86517],
        [74.54848, 18.86681],
        [74.55006, 18.86726],
        [74.55335, 18.86818],
        [74.56559, 18.86329],
        [74.58005, 18.86249],
        [74.59224, 18.86082],
        [74.59349, 18.86111],
        [74.59939, 18.86249],
        [74.60273, 18.87136],
        [74.61165, 18.88193],
        [74.61986, 18.88677],
        [74.62551, 18.88854],
        [74.63068, 18.88876],
        [74.63639, 18.8849],
        [74.63718, 18.88454],
        [74.64711, 18.87994],
        [74.66181, 18.88007],
        [74.66621, 18.8855],
        [74.66644, 18.88614],
        [74.66931, 18.89431],
        [74.67276, 18.89853],
        [74.67546, 18.89999],
        [74.68679, 18.90212],
        [74.68792, 18.90233],
        [74.69611, 18.9021],
        [74.70318, 18.90044],
        [74.71022, 18.90084],
        [74.71522, 18.89554],
        [74.71629, 18.89488],
        [74.72099, 18.90708],
        [74.72439, 18.91386],
        [74.72802, 18.92153],
        [74.73005, 18.92677],
        [74.73182, 18.93254],
        [74.73186, 18.93268],
        [74.73208, 18.93399],
        [74.71908, 18.94521],
        [74.71975, 18.94849],
        [74.71975, 18.95067],
        [74.7186, 18.95349],
        [74.71722, 18.95719],
        [74.71548, 18.98212],
        [74.71776, 18.98298],
        [74.71945, 18.98277],
        [74.72161, 18.98302],
        [74.72377, 18.98326],
        [74.72468, 18.98327],
        [74.72618, 18.98328],
        [74.7293, 18.98308],
        [74.74084, 18.98295],
        [74.74877, 18.98393],
        [74.76031, 18.98334],
        [74.76151, 18.98703],
        [74.76247, 18.98865],
        [74.76486, 18.99258],
        [74.76533, 18.99764],
        [74.75788, 18.99781],
        [74.7509, 18.9996],
        [74.75185, 19.00375],
        [74.7453, 19.00302],
        [74.74511, 19.01194],
        [74.74479, 19.01549],
        [74.74573, 19.02126],
        [74.74751, 19.02152],
        [74.75496, 19.02227],
        [74.75785, 19.02275],
        [74.75953, 19.02415],
        [74.76073, 19.02623],
        [74.76072, 19.02853],
        [74.76128, 19.02907],
        [74.75707, 19.03373],
        [74.75462, 19.03722],
        [74.74988, 19.0407],
        [74.74812, 19.04588],
        [74.74706, 19.04955],
        [74.74706, 19.05273],
        [74.74775, 19.05491],
        [74.75247, 19.05914],
        [74.75333, 19.0625],
        [74.75735, 19.06571],
        [74.7584, 19.06823],
        [74.7587, 19.0686],
        [74.76379, 19.06378],
        [74.76436, 19.06612],
        [74.76611, 19.06798],
        [74.78098, 19.07011],
        [74.79092, 19.07108],
        [74.79687, 19.0713],
        [74.79929, 19.07145],
        [74.79904, 19.06801],
        [74.79435, 19.06423],
        [74.79004, 19.06756],
        [74.78731, 19.06716],
        [74.78653, 19.06603],
        [74.78614, 19.06266],
        [74.78615, 19.0578],
        [74.78538, 19.05442],
        [74.78146, 19.05402],
        [74.77951, 19.05325],
        [74.77834, 19.05025],
        [74.77835, 19.04613],
        [74.77954, 19.04053],
        [74.77954, 19.03678],
        [74.77759, 19.03602],
        [74.77602, 19.03563],
        [74.77659, 19.02866],
        [74.78861, 19.03037],
        [74.80082, 19.04102],
        [74.81114, 19.05065],
        [74.81306, 19.05992],
        [74.81477, 19.06486],
        [74.81584, 19.06734],
        [74.82612, 19.08406],
        [74.82933, 19.08882],
        [74.83148, 19.09027],
        [74.83363, 19.09111],
        [74.83427, 19.09173],
        [74.83427, 19.09358],
        [74.83426, 19.09646],
        [74.83405, 19.0981],
        [74.83297, 19.09994],
        [74.83126, 19.10123],
        [74.82997, 19.10616],
        [74.82824, 19.10799],
        [74.82932, 19.11047],
        [74.8278, 19.11548],
        [74.82605, 19.12053],
        [74.82586, 19.12081],
        [74.82564, 19.12328],
        [74.82564, 19.12533],
        [74.82628, 19.12821],
        [74.82799, 19.1309],
        [74.83459, 19.13063],
        [74.83612, 19.13229],
        [74.83573, 19.13448],
        [74.83611, 19.13595],
        [74.83707, 19.13687],
        [74.83841, 19.1378],
        [74.84166, 19.13855],
        [74.84319, 19.13911],
        [74.84548, 19.14023],
        [74.84739, 19.14207],
        [74.84912, 19.14264],
        [74.847, 19.14811],
        [74.8447, 19.14974],
        [74.84355, 19.15138],
        [74.8424, 19.15338],
        [74.84106, 19.15612],
        [74.84048, 19.15776],
        [74.84545, 19.16109],
        [74.84411, 19.1609],
        [74.8422, 19.16143],
        [74.84162, 19.16252],
        [74.84162, 19.16381],
        [74.84181, 19.1649],
        [74.84295, 19.16638],
        [74.84057, 19.17386],
        [74.84156, 19.17501],
        [74.84279, 19.17645],
        [74.84752, 19.17988],
        [74.85146, 19.18349],
        [74.85541, 19.18522],
        [74.85541, 19.18635],
        [74.85599, 19.18938],
        [74.85765, 19.19245],
        [74.86064, 19.19135],
        [74.86446, 19.18691],
        [74.86844, 19.18907],
        [74.87102, 19.19213],
        [74.87457, 19.19229],
        [74.87579, 19.19234],
        [74.87505, 19.1847],
        [74.87849, 19.18404],
        [74.87982, 19.18474],
        [74.88088, 19.17888],
        [74.88548, 19.17803],
        [74.88639, 19.17829],
        [74.88939, 19.17913],
        [74.88973, 19.17931],
        [74.8938, 19.1815],
        [74.89597, 19.18093],
        [74.89671, 19.1789],
        [74.89871, 19.17767],
        [74.90086, 19.17732],
        [74.90228, 19.17708],
        [74.90605, 19.17818],
        [74.90638, 19.17828],
        [74.9079, 19.17686],
        [74.90971, 19.17673],
        [74.91931, 19.179],
        [74.92149, 19.17868],
        [74.92307, 19.17671],
        [74.92249, 19.17433],
        [74.92288, 19.17344],
        [74.92383, 19.1713],
        [74.92898, 19.16975],
        [74.92707, 19.16608],
        [74.9273, 19.16432],
        [74.92752, 19.16257],
        [74.9303, 19.16021],
        [74.93116, 19.15947],
        [74.92739, 19.15504],
        [74.92633, 19.15201],
        [74.92724, 19.15115],
        [74.92908, 19.15111],
        [74.93456, 19.151],
        [74.93636, 19.14655],
        [74.93653, 19.13928],
        [74.94483, 19.1374],
        [74.94574, 19.13555],
        [74.94598, 19.13077],
        [74.94591, 19.13087],
        [74.94428, 19.13307]
      ]
    ]
  }
}
