{
  "type": "Feature",
  "id": "MH-AC-24",
  "properties": {
    "stateName": "MAHARASHTRA",
    "stateCode": "MH",
    "districtName": "BULDANA",
    "acNo": 24,
    "acName": "SINDHKHED RAJA",
    "seatType": null,
    "pcNo": null,
    "pcName": null,
    "quality": "unverified",
    "sources": [
      "TBD"
    ]
  },
  "geometry": {
    "type": "Polygon",
    "coordinates": [
      [
        [76.24966, 20.28428],
        [76.24975, 20.28445],
        [76.25506, 20.28272],
        [76.25627, 20.28145],
        [76.26091, 20.28255],
        [76.27248, 20.28704],
        [76.27393, 20.28758],
        [76.27634, 20.28846],
        [76.27978, 20.28758],
        [76.28171, 20.28806],
        [76.28391, 20.28785],
        [76.2879, 20.28444],
        [76.29747, 20.282],
        [76.30038, 20.28226],
        [76.30165, 20.28043],
        [76.30051, 20.27765],
        [76.29755, 20.27025],
        [76.30193, 20.2703],
        [76.30285, 20.26363],
        [76.306, 20.25285],
        [76.29911, 20.24886],
        [76.29116, 20.24533],
        [76.28542, 20.24581],
        [76.28496, 20.24043],
        [76.28607, 20.2381],
        [76.28623, 20.2386],
        [76.29307, 20.23821],
        [76.29905, 20.23343],
        [76.29939, 20.23299],
        [76.30371, 20.23232],
        [76.31112, 20.22893],
        [76.31895, 20.22723],
        [76.31922, 20.22717],
        [76.32417, 20.22468],
        [76.3302, 20.22681],
        [76.33874, 20.22665],
        [76.34402, 20.22546],
        [76.34455, 20.22884],
        [76.34422, 20.2321],
        [76.34759, 20.23769],
        [76.35024, 20.24209],
        [76.35163, 20.24314],
        [76.35473, 20.24344],
        [76.36822, 20.24476],
        [76.36805, 20.25045],
        [76.37159, 20.24999],
        [76.38212, 20.24865],
        [76.38615, 20.25867],
        [76.38679, 20.25841],
        [76.39487, 20.25507],
        [76.39764, 20.25392],
        [76.40428, 20.2521],
        [76.40801, 20.25004],
        [76.41353, 20.24698],
        [76.41975, 20.24481],
        [76.42325, 20.24777],
        [76.42625, 20.25211],
        [76.42794, 20.25764],
        [76.43245, 20.26465],
        [76.4365, 20.26036],
        [76.44307, 20.2598],
        [76.44418, 20.25287],
        [76.4437, 20.24718],
        [76.44283, 20.2412],
        [76.44233, 20.23782],
        [76.44096, 20.23423],
        [76.44074, 20.23367],
        [76.44568, 20.2316],
        [76.44536, 20.2281],
        [76.44616, 20.22473],
        [76.45177, 20.2221],
        [76.45238, 20.22181],
        [76.45335, 20.22012],
        [76.45425, 20.22021],
        [76.46028, 20.22085],
        [76.46747, 20.22021],
        [76.46816, 20.22015],
        [76.47294, 20.21972],
        [76.47442, 20.21916],
        [76.47649, 20.21838],
        [76.47526, 20.21344],
        [76.47437, 20.21238],
        [76.46958, 20.20668],
        [76.47281, 20.20544],
        [76.47042, 20.20067],
        [76.46948, 20.20167],
        [76.46404, 20.19736],
        [76.45961, 20.19146],
        [76.44946, 20.19302],
        [76.44772, 20.19328],
        [76.44474, 20.19434],
        [76.44107, 20.19454],
        [76.44035, 20.19458],
        [76.4367, 20.18103],
        [76.43573, 20.17744],
        [76.43548, 20.17216],
        [76.43627, 20.16655],
        [76.43654, 20.16545],
        [76.43927, 20.15433],
        [76.44015, 20.15075],
        [76.44346, 20.14844],
        [76.45076, 20.14754],
        [76.45097, 20.14576],
        [76.45104, 20.14519],
        [76.44908, 20.14046],
        [76.452, 20.13986],
        [76.44582, 20.1203],
        [76.44552, 20.11936],
        [76.44323, 20.11211],
        [76.43794, 20.10052],
        [76.43251, 20.0976],
        [76.43182, 20.09757],
        [76.42763, 20.09741],
        [76.45849, 20.09363],
        [76.45832, 20.08814],
        [76.45807, 20.08385],
        [76.4579, 20.08094],
        [76.45732, 20.07458],
        [76.45645, 20.07295],
        [76.45548, 20.07022],
        [76.45576, 20.06937],
        [76.45727, 20.06876],
        [76.45775, 20.06874],
        [76.46013, 20.06589],
        [76.46182, 20.06334],
        [76.46475, 20.06379],
        [76.46693, 20.06399],
        [76.46882, 20.06089],
        [76.46936, 20.05895],
        [76.47361, 20.05799],
        [76.47367, 20.05607],
        [76.47355, 20.0547],
        [76.47583, 20.05326],
        [76.47566, 20.05135],
        [76.47543, 20.04889],
        [76.47382, 20.04701],
        [76.46937, 20.04575],
        [76.4679, 20.04607],
        [76.46729, 20.0414],
        [76.46695, 20.03756],
        [76.46566, 20.03401],
        [76.46394, 20.03102],
        [76.46249, 20.02829],
        [76.46284, 20.02415],
        [76.46312, 20.02195],
        [76.46099, 20.01702],
        [76.45956, 20.01455],
        [76.45919, 20.01318],
        [76.45715, 20.01303],
        [76.4568, 20.01347],
        [76.4529, 20.01571],
        [76.45071, 20.01853],
        [76.44807, 20.01375],
        [76.44616, 20.01124],
        [76.4425, 20.00975],
        [76.43993, 20.00938],
        [76.43912, 20.00799],
        [76.43634, 20.00599],
        [76.43542, 20.00536],
        [76.43523, 20.00469],
        [76.43396, 20.00134],
        [76.43179, 19.99883],
        [76.43022, 19.99492],
        [76.42905, 19.99016],
        [76.42837, 19.98871],
        [76.42824, 19.98844],
        [76.42694, 19.98568],
        [76.42959, 19.98291],
        [76.43489, 19.98269],
        [76.43879, 19.983],
        [76.43954, 19.9822],
        [76.43915, 19.98162],
        [76.43532, 19.97685],
        [76.43251, 19.97264],
        [76.43145, 19.969],
        [76.43147, 19.96399],
        [76.43278, 19.95985],
        [76.43286, 19.95846],
        [76.4301, 19.95701],
        [76.42836, 19.9539],
        [76.42547, 19.9463],
        [76.42356, 19.94228],
        [76.42306, 19.94121],
        [76.4197, 19.93384],
        [76.42083, 19.93025],
        [76.42131, 19.92498],
        [76.42059, 19.92001],
        [76.42041, 19.92008],
        [76.42011, 19.92013],
        [76.4198, 19.92018],
        [76.4195, 19.92022],
        [76.41919, 19.92026],
        [76.41889, 19.9203],
        [76.41858, 19.92034],
        [76.41828, 19.92037],
        [76.41797, 19.9204],
        [76.41744, 19.92052],
        [76.41712, 19.92056],
        [76.41684, 19.92046],
        [76.41658, 19.92031],
        [76.4163, 19.92022],
        [76.416, 19.92018],
        [76.4157, 19.92019],
        [76.41535, 19.92024],
        [76.41501, 19.92026],
        [76.41466, 19.92026],
        [76.41431, 19.92023],
        [76.41389, 19.9202],
        [76.41366, 19.92023],
        [76.41343, 19.92031],
        [76.41322, 19.92044],
        [76.41295, 19.92057],
        [76.41258, 19.92065],
        [76.4122, 19.92067],
        [76.41182, 19.92062],
        [76.41146, 19.92051],
        [76.41118, 19.9205],
        [76.4109, 19.92053],
        [76.41062, 19.92059],
        [76.41035, 19.92068],
        [76.41014, 19.9208],
        [76.40995, 19.92088],
        [76.40973, 19.92089],
        [76.40953, 19.92085],
        [76.40935, 19.92073],
        [76.40914, 19.92056],
        [76.40863, 19.92069],
        [76.40839, 19.9208],
        [76.40812, 19.92085],
        [76.40785, 19.92082],
        [76.4076, 19.92072],
        [76.40741, 19.92059],
        [76.40723, 19.92051],
        [76.40666, 19.92049],
        [76.40628, 19.92056],
        [76.4059, 19.92056],
        [76.40552, 19.92051],
        [76.40516, 19.92039],
        [76.40472, 19.92015],
        [76.40449, 19.91995],
        [76.40428, 19.91973],
        [76.4041, 19.91948],
        [76.40396, 19.91921],
        [76.40385, 19.91892],
        [76.40377, 19.91862],
        [76.40373, 19.91832],
        [76.40373, 19.91801],
        [76.40376, 19.91772],
        [76.40377, 19.91743],
        [76.40376, 19.91715],
        [76.40373, 19.91686],
        [76.40368, 19.91657],
        [76.40362, 19.91629],
        [76.40354, 19.91601],
        [76.40344, 19.91573],
        [76.40333, 19.91546],
        [76.40323, 19.91521],
        [76.40312, 19.91497],
        [76.40299, 19.91473],
        [76.40285, 19.91449],
        [76.4027, 19.91427],
        [76.40254, 19.91405],
        [76.40237, 19.91384],
        [76.40218, 19.91364],
        [76.40199, 19.91345],
        [76.40184, 19.9133],
        [76.40171, 19.91314],
        [76.40162, 19.91295],
        [76.40155, 19.91275],
        [76.40152, 19.91254],
        [76.40153, 19.91233],
        [76.40157, 19.91212],
        [76.40164, 19.91192],
        [76.40175, 19.91174],
        [76.40197, 19.9115],
        [76.40213, 19.91123],
        [76.40223, 19.91092],
        [76.40227, 19.9106],
        [76.40223, 19.91034],
        [76.40215, 19.91016],
        [76.40203, 19.90999],
        [76.40189, 19.90985],
        [76.40172, 19.90974],
        [76.40148, 19.90971],
        [76.40125, 19.90966],
        [76.40103, 19.90957],
        [76.40082, 19.90946],
        [76.40059, 19.90926],
        [76.40033, 19.909],
        [76.40015, 19.90878],
        [76.39998, 19.90864],
        [76.3998, 19.90853],
        [76.39961, 19.90844],
        [76.3994, 19.90838],
        [76.39911, 19.90836],
        [76.39876, 19.90833],
        [76.3984, 19.90826],
        [76.39806, 19.90815],
        [76.39766, 19.90792],
        [76.39742, 19.90776],
        [76.39717, 19.9076],
        [76.39693, 19.90744],
        [76.39669, 19.90728],
        [76.39645, 19.90712],
        [76.39621, 19.90696],
        [76.39597, 19.9068],
        [76.39573, 19.90664],
        [76.39531, 19.90639],
        [76.39487, 19.90615],
        [76.39444, 19.90592],
        [76.39399, 19.9057],
        [76.39354, 19.90549],
        [76.39309, 19.9053],
        [76.39263, 19.90511],
        [76.39217, 19.90493],
        [76.3917, 19.90477],
        [76.39138, 19.90465],
        [76.39103, 19.90464],
        [76.3907, 19.90474],
        [76.39041, 19.90493],
        [76.39023, 19.90515],
        [76.39012, 19.90535],
        [76.39002, 19.90556],
        [76.38994, 19.90578],
        [76.38988, 19.906],
        [76.38986, 19.90624],
        [76.38979, 19.90647],
        [76.38967, 19.90667],
        [76.3895, 19.90684],
        [76.38927, 19.90704],
        [76.38899, 19.90729],
        [76.38869, 19.9075],
        [76.38837, 19.9077],
        [76.38804, 19.90786],
        [76.38782, 19.90803],
        [76.38761, 19.90821],
        [76.38743, 19.90842],
        [76.38727, 19.90865],
        [76.38713, 19.90888],
        [76.38701, 19.90914],
        [76.38692, 19.9094],
        [76.38686, 19.90967],
        [76.38682, 19.90994],
        [76.38679, 19.91024],
        [76.38675, 19.91054],
        [76.38671, 19.91084],
        [76.38667, 19.91114],
        [76.38663, 19.91144],
        [76.38658, 19.91174],
        [76.38654, 19.91204],
        [76.3865, 19.91234],
        [76.38646, 19.91264],
        [76.38647, 19.91288],
        [76.38647, 19.91312],
        [76.38645, 19.91336],
        [76.38642, 19.91359],
        [76.38638, 19.91382],
        [76.38632, 19.91405],
        [76.38624, 19.91428],
        [76.38615, 19.9145],
        [76.38605, 19.91471],
        [76.38598, 19.91505],
        [76.38587, 19.91539],
        [76.38573, 19.91571],
        [76.38555, 19.91601],
        [76.38534, 19.91629],
        [76.38511, 19.91655],
        [76.38485, 19.91678],
        [76.38456, 19.91698],
        [76.38426, 19.91716],
        [76.38392, 19.91737],
        [76.38356, 19.91757],
        [76.38321, 19.91777],
        [76.38285, 19.91795],
        [76.38248, 19.91813],
        [76.38211, 19.91829],
        [76.38174, 19.91845],
        [76.38136, 19.9186],
        [76.38098, 19.91873],
        [76.38077, 19.91881],
        [76.38057, 19.9189],
        [76.38038, 19.91901],
        [76.3802, 19.91913],
        [76.38002, 19.91927],
        [76.37986, 19.91942],
        [76.37971, 19.91958],
        [76.37957, 19.91975],
        [76.37944, 19.91993],
        [76.37932, 19.92014],
        [76.37919, 19.92035],
        [76.37906, 19.92056],
        [76.37893, 19.92077],
        [76.3788, 19.92097],
        [76.37867, 19.92118],
        [76.37853, 19.92138],
        [76.37839, 19.92158],
        [76.37824, 19.92178],
        [76.37798, 19.92197],
        [76.37772, 19.92216],
        [76.37745, 19.92234],
        [76.37718, 19.92252],
        [76.37691, 19.92269],
        [76.37664, 19.92286],
        [76.37636, 19.92303],
        [76.37609, 19.92319],
        [76.37581, 19.92336],
        [76.37555, 19.92355],
        [76.37529, 19.92372],
        [76.37502, 19.92389],
        [76.37474, 19.92404],
        [76.37445, 19.92418],
        [76.37416, 19.9243],
        [76.37386, 19.92441],
        [76.37356, 19.92451],
        [76.37325, 19.92459],
        [76.37299, 19.92469],
        [76.37273, 19.92479],
        [76.37246, 19.92488],
        [76.3722, 19.92497],
        [76.37193, 19.92506],
        [76.37166, 19.92514],
        [76.37139, 19.92521],
        [76.37112, 19.92529],
        [76.37085, 19.92535],
        [76.37059, 19.92543],
        [76.37034, 19.92554],
        [76.3701, 19.92567],
        [76.36988, 19.92582],
        [76.36967, 19.926],
        [76.36948, 19.92619],
        [76.36931, 19.92641],
        [76.36917, 19.92663],
        [76.36904, 19.92687],
        [76.36896, 19.92722],
        [76.36893, 19.92757],
        [76.36895, 19.92792],
        [76.36902, 19.92827],
        [76.36909, 19.92869],
        [76.36883, 19.92887],
        [76.36855, 19.92881],
        [76.36832, 19.92881],
        [76.36809, 19.92883],
        [76.36786, 19.92886],
        [76.36759, 19.92889],
        [76.36729, 19.92876],
        [76.36712, 19.92867],
        [76.36676, 19.92863],
        [76.36652, 19.92865],
        [76.36629, 19.92871],
        [76.36595, 19.92886],
        [76.36566, 19.92871],
        [76.36556, 19.92835],
        [76.36551, 19.92814],
        [76.36546, 19.92794],
        [76.3654, 19.92774],
        [76.36535, 19.92753],
        [76.36529, 19.92733],
        [76.36523, 19.92713],
        [76.36517, 19.92693],
        [76.36511, 19.92673],
        [76.36498, 19.9265],
        [76.3649, 19.92626],
        [76.36487, 19.92601],
        [76.36488, 19.92575],
        [76.36492, 19.92553],
        [76.36498, 19.92534],
        [76.36504, 19.92515],
        [76.36509, 19.92497],
        [76.36515, 19.92478],
        [76.36517, 19.92458],
        [76.36517, 19.92438],
        [76.36515, 19.92418],
        [76.36512, 19.92399],
        [76.36507, 19.9238],
        [76.365, 19.92361],
        [76.36491, 19.92343],
        [76.36482, 19.92326],
        [76.3647, 19.92309],
        [76.36459, 19.92275],
        [76.3644, 19.92244],
        [76.36413, 19.92219],
        [76.36382, 19.92201],
        [76.36353, 19.92186],
        [76.36329, 19.92169],
        [76.36306, 19.92152],
        [76.36283, 19.92134],
        [76.3626, 19.92115],
        [76.36245, 19.92093],
        [76.3623, 19.92071],
        [76.36214, 19.92049],
        [76.36198, 19.92028],
        [76.36168, 19.91981],
        [76.36137, 19.91935],
        [76.36106, 19.91889],
        [76.36073, 19.91844],
        [76.36039, 19.91799],
        [76.36005, 19.91755],
        [76.3597, 19.91712],
        [76.35934, 19.91669],
        [76.35898, 19.91627],
        [76.35881, 19.91606],
        [76.35865, 19.91584],
        [76.3585, 19.91562],
        [76.35836, 19.91539],
        [76.35823, 19.91516],
        [76.35811, 19.91492],
        [76.35801, 19.91467],
        [76.35791, 19.91443],
        [76.35782, 19.91417],
        [76.35765, 19.91373],
        [76.35747, 19.91328],
        [76.35727, 19.91285],
        [76.35706, 19.91242],
        [76.35683, 19.91199],
        [76.3566, 19.91157],
        [76.35635, 19.91116],
        [76.35609, 19.91076],
        [76.35582, 19.91036],
        [76.35568, 19.91012],
        [76.35557, 19.90985],
        [76.35549, 19.90957],
        [76.35545, 19.90929],
        [76.35543, 19.90887],
        [76.35541, 19.90859],
        [76.35541, 19.90832],
        [76.3554, 19.90804],
        [76.35539, 19.90776],
        [76.35539, 19.90749],
        [76.35539, 19.90721],
        [76.35539, 19.90693],
        [76.35539, 19.90665],
        [76.35542, 19.9064],
        [76.35543, 19.90615],
        [76.35543, 19.90589],
        [76.35542, 19.90564],
        [76.35539, 19.90538],
        [76.35535, 19.90513],
        [76.3553, 19.90488],
        [76.35524, 19.90463],
        [76.35517, 19.90439],
        [76.35505, 19.90388],
        [76.35493, 19.90338],
        [76.35481, 19.90287],
        [76.35469, 19.90236],
        [76.35457, 19.90185],
        [76.35446, 19.90134],
        [76.35434, 19.90084],
        [76.35423, 19.90033],
        [76.35411, 19.89982],
        [76.35401, 19.89953],
        [76.35395, 19.89923],
        [76.35391, 19.89892],
        [76.35391, 19.89861],
        [76.35396, 19.89827],
        [76.35401, 19.89809],
        [76.35407, 19.8979],
        [76.35413, 19.89772],
        [76.35419, 19.89754],
        [76.35426, 19.89736],
        [76.35433, 19.89718],
        [76.35441, 19.897],
        [76.35449, 19.89683],
        [76.35452, 19.89661],
        [76.35418, 19.89654],
        [76.35384, 19.89657],
        [76.3535, 19.89659],
        [76.35329, 19.89663],
        [76.35307, 19.89664],
        [76.35285, 19.89662],
        [76.35263, 19.89657],
        [76.35235, 19.89648],
        [76.35201, 19.89634],
        [76.35167, 19.89617],
        [76.35135, 19.89597],
        [76.35105, 19.89575],
        [76.35081, 19.89568],
        [76.35058, 19.89556],
        [76.35038, 19.89541],
        [76.3502, 19.89523],
        [76.34984, 19.8948],
        [76.34955, 19.89448],
        [76.34925, 19.89417],
        [76.34895, 19.89387],
        [76.34863, 19.89357],
        [76.34831, 19.89328],
        [76.34798, 19.893],
        [76.34765, 19.89272],
        [76.34731, 19.89246],
        [76.34713, 19.89226],
        [76.34688, 19.89217],
        [76.34646, 19.89217],
        [76.3461, 19.89218],
        [76.34575, 19.89222],
        [76.3454, 19.89227],
        [76.34518, 19.8923],
        [76.345, 19.89238],
        [76.34492, 19.89256],
        [76.34484, 19.89286],
        [76.34478, 19.89316],
        [76.34471, 19.89345],
        [76.34466, 19.89375],
        [76.34457, 19.89405],
        [76.34438, 19.89413],
        [76.3427, 19.89399],
        [76.34256, 19.89381],
        [76.34258, 19.89374],
        [76.34261, 19.8936],
        [76.34261, 19.8934],
        [76.34259, 19.89321],
        [76.34256, 19.89301],
        [76.3425, 19.89282],
        [76.34247, 19.89256],
        [76.34242, 19.8923],
        [76.34237, 19.89204],
        [76.34231, 19.89179],
        [76.34224, 19.89153],
        [76.34216, 19.89128],
        [76.34207, 19.89103],
        [76.34198, 19.89078],
        [76.34188, 19.89054],
        [76.34184, 19.89031],
        [76.34179, 19.8901],
        [76.34172, 19.88988],
        [76.34164, 19.88967],
        [76.34153, 19.88947],
        [76.34142, 19.88928],
        [76.34129, 19.88909],
        [76.34115, 19.88892],
        [76.34099, 19.88875],
        [76.34069, 19.88841],
        [76.34039, 19.88808],
        [76.34008, 19.88774],
        [76.33977, 19.88741],
        [76.33946, 19.88708],
        [76.33914, 19.88675],
        [76.33882, 19.88642],
        [76.3385, 19.8861],
        [76.33818, 19.88578],
        [76.33801, 19.88562],
        [76.33787, 19.88543],
        [76.33777, 19.88522],
        [76.33771, 19.885],
        [76.3377, 19.88476],
        [76.33769, 19.88453],
        [76.33765, 19.88431],
        [76.33758, 19.88409],
        [76.3375, 19.88389],
        [76.33724, 19.8838],
        [76.33695, 19.88381],
        [76.33666, 19.88383],
        [76.33636, 19.88385],
        [76.33607, 19.88387],
        [76.33578, 19.88391],
        [76.33549, 19.88394],
        [76.3352, 19.88398],
        [76.33491, 19.88402],
        [76.33462, 19.88407],
        [76.33421, 19.88413],
        [76.3338, 19.88418],
        [76.3334, 19.88423],
        [76.33299, 19.88428],
        [76.33258, 19.88432],
        [76.33217, 19.88435],
        [76.33177, 19.88438],
        [76.33136, 19.88441],
        [76.33095, 19.88443],
        [76.33064, 19.88448],
        [76.33034, 19.88452],
        [76.33004, 19.88457],
        [76.32973, 19.88461],
        [76.32943, 19.88465],
        [76.32913, 19.88469],
        [76.32882, 19.88474],
        [76.32852, 19.88478],
        [76.32821, 19.88481],
        [76.32784, 19.8849],
        [76.32746, 19.88492],
        [76.32708, 19.88487],
        [76.32671, 19.88476],
        [76.32633, 19.88462],
        [76.32614, 19.88454],
        [76.32594, 19.88446],
        [76.32575, 19.88438],
        [76.32556, 19.88428],
        [76.32537, 19.88419],
        [76.32518, 19.88409],
        [76.325, 19.88398],
        [76.32482, 19.88387],
        [76.32468, 19.88373],
        [76.32453, 19.8836],
        [76.32439, 19.88346],
        [76.32425, 19.88333],
        [76.3241, 19.88319],
        [76.32396, 19.88306],
        [76.32381, 19.88292],
        [76.32367, 19.88279],
        [76.32353, 19.88266],
        [76.32331, 19.88256],
        [76.32308, 19.88247],
        [76.32286, 19.88239],
        [76.32264, 19.8823],
        [76.32241, 19.88222],
        [76.32219, 19.88213],
        [76.32196, 19.88206],
        [76.32174, 19.88198],
        [76.32151, 19.8819],
        [76.32131, 19.88184],
        [76.32111, 19.88177],
        [76.32092, 19.88169],
        [76.32073, 19.88159],
        [76.32055, 19.88148],
        [76.32038, 19.88136],
        [76.32021, 19.88123],
        [76.32006, 19.88109],
        [76.31991, 19.88094],
        [76.3196, 19.88068],
        [76.3193, 19.88041],
        [76.319, 19.88014],
        [76.3187, 19.87987],
        [76.31841, 19.87959],
        [76.31812, 19.87931],
        [76.31783, 19.87903],
        [76.31755, 19.87874],
        [76.31727, 19.87845],
        [76.31707, 19.87817],
        [76.31684, 19.87792],
        [76.31657, 19.87771],
        [76.31628, 19.87753],
        [76.31596, 19.87741],
        [76.31562, 19.87733],
        [76.31527, 19.87731],
        [76.31492, 19.87734],
        [76.31458, 19.87742],
        [76.31415, 19.87747],
        [76.31372, 19.8775],
        [76.31329, 19.87751],
        [76.31285, 19.87749],
        [76.31242, 19.87745],
        [76.31199, 19.87738],
        [76.31157, 19.87728],
        [76.31115, 19.87716],
        [76.31075, 19.87702],
        [76.31052, 19.87696],
        [76.31017, 19.87694],
        [76.30994, 19.87697],
        [76.30971, 19.87704],
        [76.30952, 19.87713],
        [76.30933, 19.87723],
        [76.30914, 19.87734],
        [76.30896, 19.87746],
        [76.30878, 19.87759],
        [76.30862, 19.87773],
        [76.30834, 19.87798],
        [76.30812, 19.87822],
        [76.30794, 19.87848],
        [76.30781, 19.87877],
        [76.30772, 19.87908],
        [76.30755, 19.87934],
        [76.30739, 19.87961],
        [76.30725, 19.87989],
        [76.30713, 19.88018],
        [76.30704, 19.8805],
        [76.30714, 19.88083],
        [76.30732, 19.88098],
        [76.30728, 19.88116],
        [76.30704, 19.88121],
        [76.30676, 19.8813],
        [76.30649, 19.88144],
        [76.30617, 19.8813],
        [76.3061, 19.88096],
        [76.30617, 19.88073],
        [76.30616, 19.8805],
        [76.30607, 19.88029],
        [76.30592, 19.88011],
        [76.30572, 19.88002],
        [76.30552, 19.87992],
        [76.30537, 19.87973],
        [76.30532, 19.87939],
        [76.30536, 19.87912],
        [76.30533, 19.87893],
        [76.30524, 19.87876],
        [76.30511, 19.87861],
        [76.30494, 19.8785],
        [76.30468, 19.87836],
        [76.30441, 19.87824],
        [76.30413, 19.87814],
        [76.30384, 19.87807],
        [76.30338, 19.87791],
        [76.30308, 19.87779],
        [76.30277, 19.87767],
        [76.30246, 19.87754],
        [76.30216, 19.87742],
        [76.30185, 19.87729],
        [76.30155, 19.87716],
        [76.30124, 19.87703],
        [76.30094, 19.8769],
        [76.30068, 19.87682],
        [76.30043, 19.87672],
        [76.30019, 19.87661],
        [76.29995, 19.87648],
        [76.29972, 19.87635],
        [76.29949, 19.8762],
        [76.29928, 19.87603],
        [76.29907, 19.87586],
        [76.29888, 19.87567],
        [76.29865, 19.87545],
        [76.29848, 19.87518],
        [76.29843, 19.87492],
        [76.2984, 19.87473],
        [76.29837, 19.87454],
        [76.29833, 19.87435],
        [76.29828, 19.87416],
        [76.29823, 19.87398],
        [76.29818, 19.87379],
        [76.29811, 19.87361],
        [76.29805, 19.87343],
        [76.29782, 19.87298],
        [76.2976, 19.87254],
        [76.29738, 19.87209],
        [76.29716, 19.87164],
        [76.29695, 19.87119],
        [76.29674, 19.87074],
        [76.29653, 19.87029],
        [76.29632, 19.86984],
        [76.29612, 19.86939],
        [76.29602, 19.86923],
        [76.29567, 19.86933],
        [76.29546, 19.86949],
        [76.29524, 19.86965],
        [76.29503, 19.86982],
        [76.29482, 19.86999],
        [76.29453, 19.87026],
        [76.29422, 19.87052],
        [76.2939, 19.87076],
        [76.29357, 19.87099],
        [76.29323, 19.8712],
        [76.29289, 19.8714],
        [76.29253, 19.87159],
        [76.29217, 19.87176],
        [76.2918, 19.87191],
        [76.29128, 19.87212],
        [76.29075, 19.87229],
        [76.29021, 19.87243],
        [76.28966, 19.87253],
        [76.28911, 19.8726],
        [76.28855, 19.87263],
        [76.28799, 19.87263],
        [76.28744, 19.87259],
        [76.28689, 19.87252],
        [76.28665, 19.87251],
        [76.28642, 19.87251],
        [76.28618, 19.87251],
        [76.28595, 19.8725],
        [76.28571, 19.8725],
        [76.28548, 19.8725],
        [76.28524, 19.87251],
        [76.28501, 19.87251],
        [76.28478, 19.87252],
        [76.28455, 19.87259],
        [76.28432, 19.87266],
        [76.28409, 19.87272],
        [76.28385, 19.87278],
        [76.28362, 19.87283],
        [76.28338, 19.87288],
        [76.28315, 19.87293],
        [76.28291, 19.87297],
        [76.28268, 19.87301],
        [76.28183, 19.87321],
        [76.28099, 19.87341],
        [76.28015, 19.87362],
        [76.27931, 19.87384],
        [76.27847, 19.87405],
        [76.27764, 19.87427],
        [76.2768, 19.8745],
        [76.27596, 19.87472],
        [76.27513, 19.87496],
        [76.2749, 19.87504],
        [76.27467, 19.87512],
        [76.27444, 19.87519],
        [76.2742, 19.87525],
        [76.27396, 19.8753],
        [76.27372, 19.87535],
        [76.27348, 19.87538],
        [76.27323, 19.8754],
        [76.27299, 19.87542],
        [76.2722, 19.8754],
        [76.27141, 19.8754],
        [76.27062, 19.8754],
        [76.26982, 19.8754],
        [76.26903, 19.87542],
        [76.26824, 19.87543],
        [76.26745, 19.87546],
        [76.26666, 19.87549],
        [76.26575, 19.87556],
        [76.26552, 19.87545],
        [76.26545, 19.87517],
        [76.26532, 19.87503],
        [76.26504, 19.87497],
        [76.26486, 19.87505],
        [76.26463, 19.87517],
        [76.26428, 19.87524],
        [76.26392, 19.87529],
        [76.26357, 19.87532],
        [76.26321, 19.87531],
        [76.26266, 19.87535],
        [76.26211, 19.87539],
        [76.26156, 19.87542],
        [76.26101, 19.87545],
        [76.26045, 19.87548],
        [76.2599, 19.8755],
        [76.25935, 19.87553],
        [76.2588, 19.87555],
        [76.25825, 19.87557],
        [76.2578, 19.87554],
        [76.25735, 19.87553],
        [76.25689, 19.87552],
        [76.25644, 19.87552],
        [76.25599, 19.87552],
        [76.25554, 19.87554],
        [76.25509, 19.87555],
        [76.25464, 19.87558],
        [76.25409, 19.87563],
        [76.25394, 19.87552],
        [76.25395, 19.87526],
        [76.25395, 19.87504],
        [76.25391, 19.87482],
        [76.25383, 19.87462],
        [76.25371, 19.87443],
        [76.25362, 19.87426],
        [76.25351, 19.8741],
        [76.2534, 19.87396],
        [76.25327, 19.87381],
        [76.25313, 19.87368],
        [76.25298, 19.87356],
        [76.25266, 19.87336],
        [76.25233, 19.87323],
        [76.25202, 19.87314],
        [76.2517, 19.87305],
        [76.25138, 19.87297],
        [76.25105, 19.8729],
        [76.25072, 19.87284],
        [76.25039, 19.87277],
        [76.25007, 19.87269],
        [76.24974, 19.8726],
        [76.24899, 19.8723],
        [76.24813, 19.87145],
        [76.24558, 19.87197],
        [76.24345, 19.87241],
        [76.24326, 19.87247],
        [76.24308, 19.87253],
        [76.24289, 19.87259],
        [76.24269, 19.87265],
        [76.24117, 19.87401],
        [76.241, 19.87412],
        [76.2408, 19.87416],
        [76.24061, 19.87413],
        [76.24043, 19.87404],
        [76.23794, 19.87196],
        [76.23457, 19.86953],
        [76.23175, 19.86735],
        [76.22911, 19.86531],
        [76.22884, 19.8652],
        [76.22848, 19.86526],
        [76.22634, 19.86626],
        [76.22611, 19.86636],
        [76.22587, 19.86645],
        [76.22563, 19.86652],
        [76.22538, 19.86657],
        [76.22137, 19.86695],
        [76.21664, 19.86744],
        [76.21289, 19.86785],
        [76.21268, 19.8678],
        [76.21018, 19.86589],
        [76.2073, 19.8636],
        [76.20693, 19.86351],
        [76.20334, 19.86479],
        [76.20307, 19.86485],
        [76.20281, 19.86487],
        [76.19991, 19.86491],
        [76.19713, 19.86494],
        [76.1969, 19.86478],
        [76.19614, 19.86316],
        [76.19461, 19.85954],
        [76.19452, 19.85925],
        [76.19439, 19.85898],
        [76.19423, 19.85872],
        [76.19404, 19.85849],
        [76.19206, 19.85705],
        [76.18953, 19.85566],
        [76.18653, 19.85432],
        [76.1848, 19.85318],
        [76.18463, 19.85308],
        [76.18447, 19.85296],
        [76.18432, 19.85283],
        [76.18418, 19.8527],
        [76.18405, 19.85255],
        [76.18393, 19.85239],
        [76.18382, 19.85223],
        [76.18372, 19.85206],
        [76.18364, 19.85188],
        [76.18372, 19.85083],
        [76.18375, 19.85059],
        [76.18349, 19.85045],
        [76.17915, 19.85094],
        [76.17732, 19.85101],
        [76.1755, 19.85116],
        [76.17536, 19.85117],
        [76.17269, 19.85176],
        [76.16706, 19.85303],
        [76.16376, 19.85385],
        [76.16339, 19.85341],
        [76.16305, 19.85323],
        [76.15561, 19.85525],
        [76.15178, 19.85624],
        [76.15152, 19.8563],
        [76.15126, 19.85633],
        [76.151, 19.85636],
        [76.15074, 19.85636],
        [76.1487, 19.85633],
        [76.14848, 19.85623],
        [76.14838, 19.85601],
        [76.14805, 19.85416],
        [76.148, 19.85321],
        [76.14812, 19.8529],
        [76.14818, 19.85257],
        [76.14816, 19.85223],
        [76.14807, 19.85191],
        [76.14794, 19.85161],
        [76.14793, 19.8513],
        [76.14807, 19.85097],
        [76.14814, 19.85074],
        [76.14821, 19.8505],
        [76.14828, 19.85027],
        [76.14834, 19.85003],
        [76.14805, 19.84802],
        [76.14782, 19.84422],
        [76.14776, 19.84401],
        [76.14761, 19.84385],
        [76.1473, 19.84378],
        [76.14709, 19.84386],
        [76.14687, 19.844],
        [76.14662, 19.84411],
        [76.14637, 19.8442],
        [76.14611, 19.84426],
        [76.14587, 19.84427],
        [76.14565, 19.8443],
        [76.14545, 19.84437],
        [76.14526, 19.84449],
        [76.1451, 19.84464],
        [76.14486, 19.84475],
        [76.14461, 19.84484],
        [76.14435, 19.84488],
        [76.14408, 19.84488],
        [76.14281, 19.84414],
        [76.14259, 19.844],
        [76.14234, 19.84391],
        [76.14194, 19.84388],
        [76.14168, 19.84394],
        [76.1374, 19.84512],
        [76.13721, 19.84529],
        [76.13705, 19.84549],
        [76.13694, 19.84573],
        [76.13689, 19.84598],
        [76.13651, 19.84739],
        [76.135, 19.85249],
        [76.13367, 19.85581],
        [76.13249, 19.85806],
        [76.13055, 19.86096],
        [76.12896, 19.86424],
        [76.12879, 19.86441],
        [76.12855, 19.86448],
        [76.12634, 19.86462],
        [76.12499, 19.86484],
        [76.12464, 19.86493],
        [76.12428, 19.86499],
        [76.12392, 19.86503],
        [76.12355, 19.86503],
        [76.12117, 19.86464],
        [76.12093, 19.86453],
        [76.12073, 19.86436],
        [76.11963, 19.86265],
        [76.11869, 19.86008],
        [76.11855, 19.85991],
        [76.11831, 19.85981],
        [76.11683, 19.86025],
        [76.11372, 19.86111],
        [76.11339, 19.86103],
        [76.11299, 19.86085],
        [76.11275, 19.86077],
        [76.1125, 19.8607],
        [76.11224, 19.86064],
        [76.11199, 19.8606],
        [76.11173, 19.86058],
        [76.11147, 19.86056],
        [76.11122, 19.86056],
        [76.11096, 19.86058],
        [76.11074, 19.86059],
        [76.11052, 19.8606],
        [76.11031, 19.86059],
        [76.11009, 19.86058],
        [76.10988, 19.86056],
        [76.10966, 19.86053],
        [76.10945, 19.8605],
        [76.10924, 19.86045],
        [76.10903, 19.8604],
        [76.10873, 19.86035],
        [76.10843, 19.86032],
        [76.10813, 19.86029],
        [76.10783, 19.86028],
        [76.10751, 19.86031],
        [76.10717, 19.86034],
        [76.10682, 19.86034],
        [76.10648, 19.86031],
        [76.10614, 19.86025],
        [76.10535, 19.85983],
        [76.10503, 19.85967],
        [76.10471, 19.85954],
        [76.10437, 19.85944],
        [76.10402, 19.85937],
        [76.10367, 19.85935],
        [76.10332, 19.8593],
        [76.10299, 19.85922],
        [76.10266, 19.85908],
        [76.10236, 19.85891],
        [76.09948, 19.85755],
        [76.09778, 19.85729],
        [76.09757, 19.85741],
        [76.09757, 19.85761],
        [76.09769, 19.85845],
        [76.0975, 19.86028],
        [76.097, 19.86217],
        [76.09621, 19.86478],
        [76.09533, 19.86698],
        [76.09501, 19.86767],
        [76.09466, 19.86835],
        [76.0943, 19.86902],
        [76.09392, 19.86968],
        [76.09352, 19.87033],
        [76.0931, 19.87097],
        [76.09266, 19.87159],
        [76.09221, 19.8722],
        [76.09173, 19.8728],
        [76.08987, 19.8746],
        [76.08687, 19.87685],
        [76.08452, 19.87859],
        [76.08433, 19.87871],
        [76.08414, 19.87885],
        [76.08397, 19.879],
        [76.0838, 19.87917],
        [76.08365, 19.87934],
        [76.08351, 19.87953],
        [76.08338, 19.87972],
        [76.08327, 19.87992],
        [76.08317, 19.88013],
        [76.08019, 19.8845],
        [76.07887, 19.88637],
        [76.07878, 19.88664],
        [76.07877, 19.88693],
        [76.07883, 19.8895],
        [76.07883, 19.89421],
        [76.07881, 19.90281],
        [76.07884, 19.90887],
        [76.07888, 19.91277],
        [76.07859, 19.91295],
        [76.0751, 19.91322],
        [76.07121, 19.9136],
        [76.07095, 19.91364],
        [76.0707, 19.9137],
        [76.07044, 19.91375],
        [76.07019, 19.91381],
        [76.06994, 19.91387],
        [76.06969, 19.91394],
        [76.06944, 19.91401],
        [76.06919, 19.91408],
        [76.06894, 19.91416],
        [76.06732, 19.91481],
        [76.06436, 19.91609],
        [76.06085, 19.91771],
        [76.05875, 19.91846],
        [76.05854, 19.91871],
        [76.0585, 19.91904],
        [76.05847, 19.92454],
        [76.0582, 19.92637],
        [76.0575, 19.93012],
        [76.05743, 19.9303],
        [76.05728, 19.93042],
        [76.05425, 19.93157],
        [76.05013, 19.93317],
        [76.0499, 19.93328],
        [76.04976, 19.93348],
        [76.04849, 19.93591],
        [76.04748, 19.93776],
        [76.04755, 19.93809],
        [76.04781, 19.93832],
        [76.04995, 19.93978],
        [76.05029, 19.94001],
        [76.05255, 19.94129],
        [76.05259, 19.94152],
        [76.05152, 19.94299],
        [76.0498, 19.94562],
        [76.04836, 19.9479],
        [76.04823, 19.94807],
        [76.04802, 19.94813],
        [76.04673, 19.94835],
        [76.04647, 19.94836],
        [76.04621, 19.94838],
        [76.04595, 19.94841],
        [76.0457, 19.94846],
        [76.04545, 19.94852],
        [76.0452, 19.9486],
        [76.04495, 19.94869],
        [76.04472, 19.9488],
        [76.04449, 19.94892],
        [76.04328, 19.94958],
        [76.04308, 19.94952],
        [76.04213, 19.94779],
        [76.04197, 19.94766],
        [76.04171, 19.9476],
        [76.04043, 19.94785],
        [76.04022, 19.94794],
        [76.04023, 19.94813],
        [76.04085, 19.95121],
        [76.04071, 19.95151],
        [76.04032, 19.95158],
        [76.03965, 19.95157],
        [76.03842, 19.95118],
        [76.03815, 19.9511],
        [76.03788, 19.95103],
        [76.0376, 19.95097],
        [76.03733, 19.95091],
        [76.03587, 19.95085],
        [76.0356, 19.95075],
        [76.03538, 19.95056],
        [76.03494, 19.9499],
        [76.03472, 19.94967],
        [76.03445, 19.94951],
        [76.03247, 19.94936],
        [76.03209, 19.94939],
        [76.03189, 19.94964],
        [76.03182, 19.95034],
        [76.03167, 19.95048],
        [76.03145, 19.95051],
        [76.03114, 19.95045],
        [76.03086, 19.9503],
        [76.0304, 19.94976],
        [76.03024, 19.94963],
        [76.02998, 19.94957],
        [76.02898, 19.94955],
        [76.02866, 19.94904],
        [76.02845, 19.94879],
        [76.02742, 19.94864],
        [76.0271, 19.94867],
        [76.02689, 19.94884],
        [76.02677, 19.94932],
        [76.02663, 19.94956],
        [76.02636, 19.94963],
        [76.02145, 19.95102],
        [76.01928, 19.95158],
        [76.01909, 19.95164],
        [76.01889, 19.9517],
        [76.01869, 19.95176],
        [76.0185, 19.95183],
        [76.0183, 19.95189],
        [76.0181, 19.95196],
        [76.01791, 19.95203],
        [76.01771, 19.9521],
        [76.01752, 19.95217],
        [76.01429, 19.95395],
        [76.01138, 19.95556],
        [76.01124, 19.95586],
        [76.01117, 19.95618],
        [76.01119, 19.95651],
        [76.01128, 19.95683],
        [76.01156, 19.95832],
        [76.0124, 19.96258],
        [76.0134, 19.96819],
        [76.01345, 19.9684],
        [76.01348, 19.96862],
        [76.0135, 19.96884],
        [76.01352, 19.96906],
        [76.01352, 19.96927],
        [76.01352, 19.96949],
        [76.01351, 19.96971],
        [76.01349, 19.96993],
        [76.01346, 19.97015],
        [76.01276, 19.97397],
        [76.0127, 19.97422],
        [76.01247, 19.97434],
        [76.01185, 19.97421],
        [76.00532, 19.97205],
        [76.00509, 19.97198],
        [76.0048, 19.97198],
        [76.00117, 19.97309],
        [76.00091, 19.9732],
        [76.00065, 19.9733],
        [76.00039, 19.97339],
        [76.00013, 19.97348],
        [75.99903, 19.97417],
        [75.99538, 19.97613],
        [75.99509, 19.97625],
        [75.99482, 19.9761],
        [75.99371, 19.97546],
        [75.99271, 19.97484],
        [75.99234, 19.97469],
        [75.99208, 19.97463],
        [75.99182, 19.97456],
        [75.99156, 19.97446],
        [75.99132, 19.97435],
        [75.99106, 19.97428],
        [75.99079, 19.97427],
        [75.99052, 19.97427],
        [75.99025, 19.97427],
        [75.98998, 19.97427],
        [75.98963, 19.97423],
        [75.98952, 19.97444],
        [75.98949, 19.97466],
        [75.98858, 19.98033],
        [75.9883, 19.98051],
        [75.98422, 19.98076],
        [75.9815, 19.9813],
        [75.97264, 19.98308],
        [75.97241, 19.98316],
        [75.97221, 19.98326],
        [75.97201, 19.98339],
        [75.97184, 19.98355],
        [75.96812, 19.9885],
        [75.9669, 19.99064],
        [75.96617, 19.9926],
        [75.96617, 19.99289],
        [75.96616, 19.99318],
        [75.96614, 19.99347],
        [75.96611, 19.99376],
        [75.96608, 19.99404],
        [75.96603, 19.99433],
        [75.96598, 19.99462],
        [75.96592, 19.9949],
        [75.96585, 19.99519],
        [75.96573, 19.99551],
        [75.9656, 19.99583],
        [75.96547, 19.99615],
        [75.96533, 19.99647],
        [75.96518, 19.99678],
        [75.96504, 19.9971],
        [75.96488, 19.99741],
        [75.96473, 19.99772],
        [75.96456, 19.99802],
        [75.96453, 19.99825],
        [75.96449, 19.99847],
        [75.96459, 19.9987],
        [75.96656, 20.00004],
        [75.96696, 20.00071],
        [75.96532, 20.00329],
        [75.96825, 20.0025],
        [75.9686, 20.0024],
        [75.96895, 20.00232],
        [75.9693, 20.00226],
        [75.96965, 20.00222],
        [75.97001, 20.00219],
        [75.97037, 20.00218],
        [75.97073, 20.00218],
        [75.97108, 20.0022],
        [75.97144, 20.00224],
        [75.97176, 20.00215],
        [75.97226, 20.00218],
        [75.97257, 20.00231],
        [75.97283, 20.00253],
        [75.97524, 20.00476],
        [75.97544, 20.00474],
        [75.97563, 20.00467],
        [75.97579, 20.00454],
        [75.9759, 20.00437],
        [75.9761, 20.00378],
        [75.97625, 20.00354],
        [75.97647, 20.00336],
        [75.97673, 20.00325],
        [75.97715, 20.00326],
        [75.97757, 20.00321],
        [75.97795, 20.00321],
        [75.97819, 20.00324],
        [75.97844, 20.0033],
        [75.97868, 20.00338],
        [75.97911, 20.00359],
        [75.97955, 20.00378],
        [75.98, 20.00395],
        [75.98046, 20.00409],
        [75.98093, 20.00422],
        [75.9814, 20.00432],
        [75.98187, 20.0044],
        [75.98235, 20.00445],
        [75.98283, 20.00449],
        [75.9849, 20.00501],
        [75.98524, 20.00507],
        [75.98557, 20.00519],
        [75.98586, 20.00538],
        [75.98612, 20.00562],
        [75.98634, 20.00588],
        [75.98661, 20.00609],
        [75.98692, 20.00623],
        [75.98726, 20.00629],
        [75.98759, 20.00631],
        [75.98789, 20.0064],
        [75.98817, 20.00654],
        [75.98842, 20.00673],
        [75.98862, 20.00698],
        [75.98936, 20.00802],
        [75.98958, 20.00815],
        [75.98983, 20.00819],
        [75.99008, 20.00814],
        [75.99029, 20.00801],
        [75.99048, 20.00793],
        [75.99077, 20.00794],
        [75.99095, 20.00803],
        [75.99109, 20.00817],
        [75.99166, 20.00885],
        [75.99188, 20.00889],
        [75.99235, 20.00898],
        [75.99257, 20.00921],
        [75.99289, 20.00938],
        [75.99325, 20.00945],
        [75.99358, 20.0094],
        [75.99379, 20.00952],
        [75.99395, 20.0098],
        [75.99425, 20.00994],
        [75.99459, 20.00993],
        [75.99489, 20.01007],
        [75.99507, 20.01031],
        [75.99525, 20.01037],
        [75.99544, 20.01041],
        [75.99578, 20.01039],
        [75.9961, 20.01047],
        [75.99639, 20.01065],
        [75.99662, 20.0109],
        [75.99673, 20.01114],
        [75.99685, 20.0113],
        [75.99702, 20.01141],
        [75.99721, 20.01146],
        [75.99742, 20.01144],
        [75.99772, 20.01148],
        [75.99793, 20.01162],
        [75.99936, 20.01305],
        [75.99967, 20.01309],
        [75.9999, 20.01309],
        [76.00013, 20.01305],
        [76.00035, 20.01297],
        [76.00056, 20.01285],
        [76.00086, 20.01275],
        [76.00106, 20.01292],
        [76.00133, 20.01315],
        [76.00161, 20.01336],
        [76.00191, 20.01355],
        [76.00222, 20.01372],
        [76.00248, 20.01383],
        [76.00267, 20.01388],
        [76.00286, 20.01391],
        [76.00306, 20.01391],
        [76.00326, 20.01388],
        [76.0035, 20.0137],
        [76.00375, 20.01352],
        [76.004, 20.01335],
        [76.00426, 20.01318],
        [76.00451, 20.01302],
        [76.00478, 20.01286],
        [76.00504, 20.01271],
        [76.00531, 20.01256],
        [76.00558, 20.01242],
        [76.00578, 20.01239],
        [76.00585, 20.01261],
        [76.00592, 20.01286],
        [76.00602, 20.01305],
        [76.0061, 20.01326],
        [76.00615, 20.01347],
        [76.00618, 20.01369],
        [76.00615, 20.01395],
        [76.00613, 20.01426],
        [76.0062, 20.01456],
        [76.00634, 20.01483],
        [76.00654, 20.01506],
        [76.0067, 20.01518],
        [76.00682, 20.01534],
        [76.00692, 20.01551],
        [76.00699, 20.0157],
        [76.00704, 20.0159],
        [76.00713, 20.01611],
        [76.00726, 20.01631],
        [76.00741, 20.01648],
        [76.00759, 20.01663],
        [76.00779, 20.01675],
        [76.00796, 20.01693],
        [76.00807, 20.01714],
        [76.00814, 20.01737],
        [76.00814, 20.01759],
        [76.00817, 20.01778],
        [76.0083, 20.01796],
        [76.0085, 20.0182],
        [76.00864, 20.01848],
        [76.00868, 20.01873],
        [76.0088, 20.01896],
        [76.009, 20.01911],
        [76.0091, 20.01935],
        [76.0091, 20.01959],
        [76.00914, 20.0198],
        [76.00923, 20.01999],
        [76.00937, 20.02015],
        [76.00954, 20.02027],
        [76.01023, 20.02072],
        [76.01137, 20.0212],
        [76.01294, 20.02171],
        [76.01498, 20.02262],
        [76.01572, 20.02283],
        [76.01847, 20.02322],
        [76.0204, 20.02362],
        [76.02266, 20.02389],
        [76.02313, 20.02427],
        [76.02323, 20.02451],
        [76.02334, 20.02476],
        [76.02346, 20.025],
        [76.02357, 20.02524],
        [76.02364, 20.02552],
        [76.02369, 20.02581],
        [76.02373, 20.02611],
        [76.02376, 20.0264],
        [76.02377, 20.0267],
        [76.02376, 20.02699],
        [76.02374, 20.02729],
        [76.0237, 20.02758],
        [76.02365, 20.02787],
        [76.02365, 20.02848],
        [76.02364, 20.02907],
        [76.02362, 20.02968],
        [76.02359, 20.03028],
        [76.02356, 20.03087],
        [76.02351, 20.03147],
        [76.02345, 20.03207],
        [76.02338, 20.03267],
        [76.0233, 20.03326],
        [76.02325, 20.03382],
        [76.0232, 20.03438],
        [76.02315, 20.03493],
        [76.02308, 20.03549],
        [76.02301, 20.03604],
        [76.02294, 20.0366],
        [76.02286, 20.03715],
        [76.02277, 20.0377],
        [76.02267, 20.03825],
        [76.02261, 20.0389],
        [76.02254, 20.03955],
        [76.02247, 20.0402],
        [76.02238, 20.04084],
        [76.02229, 20.04149],
        [76.0222, 20.04213],
        [76.0221, 20.04277],
        [76.02199, 20.04342],
        [76.02187, 20.04406],
        [76.02177, 20.04465],
        [76.02167, 20.04524],
        [76.02158, 20.04583],
        [76.02149, 20.04643],
        [76.02141, 20.04702],
        [76.02132, 20.04761],
        [76.02125, 20.04821],
        [76.02117, 20.0488],
        [76.0211, 20.0494],
        [76.021, 20.05],
        [76.02088, 20.0506],
        [76.02076, 20.0512],
        [76.02064, 20.05179],
        [76.02051, 20.05239],
        [76.02037, 20.05298],
        [76.02022, 20.05358],
        [76.02007, 20.05417],
        [76.01992, 20.05476],
        [76.01981, 20.05519],
        [76.01971, 20.05562],
        [76.0196, 20.05605],
        [76.0195, 20.05648],
        [76.01939, 20.05691],
        [76.01929, 20.05734],
        [76.01919, 20.05777],
        [76.01909, 20.05821],
        [76.01897, 20.05875],
        [76.01899, 20.05898],
        [76.01909, 20.05919],
        [76.01927, 20.05934],
        [76.01949, 20.05942],
        [76.01987, 20.05937],
        [76.02026, 20.05933],
        [76.02064, 20.0593],
        [76.02103, 20.05927],
        [76.02142, 20.05926],
        [76.02181, 20.05925],
        [76.02219, 20.05926],
        [76.02258, 20.05927],
        [76.02297, 20.05929],
        [76.0235, 20.05936],
        [76.02403, 20.05944],
        [76.02456, 20.05951],
        [76.02508, 20.0596],
        [76.02561, 20.05969],
        [76.02614, 20.05978],
        [76.02666, 20.05988],
        [76.02719, 20.05998],
        [76.02771, 20.06009],
        [76.02814, 20.06015],
        [76.02857, 20.06022],
        [76.02899, 20.06031],
        [76.02941, 20.06041],
        [76.02983, 20.06053],
        [76.03024, 20.06067],
        [76.03065, 20.06082],
        [76.03104, 20.06099],
        [76.03144, 20.06117],
        [76.03174, 20.06129],
        [76.03205, 20.06141],
        [76.03237, 20.06151],
        [76.03269, 20.0616],
        [76.03301, 20.06168],
        [76.03333, 20.06175],
        [76.03365, 20.06181],
        [76.03398, 20.06186],
        [76.03431, 20.06189],
        [76.0346, 20.06194],
        [76.0349, 20.06198],
        [76.0352, 20.06201],
        [76.03551, 20.06203],
        [76.03581, 20.06204],
        [76.03611, 20.06203],
        [76.03641, 20.06202],
        [76.03671, 20.06199],
        [76.03701, 20.06196],
        [76.03744, 20.06194],
        [76.03787, 20.06193],
        [76.0383, 20.06193],
        [76.03872, 20.06194],
        [76.03915, 20.06196],
        [76.03958, 20.06199],
        [76.04, 20.06203],
        [76.04043, 20.06208],
        [76.04085, 20.06213],
        [76.04183, 20.06241],
        [76.04281, 20.06276],
        [76.04353, 20.06292],
        [76.0442, 20.06297],
        [76.04731, 20.06284],
        [76.05055, 20.0626],
        [76.05383, 20.06255],
        [76.05427, 20.06337],
        [76.05439, 20.06357],
        [76.0545, 20.06377],
        [76.05462, 20.06397],
        [76.05473, 20.06417],
        [76.05486, 20.06437],
        [76.05498, 20.06457],
        [76.05511, 20.06477],
        [76.05524, 20.06496],
        [76.05537, 20.06515],
        [76.05559, 20.06535],
        [76.05582, 20.06553],
        [76.05606, 20.06571],
        [76.05631, 20.06587],
        [76.05656, 20.06603],
        [76.05682, 20.06618],
        [76.05708, 20.06632],
        [76.05735, 20.06644],
        [76.05763, 20.06656],
        [76.05803, 20.0667],
        [76.05843, 20.06684],
        [76.05883, 20.06698],
        [76.05923, 20.06712],
        [76.05963, 20.06726],
        [76.06003, 20.0674],
        [76.06043, 20.06753],
        [76.06083, 20.06767],
        [76.06123, 20.06781],
        [76.06275, 20.06836],
        [76.06369, 20.06889],
        [76.06465, 20.06966],
        [76.06586, 20.07031],
        [76.06714, 20.07079],
        [76.06818, 20.0714],
        [76.06938, 20.07241],
        [76.06983, 20.07308],
        [76.068, 20.07609],
        [76.06734, 20.07758],
        [76.06662, 20.07957],
        [76.06622, 20.08051],
        [76.06476, 20.08257],
        [76.0635, 20.08408],
        [76.06271, 20.08478],
        [76.05858, 20.08736],
        [76.05354, 20.08579],
        [76.05219, 20.08544],
        [76.05212, 20.08565],
        [76.05207, 20.08586],
        [76.05203, 20.08608],
        [76.05199, 20.08629],
        [76.05198, 20.08655],
        [76.052, 20.08684],
        [76.05203, 20.08714],
        [76.05208, 20.08743],
        [76.05214, 20.08771],
        [76.05223, 20.08789],
        [76.05231, 20.08808],
        [76.05238, 20.08826],
        [76.05245, 20.08845],
        [76.05251, 20.08864],
        [76.05257, 20.08883],
        [76.05262, 20.08903],
        [76.05266, 20.08922],
        [76.0527, 20.08942],
        [76.0527, 20.0896],
        [76.05271, 20.08979],
        [76.05276, 20.09006],
        [76.05287, 20.09039],
        [76.053, 20.09068],
        [76.05316, 20.09096],
        [76.05336, 20.09121],
        [76.05358, 20.09144],
        [76.05374, 20.09164],
        [76.05386, 20.09186],
        [76.05394, 20.09211],
        [76.05396, 20.09236],
        [76.05395, 20.09258],
        [76.05395, 20.09277],
        [76.05399, 20.09295],
        [76.05405, 20.09313],
        [76.0542, 20.09342],
        [76.05429, 20.0937],
        [76.05433, 20.094],
        [76.05433, 20.09429],
        [76.05429, 20.09458],
        [76.05424, 20.09487],
        [76.0542, 20.09516],
        [76.05417, 20.09546],
        [76.05415, 20.09575],
        [76.05416, 20.09606],
        [76.05427, 20.09625],
        [76.05446, 20.09638],
        [76.05466, 20.09654],
        [76.05484, 20.09673],
        [76.05499, 20.09693],
        [76.05511, 20.09716],
        [76.05524, 20.09737],
        [76.05541, 20.09755],
        [76.05562, 20.09768],
        [76.05585, 20.09776],
        [76.05607, 20.09779],
        [76.05643, 20.0979],
        [76.05667, 20.09806],
        [76.05682, 20.09823],
        [76.057, 20.09845],
        [76.05719, 20.09866],
        [76.05739, 20.09886],
        [76.0576, 20.09904],
        [76.05776, 20.0992],
        [76.05793, 20.09933],
        [76.05812, 20.09945],
        [76.05832, 20.09954],
        [76.05853, 20.09962],
        [76.05875, 20.09967],
        [76.05897, 20.09969],
        [76.05919, 20.09969],
        [76.05941, 20.09967],
        [76.05971, 20.09955],
        [76.06003, 20.09946],
        [76.06035, 20.09939],
        [76.06084, 20.09935],
        [76.06109, 20.09945],
        [76.06134, 20.09957],
        [76.06156, 20.09972],
        [76.06178, 20.09989],
        [76.06201, 20.10008],
        [76.06228, 20.10022],
        [76.06258, 20.10031],
        [76.0629, 20.10034],
        [76.06321, 20.10031],
        [76.06343, 20.10011],
        [76.06365, 20.0999],
        [76.06385, 20.09967],
        [76.06404, 20.09944],
        [76.06438, 20.09921],
        [76.06463, 20.09912],
        [76.06489, 20.09904],
        [76.06516, 20.09898],
        [76.06542, 20.09893],
        [76.06569, 20.09889],
        [76.06596, 20.09887],
        [76.06623, 20.09886],
        [76.06667, 20.09891],
        [76.06701, 20.09903],
        [76.06733, 20.09919],
        [76.06763, 20.09938],
        [76.06791, 20.0996],
        [76.06809, 20.09973],
        [76.06829, 20.09984],
        [76.06849, 20.09993],
        [76.0687, 20.09999],
        [76.06892, 20.10004],
        [76.06914, 20.10007],
        [76.06936, 20.10007],
        [76.06958, 20.10006],
        [76.0698, 20.10002],
        [76.07004, 20.10005],
        [76.07027, 20.10012],
        [76.07049, 20.10024],
        [76.07068, 20.10038],
        [76.07083, 20.10058],
        [76.07099, 20.10078],
        [76.07118, 20.10096],
        [76.07139, 20.10111],
        [76.07162, 20.10123],
        [76.07185, 20.1014],
        [76.07212, 20.10152],
        [76.0724, 20.1016],
        [76.07269, 20.10163],
        [76.073, 20.10156],
        [76.07333, 20.10146],
        [76.07367, 20.10138],
        [76.07401, 20.10131],
        [76.07451, 20.1013],
        [76.07482, 20.10132],
        [76.07513, 20.10132],
        [76.07544, 20.1013],
        [76.07575, 20.10124],
        [76.07595, 20.10115],
        [76.07616, 20.10106],
        [76.07635, 20.10096],
        [76.07655, 20.10086],
        [76.07675, 20.10076],
        [76.07694, 20.10065],
        [76.07713, 20.10054],
        [76.07732, 20.10042],
        [76.0775, 20.10031],
        [76.0777, 20.10025],
        [76.07789, 20.10022],
        [76.07809, 20.10021],
        [76.07839, 20.10023],
        [76.07869, 20.10027],
        [76.079, 20.10027],
        [76.07931, 20.10023],
        [76.0796, 20.10014],
        [76.07989, 20.10002],
        [76.08017, 20.09986],
        [76.08043, 20.09967],
        [76.08067, 20.09945],
        [76.08087, 20.0992],
        [76.08113, 20.09898],
        [76.08141, 20.09879],
        [76.0817, 20.09863],
        [76.08201, 20.09849],
        [76.08247, 20.09834],
        [76.08278, 20.09825],
        [76.0831, 20.09819],
        [76.08341, 20.09814],
        [76.08373, 20.0981],
        [76.08405, 20.09808],
        [76.08437, 20.09808],
        [76.08469, 20.09809],
        [76.08501, 20.09812],
        [76.08539, 20.09821],
        [76.08538, 20.09854],
        [76.08527, 20.09883],
        [76.08521, 20.09913],
        [76.08519, 20.09944],
        [76.08522, 20.09975],
        [76.08533, 20.10003],
        [76.08555, 20.10024],
        [76.08581, 20.10038],
        [76.0861, 20.10045],
        [76.0864, 20.10045],
        [76.08661, 20.10041],
        [76.08679, 20.10031],
        [76.08693, 20.10015],
        [76.08701, 20.09996],
        [76.08707, 20.09957],
        [76.0871, 20.09928],
        [76.08714, 20.099],
        [76.08718, 20.09871],
        [76.08722, 20.09843],
        [76.08726, 20.09814],
        [76.08731, 20.09786],
        [76.08735, 20.09758],
        [76.0874, 20.09729],
        [76.0875, 20.097],
        [76.08768, 20.09674],
        [76.08793, 20.09655],
        [76.08822, 20.09645],
        [76.08853, 20.09641],
        [76.08885, 20.09638],
        [76.08916, 20.09634],
        [76.08947, 20.09629],
        [76.08979, 20.09623],
        [76.08999, 20.09617],
        [76.09019, 20.09609],
        [76.09039, 20.096],
        [76.09058, 20.0959],
        [76.09081, 20.09575],
        [76.0911, 20.09558],
        [76.09141, 20.09546],
        [76.09173, 20.0954],
        [76.09207, 20.09538],
        [76.09231, 20.09545],
        [76.09249, 20.09563],
        [76.09257, 20.09587],
        [76.09253, 20.09612],
        [76.09244, 20.09631],
        [76.0925, 20.09664],
        [76.09276, 20.09685],
        [76.09298, 20.09688],
        [76.09319, 20.09686],
        [76.09341, 20.0968],
        [76.0936, 20.0967],
        [76.09377, 20.09655],
        [76.09395, 20.09642],
        [76.09414, 20.09632],
        [76.09435, 20.09624],
        [76.09457, 20.0962],
        [76.09507, 20.09625],
        [76.09582, 20.09634],
        [76.09585, 20.09704],
        [76.09603, 20.09848],
        [76.09611, 20.10076],
        [76.09603, 20.10385],
        [76.09617, 20.1055],
        [76.09625, 20.10657],
        [76.09654, 20.10796],
        [76.09692, 20.10902],
        [76.09816, 20.11194],
        [76.09923, 20.11494],
        [76.09965, 20.11631],
        [76.09967, 20.11675],
        [76.09965, 20.11728],
        [76.09952, 20.11796],
        [76.09931, 20.12028],
        [76.09936, 20.12275],
        [76.09938, 20.12404],
        [76.09912, 20.12581],
        [76.09896, 20.12837],
        [76.09887, 20.13082],
        [76.10171, 20.13193],
        [76.10416, 20.13264],
        [76.10574, 20.13297],
        [76.10618, 20.13308],
        [76.10618, 20.13396],
        [76.10635, 20.13588],
        [76.1068, 20.13812],
        [76.10724, 20.14041],
        [76.10751, 20.14122],
        [76.10839, 20.1429],
        [76.10905, 20.14384],
        [76.10879, 20.14423],
        [76.10839, 20.14498],
        [76.10808, 20.14615],
        [76.10804, 20.14718],
        [76.10791, 20.14818],
        [76.10775, 20.1492],
        [76.10743, 20.15013],
        [76.10656, 20.15152],
        [76.1055, 20.15304],
        [76.10676, 20.15572],
        [76.1073, 20.15703],
        [76.10791, 20.15873],
        [76.1082, 20.15983],
        [76.10859, 20.16183],
        [76.10884, 20.16288],
        [76.11088, 20.16237],
        [76.11418, 20.16168],
        [76.11524, 20.16155],
        [76.11763, 20.16138],
        [76.11945, 20.16122],
        [76.1197, 20.16116],
        [76.12005, 20.16122],
        [76.12015, 20.16141],
        [76.12019, 20.16175],
        [76.12016, 20.1621],
        [76.12007, 20.16243],
        [76.11992, 20.16274],
        [76.11976, 20.16303],
        [76.11969, 20.16336],
        [76.11973, 20.16368],
        [76.11989, 20.16398],
        [76.12013, 20.1642],
        [76.12035, 20.16433],
        [76.12056, 20.16447],
        [76.12078, 20.1646],
        [76.12099, 20.16473],
        [76.12115, 20.1649],
        [76.12123, 20.16513],
        [76.12127, 20.16536],
        [76.12127, 20.1656],
        [76.12123, 20.16584],
        [76.1212, 20.16606],
        [76.12117, 20.16628],
        [76.12112, 20.16651],
        [76.12107, 20.16673],
        [76.12101, 20.16694],
        [76.12095, 20.16716],
        [76.12087, 20.16737],
        [76.12079, 20.16758],
        [76.12063, 20.16784],
        [76.12072, 20.16805],
        [76.12104, 20.168],
        [76.12133, 20.16794],
        [76.1216, 20.16787],
        [76.12188, 20.16779],
        [76.12218, 20.1677],
        [76.12254, 20.16765],
        [76.12289, 20.16765],
        [76.12324, 20.1677],
        [76.12358, 20.16781],
        [76.12374, 20.16804],
        [76.12385, 20.16829],
        [76.12393, 20.16857],
        [76.12396, 20.16884],
        [76.12397, 20.16914],
        [76.12403, 20.16945],
        [76.12412, 20.16975],
        [76.12425, 20.17004],
        [76.1244, 20.17031],
        [76.12454, 20.17048],
        [76.12464, 20.17066],
        [76.1247, 20.17086],
        [76.12474, 20.17107],
        [76.12473, 20.17128],
        [76.12469, 20.17148],
        [76.12461, 20.17168],
        [76.1245, 20.17186],
        [76.12435, 20.17201],
        [76.1242, 20.17224],
        [76.12406, 20.17248],
        [76.12391, 20.17271],
        [76.12377, 20.17295],
        [76.1237, 20.17318],
        [76.12374, 20.17339],
        [76.12383, 20.17359],
        [76.12397, 20.17376],
        [76.12415, 20.17389],
        [76.12436, 20.17407],
        [76.12457, 20.17426],
        [76.12478, 20.17445],
        [76.12499, 20.17464],
        [76.12514, 20.17485],
        [76.12526, 20.17508],
        [76.1254, 20.1753],
        [76.12556, 20.1755],
        [76.12573, 20.17568],
        [76.1259, 20.1758],
        [76.12606, 20.17592],
        [76.12622, 20.17604],
        [76.12638, 20.17618],
        [76.12653, 20.17631],
        [76.12667, 20.17646],
        [76.12681, 20.17661],
        [76.12694, 20.17676],
        [76.1272, 20.17703],
        [76.12742, 20.1773],
        [76.12757, 20.17761],
        [76.12764, 20.17795],
        [76.12763, 20.1783],
        [76.12757, 20.1785],
        [76.12757, 20.17872],
        [76.12763, 20.17893],
        [76.12776, 20.1791],
        [76.12794, 20.17924],
        [76.12814, 20.17939],
        [76.12832, 20.17954],
        [76.1285, 20.17971],
        [76.12867, 20.17988],
        [76.12877, 20.18005],
        [76.12888, 20.18022],
        [76.12898, 20.18039],
        [76.12909, 20.18056],
        [76.12919, 20.18073],
        [76.12929, 20.18091],
        [76.12939, 20.18108],
        [76.12949, 20.18125],
        [76.12958, 20.18143],
        [76.12976, 20.18168],
        [76.12999, 20.18189],
        [76.13027, 20.18203],
        [76.13057, 20.1821],
        [76.13086, 20.18213],
        [76.13113, 20.18221],
        [76.13141, 20.18229],
        [76.13167, 20.18237],
        [76.13194, 20.18247],
        [76.13211, 20.18271],
        [76.13229, 20.18295],
        [76.13247, 20.18318],
        [76.13264, 20.18342],
        [76.13282, 20.18366],
        [76.13301, 20.18389],
        [76.13319, 20.18413],
        [76.13337, 20.18436],
        [76.13356, 20.18459],
        [76.13361, 20.18477],
        [76.13365, 20.18495],
        [76.13368, 20.18514],
        [76.1337, 20.18533],
        [76.13371, 20.18552],
        [76.1337, 20.18571],
        [76.13368, 20.1859],
        [76.13365, 20.18608],
        [76.13359, 20.18641],
        [76.13359, 20.18668],
        [76.13364, 20.18695],
        [76.13372, 20.18721],
        [76.13385, 20.18745],
        [76.13396, 20.18764],
        [76.13403, 20.18785],
        [76.13404, 20.18808],
        [76.134, 20.1883],
        [76.13392, 20.18847],
        [76.13383, 20.18878],
        [76.13383, 20.1891],
        [76.13382, 20.18932],
        [76.1338, 20.18954],
        [76.13377, 20.18976],
        [76.13373, 20.18998],
        [76.13354, 20.19032],
        [76.13339, 20.19055],
        [76.13326, 20.19079],
        [76.13322, 20.19114],
        [76.13313, 20.19147],
        [76.13297, 20.19177],
        [76.13277, 20.19205],
        [76.13258, 20.19224],
        [76.13245, 20.19239],
        [76.13236, 20.19256],
        [76.13229, 20.19275],
        [76.13226, 20.19294],
        [76.13232, 20.19316],
        [76.13235, 20.19338],
        [76.13236, 20.1936],
        [76.13233, 20.19382],
        [76.13228, 20.19401],
        [76.13216, 20.19432],
        [76.13209, 20.19465],
        [76.13212, 20.19486],
        [76.13213, 20.19507],
        [76.13213, 20.19529],
        [76.13212, 20.1955],
        [76.13205, 20.19569],
        [76.13197, 20.19588],
        [76.13192, 20.19608],
        [76.13193, 20.19629],
        [76.13197, 20.19649],
        [76.13204, 20.19668],
        [76.13209, 20.19687],
        [76.13213, 20.19707],
        [76.13217, 20.19727],
        [76.13219, 20.19747],
        [76.1322, 20.19768],
        [76.1322, 20.19788],
        [76.13219, 20.19808],
        [76.13212, 20.19839],
        [76.13218, 20.19862],
        [76.1354, 20.19889],
        [76.13809, 20.19875],
        [76.13846, 20.19876],
        [76.13883, 20.19874],
        [76.1392, 20.1987],
        [76.13957, 20.19865],
        [76.13977, 20.19861],
        [76.14006, 20.19863],
        [76.14025, 20.19868],
        [76.14043, 20.19877],
        [76.14146, 20.1989],
        [76.14226, 20.19884],
        [76.14325, 20.19893],
        [76.14415, 20.19903],
        [76.14453, 20.19903],
        [76.14495, 20.19919],
        [76.14857, 20.20417],
        [76.14966, 20.20593],
        [76.14809, 20.20807],
        [76.14748, 20.20862],
        [76.14273, 20.21071],
        [76.13921, 20.21241],
        [76.13895, 20.21337],
        [76.13863, 20.21491],
        [76.13844, 20.21565],
        [76.13812, 20.21646],
        [76.13699, 20.21758],
        [76.13558, 20.21902],
        [76.13433, 20.22011],
        [76.13324, 20.22242],
        [76.13537, 20.22506],
        [76.13633, 20.22621],
        [76.13726, 20.22743],
        [76.13806, 20.22919],
        [76.13854, 20.23018],
        [76.13902, 20.23098],
        [76.14177, 20.23117],
        [76.14322, 20.23127],
        [76.14389, 20.23146],
        [76.14511, 20.23213],
        [76.14617, 20.23314],
        [76.14851, 20.23522],
        [76.14915, 20.23615],
        [76.14979, 20.23721],
        [76.15269, 20.23744],
        [76.15827, 20.23802],
        [76.16372, 20.23863],
        [76.16654, 20.23869],
        [76.16708, 20.24491],
        [76.16737, 20.24779],
        [76.16811, 20.25069],
        [76.1686, 20.25427],
        [76.16988, 20.25806],
        [76.17153, 20.2601],
        [76.17359, 20.26261],
        [76.17659, 20.26431],
        [76.17844, 20.26509],
        [76.18, 20.26515],
        [76.18635, 20.26453],
        [76.19318, 20.26414],
        [76.19877, 20.2606],
        [76.20415, 20.26379],
        [76.20775, 20.26613],
        [76.21156, 20.26939],
        [76.21163, 20.27019],
        [76.21175, 20.27169],
        [76.21046, 20.27421],
        [76.20846, 20.27626],
        [76.20843, 20.27741],
        [76.21106, 20.27951],
        [76.2127, 20.28206],
        [76.2129, 20.28367],
        [76.21234, 20.28665],
        [76.21545, 20.28876],
        [76.2195, 20.29202],
        [76.22347, 20.29553],
        [76.22405, 20.29506],
        [76.2304, 20.29456],
        [76.23186, 20.29445],
        [76.23645, 20.28644],
        [76.23746, 20.28507],
        [76.23729, 20.28392],
        [76.23969, 20.28395],
        [76.2458, 20.28309],
        [76.24966, 20.28428]
      ]
    ]
  }
}
