{
  "type": "Feature",
  "id": "MH-AC-45",
  "properties": {
    "stateName": "MAHARASHTRA",
    "stateCode": "MH",
    "districtName": "WARDHA",
    "acNo": 45,
    "acName": "DEOLI",
    "seatType": null,
    "pcNo": null,
    "pcName": null,
    "quality": "unverified",
    "sources": [
      "TBD"
    ]
  },
  "geometry": {
    "type": "Polygon",
    "coordinates": [
      [
        [78.54061, 20.88546],
        [78.54057, 20.88505],
        [78.54138, 20.88136],
        [78.54247, 20.87679],
        [78.5425, 20.87419],
        [78.5425, 20.87359],
        [78.54138, 20.86962],
        [78.54034, 20.86594],
        [78.54347, 20.8586],
        [78.54689, 20.85711],
        [78.54863, 20.85635],
        [78.54887, 20.85532],
        [78.54896, 20.85493],
        [78.55009, 20.8501],
        [78.551, 20.8462],
        [78.55117, 20.84544],
        [78.55139, 20.84452],
        [78.55417, 20.83099],
        [78.55418, 20.8304],
        [78.55425, 20.82767],
        [78.55427, 20.8269],
        [78.55074, 20.8208],
        [78.55531, 20.82152],
        [78.5582, 20.82119],
        [78.55844, 20.8206],
        [78.55881, 20.82039],
        [78.55853, 20.81877],
        [78.55493, 20.81049],
        [78.55291, 20.80439],
        [78.55317, 20.80433],
        [78.56046, 20.79858],
        [78.56064, 20.7986],
        [78.55937, 20.79201],
        [78.55761, 20.78563],
        [78.5584, 20.78401],
        [78.55743, 20.78235],
        [78.55587, 20.77968],
        [78.55276, 20.77391],
        [78.55102, 20.76551],
        [78.55078, 20.75974],
        [78.55246, 20.76001],
        [78.55932, 20.75556],
        [78.56076, 20.75249],
        [78.55878, 20.75064],
        [78.5557, 20.7498],
        [78.55507, 20.74734],
        [78.5564, 20.74704],
        [78.56037, 20.74613],
        [78.56671, 20.74656],
        [78.56908, 20.74542],
        [78.56849, 20.74471],
        [78.56868, 20.73916],
        [78.56732, 20.73566],
        [78.56727, 20.73484],
        [78.56388, 20.7334],
        [78.5614, 20.73156],
        [78.5592, 20.73004],
        [78.55667, 20.72829],
        [78.55253, 20.72708],
        [78.5478, 20.72771],
        [78.54558, 20.72904],
        [78.54506, 20.72935],
        [78.54244, 20.73303],
        [78.54241, 20.73201],
        [78.53813, 20.73202],
        [78.5287, 20.73287],
        [78.53011, 20.72229],
        [78.52908, 20.7164],
        [78.52854, 20.71535],
        [78.5264, 20.71114],
        [78.51899, 20.71],
        [78.5135, 20.70835],
        [78.51382, 20.70277],
        [78.51334, 20.70055],
        [78.51539, 20.69668],
        [78.51543, 20.69502],
        [78.5213, 20.69639],
        [78.52983, 20.69505],
        [78.53444, 20.69396],
        [78.53319, 20.69092],
        [78.53441, 20.69081],
        [78.53088, 20.68729],
        [78.52877, 20.68326],
        [78.52761, 20.68163],
        [78.5316, 20.68117],
        [78.53442, 20.67887],
        [78.53815, 20.67512],
        [78.53875, 20.67236],
        [78.53908, 20.67081],
        [78.53959, 20.6708],
        [78.54361, 20.6703],
        [78.54818, 20.67019],
        [78.55421, 20.66923],
        [78.56081, 20.66908],
        [78.56509, 20.66762],
        [78.5673, 20.66686],
        [78.56722, 20.66523],
        [78.57132, 20.66553],
        [78.57606, 20.66314],
        [78.57724, 20.66282],
        [78.57731, 20.66228],
        [78.57927, 20.66016],
        [78.58227, 20.6578],
        [78.58475, 20.65504],
        [78.58855, 20.65265],
        [78.58963, 20.65214],
        [78.58959, 20.65304],
        [78.59028, 20.65395],
        [78.59357, 20.65833],
        [78.59955, 20.66359],
        [78.59964, 20.66363],
        [78.59985, 20.66371],
        [78.59961, 20.66712],
        [78.59967, 20.67129],
        [78.60174, 20.67416],
        [78.60189, 20.6764],
        [78.60277, 20.67643],
        [78.60433, 20.67815],
        [78.60481, 20.67868],
        [78.60613, 20.68554],
        [78.60693, 20.69179],
        [78.60613, 20.69662],
        [78.59641, 20.69862],
        [78.5898, 20.69995],
        [78.58909, 20.69989],
        [78.58775, 20.70558],
        [78.58768, 20.71139],
        [78.59243, 20.71391],
        [78.59382, 20.71465],
        [78.59699, 20.71567],
        [78.60278, 20.71458],
        [78.60834, 20.7139],
        [78.61439, 20.71469],
        [78.6158, 20.71666],
        [78.61633, 20.71739],
        [78.61752, 20.72199],
        [78.61857, 20.72557],
        [78.61823, 20.72555],
        [78.6168, 20.72681],
        [78.61158, 20.73422],
        [78.61489, 20.73415],
        [78.62199, 20.73539],
        [78.63026, 20.73685],
        [78.63389, 20.7383],
        [78.63588, 20.73825],
        [78.6411, 20.73811],
        [78.64532, 20.73896],
        [78.64862, 20.73982],
        [78.65076, 20.74037],
        [78.65675, 20.74193],
        [78.66488, 20.74385],
        [78.66972, 20.74526],
        [78.6699, 20.74215],
        [78.66996, 20.74108],
        [78.67335, 20.73959],
        [78.67926, 20.73573],
        [78.68106, 20.73515],
        [78.68192, 20.73487],
        [78.68501, 20.73763],
        [78.68503, 20.73766],
        [78.68716, 20.74087],
        [78.68903, 20.7441],
        [78.68868, 20.74861],
        [78.68806, 20.75088],
        [78.68913, 20.75184],
        [78.69251, 20.75616],
        [78.69515, 20.76063],
        [78.69524, 20.76057],
        [78.6968, 20.75736],
        [78.69709, 20.75225],
        [78.70181, 20.75027],
        [78.70375, 20.7498],
        [78.70632, 20.74916],
        [78.70937, 20.74842],
        [78.713, 20.74753],
        [78.72386, 20.74179],
        [78.7259, 20.7398],
        [78.72532, 20.73106],
        [78.72521, 20.72939],
        [78.72749, 20.72719],
        [78.72857, 20.72615],
        [78.73106, 20.72375],
        [78.73273, 20.72214],
        [78.73897, 20.7178],
        [78.74016, 20.71697],
        [78.74265, 20.71164],
        [78.74307, 20.71074],
        [78.74453, 20.70763],
        [78.74811, 20.70345],
        [78.74833, 20.70304],
        [78.75035, 20.69927],
        [78.75056, 20.69905],
        [78.75472, 20.69459],
        [78.75607, 20.69356],
        [78.76386, 20.69534],
        [78.76576, 20.69499],
        [78.76934, 20.69433],
        [78.77137, 20.69395],
        [78.77171, 20.69344],
        [78.77305, 20.69144],
        [78.77363, 20.69136],
        [78.77891, 20.69066],
        [78.78062, 20.6883],
        [78.7868, 20.68905],
        [78.79184, 20.69046],
        [78.79746, 20.69086],
        [78.80681, 20.68971],
        [78.80926, 20.68759],
        [78.80945, 20.68754],
        [78.81635, 20.68573],
        [78.81783, 20.68463],
        [78.81796, 20.68453],
        [78.82105, 20.67929],
        [78.82235, 20.67709],
        [78.82976, 20.67513],
        [78.8282, 20.6719],
        [78.82926, 20.66915],
        [78.83377, 20.66275],
        [78.83361, 20.66008],
        [78.83351, 20.65855],
        [78.82618, 20.65111],
        [78.82457, 20.64948],
        [78.82337, 20.63557],
        [78.82252, 20.63375],
        [78.81839, 20.6356],
        [78.81743, 20.63628],
        [78.81675, 20.63305],
        [78.81676, 20.6319],
        [78.8169, 20.63089],
        [78.81518, 20.63213],
        [78.8141, 20.63088],
        [78.80789, 20.63454],
        [78.80481, 20.63597],
        [78.80285, 20.63621],
        [78.80229, 20.63639],
        [78.7987, 20.63757],
        [78.79821, 20.63767],
        [78.79405, 20.6385],
        [78.7872, 20.63943],
        [78.78378, 20.64013],
        [78.7806, 20.64127],
        [78.7762, 20.64219],
        [78.77467, 20.64174],
        [78.77204, 20.64539],
        [78.77167, 20.64655],
        [78.76734, 20.64818],
        [78.76312, 20.64914],
        [78.76485, 20.64401],
        [78.7592, 20.6436],
        [78.75935, 20.64329],
        [78.76045, 20.64095],
        [78.76077, 20.64027],
        [78.75847, 20.63807],
        [78.76088, 20.63427],
        [78.76125, 20.63368],
        [78.76145, 20.63337],
        [78.7637, 20.62982],
        [78.76464, 20.62834],
        [78.76467, 20.62829],
        [78.76237, 20.62575],
        [78.7632, 20.62151],
        [78.76381, 20.61843],
        [78.76437, 20.61553],
        [78.75558, 20.6165],
        [78.74785, 20.61577],
        [78.74774, 20.61355],
        [78.74759, 20.61048],
        [78.74642, 20.6057],
        [78.74545, 20.60406],
        [78.74536, 20.60392],
        [78.74501, 20.60332],
        [78.74645, 20.58455],
        [78.75074, 20.58305],
        [78.75345, 20.57269],
        [78.75449, 20.56873],
        [78.76047, 20.56726],
        [78.75613, 20.56034],
        [78.75644, 20.56029],
        [78.75713, 20.56016],
        [78.76027, 20.55994],
        [78.76245, 20.55838],
        [78.76378, 20.55287],
        [78.76462, 20.54941],
        [78.76582, 20.54359],
        [78.76629, 20.54161],
        [78.7663, 20.54157],
        [78.76992, 20.54002],
        [78.77305, 20.54003],
        [78.7769, 20.53938],
        [78.78003, 20.53715],
        [78.78038, 20.5368],
        [78.78315, 20.53403],
        [78.78579, 20.53092],
        [78.78621, 20.53052],
        [78.78651, 20.5307],
        [78.78916, 20.53183],
        [78.79181, 20.5314],
        [78.79373, 20.53118],
        [78.79566, 20.53097],
        [78.80047, 20.53033],
        [78.80359, 20.53012],
        [78.80504, 20.53013],
        [78.80427, 20.52837],
        [78.80406, 20.52789],
        [78.80356, 20.52499],
        [78.80355, 20.52387],
        [78.80449, 20.52228],
        [78.80432, 20.52182],
        [78.80401, 20.52097],
        [78.80412, 20.51992],
        [78.80423, 20.51874],
        [78.80517, 20.51495],
        [78.80706, 20.51072],
        [78.80753, 20.50916],
        [78.80749, 20.5047],
        [78.80694, 20.50127],
        [78.80674, 20.5],
        [78.80661, 20.49716],
        [78.80645, 20.49375],
        [78.80592, 20.48571],
        [78.80423, 20.48346],
        [78.7999, 20.47917],
        [78.79989, 20.47761],
        [78.79843, 20.47245],
        [78.79574, 20.46859],
        [78.79434, 20.46659],
        [78.79397, 20.46581],
        [78.79339, 20.46635],
        [78.78887, 20.46831],
        [78.78722, 20.47164],
        [78.78438, 20.47743],
        [78.78105, 20.48209],
        [78.77844, 20.48564],
        [78.77677, 20.48876],
        [78.77439, 20.49277],
        [78.7732, 20.49612],
        [78.77153, 20.49946],
        [78.77134, 20.50108],
        [78.76818, 20.50145],
        [78.76411, 20.50164],
        [78.7622, 20.5019],
        [78.76099, 20.50206],
        [78.76003, 20.5007],
        [78.75955, 20.49913],
        [78.7586, 20.49665],
        [78.75788, 20.49373],
        [78.75669, 20.48945],
        [78.75525, 20.48584],
        [78.75334, 20.4847],
        [78.75047, 20.48534],
        [78.74928, 20.48376],
        [78.74761, 20.48082],
        [78.74762, 20.47924],
        [78.74762, 20.47906],
        [78.74762, 20.47767],
        [78.74691, 20.47474],
        [78.74667, 20.47339],
        [78.74675, 20.47306],
        [78.74788, 20.46779],
        [78.74836, 20.4642],
        [78.74789, 20.46285],
        [78.74575, 20.45855],
        [78.74586, 20.45713],
        [78.74576, 20.4572],
        [78.74528, 20.45697],
        [78.74266, 20.45648],
        [78.74005, 20.45644],
        [78.73457, 20.45659],
        [78.72506, 20.45646],
        [78.7234, 20.45576],
        [78.71936, 20.4552],
        [78.71936, 20.45525],
        [78.71887, 20.45704],
        [78.71813, 20.46019],
        [78.7143, 20.46374],
        [78.71406, 20.46394],
        [78.71238, 20.4653],
        [78.70928, 20.46571],
        [78.70403, 20.46654],
        [78.70253, 20.46642],
        [78.69712, 20.466],
        [78.695, 20.46393],
        [78.69389, 20.46213],
        [78.69289, 20.46051],
        [78.692, 20.45485],
        [78.69259, 20.45169],
        [78.69301, 20.44944],
        [78.69257, 20.44559],
        [78.69125, 20.44481],
        [78.69187, 20.44445],
        [78.69024, 20.44193],
        [78.68863, 20.43671],
        [78.68865, 20.43563],
        [78.6858, 20.43575],
        [78.68367, 20.43549],
        [78.68084, 20.43363],
        [78.67612, 20.43197],
        [78.67163, 20.43076],
        [78.66857, 20.4298],
        [78.66858, 20.42887],
        [78.66642, 20.43044],
        [78.66333, 20.43152],
        [78.65927, 20.43326],
        [78.6573, 20.43447],
        [78.65477, 20.4325],
        [78.65221, 20.42996],
        [78.64938, 20.42946],
        [78.64705, 20.42941],
        [78.64799, 20.43263],
        [78.64804, 20.43312],
        [78.648, 20.4336],
        [78.64789, 20.43407],
        [78.6477, 20.43451],
        [78.64744, 20.43492],
        [78.64711, 20.43527],
        [78.64673, 20.43557],
        [78.64631, 20.43581],
        [78.64456, 20.43635],
        [78.64383, 20.43649],
        [78.6431, 20.43661],
        [78.64237, 20.43671],
        [78.64163, 20.43679],
        [78.64089, 20.43685],
        [78.64015, 20.4369],
        [78.63941, 20.43693],
        [78.63866, 20.43694],
        [78.63792, 20.43693],
        [78.6373, 20.43684],
        [78.63667, 20.43675],
        [78.63605, 20.43666],
        [78.63542, 20.43658],
        [78.6348, 20.43649],
        [78.63417, 20.4364],
        [78.63355, 20.43632],
        [78.63292, 20.43623],
        [78.6323, 20.43615],
        [78.63151, 20.43607],
        [78.63073, 20.43598],
        [78.62995, 20.43589],
        [78.62917, 20.43578],
        [78.62839, 20.43566],
        [78.62761, 20.43552],
        [78.62684, 20.43538],
        [78.62607, 20.43522],
        [78.6253, 20.43505],
        [78.62142, 20.43466],
        [78.62089, 20.43459],
        [78.62036, 20.43455],
        [78.61984, 20.43457],
        [78.61931, 20.43463],
        [78.61879, 20.43474],
        [78.61828, 20.43489],
        [78.61779, 20.43508],
        [78.61732, 20.43532],
        [78.61687, 20.4356],
        [78.61587, 20.43631],
        [78.61556, 20.43666],
        [78.61529, 20.43705],
        [78.61506, 20.43746],
        [78.61487, 20.4379],
        [78.61472, 20.43835],
        [78.61462, 20.43881],
        [78.61457, 20.43928],
        [78.61456, 20.43976],
        [78.6146, 20.44023],
        [78.61483, 20.44133],
        [78.61493, 20.44186],
        [78.61491, 20.4424],
        [78.6148, 20.44293],
        [78.61457, 20.44343],
        [78.61426, 20.44387],
        [78.61387, 20.44424],
        [78.61341, 20.44453],
        [78.6129, 20.44472],
        [78.61236, 20.44481],
        [78.61181, 20.44482],
        [78.61126, 20.44475],
        [78.61072, 20.4446],
        [78.61021, 20.44438],
        [78.60974, 20.4441],
        [78.60931, 20.44374],
        [78.60894, 20.44334],
        [78.60862, 20.44288],
        [78.60838, 20.44238],
        [78.60816, 20.44185],
        [78.60798, 20.44131],
        [78.60785, 20.44076],
        [78.60777, 20.44019],
        [78.60773, 20.43962],
        [78.60774, 20.43905],
        [78.60779, 20.43848],
        [78.60789, 20.43792],
        [78.60804, 20.43737],
        [78.60882, 20.43593],
        [78.60899, 20.43562],
        [78.60914, 20.43529],
        [78.60925, 20.43495],
        [78.60934, 20.43461],
        [78.6094, 20.43425],
        [78.60942, 20.4339],
        [78.60942, 20.43354],
        [78.60938, 20.43318],
        [78.60932, 20.43283],
        [78.60907, 20.43244],
        [78.60876, 20.43208],
        [78.60842, 20.43177],
        [78.60803, 20.43152],
        [78.60761, 20.43132],
        [78.60716, 20.43118],
        [78.6067, 20.4311],
        [78.60624, 20.43109],
        [78.60577, 20.43114],
        [78.60486, 20.43126],
        [78.60396, 20.43137],
        [78.60305, 20.43147],
        [78.60213, 20.43157],
        [78.60122, 20.43166],
        [78.60031, 20.43174],
        [78.5994, 20.43182],
        [78.59849, 20.43189],
        [78.59757, 20.43195],
        [78.59718, 20.43193],
        [78.5968, 20.43193],
        [78.59641, 20.43194],
        [78.59602, 20.43196],
        [78.59564, 20.432],
        [78.59525, 20.43204],
        [78.59487, 20.4321],
        [78.59449, 20.43218],
        [78.59411, 20.43226],
        [78.59346, 20.43244],
        [78.5928, 20.43259],
        [78.59213, 20.43273],
        [78.59147, 20.43286],
        [78.5908, 20.43296],
        [78.59013, 20.43305],
        [78.58945, 20.43312],
        [78.58878, 20.43317],
        [78.5881, 20.4332],
        [78.58139, 20.43276],
        [78.58119, 20.43275],
        [78.58099, 20.43275],
        [78.58079, 20.43276],
        [78.58059, 20.43277],
        [78.5804, 20.43279],
        [78.5802, 20.43281],
        [78.58001, 20.43284],
        [78.57981, 20.43287],
        [78.57962, 20.43291],
        [78.57904, 20.43314],
        [78.57847, 20.43336],
        [78.5779, 20.4336],
        [78.57733, 20.43384],
        [78.57677, 20.43409],
        [78.57621, 20.43434],
        [78.57565, 20.43461],
        [78.57509, 20.43488],
        [78.57454, 20.43515],
        [78.56571, 20.43883],
        [78.56522, 20.439],
        [78.56474, 20.43919],
        [78.56427, 20.4394],
        [78.56381, 20.43963],
        [78.56337, 20.43989],
        [78.56293, 20.44016],
        [78.5625, 20.44045],
        [78.56209, 20.44076],
        [78.56172, 20.44113],
        [78.56137, 20.44151],
        [78.56104, 20.44192],
        [78.56073, 20.44235],
        [78.56045, 20.44279],
        [78.5602, 20.44324],
        [78.55997, 20.44372],
        [78.55977, 20.4442],
        [78.55959, 20.44469],
        [78.55933, 20.4455],
        [78.55901, 20.44628],
        [78.55864, 20.44705],
        [78.55823, 20.44779],
        [78.55777, 20.4485],
        [78.55726, 20.44918],
        [78.55671, 20.44983],
        [78.55612, 20.45044],
        [78.5555, 20.45101],
        [78.55527, 20.45126],
        [78.55503, 20.45149],
        [78.55476, 20.45169],
        [78.55448, 20.45187],
        [78.55417, 20.45202],
        [78.55386, 20.45214],
        [78.55354, 20.45223],
        [78.55321, 20.45228],
        [78.55287, 20.45231],
        [78.5512, 20.45247],
        [78.55071, 20.45252],
        [78.55022, 20.4526],
        [78.54974, 20.45271],
        [78.54926, 20.45283],
        [78.54879, 20.45298],
        [78.54833, 20.45315],
        [78.54787, 20.45335],
        [78.54743, 20.45356],
        [78.54699, 20.45379],
        [78.54637, 20.45422],
        [78.54578, 20.45469],
        [78.54522, 20.4552],
        [78.54471, 20.45575],
        [78.54424, 20.45635],
        [78.54382, 20.45697],
        [78.54345, 20.45763],
        [78.54313, 20.45831],
        [78.54287, 20.45902],
        [78.54272, 20.45937],
        [78.54251, 20.45969],
        [78.54227, 20.45997],
        [78.54198, 20.46022],
        [78.54167, 20.46042],
        [78.54132, 20.46057],
        [78.54096, 20.46068],
        [78.54066, 20.46077],
        [78.54037, 20.46088],
        [78.54009, 20.461],
        [78.53981, 20.46113],
        [78.53954, 20.46128],
        [78.53928, 20.46144],
        [78.53902, 20.46162],
        [78.53878, 20.4618],
        [78.53854, 20.462],
        [78.53498, 20.46596],
        [78.53477, 20.46622],
        [78.53459, 20.4665],
        [78.53444, 20.46679],
        [78.5343, 20.4671],
        [78.53419, 20.46741],
        [78.5341, 20.46773],
        [78.53403, 20.46805],
        [78.53399, 20.46838],
        [78.53397, 20.46872],
        [78.53398, 20.46923],
        [78.53401, 20.46974],
        [78.53404, 20.47025],
        [78.53409, 20.47076],
        [78.53415, 20.47127],
        [78.53423, 20.47178],
        [78.53432, 20.47228],
        [78.53442, 20.47278],
        [78.53453, 20.47305],
        [78.53464, 20.47333],
        [78.53474, 20.4736],
        [78.53483, 20.47388],
        [78.53492, 20.47416],
        [78.53499, 20.47445],
        [78.53506, 20.47473],
        [78.53512, 20.47502],
        [78.53518, 20.47531],
        [78.53547, 20.47759],
        [78.53553, 20.47795],
        [78.53557, 20.47832],
        [78.53558, 20.47868],
        [78.53557, 20.47905],
        [78.53554, 20.47941],
        [78.53548, 20.47977],
        [78.53539, 20.48013],
        [78.53529, 20.48048],
        [78.53516, 20.48082],
        [78.53417, 20.48226],
        [78.53397, 20.48256],
        [78.53375, 20.48286],
        [78.53351, 20.48313],
        [78.53324, 20.48338],
        [78.53296, 20.48361],
        [78.53266, 20.48382],
        [78.53234, 20.484],
        [78.53201, 20.48416],
        [78.53167, 20.48429],
        [78.53134, 20.48435],
        [78.53102, 20.48442],
        [78.5307, 20.48452],
        [78.53038, 20.48463],
        [78.53007, 20.48475],
        [78.52977, 20.48489],
        [78.52948, 20.48505],
        [78.52919, 20.48522],
        [78.52891, 20.48541],
        [78.52702, 20.48707],
        [78.52663, 20.48747],
        [78.52623, 20.48786],
        [78.52582, 20.48823],
        [78.5254, 20.4886],
        [78.52497, 20.48894],
        [78.52452, 20.48928],
        [78.52407, 20.4896],
        [78.5236, 20.4899],
        [78.52313, 20.49019],
        [78.52282, 20.49042],
        [78.52254, 20.49068],
        [78.52227, 20.49096],
        [78.52203, 20.49125],
        [78.52181, 20.49157],
        [78.52161, 20.4919],
        [78.5215, 20.49233],
        [78.52142, 20.49277],
        [78.52136, 20.49322],
        [78.52133, 20.49366],
        [78.52133, 20.49411],
        [78.52135, 20.49456],
        [78.52139, 20.495],
        [78.52146, 20.49544],
        [78.52156, 20.49588],
        [78.52172, 20.49631],
        [78.52187, 20.49674],
        [78.52201, 20.49718],
        [78.52214, 20.49762],
        [78.52226, 20.49806],
        [78.52236, 20.4985],
        [78.52245, 20.49895],
        [78.52253, 20.4994],
        [78.5226, 20.49986],
        [78.52252, 20.50071],
        [78.52228, 20.501],
        [78.52212, 20.50128],
        [78.52195, 20.50155],
        [78.52178, 20.50181],
        [78.52159, 20.50207],
        [78.52139, 20.50232],
        [78.52118, 20.50255],
        [78.52095, 20.50278],
        [78.52072, 20.503],
        [78.52042, 20.50317],
        [78.52013, 20.50337],
        [78.51986, 20.5036],
        [78.51961, 20.50384],
        [78.51938, 20.50411],
        [78.51918, 20.5044],
        [78.51901, 20.5047],
        [78.51886, 20.50502],
        [78.51874, 20.50535],
        [78.51757, 20.51056],
        [78.51758, 20.51088],
        [78.51755, 20.51118],
        [78.51746, 20.51149],
        [78.51734, 20.51177],
        [78.51717, 20.51203],
        [78.51696, 20.51227],
        [78.51672, 20.51246],
        [78.51645, 20.51262],
        [78.51616, 20.51274],
        [78.51256, 20.51416],
        [78.51223, 20.5143],
        [78.5119, 20.51447],
        [78.51158, 20.51464],
        [78.51127, 20.51483],
        [78.51097, 20.51503],
        [78.51068, 20.51525],
        [78.51039, 20.51548],
        [78.51012, 20.51572],
        [78.50986, 20.51597],
        [78.50883, 20.51791],
        [78.50872, 20.51833],
        [78.50867, 20.51875],
        [78.50868, 20.51918],
        [78.50874, 20.51961],
        [78.50886, 20.52002],
        [78.50903, 20.52042],
        [78.50925, 20.52079],
        [78.50952, 20.52112],
        [78.50984, 20.52142],
        [78.51002, 20.52155],
        [78.51018, 20.52171],
        [78.51031, 20.5219],
        [78.5104, 20.52211],
        [78.51045, 20.52232],
        [78.51047, 20.52255],
        [78.51044, 20.52278],
        [78.51038, 20.52299],
        [78.51028, 20.52319],
        [78.51006, 20.5235],
        [78.5098, 20.52378],
        [78.5095, 20.52402],
        [78.50918, 20.52422],
        [78.50883, 20.52438],
        [78.50847, 20.52449],
        [78.50809, 20.52455],
        [78.50771, 20.52456],
        [78.50733, 20.52453],
        [78.50709, 20.52446],
        [78.50685, 20.5244],
        [78.50661, 20.52434],
        [78.50637, 20.52428],
        [78.50612, 20.52422],
        [78.50588, 20.52417],
        [78.50564, 20.52411],
        [78.5054, 20.52406],
        [78.50515, 20.524],
        [78.50487, 20.52398],
        [78.50458, 20.52393],
        [78.5043, 20.52387],
        [78.50402, 20.5238],
        [78.50375, 20.52371],
        [78.50349, 20.5236],
        [78.50323, 20.52348],
        [78.50297, 20.52335],
        [78.50273, 20.52319],
        [78.5025, 20.52301],
        [78.50225, 20.52286],
        [78.50199, 20.52272],
        [78.50172, 20.5226],
        [78.50143, 20.52251],
        [78.50115, 20.52244],
        [78.50086, 20.5224],
        [78.50056, 20.52238],
        [78.50027, 20.52239],
        [78.49961, 20.52237],
        [78.49931, 20.52242],
        [78.49885, 20.52242],
        [78.49648, 20.52267],
        [78.49581, 20.52279],
        [78.49515, 20.52295],
        [78.4945, 20.52314],
        [78.49386, 20.52337],
        [78.49324, 20.52363],
        [78.49263, 20.52393],
        [78.49203, 20.52426],
        [78.49146, 20.52462],
        [78.49092, 20.52497],
        [78.49037, 20.52531],
        [78.48982, 20.52564],
        [78.48926, 20.52595],
        [78.4887, 20.52626],
        [78.48813, 20.52656],
        [78.48755, 20.52685],
        [78.48697, 20.52712],
        [78.48639, 20.52739],
        [78.48395, 20.52844],
        [78.48346, 20.52861],
        [78.48296, 20.52875],
        [78.48246, 20.52886],
        [78.48194, 20.52894],
        [78.48143, 20.52898],
        [78.48091, 20.52899],
        [78.48039, 20.52896],
        [78.47988, 20.5289],
        [78.47937, 20.52881],
        [78.47611, 20.52847],
        [78.47572, 20.52846],
        [78.47533, 20.52845],
        [78.47494, 20.52844],
        [78.47455, 20.52844],
        [78.47416, 20.52845],
        [78.47377, 20.52845],
        [78.47338, 20.52847],
        [78.47299, 20.52848],
        [78.4726, 20.5285],
        [78.47212, 20.52847],
        [78.47164, 20.52839],
        [78.47117, 20.52827],
        [78.47071, 20.52811],
        [78.47027, 20.52791],
        [78.46985, 20.52767],
        [78.46945, 20.5274],
        [78.46907, 20.52709],
        [78.46873, 20.52675],
        [78.46468, 20.52197],
        [78.4643, 20.52158],
        [78.4639, 20.5212],
        [78.46349, 20.52084],
        [78.46307, 20.52049],
        [78.46264, 20.52015],
        [78.4622, 20.51983],
        [78.46174, 20.51953],
        [78.46128, 20.51924],
        [78.4608, 20.51897],
        [78.46052, 20.5188],
        [78.46025, 20.51863],
        [78.45999, 20.51844],
        [78.45973, 20.51824],
        [78.45948, 20.51804],
        [78.45924, 20.51782],
        [78.45901, 20.5176],
        [78.45878, 20.51736],
        [78.45857, 20.51712],
        [78.45821, 20.51677],
        [78.45782, 20.51644],
        [78.45742, 20.51614],
        [78.457, 20.51587],
        [78.45656, 20.51562],
        [78.4561, 20.51541],
        [78.45563, 20.51522],
        [78.45515, 20.51507],
        [78.45467, 20.51495],
        [78.4543, 20.51484],
        [78.45394, 20.51471],
        [78.45359, 20.51458],
        [78.45324, 20.51444],
        [78.45289, 20.51429],
        [78.45255, 20.51413],
        [78.45221, 20.51396],
        [78.45188, 20.51378],
        [78.45155, 20.51359],
        [78.45072, 20.51318],
        [78.44985, 20.51286],
        [78.44896, 20.51263],
        [78.44804, 20.51249],
        [78.44711, 20.51245],
        [78.44619, 20.51251],
        [78.44528, 20.51266],
        [78.44438, 20.51291],
        [78.44352, 20.51324],
        [78.44289, 20.51364],
        [78.44226, 20.51405],
        [78.44165, 20.51447],
        [78.44105, 20.51491],
        [78.44046, 20.51537],
        [78.43988, 20.51584],
        [78.43931, 20.51633],
        [78.43876, 20.51683],
        [78.43823, 20.51735],
        [78.43542, 20.51928],
        [78.43483, 20.5196],
        [78.43421, 20.51985],
        [78.43356, 20.52001],
        [78.43289, 20.52009],
        [78.43222, 20.52008],
        [78.43156, 20.51999],
        [78.43091, 20.51981],
        [78.43029, 20.51955],
        [78.42971, 20.51922],
        [78.42696, 20.51738],
        [78.42513, 20.51571],
        [78.42481, 20.51537],
        [78.42447, 20.51505],
        [78.4241, 20.51476],
        [78.42371, 20.5145],
        [78.4233, 20.51427],
        [78.42288, 20.51407],
        [78.42244, 20.51391],
        [78.42199, 20.51379],
        [78.41348, 20.51192],
        [78.41286, 20.51187],
        [78.41224, 20.51184],
        [78.41162, 20.51184],
        [78.411, 20.51187],
        [78.41038, 20.51193],
        [78.40976, 20.51201],
        [78.40915, 20.51212],
        [78.40854, 20.51226],
        [78.40788, 20.51239],
        [78.40722, 20.51254],
        [78.40657, 20.51273],
        [78.40593, 20.51294],
        [78.40529, 20.51317],
        [78.40467, 20.51344],
        [78.40406, 20.51373],
        [78.40346, 20.51404],
        [78.40287, 20.51438],
        [78.40256, 20.51452],
        [78.40225, 20.51466],
        [78.40194, 20.5148],
        [78.40162, 20.51493],
        [78.4013, 20.51505],
        [78.40098, 20.51518],
        [78.40066, 20.51529],
        [78.40034, 20.51541],
        [78.40001, 20.51552],
        [78.39974, 20.51562],
        [78.39946, 20.51573],
        [78.3992, 20.51585],
        [78.39894, 20.51599],
        [78.39868, 20.51613],
        [78.39843, 20.51629],
        [78.39819, 20.51645],
        [78.39795, 20.51663],
        [78.39545, 20.51821],
        [78.3952, 20.51837],
        [78.39494, 20.5185],
        [78.39468, 20.51861],
        [78.3944, 20.5187],
        [78.39412, 20.51877],
        [78.39383, 20.51882],
        [78.39354, 20.51885],
        [78.39325, 20.51885],
        [78.39296, 20.51883],
        [78.39265, 20.51883],
        [78.39234, 20.51882],
        [78.39203, 20.51883],
        [78.39173, 20.51884],
        [78.39142, 20.51886],
        [78.39111, 20.51888],
        [78.3908, 20.5189],
        [78.39049, 20.51894],
        [78.39019, 20.51898],
        [78.38988, 20.51903],
        [78.38958, 20.51908],
        [78.38928, 20.51912],
        [78.38897, 20.51917],
        [78.38867, 20.51921],
        [78.38836, 20.51925],
        [78.38806, 20.51928],
        [78.38775, 20.51931],
        [78.38744, 20.51934],
        [78.38695, 20.51941],
        [78.38647, 20.51953],
        [78.386, 20.51969],
        [78.38555, 20.51989],
        [78.38512, 20.52014],
        [78.38471, 20.52043],
        [78.38434, 20.52075],
        [78.38399, 20.52111],
        [78.38368, 20.52149],
        [78.38323, 20.52229],
        [78.38315, 20.52249],
        [78.38307, 20.5227],
        [78.383, 20.5229],
        [78.38293, 20.52311],
        [78.38286, 20.52332],
        [78.3828, 20.52352],
        [78.38274, 20.52373],
        [78.38268, 20.52394],
        [78.38263, 20.52416],
        [78.38232, 20.52541],
        [78.38217, 20.52586],
        [78.38198, 20.5263],
        [78.38176, 20.52672],
        [78.38151, 20.52712],
        [78.38122, 20.5275],
        [78.38091, 20.52786],
        [78.38057, 20.52819],
        [78.3802, 20.5285],
        [78.3798, 20.52877],
        [78.37448, 20.53157],
        [78.37388, 20.53192],
        [78.37326, 20.53223],
        [78.37263, 20.53252],
        [78.37199, 20.53277],
        [78.37133, 20.533],
        [78.37067, 20.53319],
        [78.36999, 20.53335],
        [78.36931, 20.53348],
        [78.36863, 20.53358],
        [78.36554, 20.53383],
        [78.36517, 20.53384],
        [78.3648, 20.5338],
        [78.36444, 20.53369],
        [78.36411, 20.53354],
        [78.3638, 20.53333],
        [78.36353, 20.53308],
        [78.3633, 20.53278],
        [78.36312, 20.53246],
        [78.36299, 20.53211],
        [78.36234, 20.53044],
        [78.36194, 20.52989],
        [78.36145, 20.52939],
        [78.36091, 20.52897],
        [78.36031, 20.52862],
        [78.35967, 20.52836],
        [78.359, 20.52819],
        [78.35832, 20.52811],
        [78.35763, 20.52813],
        [78.35694, 20.52824],
        [78.35627, 20.52851],
        [78.3556, 20.5288],
        [78.35494, 20.5291],
        [78.3543, 20.52943],
        [78.35366, 20.52978],
        [78.35303, 20.53015],
        [78.35242, 20.53054],
        [78.35182, 20.53095],
        [78.35123, 20.53138],
        [78.35092, 20.53158],
        [78.35061, 20.53179],
        [78.35032, 20.53201],
        [78.35003, 20.53224],
        [78.34975, 20.53248],
        [78.34948, 20.53274],
        [78.34922, 20.533],
        [78.34897, 20.53327],
        [78.34873, 20.53356],
        [78.34856, 20.53372],
        [78.3484, 20.5339],
        [78.34826, 20.5341],
        [78.34814, 20.5343],
        [78.34804, 20.53452],
        [78.34796, 20.53474],
        [78.34789, 20.53497],
        [78.34785, 20.53521],
        [78.34783, 20.53545],
        [78.34772, 20.53608],
        [78.34753, 20.5367],
        [78.34728, 20.53729],
        [78.34697, 20.53785],
        [78.34659, 20.53837],
        [78.34616, 20.53885],
        [78.34567, 20.53927],
        [78.34514, 20.53964],
        [78.34458, 20.53995],
        [78.33786, 20.54364],
        [78.3375, 20.54377],
        [78.33714, 20.54391],
        [78.33679, 20.54405],
        [78.33643, 20.54419],
        [78.32828, 20.54657],
        [78.3276, 20.54675],
        [78.32693, 20.54694],
        [78.32625, 20.54715],
        [78.32559, 20.54738],
        [78.32493, 20.54761],
        [78.32427, 20.54786],
        [78.32362, 20.54813],
        [78.32297, 20.5484],
        [78.32233, 20.54869],
        [78.32172, 20.54892],
        [78.3211, 20.54912],
        [78.32048, 20.54931],
        [78.31985, 20.54948],
        [78.31921, 20.54963],
        [78.31858, 20.54976],
        [78.31794, 20.54988],
        [78.31729, 20.54997],
        [78.31665, 20.55005],
        [78.31028, 20.55081],
        [78.30986, 20.5509],
        [78.30944, 20.551],
        [78.30904, 20.55114],
        [78.30864, 20.5513],
        [78.30826, 20.55148],
        [78.30788, 20.55169],
        [78.30752, 20.55192],
        [78.30718, 20.55218],
        [78.30686, 20.55245],
        [78.30632, 20.55283],
        [78.30577, 20.55319],
        [78.3052, 20.55353],
        [78.30462, 20.55384],
        [78.30403, 20.55413],
        [78.30343, 20.55439],
        [78.30282, 20.55463],
        [78.30219, 20.55484],
        [78.30156, 20.55503],
        [78.29969, 20.55543],
        [78.29917, 20.55545],
        [78.29865, 20.55555],
        [78.29816, 20.55572],
        [78.29769, 20.55596],
        [78.29727, 20.55627],
        [78.29689, 20.55663],
        [78.29657, 20.55705],
        [78.29632, 20.55751],
        [78.29613, 20.558],
        [78.29491, 20.56007],
        [78.29467, 20.56034],
        [78.2944, 20.56059],
        [78.2941, 20.5608],
        [78.29377, 20.56097],
        [78.29342, 20.56109],
        [78.29307, 20.56117],
        [78.2927, 20.56121],
        [78.29233, 20.5612],
        [78.29197, 20.56114],
        [78.28713, 20.55978],
        [78.2868, 20.5597],
        [78.28647, 20.55963],
        [78.28614, 20.55958],
        [78.2858, 20.55955],
        [78.28547, 20.55955],
        [78.28513, 20.55956],
        [78.28479, 20.5596],
        [78.28446, 20.55965],
        [78.28413, 20.55973],
        [78.28386, 20.55981],
        [78.28358, 20.55988],
        [78.28331, 20.55994],
        [78.28303, 20.56],
        [78.28275, 20.56005],
        [78.28247, 20.56008],
        [78.28218, 20.56012],
        [78.2819, 20.56014],
        [78.28162, 20.56015],
        [78.28117, 20.5602],
        [78.28072, 20.56029],
        [78.28028, 20.56041],
        [78.27986, 20.56057],
        [78.27945, 20.56077],
        [78.27906, 20.561],
        [78.27869, 20.56126],
        [78.27834, 20.56155],
        [78.27802, 20.56188],
        [78.27607, 20.56431],
        [78.27581, 20.56469],
        [78.27559, 20.56507],
        [78.27539, 20.56548],
        [78.27523, 20.5659],
        [78.27509, 20.56632],
        [78.27499, 20.56676],
        [78.27492, 20.5672],
        [78.27488, 20.56765],
        [78.27488, 20.5681],
        [78.27471, 20.56969],
        [78.27459, 20.57],
        [78.27445, 20.5703],
        [78.27428, 20.57058],
        [78.27409, 20.57085],
        [78.27387, 20.5711],
        [78.27363, 20.57133],
        [78.27338, 20.57154],
        [78.2731, 20.57173],
        [78.27281, 20.57189],
        [78.27089, 20.57283],
        [78.27059, 20.57298],
        [78.27031, 20.57315],
        [78.27004, 20.57334],
        [78.26978, 20.57354],
        [78.26953, 20.57377],
        [78.2693, 20.574],
        [78.26909, 20.57426],
        [78.26886, 20.57454],
        [78.26861, 20.5748],
        [78.26835, 20.57506],
        [78.26807, 20.57529],
        [78.26778, 20.5755],
        [78.26748, 20.5757],
        [78.26716, 20.57588],
        [78.26683, 20.57604],
        [78.2665, 20.57618],
        [78.26353, 20.57813],
        [78.26326, 20.57841],
        [78.26302, 20.57871],
        [78.26282, 20.57903],
        [78.26266, 20.57938],
        [78.26254, 20.57975],
        [78.26246, 20.58012],
        [78.26243, 20.58051],
        [78.26245, 20.58089],
        [78.26251, 20.58127],
        [78.2629, 20.58407],
        [78.26291, 20.58451],
        [78.26289, 20.58495],
        [78.26285, 20.58539],
        [78.26279, 20.58583],
        [78.26271, 20.58626],
        [78.26261, 20.58669],
        [78.26249, 20.58711],
        [78.26236, 20.58753],
        [78.2622, 20.58794],
        [78.25835, 20.59459],
        [78.25735, 20.59578],
        [78.25719, 20.59596],
        [78.25706, 20.59617],
        [78.25698, 20.59639],
        [78.25694, 20.59663],
        [78.25694, 20.59687],
        [78.25698, 20.59711],
        [78.25706, 20.59734],
        [78.25719, 20.59755],
        [78.25735, 20.59773],
        [78.25845, 20.59872],
        [78.25866, 20.59919],
        [78.25881, 20.59968],
        [78.25892, 20.60018],
        [78.25898, 20.60069],
        [78.25899, 20.60121],
        [78.25894, 20.60172],
        [78.25885, 20.60222],
        [78.2587, 20.60272],
        [78.25851, 20.60319],
        [78.25823, 20.60388],
        [78.25791, 20.60455],
        [78.25757, 20.60521],
        [78.25719, 20.60585],
        [78.25678, 20.60647],
        [78.25633, 20.60707],
        [78.25586, 20.60764],
        [78.25536, 20.60819],
        [78.25483, 20.60871],
        [78.25392, 20.60976],
        [78.25361, 20.61018],
        [78.25332, 20.61062],
        [78.25307, 20.61108],
        [78.25285, 20.61155],
        [78.25266, 20.61204],
        [78.25251, 20.61254],
        [78.25239, 20.61305],
        [78.2523, 20.61356],
        [78.25225, 20.61408],
        [78.252, 20.62653],
        [78.252, 20.62717],
        [78.25203, 20.62781],
        [78.25208, 20.62845],
        [78.25216, 20.62909],
        [78.25227, 20.62973],
        [78.2524, 20.63035],
        [78.25256, 20.63098],
        [78.25275, 20.63159],
        [78.25295, 20.6322],
        [78.25312, 20.63282],
        [78.25323, 20.63346],
        [78.25328, 20.6341],
        [78.25327, 20.63475],
        [78.2532, 20.63539],
        [78.25308, 20.63602],
        [78.25289, 20.63663],
        [78.25265, 20.63723],
        [78.25235, 20.6378],
        [78.24969, 20.64136],
        [78.24948, 20.64169],
        [78.2493, 20.64204],
        [78.24914, 20.6424],
        [78.24901, 20.64278],
        [78.24892, 20.64316],
        [78.24886, 20.64355],
        [78.24883, 20.64394],
        [78.24883, 20.64433],
        [78.24887, 20.64473],
        [78.24896, 20.64625],
        [78.24907, 20.64659],
        [78.24921, 20.64692],
        [78.24938, 20.64723],
        [78.24957, 20.64754],
        [78.24979, 20.64782],
        [78.25002, 20.64809],
        [78.25028, 20.64834],
        [78.25056, 20.64856],
        [78.25085, 20.64877],
        [78.25165, 20.64921],
        [78.25243, 20.64967],
        [78.25321, 20.65014],
        [78.25399, 20.65062],
        [78.25475, 20.65111],
        [78.25551, 20.65162],
        [78.25625, 20.65214],
        [78.25699, 20.65267],
        [78.25773, 20.65321],
        [78.25857, 20.65385],
        [78.2594, 20.65451],
        [78.26021, 20.6552],
        [78.26101, 20.65589],
        [78.26179, 20.6566],
        [78.26256, 20.65733],
        [78.26332, 20.65808],
        [78.26406, 20.65884],
        [78.26478, 20.65961],
        [78.26998, 20.6668],
        [78.27016, 20.66701],
        [78.27032, 20.66723],
        [78.27046, 20.66747],
        [78.27058, 20.66773],
        [78.27067, 20.66799],
        [78.27074, 20.66825],
        [78.27078, 20.66853],
        [78.2708, 20.6688],
        [78.27075, 20.66924],
        [78.27063, 20.66954],
        [78.27048, 20.66982],
        [78.2703, 20.67008],
        [78.27008, 20.67033],
        [78.26808, 20.67205],
        [78.26779, 20.6724],
        [78.26752, 20.67276],
        [78.26728, 20.67315],
        [78.26706, 20.67355],
        [78.26687, 20.67396],
        [78.26671, 20.67439],
        [78.26658, 20.67483],
        [78.26648, 20.67527],
        [78.26641, 20.67572],
        [78.26598, 20.67897],
        [78.2659, 20.67927],
        [78.26586, 20.67957],
        [78.26587, 20.67987],
        [78.26593, 20.68017],
        [78.26603, 20.68045],
        [78.26616, 20.68072],
        [78.26634, 20.68096],
        [78.26775, 20.68242],
        [78.26813, 20.68274],
        [78.2685, 20.68306],
        [78.26889, 20.68336],
        [78.26928, 20.68366],
        [78.26968, 20.68395],
        [78.27008, 20.68423],
        [78.27049, 20.6845],
        [78.2709, 20.68477],
        [78.27132, 20.68503],
        [78.27521, 20.68742],
        [78.27558, 20.68766],
        [78.27594, 20.68793],
        [78.27627, 20.68822],
        [78.27658, 20.68855],
        [78.27686, 20.68889],
        [78.27712, 20.68925],
        [78.27734, 20.68964],
        [78.27754, 20.69004],
        [78.2777, 20.69045],
        [78.27785, 20.69084],
        [78.27796, 20.69124],
        [78.27804, 20.69165],
        [78.27807, 20.69207],
        [78.27807, 20.69248],
        [78.27802, 20.6929],
        [78.27794, 20.69331],
        [78.27783, 20.69371],
        [78.27767, 20.69409],
        [78.27753, 20.69457],
        [78.27685, 20.69692],
        [78.27678, 20.69733],
        [78.27679, 20.69774],
        [78.27688, 20.69815],
        [78.27704, 20.69853],
        [78.27727, 20.69888],
        [78.27757, 20.69917],
        [78.27791, 20.69941],
        [78.2783, 20.69957],
        [78.2787, 20.69966],
        [78.28374, 20.69963],
        [78.284, 20.69971],
        [78.28426, 20.69981],
        [78.28451, 20.69992],
        [78.28475, 20.70006],
        [78.28499, 20.70021],
        [78.28521, 20.70037],
        [78.28542, 20.70055],
        [78.28562, 20.70074],
        [78.2858, 20.70095],
        [78.28606, 20.70121],
        [78.28633, 20.70145],
        [78.28662, 20.70168],
        [78.28691, 20.70188],
        [78.28723, 20.70207],
        [78.28755, 20.70224],
        [78.28788, 20.70239],
        [78.28822, 20.70252],
        [78.28857, 20.70262],
        [78.28894, 20.70266],
        [78.2893, 20.70265],
        [78.28967, 20.7026],
        [78.29003, 20.7025],
        [78.29037, 20.70235],
        [78.29068, 20.70216],
        [78.29097, 20.70193],
        [78.29123, 20.70167],
        [78.29146, 20.70138],
        [78.29324, 20.69838],
        [78.2934, 20.69818],
        [78.29359, 20.698],
        [78.29381, 20.69786],
        [78.29405, 20.69776],
        [78.2943, 20.69769],
        [78.29456, 20.69767],
        [78.29481, 20.69769],
        [78.29507, 20.69775],
        [78.29531, 20.69785],
        [78.29823, 20.69931],
        [78.29853, 20.69959],
        [78.29879, 20.6999],
        [78.29903, 20.70024],
        [78.29924, 20.70059],
        [78.29942, 20.70096],
        [78.29956, 20.70134],
        [78.29966, 20.70174],
        [78.29973, 20.70214],
        [78.29976, 20.70255],
        [78.29989, 20.70317],
        [78.29998, 20.70379],
        [78.30002, 20.70442],
        [78.30003, 20.70505],
        [78.30001, 20.70569],
        [78.29994, 20.70631],
        [78.29984, 20.70693],
        [78.29969, 20.70755],
        [78.29952, 20.70815],
        [78.29929, 20.70876],
        [78.29909, 20.70937],
        [78.29893, 20.70999],
        [78.29881, 20.71062],
        [78.29871, 20.71126],
        [78.29866, 20.7119],
        [78.29863, 20.71255],
        [78.29865, 20.71319],
        [78.29869, 20.71383],
        [78.29877, 20.71423],
        [78.29889, 20.71462],
        [78.29905, 20.715],
        [78.29924, 20.71536],
        [78.29947, 20.7157],
        [78.29972, 20.71601],
        [78.30001, 20.7163],
        [78.30032, 20.71656],
        [78.30066, 20.7168],
        [78.30355, 20.71851],
        [78.30398, 20.71886],
        [78.30439, 20.71924],
        [78.30477, 20.71963],
        [78.30514, 20.72005],
        [78.30549, 20.72048],
        [78.30581, 20.72094],
        [78.3061, 20.72141],
        [78.30637, 20.72189],
        [78.30661, 20.72239],
        [78.30837, 20.72732],
        [78.30852, 20.72786],
        [78.30866, 20.72839],
        [78.30879, 20.72893],
        [78.30891, 20.72947],
        [78.30902, 20.73002],
        [78.30912, 20.73056],
        [78.30922, 20.73111],
        [78.3093, 20.73166],
        [78.30937, 20.73221],
        [78.30944, 20.73252],
        [78.30951, 20.73282],
        [78.3096, 20.73312],
        [78.3097, 20.73342],
        [78.30981, 20.73371],
        [78.30992, 20.734],
        [78.31005, 20.73429],
        [78.31019, 20.73457],
        [78.31033, 20.73485],
        [78.31169, 20.73749],
        [78.31176, 20.73785],
        [78.31177, 20.73821],
        [78.31172, 20.73858],
        [78.31162, 20.73893],
        [78.31146, 20.73926],
        [78.31125, 20.73956],
        [78.31099, 20.73982],
        [78.3107, 20.74003],
        [78.31037, 20.7402],
        [78.30638, 20.74178],
        [78.30601, 20.7421],
        [78.30569, 20.74247],
        [78.30542, 20.74288],
        [78.3052, 20.74331],
        [78.30503, 20.74377],
        [78.30492, 20.74424],
        [78.30487, 20.74473],
        [78.30488, 20.74521],
        [78.30495, 20.7457],
        [78.30611, 20.75069],
        [78.30766, 20.75332],
        [78.30783, 20.75355],
        [78.30797, 20.7538],
        [78.30808, 20.75407],
        [78.30816, 20.75434],
        [78.30821, 20.75463],
        [78.30823, 20.75492],
        [78.30821, 20.7552],
        [78.30819, 20.75544],
        [78.30817, 20.75568],
        [78.30815, 20.75591],
        [78.30814, 20.75615],
        [78.30814, 20.75639],
        [78.30813, 20.75662],
        [78.30813, 20.75686],
        [78.30814, 20.7571],
        [78.30815, 20.75734],
        [78.30819, 20.75754],
        [78.30822, 20.75774],
        [78.30825, 20.75795],
        [78.30825, 20.75816],
        [78.30825, 20.75836],
        [78.30823, 20.75857],
        [78.30821, 20.75877],
        [78.30817, 20.75898],
        [78.30815, 20.75906],
        [78.31146, 20.75895],
        [78.32766, 20.75843],
        [78.33353, 20.75902],
        [78.34077, 20.75975],
        [78.34644, 20.75952],
        [78.35148, 20.75603],
        [78.35432, 20.75406],
        [78.35652, 20.75315],
        [78.36126, 20.75119],
        [78.37259, 20.75204],
        [78.38328, 20.75092],
        [78.38094, 20.75745],
        [78.38317, 20.77005],
        [78.38357, 20.77063],
        [78.3855, 20.77346],
        [78.39001, 20.77161],
        [78.39181, 20.77088],
        [78.39237, 20.77065],
        [78.39829, 20.77138],
        [78.39719, 20.7812],
        [78.39981, 20.7861],
        [78.4012, 20.79267],
        [78.40708, 20.80019],
        [78.4051, 20.80236],
        [78.4044, 20.80394],
        [78.40303, 20.80699],
        [78.40623, 20.81027],
        [78.40676, 20.81081],
        [78.41176, 20.81218],
        [78.41555, 20.81206],
        [78.42043, 20.81191],
        [78.42275, 20.81184],
        [78.43703, 20.8114],
        [78.44581, 20.81228],
        [78.44784, 20.81138],
        [78.44947, 20.80923],
        [78.45244, 20.81535],
        [78.45712, 20.82095],
        [78.4589, 20.82962],
        [78.45795, 20.83383],
        [78.45689, 20.83585],
        [78.45364, 20.83875],
        [78.45359, 20.84079],
        [78.4562, 20.84305],
        [78.46036, 20.84346],
        [78.46255, 20.84288],
        [78.47011, 20.84698],
        [78.482, 20.84538],
        [78.48603, 20.84453],
        [78.49059, 20.84475],
        [78.49194, 20.85356],
        [78.49205, 20.85755],
        [78.49221, 20.86365],
        [78.49224, 20.86493],
        [78.49317, 20.86947],
        [78.49603, 20.87523],
        [78.49638, 20.87594],
        [78.49426, 20.87982],
        [78.49538, 20.88346],
        [78.49626, 20.88434],
        [78.5045, 20.8926],
        [78.51332, 20.89485],
        [78.51413, 20.89522],
        [78.51575, 20.89597],
        [78.51829, 20.89851],
        [78.52172, 20.89704],
        [78.52399, 20.89289],
        [78.52516, 20.89076],
        [78.53056, 20.88781],
        [78.53171, 20.88816],
        [78.53591, 20.88945],
        [78.53992, 20.89167],
        [78.54061, 20.89144],
        [78.54009, 20.89005],
        [78.54061, 20.88546]
      ]
    ]
  }
}
