{
  "type": "Feature",
  "id": "MH-AC-53",
  "properties": {
    "stateName": "MAHARASHTRA",
    "stateCode": "MH",
    "districtName": "NAGPUR",
    "acNo": 53,
    "acName": "NAGPUR SOUTH",
    "seatType": null,
    "pcNo": null,
    "pcName": null,
    "quality": "unverified",
    "sources": [
      "TBD"
    ]
  },
  "geometry": {
    "type": "Polygon",
    "coordinates": [
      [
        [79.11801, 21.13875],
        [79.11871, 21.13827],
        [79.11887, 21.13659],
        [79.11835, 21.13087],
        [79.11871, 21.13056],
        [79.12121, 21.1299],
        [79.12315, 21.1289],
        [79.12408, 21.12843],
        [79.12542, 21.12818],
        [79.12639, 21.12619],
        [79.12739, 21.12567],
        [79.12847, 21.124],
        [79.12898, 21.12178],
        [79.13112, 21.12166],
        [79.13288, 21.11833],
        [79.13373, 21.11899],
        [79.13575, 21.12191],
        [79.13787, 21.12016],
        [79.13915, 21.1197],
        [79.13934, 21.11857],
        [79.14111, 21.1161],
        [79.14116, 21.11404],
        [79.14149, 21.11084],
        [79.14155, 21.10886],
        [79.14156, 21.10833],
        [79.13769, 21.10777],
        [79.13753, 21.1077],
        [79.13361, 21.10583],
        [79.13169, 21.10464],
        [79.13055, 21.10461],
        [79.12854, 21.10455],
        [79.12413, 21.10582],
        [79.12023, 21.1064],
        [79.11954, 21.10478],
        [79.11963, 21.10134],
        [79.12021, 21.09769],
        [79.12053, 21.09449],
        [79.1196, 21.09286],
        [79.11948, 21.09282],
        [79.11816, 21.09236],
        [79.11284, 21.09107],
        [79.11012, 21.09284],
        [79.10911, 21.09442],
        [79.10765, 21.09438],
        [79.10697, 21.09252],
        [79.10674, 21.09206],
        [79.10628, 21.0909],
        [79.10576, 21.09021],
        [79.10557, 21.08996],
        [79.10019, 21.09142],
        [79.09574, 21.09452],
        [79.09424, 21.09608],
        [79.08985, 21.09665],
        [79.09066, 21.09977],
        [79.09151, 21.10442],
        [79.09175, 21.10755],
        [79.09207, 21.11139],
        [79.09263, 21.11388],
        [79.09161, 21.11423],
        [79.09151, 21.11559],
        [79.09076, 21.11607],
        [79.0904, 21.11707],
        [79.09005, 21.11776],
        [79.09, 21.1186],
        [79.0889, 21.11933],
        [79.09217, 21.12643],
        [79.09042, 21.12753],
        [79.09163, 21.12871],
        [79.09299, 21.13003],
        [79.09293, 21.13255],
        [79.09651, 21.13253],
        [79.10182, 21.13694],
        [79.10251, 21.1354],
        [79.10396, 21.13449],
        [79.10363, 21.13359],
        [79.10334, 21.13293],
        [79.10379, 21.13241],
        [79.10449, 21.13234],
        [79.10577, 21.13131],
        [79.10627, 21.13209],
        [79.10648, 21.13251],
        [79.10537, 21.13383],
        [79.10483, 21.13443],
        [79.10494, 21.13529],
        [79.10597, 21.13612],
        [79.1067, 21.1365],
        [79.10713, 21.13876],
        [79.11204, 21.13877],
        [79.11538, 21.13962],
        [79.11759, 21.13945],
        [79.11801, 21.13875]
      ]
    ]
  }
}
