{
  "type": "Feature",
  "id": "MH-AC-56",
  "properties": {
    "stateName": "MAHARASHTRA",
    "stateCode": "MH",
    "districtName": "NAGPUR",
    "acNo": 56,
    "acName": "NAGPUR WEST",
    "seatType": null,
    "pcNo": null,
    "pcName": null,
    "quality": "unverified",
    "sources": [
      "TBD"
    ]
  },
  "geometry": {
    "type": "Polygon",
    "coordinates": [
      [
        [79.07872, 21.19544],
        [79.08145, 21.19171],
        [79.08276, 21.18957],
        [79.08371, 21.18796],
        [79.08439, 21.18471],
        [79.08502, 21.18366],
        [79.08492, 21.18224],
        [79.08657, 21.1821],
        [79.08694, 21.18121],
        [79.08636, 21.18002],
        [79.08567, 21.17964],
        [79.08563, 21.1778],
        [79.08662, 21.17595],
        [79.0849, 21.17543],
        [79.08486, 21.16707],
        [79.0848, 21.16609],
        [79.08625, 21.16147],
        [79.08716, 21.15957],
        [79.08881, 21.15944],
        [79.08825, 21.15556],
        [79.08852, 21.15479],
        [79.09224, 21.15364],
        [79.09195, 21.15314],
        [79.09131, 21.15264],
        [79.09093, 21.1519],
        [79.09063, 21.15002],
        [79.08806, 21.15017],
        [79.08777, 21.14561],
        [79.08703, 21.14567],
        [79.08645, 21.14244],
        [79.08653, 21.13857],
        [79.0864, 21.13766],
        [79.08529, 21.13761],
        [79.08499, 21.13726],
        [79.08388, 21.13739],
        [79.08284, 21.13806],
        [79.08236, 21.13744],
        [79.08189, 21.13654],
        [79.07937, 21.13753],
        [79.0798, 21.13901],
        [79.07893, 21.13908],
        [79.07711, 21.13485],
        [79.07172, 21.13324],
        [79.0677, 21.13229],
        [79.05762, 21.12923],
        [79.05544, 21.13422],
        [79.0541, 21.13324],
        [79.05331, 21.13271],
        [79.05169, 21.13224],
        [79.05125, 21.13229],
        [79.05207, 21.13442],
        [79.05016, 21.13447],
        [79.05042, 21.13937],
        [79.0465, 21.13923],
        [79.04634, 21.13946],
        [79.04697, 21.14028],
        [79.04751, 21.14096],
        [79.0475, 21.14154],
        [79.04722, 21.14304],
        [79.05115, 21.14534],
        [79.05152, 21.14665],
        [79.05178, 21.14758],
        [79.05229, 21.14794],
        [79.05264, 21.1489],
        [79.04519, 21.14951],
        [79.04552, 21.15137],
        [79.04329, 21.15182],
        [79.04116, 21.15047],
        [79.03934, 21.15041],
        [79.03816, 21.15087],
        [79.03423, 21.15117],
        [79.02938, 21.15279],
        [79.02727, 21.15341],
        [79.02347, 21.15371],
        [79.01921, 21.15496],
        [79.01791, 21.15545],
        [79.01683, 21.15546],
        [79.0171, 21.15646],
        [79.01437, 21.15915],
        [79.00458, 21.16353],
        [78.99875, 21.16442],
        [78.99802, 21.16453],
        [78.99721, 21.16866],
        [78.99734, 21.17374],
        [78.99954, 21.1786],
        [78.99966, 21.17887],
        [79.0045, 21.17875],
        [79.01031, 21.17888],
        [79.0154, 21.17877],
        [79.01804, 21.17998],
        [79.02231, 21.18422],
        [79.02493, 21.18635],
        [79.03141, 21.1888],
        [79.03355, 21.19069],
        [79.03492, 21.1944],
        [79.03537, 21.1958],
        [79.03411, 21.19784],
        [79.03402, 21.19869],
        [79.03552, 21.19971],
        [79.03549, 21.20109],
        [79.03374, 21.20359],
        [79.03494, 21.20407],
        [79.03569, 21.20317],
        [79.03714, 21.20297],
        [79.03737, 21.20366],
        [79.03803, 21.20644],
        [79.03969, 21.20832],
        [79.03961, 21.21154],
        [79.03978, 21.21499],
        [79.03988, 21.21509],
        [79.04214, 21.21734],
        [79.04433, 21.21693],
        [79.04652, 21.21605],
        [79.05122, 21.21155],
        [79.05489, 21.20979],
        [79.06326, 21.20376],
        [79.0708, 21.20231],
        [79.07236, 21.2032],
        [79.07247, 21.20326],
        [79.07362, 21.204],
        [79.0754, 21.20007],
        [79.07872, 21.19544]
      ]
    ]
  }
}
