{
  "type": "Feature",
  "id": "MH-AC-70",
  "properties": {
    "stateName": "MAHARASHTRA",
    "stateCode": "MH",
    "districtName": "CHANDRAPUR",
    "acNo": 70,
    "acName": "RAJURA",
    "seatType": null,
    "pcNo": null,
    "pcName": null,
    "quality": "unverified",
    "sources": [
      "TBD"
    ]
  },
  "geometry": {
    "type": "Polygon",
    "coordinates": [
      [
        [78.9448, 19.5504],
        [78.9444, 19.5507],
        [78.9437, 19.5507],
        [78.94355, 19.55072],
        [78.9428, 19.5508],
        [78.9422, 19.5513],
        [78.94136, 19.55158],
        [78.9413, 19.5516],
        [78.9408, 19.5518],
        [78.94061, 19.55199],
        [78.9406, 19.552],
        [78.9408, 19.5528],
        [78.9408, 19.5535],
        [78.9409, 19.5541],
        [78.9408, 19.5551],
        [78.9407, 19.5557],
        [78.9393, 19.5586],
        [78.9386, 19.5602],
        [78.9379, 19.5619],
        [78.9379, 19.56206],
        [78.9379, 19.5623],
        [78.9382, 19.5624],
        [78.9414, 19.5623],
        [78.9452, 19.562],
        [78.9465, 19.5621],
        [78.94732, 19.56243],
        [78.9475, 19.5625],
        [78.9478, 19.56288],
        [78.9482, 19.5634],
        [78.9489, 19.5638],
        [78.9509, 19.5647],
        [78.953, 19.5656],
        [78.95475, 19.56665],
        [78.9555, 19.5671],
        [78.9571, 19.5684],
        [78.95749, 19.56876],
        [78.9595, 19.5706],
        [78.9614, 19.5719],
        [78.962, 19.5723],
        [78.9649, 19.5739],
        [78.966, 19.5743],
        [78.9666, 19.5748],
        [78.96681, 19.57505],
        [78.9671, 19.5754],
        [78.9686, 19.5772],
        [78.9698, 19.5787],
        [78.97019, 19.57941],
        [78.9704, 19.5798],
        [78.9707, 19.5801],
        [78.9718, 19.5813],
        [78.9727, 19.5826],
        [78.9728, 19.5828],
        [78.97276, 19.58338],
        [78.97269, 19.5843],
        [78.97262, 19.58526],
        [78.9726, 19.5855],
        [78.97223, 19.58881],
        [78.9722, 19.5891],
        [78.97217, 19.58919],
        [78.97211, 19.58938],
        [78.97188, 19.59015],
        [78.9718, 19.5904],
        [78.9713, 19.5908],
        [78.9675, 19.593],
        [78.9652, 19.5938],
        [78.9627, 19.5947],
        [78.9609, 19.5954],
        [78.9586, 19.5964],
        [78.9586, 19.5964],
        [78.9585, 19.5964],
        [78.9573, 19.598],
        [78.95722, 19.59812],
        [78.9564, 19.5994],
        [78.9557, 19.60027],
        [78.9556, 19.6004],
        [78.9555, 19.6011],
        [78.95554, 19.60188],
        [78.9556, 19.6033],
        [78.9555, 19.6052],
        [78.9555, 19.60525],
        [78.9554, 19.6071],
        [78.95523, 19.60862],
        [78.9552, 19.6089],
        [78.95502, 19.60979],
        [78.955, 19.60995],
        [78.95508, 19.61218],
        [78.95509, 19.61237],
        [78.9551, 19.6127],
        [78.9551, 19.6137],
        [78.9551, 19.6146],
        [78.95541, 19.61627],
        [78.9556, 19.6173],
        [78.9555, 19.6193],
        [78.9556, 19.6195],
        [78.95566, 19.61995],
        [78.9558, 19.6209],
        [78.958, 19.6256],
        [78.9596, 19.6292],
        [78.9606, 19.6311],
        [78.96138, 19.63276],
        [78.9614, 19.6328],
        [78.9615, 19.6332],
        [78.96155, 19.6339],
        [78.9616, 19.6346],
        [78.9617, 19.6376],
        [78.9616, 19.63866],
        [78.9616, 19.6387],
        [78.96157, 19.63878],
        [78.9606, 19.6413],
        [78.9602, 19.6421],
        [78.96007, 19.64234],
        [78.9595, 19.6434],
        [78.9587, 19.6448],
        [78.9575, 19.6477],
        [78.9575, 19.6479],
        [78.95684, 19.64922],
        [78.9565, 19.6499],
        [78.9561, 19.651],
        [78.9559, 19.652],
        [78.9559, 19.6521],
        [78.9558, 19.6534],
        [78.9557, 19.6547],
        [78.9556, 19.6559],
        [78.95555, 19.65608],
        [78.9554, 19.6566],
        [78.9544, 19.6574],
        [78.9537, 19.6579],
        [78.9526, 19.6589],
        [78.9516, 19.6589],
        [78.9496, 19.6592],
        [78.9481, 19.6596],
        [78.9469, 19.6601],
        [78.94641, 19.66032],
        [78.9458, 19.6606],
        [78.94537, 19.66128],
        [78.9451, 19.6617],
        [78.9444, 19.662],
        [78.9432, 19.6622],
        [78.9423, 19.662],
        [78.9411, 19.6618],
        [78.9391, 19.6616],
        [78.9376, 19.6615],
        [78.9368, 19.6614],
        [78.9363, 19.6615],
        [78.9351, 19.6618],
        [78.9344, 19.6621],
        [78.9341, 19.6625],
        [78.9333, 19.6625],
        [78.9287, 19.6623],
        [78.9277, 19.6622],
        [78.9259, 19.6622],
        [78.9235, 19.6622],
        [78.9205, 19.6623],
        [78.9199, 19.6624],
        [78.91979, 19.66245],
        [78.9197, 19.6625],
        [78.9196, 19.6632],
        [78.9197, 19.6638],
        [78.9202, 19.6657],
        [78.9204, 19.6664],
        [78.9205, 19.6668],
        [78.9205, 19.6668],
        [78.9205, 19.6672],
        [78.9196, 19.6677],
        [78.9188, 19.6677],
        [78.9171, 19.6675],
        [78.9168, 19.6675],
        [78.9157, 19.6676],
        [78.9147, 19.6682],
        [78.9129, 19.6694],
        [78.9119, 19.6696],
        [78.911, 19.6696],
        [78.9107, 19.6695],
        [78.9101, 19.6695],
        [78.909, 19.6688],
        [78.9081, 19.6685],
        [78.9076, 19.6685],
        [78.9069, 19.6687],
        [78.9057, 19.6694],
        [78.9048, 19.6699],
        [78.9045, 19.6701],
        [78.9038, 19.6706],
        [78.9028, 19.6706],
        [78.9023, 19.6705],
        [78.9021, 19.6701],
        [78.902, 19.6698],
        [78.9018, 19.6689],
        [78.901, 19.6676],
        [78.9002, 19.6671],
        [78.8987, 19.6663],
        [78.8979, 19.6659],
        [78.8969, 19.6654],
        [78.8961, 19.665],
        [78.8952, 19.6649],
        [78.895, 19.665],
        [78.8939, 19.665],
        [78.8938, 19.665],
        [78.8929, 19.665],
        [78.8926, 19.6648],
        [78.8921, 19.6646],
        [78.8916, 19.6642],
        [78.8908, 19.6638],
        [78.88979, 19.66354],
        [78.88969, 19.66352],
        [78.88956, 19.66348],
        [78.8877, 19.663],
        [78.8865, 19.6627],
        [78.88657, 19.66265],
        [78.88694, 19.66234],
        [78.8871, 19.6622],
        [78.88814, 19.66151],
        [78.8895, 19.6606],
        [78.89006, 19.6601],
        [78.8904, 19.6598],
        [78.89031, 19.65909],
        [78.89019, 19.65884],
        [78.8891, 19.6573],
        [78.8883, 19.6563],
        [78.8872, 19.6555],
        [78.8866, 19.6554],
        [78.8858, 19.6553],
        [78.8852, 19.6552],
        [78.8847, 19.6552],
        [78.8835, 19.6552],
        [78.8829, 19.6555],
        [78.88264, 19.65567],
        [78.8817, 19.6563],
        [78.8808, 19.657],
        [78.8807, 19.6571],
        [78.88028, 19.65736],
        [78.8799, 19.6576],
        [78.8793, 19.6577],
        [78.8786, 19.6577],
        [78.8784, 19.6577],
        [78.8773, 19.6575],
        [78.87612, 19.65732],
        [78.876, 19.6573],
        [78.8742, 19.6573],
        [78.8723, 19.6578],
        [78.87099, 19.65846],
        [78.8705, 19.6587],
        [78.8691, 19.6592],
        [78.8676, 19.6594],
        [78.8665, 19.6593],
        [78.8654, 19.6591],
        [78.8639, 19.6586],
        [78.8629, 19.6581],
        [78.862, 19.6578],
        [78.8609, 19.6577],
        [78.85982, 19.6577],
        [78.8597, 19.6577],
        [78.85904, 19.65787],
        [78.8589, 19.6579],
        [78.85877, 19.65792],
        [78.8577, 19.6581],
        [78.85739, 19.65814],
        [78.8569, 19.6582],
        [78.8548, 19.6585],
        [78.8532, 19.6586],
        [78.8525, 19.6587],
        [78.8524, 19.6587],
        [78.85193, 19.6587],
        [78.8519, 19.6587],
        [78.8518, 19.659],
        [78.8517, 19.6596],
        [78.8521, 19.6617],
        [78.8521, 19.6625],
        [78.8521, 19.6628],
        [78.8521, 19.6639],
        [78.8524, 19.6654],
        [78.8528, 19.6662],
        [78.85307, 19.66683],
        [78.8531, 19.6669],
        [78.85311, 19.667],
        [78.8534, 19.669],
        [78.8536, 19.6698],
        [78.854, 19.6717],
        [78.8543, 19.673],
        [78.8552, 19.6752],
        [78.8555, 19.6768],
        [78.8558, 19.6783],
        [78.8559, 19.6809],
        [78.856, 19.6817],
        [78.8561, 19.6831],
        [78.8561, 19.6837],
        [78.8559, 19.6848],
        [78.8556, 19.686],
        [78.8555, 19.6868],
        [78.8558, 19.6875],
        [78.8562, 19.6882],
        [78.8571, 19.6899],
        [78.8572, 19.6899],
        [78.8582, 19.69],
        [78.8597, 19.6899],
        [78.8593, 19.6916],
        [78.8589, 19.6934],
        [78.8584, 19.6946],
        [78.8577, 19.6964],
        [78.8572, 19.6975],
        [78.8567, 19.6993],
        [78.8564, 19.702],
        [78.8561, 19.7037],
        [78.856, 19.704],
        [78.8551, 19.7047],
        [78.8548, 19.70533],
        [78.8543, 19.7064],
        [78.85425, 19.70645],
        [78.854, 19.7067],
        [78.85391, 19.70758],
        [78.8539, 19.7077],
        [78.85376, 19.70819],
        [78.8537, 19.7084],
        [78.8533, 19.7094],
        [78.8527, 19.7116],
        [78.8524, 19.7129],
        [78.8519, 19.7149],
        [78.8515, 19.7164],
        [78.8513, 19.7173],
        [78.8499, 19.7206],
        [78.8493, 19.7218],
        [78.8492, 19.7223],
        [78.8491, 19.7231],
        [78.8493, 19.7239],
        [78.8503, 19.7253],
        [78.8515, 19.727],
        [78.8521, 19.728],
        [78.8521, 19.7287],
        [78.8519, 19.7304],
        [78.8516, 19.7325],
        [78.8513, 19.7341],
        [78.85091, 19.73624],
        [78.8509, 19.7363],
        [78.8505, 19.7362],
        [78.8493, 19.736],
        [78.84799, 19.73575],
        [78.8477, 19.7357],
        [78.8473, 19.7376],
        [78.8472, 19.7381],
        [78.8469, 19.7394],
        [78.8465, 19.7401],
        [78.8463, 19.7411],
        [78.846, 19.7422],
        [78.8454, 19.7453],
        [78.8452, 19.7462],
        [78.8451, 19.7466],
        [78.8448, 19.7478],
        [78.8444, 19.7484],
        [78.8437, 19.7499],
        [78.8429, 19.7518],
        [78.8426, 19.7524],
        [78.842, 19.7535],
        [78.8416, 19.7542],
        [78.8409, 19.7549],
        [78.8406, 19.7551],
        [78.8401, 19.7558],
        [78.8399, 19.7571],
        [78.84, 19.7576],
        [78.8402, 19.7587],
        [78.8402, 19.7597],
        [78.8403, 19.7609],
        [78.8403, 19.762],
        [78.84032, 19.76207],
        [78.84086, 19.76209],
        [78.84082, 19.76196],
        [78.84408, 19.76234],
        [78.84575, 19.76296],
        [78.84712, 19.76371],
        [78.84835, 19.76454],
        [78.84972, 19.76544],
        [78.85094, 19.76647],
        [78.85172, 19.76728],
        [78.85211, 19.76799],
        [78.85284, 19.76891],
        [78.85389, 19.76991],
        [78.85471, 19.77048],
        [78.85561, 19.77076],
        [78.85681, 19.771],
        [78.85869, 19.77114],
        [78.86049, 19.77107],
        [78.86249, 19.771],
        [78.86383, 19.77076],
        [78.86498, 19.77043],
        [78.86633, 19.77],
        [78.86733, 19.7696],
        [78.86828, 19.76896],
        [78.8689, 19.76865],
        [78.86963, 19.76851],
        [78.8711, 19.7683],
        [78.87212, 19.76814],
        [78.87354, 19.76795],
        [78.87496, 19.76804],
        [78.87662, 19.7679],
        [78.87789, 19.76761],
        [78.87877, 19.76733],
        [78.88031, 19.76664],
        [78.88124, 19.76603],
        [78.88181, 19.76518],
        [78.88206, 19.76445],
        [78.88204, 19.76357],
        [78.88196, 19.76262],
        [78.88172, 19.76164],
        [78.88124, 19.76086],
        [78.88074, 19.76013],
        [78.88027, 19.75932],
        [78.87975, 19.75845],
        [78.87949, 19.75774],
        [78.87927, 19.75686],
        [78.87919, 19.75589],
        [78.87884, 19.75475],
        [78.87857, 19.75392],
        [78.87837, 19.75298],
        [78.87832, 19.75104],
        [78.8786, 19.74965],
        [78.87867, 19.74946],
        [78.87876, 19.74927],
        [78.87885, 19.74909],
        [78.87895, 19.74891],
        [78.87907, 19.74874],
        [78.87918, 19.74857],
        [78.87931, 19.74841],
        [78.87945, 19.74825],
        [78.87959, 19.74811],
        [78.87979, 19.74784],
        [78.88003, 19.74761],
        [78.88031, 19.74742],
        [78.88061, 19.74727],
        [78.88091, 19.74717],
        [78.88122, 19.74713],
        [78.88169, 19.74712],
        [78.882, 19.74717],
        [78.88229, 19.74727],
        [78.88258, 19.74739],
        [78.88286, 19.7475],
        [78.88316, 19.74759],
        [78.88345, 19.74767],
        [78.88371, 19.74771],
        [78.88396, 19.74773],
        [78.88422, 19.74773],
        [78.88448, 19.74771],
        [78.88473, 19.74767],
        [78.88498, 19.74762],
        [78.88523, 19.74754],
        [78.88547, 19.74744],
        [78.8857, 19.74733],
        [78.88602, 19.74716],
        [78.88634, 19.74698],
        [78.88665, 19.7468],
        [78.88696, 19.7466],
        [78.88726, 19.74639],
        [78.88755, 19.74617],
        [78.88783, 19.74594],
        [78.8881, 19.7457],
        [78.88837, 19.74545],
        [78.88873, 19.74516],
        [78.88909, 19.74487],
        [78.88944, 19.74457],
        [78.88978, 19.74427],
        [78.89013, 19.74396],
        [78.89047, 19.74364],
        [78.8908, 19.74333],
        [78.89114, 19.74301],
        [78.89146, 19.74268],
        [78.89179, 19.74234],
        [78.89211, 19.74201],
        [78.89245, 19.74169],
        [78.89279, 19.74137],
        [78.89314, 19.74106],
        [78.8935, 19.74075],
        [78.89386, 19.74046],
        [78.89423, 19.74017],
        [78.89461, 19.73989],
        [78.89489, 19.73969],
        [78.89519, 19.7395],
        [78.89549, 19.73932],
        [78.8958, 19.73916],
        [78.89612, 19.73901],
        [78.89644, 19.73887],
        [78.89677, 19.73875],
        [78.8971, 19.73864],
        [78.89744, 19.73854],
        [78.89773, 19.73844],
        [78.89802, 19.73835],
        [78.89831, 19.73825],
        [78.8986, 19.73816],
        [78.8989, 19.73807],
        [78.89919, 19.73798],
        [78.89948, 19.7379],
        [78.89978, 19.73782],
        [78.90008, 19.73774],
        [78.90038, 19.73772],
        [78.90067, 19.73771],
        [78.90097, 19.7377],
        [78.90127, 19.73769],
        [78.90157, 19.73767],
        [78.90187, 19.73766],
        [78.90217, 19.73765],
        [78.90247, 19.73763],
        [78.90277, 19.73762],
        [78.90307, 19.73761],
        [78.90338, 19.7376],
        [78.90369, 19.73761],
        [78.90399, 19.73763],
        [78.9043, 19.73767],
        [78.9046, 19.73771],
        [78.9049, 19.73777],
        [78.90521, 19.73783],
        [78.9055, 19.73791],
        [78.90584, 19.73802],
        [78.90617, 19.73813],
        [78.9065, 19.73824],
        [78.90683, 19.73834],
        [78.90717, 19.73845],
        [78.9075, 19.73856],
        [78.90783, 19.73867],
        [78.90816, 19.73879],
        [78.90849, 19.7389],
        [78.90879, 19.73896],
        [78.90908, 19.73903],
        [78.90937, 19.73911],
        [78.90965, 19.7392],
        [78.90994, 19.7393],
        [78.91022, 19.73941],
        [78.91049, 19.73953],
        [78.91077, 19.73965],
        [78.91121, 19.73985],
        [78.91152, 19.74004],
        [78.91179, 19.74029],
        [78.912, 19.74059],
        [78.91214, 19.74093],
        [78.91221, 19.74118],
        [78.9123, 19.74143],
        [78.9124, 19.74168],
        [78.91251, 19.74192],
        [78.91263, 19.74216],
        [78.91276, 19.74239],
        [78.9129, 19.74262],
        [78.91305, 19.74284],
        [78.9132, 19.74306],
        [78.91334, 19.7432],
        [78.91349, 19.74333],
        [78.91364, 19.74346],
        [78.9138, 19.74357],
        [78.91397, 19.74368],
        [78.91414, 19.74378],
        [78.91432, 19.74387],
        [78.9145, 19.74395],
        [78.91469, 19.74402],
        [78.91518, 19.74425],
        [78.91567, 19.74448],
        [78.91616, 19.74471],
        [78.91665, 19.74494],
        [78.91715, 19.74517],
        [78.91764, 19.74539],
        [78.91814, 19.74561],
        [78.91864, 19.74583],
        [78.91913, 19.74605],
        [78.91956, 19.74624],
        [78.92, 19.74643],
        [78.92043, 19.74661],
        [78.92086, 19.74679],
        [78.9213, 19.74696],
        [78.92174, 19.74713],
        [78.92218, 19.74729],
        [78.92263, 19.74745],
        [78.92307, 19.7476],
        [78.92331, 19.74766],
        [78.92355, 19.74771],
        [78.9238, 19.74775],
        [78.92404, 19.7478],
        [78.92428, 19.74784],
        [78.92453, 19.74788],
        [78.92477, 19.74791],
        [78.92502, 19.74795],
        [78.92526, 19.74798],
        [78.92588, 19.74812],
        [78.92651, 19.74825],
        [78.92714, 19.74836],
        [78.92777, 19.74845],
        [78.9284, 19.74853],
        [78.92903, 19.74858],
        [78.92966, 19.74862],
        [78.9303, 19.74864],
        [78.93094, 19.74865],
        [78.9315, 19.74866],
        [78.93206, 19.74866],
        [78.93262, 19.74865],
        [78.93318, 19.74864],
        [78.93374, 19.74862],
        [78.9343, 19.74859],
        [78.93486, 19.74855],
        [78.93541, 19.7485],
        [78.93597, 19.74845],
        [78.93646, 19.74837],
        [78.93694, 19.74829],
        [78.93743, 19.74824],
        [78.93792, 19.74819],
        [78.93841, 19.74816],
        [78.9389, 19.74814],
        [78.93939, 19.74814],
        [78.93989, 19.74814],
        [78.94038, 19.74817],
        [78.9409, 19.74817],
        [78.94143, 19.74818],
        [78.94196, 19.74819],
        [78.94248, 19.74821],
        [78.94301, 19.74824],
        [78.94353, 19.74827],
        [78.94406, 19.74831],
        [78.94458, 19.74836],
        [78.94511, 19.74841],
        [78.94531, 19.74842],
        [78.94551, 19.74845],
        [78.94571, 19.74848],
        [78.9459, 19.74852],
        [78.9461, 19.74856],
        [78.94629, 19.74861],
        [78.94648, 19.74867],
        [78.94667, 19.74873],
        [78.94686, 19.7488],
        [78.94717, 19.7489],
        [78.94748, 19.749],
        [78.94779, 19.7491],
        [78.9481, 19.74921],
        [78.9484, 19.74932],
        [78.94871, 19.74943],
        [78.94902, 19.74954],
        [78.94932, 19.74966],
        [78.94962, 19.74977],
        [78.94989, 19.74994],
        [78.95012, 19.75014],
        [78.95034, 19.7504],
        [78.95126, 19.75155],
        [78.9517, 19.75256],
        [78.95188, 19.75346],
        [78.95196, 19.75503],
        [78.95181, 19.75672],
        [78.95147, 19.75788],
        [78.95093, 19.75888],
        [78.95011, 19.75971],
        [78.94922, 19.76045],
        [78.94851, 19.76165],
        [78.9479, 19.76291],
        [78.94727, 19.76393],
        [78.94659, 19.76482],
        [78.9455, 19.76555],
        [78.94427, 19.76628],
        [78.94343, 19.76675],
        [78.94254, 19.76738],
        [78.94134, 19.76869],
        [78.94008, 19.77025],
        [78.93869, 19.77263],
        [78.93804, 19.77411],
        [78.9375, 19.7757],
        [78.93727, 19.77723],
        [78.93748, 19.77816],
        [78.93785, 19.77962],
        [78.93823, 19.78085],
        [78.93878, 19.78255],
        [78.93922, 19.78349],
        [78.93975, 19.78455],
        [78.94014, 19.7851],
        [78.94074, 19.78577],
        [78.94182, 19.78673],
        [78.94315, 19.78784],
        [78.94391, 19.78844],
        [78.94481, 19.78898],
        [78.94544, 19.78947],
        [78.94575, 19.78983],
        [78.94583, 19.79043],
        [78.94602, 19.7914],
        [78.94635, 19.79199],
        [78.94671, 19.79278],
        [78.94717, 19.79353],
        [78.94763, 19.79422],
        [78.94823, 19.79511],
        [78.94892, 19.79603],
        [78.9498, 19.79719],
        [78.95065, 19.79811],
        [78.95153, 19.79893],
        [78.95277, 19.79967],
        [78.95375, 19.8001],
        [78.95466, 19.80049],
        [78.95553, 19.80095],
        [78.95641, 19.80161],
        [78.95794, 19.8026],
        [78.95886, 19.80321],
        [78.96053, 19.80433],
        [78.96188, 19.80502],
        [78.96372, 19.80569],
        [78.96664, 19.80663],
        [78.96828, 19.807],
        [78.96932, 19.80715],
        [78.97095, 19.80716],
        [78.97228, 19.80721],
        [78.97412, 19.80717],
        [78.97715, 19.80716],
        [78.97884, 19.80706],
        [78.97978, 19.80705],
        [78.98082, 19.80698],
        [78.98183, 19.80693],
        [78.98311, 19.80708],
        [78.98479, 19.80692],
        [78.98547, 19.80665],
        [78.98659, 19.80639],
        [78.98742, 19.80615],
        [78.98835, 19.80597],
        [78.98959, 19.80602],
        [78.9907, 19.80601],
        [78.99138, 19.80601],
        [78.99224, 19.80606],
        [78.99304, 19.80625],
        [78.99385, 19.80636],
        [78.99552, 19.8066],
        [78.99699, 19.80672],
        [78.9987, 19.80704],
        [79.00048, 19.80708],
        [79.00183, 19.80727],
        [79.00394, 19.80721],
        [79.0059, 19.80718],
        [79.00707, 19.80717],
        [79.00884, 19.80709],
        [79.01076, 19.80678],
        [79.012, 19.80631],
        [79.01328, 19.80546],
        [79.01471, 19.80431],
        [79.01525, 19.80375],
        [79.01616, 19.80259],
        [79.01688, 19.80175],
        [79.01745, 19.80118],
        [79.01875, 19.80017],
        [79.01916, 19.80005],
        [79.01992, 19.79993],
        [79.02179, 19.79997],
        [79.02327, 19.80014],
        [79.02413, 19.8003],
        [79.02513, 19.80076],
        [79.02598, 19.80144],
        [79.02654, 19.80213],
        [79.02728, 19.80347],
        [79.02758, 19.80406],
        [79.0278, 19.80433],
        [79.02858, 19.80464],
        [79.0298, 19.80501],
        [79.03044, 19.8054],
        [79.03132, 19.80639],
        [79.03188, 19.80731],
        [79.0329, 19.80865],
        [79.03377, 19.81037],
        [79.03435, 19.81245],
        [79.03452, 19.815],
        [79.03474, 19.816],
        [79.03511, 19.81697],
        [79.03561, 19.8179],
        [79.03622, 19.8187],
        [79.03691, 19.81925],
        [79.03778, 19.81982],
        [79.03941, 19.82065],
        [79.04127, 19.82139],
        [79.0429, 19.82192],
        [79.04373, 19.82213],
        [79.04427, 19.82211],
        [79.04488, 19.82192],
        [79.04557, 19.82131],
        [79.04649, 19.82061],
        [79.04749, 19.82005],
        [79.04853, 19.81948],
        [79.05016, 19.81872],
        [79.05213, 19.81784],
        [79.0537, 19.81729],
        [79.05515, 19.81708],
        [79.05708, 19.81683],
        [79.05867, 19.81665],
        [79.05934, 19.81663],
        [79.06017, 19.81692],
        [79.06077, 19.81715],
        [79.06112, 19.81719],
        [79.06271, 19.817],
        [79.06431, 19.81688],
        [79.06603, 19.817],
        [79.06749, 19.81717],
        [79.06957, 19.81742],
        [79.07078, 19.8177],
        [79.07185, 19.81816],
        [79.07349, 19.81916],
        [79.07502, 19.82041],
        [79.07647, 19.82173],
        [79.07792, 19.82285],
        [79.07975, 19.8242],
        [79.08194, 19.82586],
        [79.08433, 19.82775],
        [79.0853, 19.82861],
        [79.08591, 19.82931],
        [79.08696, 19.8311],
        [79.08834, 19.83363],
        [79.08934, 19.83512],
        [79.09043, 19.83666],
        [79.09084, 19.83786],
        [79.09073, 19.8387],
        [79.09043, 19.83926],
        [79.08958, 19.84042],
        [79.08895, 19.84129],
        [79.08889, 19.84186],
        [79.08908, 19.84244],
        [79.08956, 19.84298],
        [79.08999, 19.84317],
        [79.09066, 19.84316],
        [79.09192, 19.84276],
        [79.09343, 19.84213],
        [79.09514, 19.84157],
        [79.09612, 19.84133],
        [79.09688, 19.84136],
        [79.09779, 19.84186],
        [79.09916, 19.84369],
        [79.10037, 19.84514],
        [79.10102, 19.8456],
        [79.1018, 19.84582],
        [79.10362, 19.84615],
        [79.10547, 19.84629],
        [79.10662, 19.8464],
        [79.10766, 19.8466],
        [79.10914, 19.84712],
        [79.11005, 19.84769],
        [79.11079, 19.8484],
        [79.1115, 19.84959],
        [79.11263, 19.85216],
        [79.11346, 19.85426],
        [79.11487, 19.8578],
        [79.1155, 19.85963],
        [79.11589, 19.86031],
        [79.11626, 19.86074],
        [79.1174, 19.86159],
        [79.11904, 19.86283],
        [79.12065, 19.86374],
        [79.12141, 19.86392],
        [79.1229, 19.86402],
        [79.12469, 19.86413],
        [79.12653, 19.86407],
        [79.12722, 19.86423],
        [79.12831, 19.86487],
        [79.12939, 19.86541],
        [79.13031, 19.8658],
        [79.13186, 19.86635],
        [79.13294, 19.86661],
        [79.1344, 19.86726],
        [79.13478, 19.8676],
        [79.13517, 19.86832],
        [79.13545, 19.86927],
        [79.13567, 19.87101],
        [79.13554, 19.87286],
        [79.13523, 19.87464],
        [79.13552, 19.87641],
        [79.13591, 19.87798],
        [79.13667, 19.87928],
        [79.13734, 19.88002],
        [79.13779, 19.88018],
        [79.13929, 19.88051],
        [79.14038, 19.88109],
        [79.14195, 19.88164],
        [79.14268, 19.88199],
        [79.14318, 19.8825],
        [79.14368, 19.88349],
        [79.14473, 19.88585],
        [79.14525, 19.88684],
        [79.14606, 19.88777],
        [79.1464, 19.88837],
        [79.14662, 19.88926],
        [79.1466, 19.89123],
        [79.14672, 19.89219],
        [79.14699, 19.89331],
        [79.15664, 19.89478],
        [79.16151, 19.89552],
        [79.16558, 19.89985],
        [79.16657, 19.90052],
        [79.17403, 19.90555],
        [79.18344, 19.90051],
        [79.18408, 19.90031],
        [79.18481, 19.90009],
        [79.19342, 19.89746],
        [79.201, 19.89514],
        [79.20577, 19.89531],
        [79.22651, 19.89604],
        [79.23684, 19.89641],
        [79.24067, 19.89654],
        [79.25011, 19.89316],
        [79.25453, 19.88944],
        [79.25467, 19.88933],
        [79.26964, 19.87672],
        [79.27094, 19.87608],
        [79.27137, 19.87587],
        [79.27579, 19.87372],
        [79.27771, 19.87344],
        [79.28188, 19.87283],
        [79.29098, 19.87308],
        [79.30023, 19.87326],
        [79.30138, 19.87329],
        [79.30556, 19.87054],
        [79.32193, 19.85973],
        [79.33664, 19.854],
        [79.34085, 19.84831],
        [79.33956, 19.84399],
        [79.33657, 19.83831],
        [79.3376, 19.8367],
        [79.34283, 19.82849],
        [79.34668, 19.82508],
        [79.34729, 19.82479],
        [79.34842, 19.82424],
        [79.3573, 19.81994],
        [79.35996, 19.81866],
        [79.36012, 19.81858],
        [79.3674, 19.81614],
        [79.37131, 19.81483],
        [79.38505, 19.81333],
        [79.38638, 19.81319],
        [79.39344, 19.81242],
        [79.40188, 19.813],
        [79.40203, 19.81301],
        [79.40985, 19.81076],
        [79.41125, 19.81036],
        [79.42203, 19.80604],
        [79.42423, 19.80515],
        [79.4317, 19.80301],
        [79.43625, 19.8017],
        [79.44366, 19.79733],
        [79.44708, 19.79531],
        [79.44757, 19.79493],
        [79.45866, 19.78627],
        [79.4595, 19.78561],
        [79.47047, 19.77705],
        [79.47721, 19.77353],
        [79.4871, 19.76837],
        [79.48815, 19.76782],
        [79.49245, 19.76299],
        [79.49248, 19.76254],
        [79.49312, 19.75385],
        [79.49056, 19.74093],
        [79.49878, 19.74349],
        [79.50379, 19.74618],
        [79.51322, 19.7538],
        [79.52231, 19.76114],
        [79.52664, 19.76177],
        [79.52956, 19.7628],
        [79.53292, 19.76294],
        [79.53531, 19.7647],
        [79.53753, 19.76621],
        [79.53947, 19.76845],
        [79.54063, 19.77124],
        [79.54127, 19.77387],
        [79.53935, 19.7749],
        [79.53685, 19.77478],
        [79.53323, 19.77423],
        [79.53125, 19.77395],
        [79.52824, 19.77333],
        [79.52558, 19.77338],
        [79.52579, 19.77664],
        [79.52631, 19.78459],
        [79.52617, 19.78943],
        [79.53272, 19.78508],
        [79.54266, 19.78407],
        [79.55486, 19.78216],
        [79.56209, 19.78016],
        [79.57113, 19.7742],
        [79.57932, 19.7741],
        [79.58535, 19.76997],
        [79.59403, 19.77011],
        [79.60044, 19.77256],
        [79.60468, 19.77169],
        [79.61496, 19.76528],
        [79.62291, 19.76517],
        [79.62743, 19.76219],
        [79.62932, 19.76739],
        [79.63202, 19.76907],
        [79.63787, 19.76775],
        [79.63862, 19.79163],
        [79.63975, 19.79154],
        [79.64584, 19.79101],
        [79.64898, 19.79006],
        [79.65218, 19.78291],
        [79.6549, 19.78437],
        [79.66017, 19.78641],
        [79.66035, 19.78636],
        [79.66935, 19.78375],
        [79.67352, 19.77917],
        [79.68035, 19.78114],
        [79.68187, 19.78292],
        [79.67708, 19.78503],
        [79.67636, 19.79067],
        [79.67946, 19.79559],
        [79.68308, 19.79642],
        [79.69405, 19.79896],
        [79.69444, 19.79917],
        [79.70261, 19.80349],
        [79.70591, 19.80184],
        [79.7069, 19.80203],
        [79.70563, 19.79364],
        [79.70658, 19.788],
        [79.70912, 19.78364],
        [79.70935, 19.78325],
        [79.7153, 19.78156],
        [79.71876, 19.78058],
        [79.72075, 19.78105],
        [79.72311, 19.78162],
        [79.72283, 19.7807],
        [79.72741, 19.78023],
        [79.73725, 19.77922],
        [79.73762, 19.77938],
        [79.74582, 19.78276],
        [79.74634, 19.78176],
        [79.74854, 19.77795],
        [79.74884, 19.77756],
        [79.74892, 19.77739],
        [79.749, 19.77721],
        [79.74907, 19.77703],
        [79.74914, 19.77685],
        [79.7492, 19.77667],
        [79.74927, 19.77649],
        [79.74932, 19.77631],
        [79.74938, 19.77612],
        [79.74943, 19.77594],
        [79.74953, 19.77545],
        [79.74963, 19.77496],
        [79.74974, 19.77448],
        [79.74985, 19.77399],
        [79.74996, 19.77351],
        [79.75007, 19.77302],
        [79.75018, 19.77254],
        [79.7503, 19.77205],
        [79.75042, 19.77157],
        [79.75049, 19.77118],
        [79.75055, 19.77079],
        [79.75061, 19.77039],
        [79.75067, 19.77],
        [79.75073, 19.7696],
        [79.75079, 19.76921],
        [79.75084, 19.76881],
        [79.75089, 19.76842],
        [79.75093, 19.76802],
        [79.75098, 19.76773],
        [79.75102, 19.76743],
        [79.75105, 19.76714],
        [79.75109, 19.76684],
        [79.75112, 19.76655],
        [79.75115, 19.76625],
        [79.75117, 19.76596],
        [79.75119, 19.76566],
        [79.75121, 19.76536],
        [79.75128, 19.76503],
        [79.75135, 19.76469],
        [79.75142, 19.76435],
        [79.75149, 19.76401],
        [79.75157, 19.76368],
        [79.75164, 19.76334],
        [79.75172, 19.763],
        [79.75181, 19.76267],
        [79.75189, 19.76234],
        [79.75204, 19.76175],
        [79.7522, 19.76117],
        [79.75238, 19.7606],
        [79.75257, 19.76003],
        [79.75278, 19.75946],
        [79.753, 19.7589],
        [79.75324, 19.75835],
        [79.75349, 19.7578],
        [79.75375, 19.75726],
        [79.75399, 19.75694],
        [79.75424, 19.75662],
        [79.75449, 19.7563],
        [79.75474, 19.75599],
        [79.75499, 19.75567],
        [79.75524, 19.75536],
        [79.7555, 19.75505],
        [79.75575, 19.75474],
        [79.75601, 19.75443],
        [79.75626, 19.75419],
        [79.75651, 19.75395],
        [79.75676, 19.7537],
        [79.75701, 19.75346],
        [79.75726, 19.75321],
        [79.75751, 19.75296],
        [79.75775, 19.75271],
        [79.75799, 19.75246],
        [79.75824, 19.75221],
        [79.75839, 19.75206],
        [79.75853, 19.75191],
        [79.75868, 19.75176],
        [79.75882, 19.75161],
        [79.75896, 19.75146],
        [79.7591, 19.7513],
        [79.75924, 19.75114],
        [79.75937, 19.75098],
        [79.75953, 19.75083],
        [79.76048, 19.74957],
        [79.76173, 19.74751],
        [79.76233, 19.74648],
        [79.76259, 19.74616],
        [79.7637, 19.7453],
        [79.76493, 19.74466],
        [79.76652, 19.74442],
        [79.76754, 19.74426],
        [79.76846, 19.74403],
        [79.769, 19.7438],
        [79.76946, 19.74343],
        [79.76998, 19.74271],
        [79.77068, 19.74153],
        [79.77221, 19.73904],
        [79.77406, 19.73714],
        [79.77597, 19.73531],
        [79.7768, 19.73454],
        [79.77722, 19.73403],
        [79.77793, 19.73276],
        [79.77895, 19.73075],
        [79.77966, 19.72995],
        [79.78013, 19.72919],
        [79.78048, 19.72882],
        [79.78117, 19.72842],
        [79.78207, 19.72793],
        [79.78242, 19.72749],
        [79.78253, 19.72685],
        [79.78272, 19.72494],
        [79.78283, 19.72383],
        [79.78306, 19.72309],
        [79.78336, 19.72223],
        [79.78348, 19.72169],
        [79.78351, 19.72125],
        [79.78351, 19.72096],
        [79.78336, 19.71994],
        [79.78325, 19.71889],
        [79.78328, 19.71773],
        [79.78344, 19.71691],
        [79.7836, 19.71636],
        [79.78418, 19.71555],
        [79.78445, 19.71506],
        [79.78455, 19.71462],
        [79.78466, 19.71388],
        [79.78478, 19.71249],
        [79.78494, 19.71146],
        [79.78515, 19.71068],
        [79.78521, 19.70972],
        [79.78514, 19.70836],
        [79.78519, 19.70635],
        [79.78535, 19.70546],
        [79.78533, 19.70451],
        [79.78545, 19.70284],
        [79.78559, 19.70017],
        [79.78556, 19.69855],
        [79.78542, 19.69708],
        [79.78535, 19.69586],
        [79.7854, 19.69507],
        [79.78551, 19.69401],
        [79.78591, 19.6923],
        [79.78609, 19.69126],
        [79.78614, 19.6905],
        [79.78616, 19.68987],
        [79.78609, 19.68934],
        [79.78595, 19.68863],
        [79.7859, 19.68804],
        [79.78609, 19.68658],
        [79.78621, 19.68552],
        [79.78618, 19.685],
        [79.7862, 19.6847],
        [79.78639, 19.68401],
        [79.78672, 19.68283],
        [79.78693, 19.68181],
        [79.78694, 19.68111],
        [79.78674, 19.68005],
        [79.78619, 19.67816],
        [79.78563, 19.67633],
        [79.7853, 19.67506],
        [79.78521, 19.67337],
        [79.78524, 19.67102],
        [79.78537, 19.66922],
        [79.78553, 19.66845],
        [79.78551, 19.66799],
        [79.78549, 19.66734],
        [79.78568, 19.66583],
        [79.78568, 19.66439],
        [79.78567, 19.66233],
        [79.78556, 19.6599],
        [79.78558, 19.6582],
        [79.78556, 19.65721],
        [79.78558, 19.65695],
        [79.78556, 19.65669],
        [79.78531, 19.65603],
        [79.78519, 19.6551],
        [79.78517, 19.65301],
        [79.78538, 19.65099],
        [79.78568, 19.64881],
        [79.78566, 19.64608],
        [79.78579, 19.6448],
        [79.78607, 19.64344],
        [79.78619, 19.64232],
        [79.78634, 19.64176],
        [79.78663, 19.64081],
        [79.78722, 19.63871],
        [79.78748, 19.63706],
        [79.78755, 19.63595],
        [79.78801, 19.63353],
        [79.7885, 19.63099],
        [79.78866, 19.62994],
        [79.78907, 19.62776],
        [79.78939, 19.62625],
        [79.78945, 19.62593],
        [79.78968, 19.62538],
        [79.78993, 19.62477],
        [79.79005, 19.62376],
        [79.79023, 19.62275],
        [79.79035, 19.62157],
        [79.79053, 19.61961],
        [79.79072, 19.61845],
        [79.7909, 19.61696],
        [79.79118, 19.61558],
        [79.79155, 19.61443],
        [79.79175, 19.61295],
        [79.79226, 19.6111],
        [79.7927, 19.60903],
        [79.79309, 19.60787],
        [79.79332, 19.6072],
        [79.79376, 19.60581],
        [79.79509, 19.60338],
        [79.79649, 19.60094],
        [79.79767, 19.59904],
        [79.79913, 19.59666],
        [79.79996, 19.59528],
        [79.80092, 19.59415],
        [79.80165, 19.59319],
        [79.80222, 19.59224],
        [79.80294, 19.59053],
        [79.80389, 19.58867],
        [79.80521, 19.58661],
        [79.80594, 19.58526],
        [79.80678, 19.58372],
        [79.80726, 19.58263],
        [79.8074, 19.58217],
        [79.8075, 19.58162],
        [79.80754, 19.58125],
        [79.80743, 19.58085],
        [79.80722, 19.5803],
        [79.80653, 19.579],
        [79.8055, 19.5796],
        [79.80525, 19.57971],
        [79.8025, 19.5809],
        [79.8012, 19.5814],
        [79.80093, 19.58152],
        [79.7991, 19.5823],
        [79.7964, 19.5841],
        [79.79616, 19.58434],
        [79.79293, 19.5875],
        [79.79276, 19.58766],
        [79.79268, 19.58774],
        [79.7917, 19.5887],
        [79.78818, 19.59181],
        [79.7874, 19.5925],
        [79.7844, 19.5953],
        [79.78402, 19.59562],
        [79.78164, 19.59765],
        [79.7804, 19.59871],
        [79.7797, 19.5993],
        [79.77895, 19.59965],
        [79.77701, 19.60057],
        [79.7761, 19.601],
        [79.7691, 19.6037],
        [79.7682, 19.6037],
        [79.7679, 19.6037],
        [79.7665, 19.6038],
        [79.76644, 19.6038],
        [79.76633, 19.60383],
        [79.7657, 19.6041],
        [79.7655, 19.6042],
        [79.7653, 19.6043],
        [79.765, 19.6044],
        [79.7646, 19.6046],
        [79.7623, 19.6054],
        [79.7611, 19.6059],
        [79.7579, 19.6065],
        [79.75676, 19.60673],
        [79.75607, 19.60691],
        [79.756, 19.60693],
        [79.75583, 19.60698],
        [79.75374, 19.60766],
        [79.75372, 19.60766],
        [79.7533, 19.6078],
        [79.75191, 19.60792],
        [79.75137, 19.60798],
        [79.75085, 19.60802],
        [79.7502, 19.6081],
        [79.7499, 19.6081],
        [79.7485, 19.6083],
        [79.7477, 19.60841],
        [79.7464, 19.6086],
        [79.74489, 19.60888],
        [79.7448, 19.6089],
        [79.74464, 19.60889],
        [79.743, 19.6088],
        [79.74289, 19.60878],
        [79.7415, 19.6085],
        [79.7391, 19.6078],
        [79.7363, 19.606],
        [79.7335, 19.6043],
        [79.7311, 19.6023],
        [79.73, 19.6015],
        [79.7222, 19.5942],
        [79.7194, 19.5914],
        [79.717, 19.5892],
        [79.7146, 19.5874],
        [79.7124, 19.5862],
        [79.7106, 19.5854],
        [79.7097, 19.5851],
        [79.7059, 19.5842],
        [79.7025, 19.5839],
        [79.6996, 19.5838],
        [79.6974, 19.5835],
        [79.69542, 19.5835],
        [79.695, 19.5835],
        [79.69493, 19.58357],
        [79.6949, 19.5836],
        [79.69476, 19.5836],
        [79.6947, 19.5836],
        [79.6938, 19.5838],
        [79.6935, 19.5838],
        [79.69291, 19.58397],
        [79.6928, 19.584],
        [79.6912, 19.5843],
        [79.6888, 19.5843],
        [79.6862, 19.5837],
        [79.6837, 19.5825],
        [79.6799, 19.5813],
        [79.6793, 19.5811],
        [79.6769, 19.5806],
        [79.67464, 19.58001],
        [79.67452, 19.58003],
        [79.6734, 19.5804],
        [79.673, 19.5805],
        [79.67, 19.5805],
        [79.6672, 19.5806],
        [79.6637, 19.5804],
        [79.6593, 19.5803],
        [79.657, 19.5798],
        [79.6558, 19.5796],
        [79.6534, 19.5792],
        [79.6523, 19.579],
        [79.6518, 19.5789],
        [79.6498, 19.5785],
        [79.6493, 19.5785],
        [79.649, 19.5784],
        [79.6462, 19.5781],
        [79.6436, 19.5779],
        [79.6348, 19.5762],
        [79.6341, 19.5761],
        [79.6337, 19.576],
        [79.6305, 19.5751],
        [79.6282, 19.574],
        [79.6258, 19.5725],
        [79.6219, 19.5691],
        [79.6196, 19.567],
        [79.6182, 19.5649],
        [79.6148, 19.5617],
        [79.6134, 19.5597],
        [79.6122, 19.5567],
        [79.6115, 19.5516],
        [79.6113, 19.5485],
        [79.6101, 19.545],
        [79.6097, 19.5441],
        [79.6086, 19.5413],
        [79.6075, 19.539],
        [79.6067, 19.5372],
        [79.6059, 19.5343],
        [79.6055, 19.5329],
        [79.6053, 19.5309],
        [79.6053, 19.5273],
        [79.6053, 19.526],
        [79.6048, 19.5236],
        [79.6045, 19.5224],
        [79.6037, 19.5192],
        [79.6033, 19.5177],
        [79.6032, 19.5172],
        [79.6029, 19.5158],
        [79.6024, 19.5148],
        [79.6016, 19.5133],
        [79.6006, 19.5109],
        [79.6003, 19.5106],
        [79.6002, 19.5105],
        [79.5999, 19.5102],
        [79.5989, 19.5094],
        [79.5966, 19.5083],
        [79.5946, 19.5076],
        [79.5932, 19.5074],
        [79.5918, 19.5076],
        [79.5895, 19.5081],
        [79.5869, 19.5085],
        [79.5844, 19.5094],
        [79.582, 19.5105],
        [79.5794, 19.5119],
        [79.5772, 19.5132],
        [79.57586, 19.51414],
        [79.5755, 19.5144],
        [79.5702, 19.5177],
        [79.5664, 19.5196],
        [79.5635, 19.5207],
        [79.56317, 19.5208],
        [79.5619, 19.5212],
        [79.56143, 19.52129],
        [79.5604, 19.5215],
        [79.5588, 19.5224],
        [79.5567, 19.5233],
        [79.5552, 19.524],
        [79.55465, 19.52411],
        [79.5542, 19.5242],
        [79.5536, 19.5243],
        [79.55307, 19.5243],
        [79.5529, 19.5243],
        [79.5522, 19.5248],
        [79.5513, 19.5256],
        [79.5499, 19.5275],
        [79.5482, 19.5305],
        [79.5477, 19.5319],
        [79.5468, 19.5358],
        [79.5462, 19.5391],
        [79.5457, 19.5412],
        [79.5457, 19.5424],
        [79.5459, 19.5448],
        [79.5456, 19.5462],
        [79.5454, 19.5474],
        [79.5451, 19.5493],
        [79.5447, 19.5507],
        [79.5445, 19.5517],
        [79.5435, 19.5529],
        [79.5428, 19.5539],
        [79.5423, 19.5544],
        [79.54156, 19.5548],
        [79.5412, 19.555],
        [79.5399, 19.5552],
        [79.5393, 19.5552],
        [79.5381, 19.5549],
        [79.5361, 19.5543],
        [79.5348, 19.5538],
        [79.5335, 19.5532],
        [79.5324, 19.5526],
        [79.5311, 19.5522],
        [79.5306, 19.552],
        [79.5296, 19.5517],
        [79.5289, 19.5515],
        [79.528, 19.551],
        [79.5254, 19.5491],
        [79.5217, 19.5461],
        [79.5185, 19.5438],
        [79.5179, 19.5433],
        [79.5182, 19.5425],
        [79.5188, 19.5414],
        [79.5195, 19.5395],
        [79.5199, 19.5389],
        [79.51992, 19.53878],
        [79.52002, 19.53826],
        [79.5201, 19.5378],
        [79.5201, 19.5369],
        [79.5204, 19.5355],
        [79.5201, 19.5341],
        [79.5196, 19.531],
        [79.5193, 19.5295],
        [79.5188, 19.5259],
        [79.5186, 19.5229],
        [79.5184, 19.5211],
        [79.518, 19.5205],
        [79.5177, 19.5203],
        [79.5173, 19.5202],
        [79.5161, 19.5201],
        [79.515, 19.52],
        [79.5134, 19.5191],
        [79.5124, 19.5184],
        [79.5117, 19.518],
        [79.5097, 19.5167],
        [79.508, 19.5156],
        [79.5073, 19.5152],
        [79.5058, 19.5143],
        [79.5037, 19.513],
        [79.5017, 19.5119],
        [79.5017, 19.5114],
        [79.5012, 19.5104],
        [79.5008, 19.5091],
        [79.5006, 19.5083],
        [79.5001, 19.5075],
        [79.4996, 19.5068],
        [79.4988, 19.5065],
        [79.4979, 19.5062],
        [79.4969, 19.506],
        [79.4959, 19.506],
        [79.4954, 19.5063],
        [79.4952, 19.5065],
        [79.4945, 19.507],
        [79.4934, 19.5071],
        [79.4906, 19.507],
        [79.4876, 19.507],
        [79.4836, 19.5068],
        [79.4825, 19.5068],
        [79.4816, 19.5064],
        [79.48, 19.5055],
        [79.4761, 19.5034],
        [79.4749, 19.5027],
        [79.4741, 19.5022],
        [79.4731, 19.5015],
        [79.47255, 19.50095],
        [79.47231, 19.50083],
        [79.47211, 19.5007],
        [79.4721, 19.5007],
        [79.4718, 19.5006],
        [79.4714, 19.5008],
        [79.47127, 19.50108],
        [79.471, 19.5017],
        [79.4703, 19.5046],
        [79.46846, 19.51012],
        [79.4683, 19.5106],
        [79.4602, 19.5162],
        [79.4593, 19.5168],
        [79.4587, 19.5171],
        [79.4577, 19.5186],
        [79.4577, 19.5187],
        [79.4571, 19.5193],
        [79.4569, 19.5195],
        [79.4569, 19.5196],
        [79.4555, 19.52],
        [79.4544, 19.5203],
        [79.4539, 19.5205],
        [79.4534, 19.5207],
        [79.4531, 19.5208],
        [79.4514, 19.5226],
        [79.4512, 19.5227],
        [79.4511, 19.5229],
        [79.4502, 19.5238],
        [79.4501, 19.524],
        [79.4493, 19.5248],
        [79.449, 19.5252],
        [79.4481, 19.5258],
        [79.4474, 19.5264],
        [79.4468, 19.527],
        [79.4461, 19.5273],
        [79.4459, 19.5274],
        [79.444, 19.5279],
        [79.4432, 19.5281],
        [79.4427, 19.5283],
        [79.4425, 19.5284],
        [79.4424, 19.5284],
        [79.4415, 19.5295],
        [79.4411, 19.5301],
        [79.4402, 19.5313],
        [79.4388, 19.5326],
        [79.4364, 19.5347],
        [79.4358, 19.5352],
        [79.4358, 19.5353],
        [79.4348, 19.5363],
        [79.4334, 19.5376],
        [79.4321, 19.5377],
        [79.4306, 19.5379],
        [79.4285, 19.538],
        [79.4267, 19.5382],
        [79.4249, 19.5383],
        [79.4248, 19.5383],
        [79.4243, 19.5383],
        [79.4238, 19.5384],
        [79.423, 19.5383],
        [79.4224, 19.5383],
        [79.4225, 19.5371],
        [79.4227, 19.5353],
        [79.4227, 19.5341],
        [79.423, 19.5316],
        [79.423, 19.5312],
        [79.4229, 19.5308],
        [79.4213, 19.5307],
        [79.4208, 19.5302],
        [79.4192, 19.531],
        [79.4188, 19.5311],
        [79.4177, 19.5316],
        [79.4154, 19.5327],
        [79.4147, 19.5331],
        [79.4143, 19.5333],
        [79.4107, 19.5347],
        [79.4105, 19.5348],
        [79.4104, 19.5348],
        [79.4077, 19.5355],
        [79.4072, 19.5355],
        [79.4063, 19.5359],
        [79.4056, 19.5362],
        [79.4048, 19.5368],
        [79.4037, 19.5376],
        [79.4031, 19.5377],
        [79.40299, 19.53765],
        [79.40292, 19.5377],
        [79.4029, 19.53772],
        [79.4029, 19.5378],
        [79.4029, 19.538],
        [79.4028, 19.5381],
        [79.4025, 19.5383],
        [79.4022, 19.5385],
        [79.4018, 19.5391],
        [79.4016, 19.5396],
        [79.4014, 19.5401],
        [79.40131, 19.54027],
        [79.4012, 19.5405],
        [79.401, 19.5409],
        [79.4008, 19.5415],
        [79.4007, 19.5421],
        [79.40071, 19.5421],
        [79.4008, 19.5421],
        [79.401, 19.5422],
        [79.4013, 19.5422],
        [79.4006, 19.5432],
        [79.3999, 19.5439],
        [79.3996, 19.5443],
        [79.3994, 19.5441],
        [79.39902, 19.54448],
        [79.3987, 19.5448],
        [79.3986, 19.5448],
        [79.3975, 19.5464],
        [79.3973, 19.5468],
        [79.397, 19.5472],
        [79.3968, 19.5474],
        [79.3967, 19.5476],
        [79.39673, 19.54761],
        [79.397, 19.5477],
        [79.3967, 19.5481],
        [79.3965, 19.5481],
        [79.3962, 19.5484],
        [79.3951, 19.5495],
        [79.3936, 19.5512],
        [79.3932, 19.5519],
        [79.3928, 19.5524],
        [79.3926, 19.5527],
        [79.392, 19.5534],
        [79.3915, 19.5535],
        [79.3909, 19.5536],
        [79.3896, 19.5536],
        [79.38902, 19.5536],
        [79.38895, 19.55364],
        [79.3889, 19.5537],
        [79.3887, 19.554],
        [79.3886, 19.5541],
        [79.3884, 19.5543],
        [79.3883, 19.5547],
        [79.3877, 19.5549],
        [79.3873, 19.5556],
        [79.3869, 19.5564],
        [79.3865, 19.5577],
        [79.3862, 19.5583],
        [79.3861, 19.5584],
        [79.3857, 19.5588],
        [79.385, 19.5588],
        [79.3848, 19.5589],
        [79.3846, 19.5589],
        [79.3832, 19.559],
        [79.3812, 19.5593],
        [79.3773, 19.5593],
        [79.375, 19.5603],
        [79.3735, 19.561],
        [79.3734, 19.5611],
        [79.3732, 19.5612],
        [79.3729, 19.5613],
        [79.3726, 19.5617],
        [79.3726, 19.5617],
        [79.3724, 19.562],
        [79.3719, 19.5637],
        [79.37182, 19.56402],
        [79.3718, 19.5641],
        [79.3717, 19.5644],
        [79.3714, 19.5655],
        [79.3713, 19.566],
        [79.3712, 19.5667],
        [79.37119, 19.56674],
        [79.3711, 19.5674],
        [79.371, 19.5684],
        [79.371, 19.5685],
        [79.371, 19.5688],
        [79.371, 19.56897],
        [79.371, 19.5691],
        [79.3709, 19.56939],
        [79.3709, 19.5694],
        [79.3708, 19.5696],
        [79.3707, 19.5697],
        [79.3707, 19.5698],
        [79.3706, 19.5701],
        [79.37049, 19.5705],
        [79.3704, 19.5708],
        [79.37025, 19.57111],
        [79.3702, 19.5712],
        [79.37, 19.5715],
        [79.3699, 19.5717],
        [79.3698, 19.5718],
        [79.3698, 19.5719],
        [79.3697, 19.5724],
        [79.36939, 19.5729],
        [79.3692, 19.5732],
        [79.3679, 19.5732],
        [79.36711, 19.5732],
        [79.3671, 19.57322],
        [79.3671, 19.5733],
        [79.36704, 19.57339],
        [79.3669, 19.5736],
        [79.3664, 19.5744],
        [79.3663, 19.5747],
        [79.366, 19.5757],
        [79.366, 19.576],
        [79.366, 19.57605],
        [79.366, 19.5761],
        [79.3659, 19.5764],
        [79.3657, 19.577],
        [79.3648, 19.577],
        [79.364, 19.5771],
        [79.3624, 19.5769],
        [79.361, 19.5768],
        [79.3597, 19.577],
        [79.3584, 19.5771],
        [79.35775, 19.57753],
        [79.35744, 19.57777],
        [79.35741, 19.57776],
        [79.3572, 19.5779],
        [79.3571, 19.578],
        [79.356, 19.5778],
        [79.3547, 19.5777],
        [79.3543, 19.5776],
        [79.3533, 19.5774],
        [79.353, 19.5772],
        [79.352, 19.5767],
        [79.3503, 19.5764],
        [79.3455, 19.5762],
        [79.3444, 19.5762],
        [79.3417, 19.5759],
        [79.3404, 19.5764],
        [79.3397, 19.5765],
        [79.3372, 19.5758],
        [79.3347, 19.5752],
        [79.3335, 19.5756],
        [79.3284, 19.5773],
        [79.3273, 19.5775],
        [79.3273, 19.5776],
        [79.3263, 19.5778],
        [79.3253, 19.5779],
        [79.3238, 19.5777],
        [79.3221, 19.5775],
        [79.3218, 19.5775],
        [79.3182, 19.5772],
        [79.3182, 19.5766],
        [79.3182, 19.5681],
        [79.3175, 19.5679],
        [79.3158, 19.5674],
        [79.3138, 19.5669],
        [79.312, 19.5688],
        [79.3116, 19.5693],
        [79.3115, 19.5694],
        [79.3114, 19.5695],
        [79.3114, 19.5696],
        [79.31081, 19.57019],
        [79.31079, 19.57022],
        [79.3103, 19.5711],
        [79.3101, 19.5714],
        [79.30985, 19.57273],
        [79.3098, 19.573],
        [79.3097, 19.5739],
        [79.3097, 19.5747],
        [79.3098, 19.5753],
        [79.3099, 19.576],
        [79.3101, 19.578],
        [79.3099, 19.5785],
        [79.3098, 19.5788],
        [79.3097, 19.5793],
        [79.3096, 19.5794],
        [79.3096, 19.5796],
        [79.3094, 19.5805],
        [79.309, 19.5826],
        [79.3088, 19.5836],
        [79.3083, 19.5868],
        [79.3082, 19.5877],
        [79.3081, 19.5886],
        [79.3069, 19.5959],
        [79.3068, 19.5963],
        [79.3067, 19.5966],
        [79.3067, 19.59674],
        [79.3067, 19.597],
        [79.3067, 19.5971],
        [79.3044, 19.597],
        [79.302, 19.5969],
        [79.3016, 19.5968],
        [79.3002, 19.5967],
        [79.299, 19.5966],
        [79.2989, 19.5966],
        [79.2981, 19.5966],
        [79.2969, 19.5966],
        [79.2925, 19.5963],
        [79.2847, 19.5959],
        [79.2844, 19.596],
        [79.2817, 19.5966],
        [79.281, 19.5968],
        [79.2805, 19.5969],
        [79.2803, 19.597],
        [79.2792, 19.5974],
        [79.2751, 19.5987],
        [79.2723, 19.5995],
        [79.2721, 19.5996],
        [79.271, 19.6006],
        [79.2619, 19.6076],
        [79.25955, 19.60942],
        [79.25735, 19.61113],
        [79.25542, 19.61263],
        [79.2551, 19.61288],
        [79.2516, 19.6158],
        [79.25125, 19.61597],
        [79.25104, 19.61608],
        [79.25072, 19.61624],
        [79.2502, 19.6165],
        [79.24982, 19.61655],
        [79.2481, 19.6168],
        [79.24725, 19.61687],
        [79.2434, 19.6172],
        [79.242, 19.6145],
        [79.2388, 19.6077],
        [79.2385, 19.6069],
        [79.2387, 19.606],
        [79.2409, 19.6013],
        [79.2438, 19.5961],
        [79.2444, 19.5951],
        [79.24444, 19.59509],
        [79.2455, 19.5948],
        [79.2476, 19.5942],
        [79.2498, 19.5942],
        [79.2511, 19.594],
        [79.2523, 19.5938],
        [79.253, 19.5937],
        [79.253, 19.5935],
        [79.253, 19.5929],
        [79.2524, 19.5882],
        [79.252, 19.5847],
        [79.2518, 19.5838],
        [79.2518, 19.5836],
        [79.2518, 19.5835],
        [79.2516, 19.582],
        [79.2516, 19.5818],
        [79.25143, 19.58001],
        [79.2513, 19.5787],
        [79.25116, 19.57827],
        [79.25087, 19.57734],
        [79.2507, 19.5768],
        [79.2502, 19.5761],
        [79.25014, 19.57603],
        [79.2497, 19.5755],
        [79.2496, 19.5754],
        [79.2493, 19.575],
        [79.2478, 19.5719],
        [79.2456, 19.567],
        [79.2442, 19.5654],
        [79.2407, 19.5611],
        [79.2389, 19.5593],
        [79.2376, 19.5577],
        [79.23755, 19.55764],
        [79.23717, 19.55713],
        [79.237, 19.5569],
        [79.2369, 19.5544],
        [79.2368, 19.5515],
        [79.237, 19.5503],
        [79.2384, 19.5488],
        [79.2385, 19.5471],
        [79.2382, 19.5431],
        [79.2389, 19.5399],
        [79.2397, 19.5364],
        [79.2396, 19.5357],
        [79.2393, 19.5343],
        [79.2381, 19.5309],
        [79.2351, 19.5241],
        [79.2338, 19.5213],
        [79.2335, 19.5204],
        [79.2329, 19.52],
        [79.232, 19.5198],
        [79.2306, 19.5199],
        [79.2277, 19.5204],
        [79.2259, 19.5207],
        [79.2213, 19.5215],
        [79.2164, 19.515],
        [79.2131, 19.5109],
        [79.2111, 19.5095],
        [79.21042, 19.50902],
        [79.2103, 19.509],
        [79.21, 19.509],
        [79.2093, 19.5087],
        [79.2073, 19.5064],
        [79.2072, 19.5054],
        [79.2073, 19.5029],
        [79.2072, 19.5003],
        [79.2074, 19.4994],
        [79.2074, 19.4982],
        [79.2071, 19.4975],
        [79.20645, 19.49734],
        [79.2063, 19.4973],
        [79.20572, 19.49672],
        [79.2057, 19.4967],
        [79.2054, 19.4957],
        [79.2053, 19.4951],
        [79.2047, 19.4945],
        [79.204, 19.4944],
        [79.204, 19.49428],
        [79.204, 19.49404],
        [79.204, 19.4935],
        [79.2043, 19.4928],
        [79.2043, 19.4917],
        [79.2043, 19.4907],
        [79.20485, 19.48993],
        [79.20493, 19.48977],
        [79.20515, 19.48951],
        [79.2053, 19.4893],
        [79.2062, 19.4876],
        [79.20683, 19.48635],
        [79.20716, 19.48567],
        [79.2072, 19.4856],
        [79.2096, 19.483],
        [79.2101, 19.4826],
        [79.2106, 19.4821],
        [79.21067, 19.48208],
        [79.21087, 19.48203],
        [79.21234, 19.48163],
        [79.2132, 19.4814],
        [79.21439, 19.4814],
        [79.2151, 19.4814],
        [79.21533, 19.48123],
        [79.2161, 19.48065],
        [79.21617, 19.4806],
        [79.2163, 19.4805],
        [79.2184, 19.4776],
        [79.21971, 19.47598],
        [79.2201, 19.4755],
        [79.2209, 19.47467],
        [79.2224, 19.4731],
        [79.22244, 19.47306],
        [79.2231, 19.4723],
        [79.2234, 19.4713],
        [79.2236, 19.47],
        [79.22348, 19.46901],
        [79.2234, 19.4684],
        [79.2225, 19.4678],
        [79.2225, 19.4678],
        [79.2222, 19.4678],
        [79.2207, 19.4677],
        [79.219, 19.4674],
        [79.2179, 19.4671],
        [79.2168, 19.4661],
        [79.2166, 19.4659],
        [79.2157, 19.4652],
        [79.2155, 19.465],
        [79.2155, 19.4651],
        [79.21453, 19.46471],
        [79.21426, 19.46469],
        [79.2128, 19.4646],
        [79.2101, 19.4652],
        [79.20943, 19.46507],
        [79.20848, 19.46489],
        [79.20738, 19.46468],
        [79.2049, 19.4642],
        [79.2017, 19.4629],
        [79.1994, 19.4623],
        [79.1977, 19.4617],
        [79.1961, 19.4618],
        [79.1944, 19.4613],
        [79.19392, 19.46097],
        [79.1938, 19.46089],
        [79.19297, 19.46032],
        [79.1925, 19.46],
        [79.1909, 19.4591],
        [79.19085, 19.45911],
        [79.18972, 19.45934],
        [79.1889, 19.4595],
        [79.18676, 19.46038],
        [79.1867, 19.4604],
        [79.18663, 19.46042],
        [79.18359, 19.46122],
        [79.1833, 19.4613],
        [79.181, 19.4619],
        [79.1806, 19.4621],
        [79.1796, 19.46257],
        [79.1791, 19.4628],
        [79.1777, 19.4644],
        [79.17663, 19.46539],
        [79.1763, 19.4657],
        [79.17592, 19.46617],
        [79.1749, 19.4674],
        [79.17358, 19.46891],
        [79.1735, 19.469],
        [79.17307, 19.46929],
        [79.1723, 19.4698],
        [79.17196, 19.47005],
        [79.1709, 19.4708],
        [79.17083, 19.47085],
        [79.1706, 19.471],
        [79.1686, 19.472],
        [79.1669, 19.473],
        [79.1664, 19.4739],
        [79.1654, 19.476],
        [79.1648, 19.4772],
        [79.1645, 19.4787],
        [79.1642, 19.4809],
        [79.1637, 19.4838],
        [79.1626, 19.4864],
        [79.1617, 19.4874],
        [79.1615, 19.4877],
        [79.1603, 19.4887],
        [79.1586, 19.489],
        [79.15775, 19.48942],
        [79.15773, 19.48944],
        [79.15749, 19.48955],
        [79.157, 19.4898],
        [79.1557, 19.4905],
        [79.1532, 19.4928],
        [79.1521, 19.4939],
        [79.1486, 19.4964],
        [79.1456, 19.4982],
        [79.1446, 19.4996],
        [79.1431, 19.5005],
        [79.14233, 19.50059],
        [79.1414, 19.5007],
        [79.14011, 19.5007],
        [79.1396, 19.5007],
        [79.13946, 19.50072],
        [79.1385, 19.50083],
        [79.1379, 19.5009],
        [79.1369, 19.502],
        [79.13492, 19.50686],
        [79.1349, 19.5069],
        [79.1333, 19.5083],
        [79.13032, 19.50945],
        [79.13021, 19.50951],
        [79.13003, 19.50957],
        [79.1289, 19.51],
        [79.1284, 19.5102],
        [79.125, 19.5108],
        [79.1232, 19.5112],
        [79.1216, 19.512],
        [79.1214, 19.5121],
        [79.12034, 19.51286],
        [79.12, 19.5131],
        [79.1184, 19.5149],
        [79.1171, 19.5172],
        [79.1155, 19.5189],
        [79.11384, 19.52027],
        [79.1138, 19.5203],
        [79.1121, 19.5216],
        [79.1095, 19.5219],
        [79.1068, 19.5226],
        [79.105, 19.5232],
        [79.10421, 19.52369],
        [79.1042, 19.5237],
        [79.104, 19.5239],
        [79.1023, 19.5271],
        [79.1019, 19.528],
        [79.1007, 19.5302],
        [79.09902, 19.53171],
        [79.0988, 19.5319],
        [79.0985, 19.5322],
        [79.0971, 19.5328],
        [79.0968, 19.5329],
        [79.0955, 19.5331],
        [79.0942, 19.5331],
        [79.0934, 19.5331],
        [79.0905, 19.5328],
        [79.0859, 19.533],
        [79.0833, 19.5333],
        [79.0818, 19.5332],
        [79.0799, 19.5329],
        [79.0778, 19.533],
        [79.07623, 19.533],
        [79.0761, 19.53307],
        [79.075, 19.5339],
        [79.0734, 19.5346],
        [79.07329, 19.53464],
        [79.07319, 19.5347],
        [79.07303, 19.53475],
        [79.0719, 19.5352],
        [79.06955, 19.53566],
        [79.06936, 19.5357],
        [79.06928, 19.53571],
        [79.0688, 19.5358],
        [79.06725, 19.5362],
        [79.0665, 19.5364],
        [79.066, 19.5375],
        [79.0658, 19.5381],
        [79.0653, 19.5395],
        [79.06451, 19.54022],
        [79.0642, 19.5405],
        [79.0641, 19.5406],
        [79.0577, 19.5435],
        [79.0546, 19.5449],
        [79.0484, 19.5477],
        [79.04677, 19.54822],
        [79.0459, 19.5485],
        [79.0459, 19.5485],
        [79.0441, 19.5485],
        [79.0403, 19.5481],
        [79.0379, 19.5475],
        [79.0355, 19.5466],
        [79.0324, 19.5456],
        [79.027, 19.5435],
        [79.0241, 19.5425],
        [79.0234, 19.5423],
        [79.0229, 19.5422],
        [79.021, 19.5422],
        [79.0164, 19.5421],
        [79.0115, 19.5421],
        [79.0082, 19.5424],
        [79.0058, 19.5425],
        [79.0029, 19.5417],
        [79.0006, 19.5413],
        [78.9985, 19.5408],
        [78.99809, 19.54055],
        [78.998, 19.5405],
        [78.9979, 19.5424],
        [78.9979, 19.5428],
        [78.9979, 19.54893],
        [78.9979, 19.5491],
        [78.99785, 19.54914],
        [78.9968, 19.55],
        [78.99643, 19.55034],
        [78.9957, 19.551],
        [78.9908, 19.5546],
        [78.9877, 19.5571],
        [78.9814, 19.5615],
        [78.9813, 19.5611],
        [78.9809, 19.5596],
        [78.98088, 19.55949],
        [78.9807, 19.5585],
        [78.9802, 19.55822],
        [78.98, 19.5581],
        [78.9791, 19.5578],
        [78.9781, 19.5578],
        [78.9773, 19.5575],
        [78.9767, 19.5571],
        [78.9766, 19.55666],
        [78.9764, 19.5557],
        [78.97614, 19.55449],
        [78.97566, 19.55225],
        [78.9755, 19.5515],
        [78.9751, 19.5506],
        [78.9746, 19.5499],
        [78.97458, 19.5499],
        [78.974, 19.55],
        [78.9729, 19.5505],
        [78.9727, 19.5506],
        [78.9708, 19.5507],
        [78.968, 19.5505],
        [78.9657, 19.5504],
        [78.9622, 19.5502],
        [78.958, 19.5496],
        [78.9535, 19.5493],
        [78.9516, 19.5494],
        [78.9498, 19.5494],
        [78.949, 19.5496],
        [78.9468, 19.5499],
        [78.94594, 19.5498],
        [78.94587, 19.54981],
        [78.94573, 19.54987],
        [78.94555, 19.54994],
        [78.9454, 19.55],
        [78.9448, 19.5504]
      ]
    ]
  }
}
