{
  "type": "Feature",
  "id": "MH-AC-97",
  "properties": {
    "stateName": "MAHARASHTRA",
    "stateCode": "MH",
    "districtName": "PARBHANI",
    "acNo": 97,
    "acName": "GANGAKHED",
    "seatType": null,
    "pcNo": null,
    "pcName": null,
    "quality": "unverified",
    "sources": [
      "TBD"
    ]
  },
  "geometry": {
    "type": "Polygon",
    "coordinates": [
      [
        [76.9285, 19.25063],
        [76.929, 19.2509],
        [76.92967, 19.25187],
        [76.92987, 19.25214],
        [76.93047, 19.25265],
        [76.93054, 19.25339],
        [76.93057, 19.25372],
        [76.93064, 19.25395],
        [76.9312, 19.25375],
        [76.93187, 19.25328],
        [76.93234, 19.25295],
        [76.93283, 19.25332],
        [76.93293, 19.25496],
        [76.93297, 19.2552],
        [76.9336, 19.2552],
        [76.93394, 19.255],
        [76.93467, 19.255],
        [76.93514, 19.25506],
        [76.93553, 19.25493],
        [76.9363, 19.25463],
        [76.93667, 19.25442],
        [76.9402, 19.25325],
        [76.94224, 19.25275],
        [76.94663, 19.25107],
        [76.94907, 19.2502],
        [76.95207, 19.24963],
        [76.95414, 19.24926],
        [76.95354, 19.2506],
        [76.95452, 19.2508],
        [76.95486, 19.25337],
        [76.95489, 19.25415],
        [76.95506, 19.25435],
        [76.95987, 19.25405],
        [76.96589, 19.25391],
        [76.96749, 19.25385],
        [76.96797, 19.25375],
        [76.96824, 19.25375],
        [76.96834, 19.25379],
        [76.96851, 19.25389],
        [76.96797, 19.25493],
        [76.96773, 19.25578],
        [76.96749, 19.25963],
        [76.96752, 19.26306],
        [76.96776, 19.26445],
        [76.96806, 19.2659],
        [76.96833, 19.27121],
        [76.96867, 19.27542],
        [76.96864, 19.27579],
        [76.96881, 19.27593],
        [76.97226, 19.27586],
        [76.9751, 19.276],
        [76.97692, 19.27603],
        [76.98088, 19.27627],
        [76.98303, 19.2764],
        [76.98442, 19.27664],
        [76.98628, 19.27684],
        [76.98733, 19.27708],
        [76.98763, 19.27735],
        [76.9878, 19.27776],
        [76.98794, 19.2785],
        [76.98848, 19.27948],
        [76.98865, 19.27992],
        [76.98881, 19.28026],
        [76.98902, 19.28056],
        [76.98956, 19.28094],
        [76.9903, 19.28141],
        [76.99047, 19.28151],
        [76.99051, 19.28168],
        [76.99064, 19.28364],
        [76.99064, 19.28388],
        [76.99074, 19.28415],
        [76.99074, 19.28425],
        [76.99091, 19.28431],
        [76.99524, 19.28364],
        [76.99754, 19.28327],
        [76.99896, 19.2831],
        [77.00015, 19.28329],
        [77.0008, 19.28336],
        [77.00152, 19.28336],
        [77.00216, 19.28322],
        [77.00328, 19.28289],
        [77.00447, 19.28254],
        [77.00578, 19.28236],
        [77.00662, 19.28224],
        [77.00722, 19.28243],
        [77.00775, 19.2826],
        [77.00842, 19.28287],
        [77.00898, 19.28304],
        [77.00959, 19.28329],
        [77.01136, 19.28378],
        [77.0119, 19.28389],
        [77.01255, 19.28372],
        [77.01305, 19.28368],
        [77.01488, 19.28389],
        [77.01566, 19.28391],
        [77.01618, 19.28408],
        [77.01675, 19.28426],
        [77.01806, 19.28447],
        [77.01879, 19.28455],
        [77.01956, 19.28468],
        [77.02015, 19.28476],
        [77.02052, 19.28491],
        [77.02081, 19.28518],
        [77.0214, 19.28532],
        [77.02169, 19.28543],
        [77.02242, 19.28547],
        [77.02276, 19.28534],
        [77.02311, 19.28518],
        [77.02311, 19.2846],
        [77.02357, 19.28264],
        [77.02361, 19.28219],
        [77.02347, 19.28156],
        [77.02296, 19.281],
        [77.02278, 19.28082],
        [77.02253, 19.27994],
        [77.02253, 19.27959],
        [77.02248, 19.27893],
        [77.02219, 19.27795],
        [77.02104, 19.27735],
        [77.01907, 19.27652],
        [77.01706, 19.27594],
        [77.01649, 19.27577],
        [77.01587, 19.27585],
        [77.01476, 19.27535],
        [77.01402, 19.2754],
        [77.01234, 19.27431],
        [77.01115, 19.27377],
        [77.01054, 19.27338],
        [77.01048, 19.27265],
        [77.01023, 19.2717],
        [77.01, 19.27095],
        [77.01005, 19.2702],
        [77.01023, 19.26825],
        [77.01067, 19.26532],
        [77.01088, 19.26374],
        [77.01107, 19.26302],
        [77.01144, 19.26183],
        [77.01161, 19.26071],
        [77.01163, 19.25853],
        [77.01149, 19.25768],
        [77.01124, 19.25697],
        [77.01105, 19.25633],
        [77.0113, 19.25514],
        [77.01199, 19.2528],
        [77.01276, 19.25275],
        [77.01589, 19.25188],
        [77.01868, 19.25103],
        [77.01977, 19.2508],
        [77.02258, 19.24884],
        [77.02431, 19.24766],
        [77.02527, 19.24727],
        [77.02571, 19.247],
        [77.02828, 19.24634],
        [77.02942, 19.24592],
        [77.03187, 19.24551],
        [77.03317, 19.24543],
        [77.03644, 19.24521],
        [77.03904, 19.24511],
        [77.04133, 19.24529],
        [77.04212, 19.24548],
        [77.04371, 19.24671],
        [77.04662, 19.24835],
        [77.04755, 19.24877],
        [77.04811, 19.24869],
        [77.04804, 19.24818],
        [77.04804, 19.24676],
        [77.04833, 19.2446],
        [77.04877, 19.24183],
        [77.04887, 19.24139],
        [77.04928, 19.23771],
        [77.0508, 19.23781],
        [77.05181, 19.23803],
        [77.05236, 19.23838],
        [77.05283, 19.23727],
        [77.05325, 19.23659],
        [77.05384, 19.23614],
        [77.05413, 19.23597],
        [77.05413, 19.23568],
        [77.05305, 19.23374],
        [77.05219, 19.23262],
        [77.05168, 19.23154],
        [77.05149, 19.23078],
        [77.05056, 19.22948],
        [77.04972, 19.2285],
        [77.04931, 19.22754],
        [77.04919, 19.22663],
        [77.04843, 19.22607],
        [77.04833, 19.22529],
        [77.04806, 19.22485],
        [77.04786, 19.2245],
        [77.04777, 19.22391],
        [77.04711, 19.22315],
        [77.04642, 19.22247],
        [77.04623, 19.22232],
        [77.04532, 19.22237],
        [77.04518, 19.22222],
        [77.0451, 19.22156],
        [77.04481, 19.22117],
        [77.04427, 19.22078],
        [77.04417, 19.22058],
        [77.04408, 19.22024],
        [77.0438, 19.22004],
        [77.04307, 19.21975],
        [77.04246, 19.2198],
        [77.04058, 19.21862],
        [77.04014, 19.21847],
        [77.03904, 19.21578],
        [77.0384, 19.21372],
        [77.03808, 19.21244],
        [77.03786, 19.21198],
        [77.03757, 19.21144],
        [77.03779, 19.21073],
        [77.03774, 19.20815],
        [77.03786, 19.20698],
        [77.03767, 19.20634],
        [77.03784, 19.2057],
        [77.03784, 19.20484],
        [77.03784, 19.20443],
        [77.03784, 19.20401],
        [77.03782, 19.20364],
        [77.03782, 19.20296],
        [77.03747, 19.20266],
        [77.03713, 19.20232],
        [77.03711, 19.2021],
        [77.03679, 19.20183],
        [77.03676, 19.20161],
        [77.04072, 19.20095],
        [77.04285, 19.20055],
        [77.04378, 19.19992],
        [77.04405, 19.19979],
        [77.04461, 19.19984],
        [77.04682, 19.19911],
        [77.04725, 19.19881],
        [77.04826, 19.19859],
        [77.05039, 19.19778],
        [77.0539, 19.19703],
        [77.05716, 19.19639],
        [77.06024, 19.19553],
        [77.06051, 19.19487],
        [77.06078, 19.19445],
        [77.06117, 19.19416],
        [77.06193, 19.1932],
        [77.06327, 19.19327],
        [77.06735, 19.19396],
        [77.06863, 19.19406],
        [77.06924, 19.19396],
        [77.06983, 19.19391],
        [77.07147, 19.19283],
        [77.0723, 19.19261],
        [77.07301, 19.19156],
        [77.07526, 19.19117],
        [77.07504, 19.19009],
        [77.07487, 19.18889],
        [77.07609, 19.18889],
        [77.07748, 19.1885],
        [77.07836, 19.1883],
        [77.07824, 19.18705],
        [77.07819, 19.18644],
        [77.07816, 19.18335],
        [77.07883, 19.18347],
        [77.08086, 19.18313],
        [77.08144, 19.18293],
        [77.08218, 19.18279],
        [77.08213, 19.18225],
        [77.08475, 19.18217],
        [77.08467, 19.17916],
        [77.0845, 19.17698],
        [77.08631, 19.177],
        [77.08675, 19.17698],
        [77.08724, 19.17661],
        [77.0871, 19.17605],
        [77.08702, 19.17553],
        [77.08702, 19.17494],
        [77.08726, 19.17445],
        [77.08775, 19.17413],
        [77.09037, 19.17369],
        [77.09365, 19.17337],
        [77.0957, 19.17337],
        [77.09722, 19.17332],
        [77.098, 19.17347],
        [77.0981, 19.17276],
        [77.09807, 19.17092],
        [77.0981, 19.16967],
        [77.09807, 19.16906],
        [77.098, 19.16828],
        [77.098, 19.16774],
        [77.09805, 19.1655],
        [77.09765, 19.16438],
        [77.09722, 19.16315],
        [77.0957, 19.16028],
        [77.09443, 19.15808],
        [77.09426, 19.15766],
        [77.09384, 19.15702],
        [77.09717, 19.15683],
        [77.10059, 19.15693],
        [77.10551, 19.1571],
        [77.10962, 19.157],
        [77.11174, 19.15703],
        [77.11309, 19.15715],
        [77.11395, 19.15715],
        [77.11345, 19.15497],
        [77.11333, 19.15433],
        [77.11543, 19.15362],
        [77.1172, 19.15291],
        [77.11832, 19.1521],
        [77.11911, 19.15141],
        [77.11952, 19.15102],
        [77.11801, 19.15075],
        [77.11556, 19.15021],
        [77.11206, 19.14923],
        [77.10935, 19.14837],
        [77.10756, 19.14805],
        [77.10607, 19.14774],
        [77.10335, 19.14702],
        [77.10174, 19.14666],
        [77.10052, 19.14639],
        [77.09836, 19.14585],
        [77.09722, 19.1456],
        [77.09594, 19.14523],
        [77.09536, 19.14506],
        [77.09465, 19.1445],
        [77.09463, 19.14411],
        [77.09453, 19.14332],
        [77.09436, 19.143],
        [77.09399, 19.14197],
        [77.09357, 19.14146],
        [77.09304, 19.14114],
        [77.09252, 19.14075],
        [77.09215, 19.13955],
        [77.09201, 19.13886],
        [77.09169, 19.13876],
        [77.09191, 19.1383],
        [77.09181, 19.13715],
        [77.09245, 19.13736],
        [77.09311, 19.13737],
        [77.09392, 19.13739],
        [77.09443, 19.13739],
        [77.09491, 19.13729],
        [77.09558, 19.13661],
        [77.0959, 19.13597],
        [77.09604, 19.13496],
        [77.09663, 19.13389],
        [77.09714, 19.13298],
        [77.09771, 19.13254],
        [77.09915, 19.13234],
        [77.09998, 19.13234],
        [77.10052, 19.13212],
        [77.10093, 19.13126],
        [77.10101, 19.13053],
        [77.1016, 19.12979],
        [77.10196, 19.12913],
        [77.10206, 19.12886],
        [77.10213, 19.12832],
        [77.10196, 19.12795],
        [77.10137, 19.12739],
        [77.10184, 19.12685],
        [77.10292, 19.12545],
        [77.10519, 19.12264],
        [77.10572, 19.12156],
        [77.10619, 19.12035],
        [77.10627, 19.11986],
        [77.10592, 19.11879],
        [77.10526, 19.11786],
        [77.10456, 19.1168],
        [77.10335, 19.11545],
        [77.10247, 19.11457],
        [77.10138, 19.11288],
        [77.10108, 19.11234],
        [77.10067, 19.11183],
        [77.10045, 19.11104],
        [77.1002, 19.11043],
        [77.10013, 19.10977],
        [77.1002, 19.10918],
        [77.1006, 19.10849],
        [77.10018, 19.10865],
        [77.09962, 19.10858],
        [77.09833, 19.10861],
        [77.09251, 19.10887],
        [77.09032, 19.10892],
        [77.08717, 19.1089],
        [77.08398, 19.10929],
        [77.08378, 19.10824],
        [77.08366, 19.1072],
        [77.08339, 19.10515],
        [77.08327, 19.10334],
        [77.08309, 19.10147],
        [77.08215, 19.10003],
        [77.08093, 19.09842],
        [77.07983, 19.09664],
        [77.07869, 19.09453],
        [77.0779, 19.09292],
        [77.07725, 19.0929],
        [77.07633, 19.09048],
        [77.07576, 19.08841],
        [77.07488, 19.08576],
        [77.07464, 19.08469],
        [77.0742, 19.08393],
        [77.0732, 19.0831],
        [77.07134, 19.08198],
        [77.06993, 19.08098],
        [77.06844, 19.07957],
        [77.0673, 19.07813],
        [77.06618, 19.07674],
        [77.06509, 19.07519],
        [77.06455, 19.07443],
        [77.06333, 19.07177],
        [77.06282, 19.0701],
        [77.06211, 19.06917],
        [77.06167, 19.06824],
        [77.06118, 19.06659],
        [77.06085, 19.06476],
        [77.06065, 19.06289],
        [77.06077, 19.0612],
        [77.06099, 19.0603],
        [77.06131, 19.05918],
        [77.06328, 19.05414],
        [77.06458, 19.05153],
        [77.06511, 19.04985],
        [77.06579, 19.04803],
        [77.06633, 19.047],
        [77.0664, 19.04617],
        [77.06633, 19.04345],
        [77.06589, 19.04067],
        [77.06565, 19.0377],
        [77.06489, 19.03319],
        [77.06433, 19.03061],
        [77.06112, 19.03066],
        [77.05834, 19.03066],
        [77.05648, 19.03063],
        [77.05453, 19.03071],
        [77.05171, 19.03093],
        [77.04659, 19.03119],
        [77.04305, 19.03127],
        [77.04254, 19.02776],
        [77.04215, 19.02547],
        [77.04145, 19.0215],
        [77.04137, 19.01465],
        [77.04242, 19.01317],
        [77.04217, 19.01144],
        [77.04201, 19.00998],
        [77.04115, 19.00476],
        [77.04403, 19.00367],
        [77.04722, 19.00245],
        [77.05065, 19.0009],
        [77.0507, 19.00088],
        [77.05335, 19.00002],
        [77.05617, 18.99894],
        [77.05618, 18.99784],
        [77.05618, 18.99653],
        [77.05628, 18.99522],
        [77.05632, 18.99411],
        [77.05623, 18.99247],
        [77.05607, 18.98931],
        [77.05701, 18.98885],
        [77.05633, 18.98788],
        [77.05577, 18.98796],
        [77.05502, 18.98657],
        [77.05428, 18.98544],
        [77.0535, 18.98457],
        [77.05228, 18.98359],
        [77.05011, 18.98166],
        [77.04919, 18.9806],
        [77.04751, 18.97865],
        [77.04678, 18.97759],
        [77.04578, 18.97628],
        [77.04388, 18.97425],
        [77.04305, 18.97426],
        [77.0425, 18.97373],
        [77.04128, 18.97261],
        [77.04052, 18.97174],
        [77.0397, 18.97072],
        [77.03833, 18.96914],
        [77.03697, 18.96746],
        [77.03709, 18.96607],
        [77.03707, 18.96384],
        [77.03703, 18.96212],
        [77.03692, 18.96089],
        [77.03658, 18.95901],
        [77.03584, 18.95608],
        [77.03546, 18.9544],
        [77.03517, 18.9529],
        [77.03268, 18.95365],
        [77.03232, 18.95261],
        [77.03163, 18.95027],
        [77.03061, 18.94718],
        [77.03003, 18.94541],
        [77.02966, 18.94392],
        [77.02869, 18.9409],
        [77.0282, 18.93918],
        [77.02619, 18.93932],
        [77.02442, 18.93938],
        [77.02416, 18.93827],
        [77.02391, 18.93633],
        [77.02359, 18.93492],
        [77.02338, 18.93376],
        [77.02328, 18.93222],
        [77.0221, 18.93289],
        [77.02057, 18.93357],
        [77.01959, 18.93245],
        [77.01935, 18.93236],
        [77.01892, 18.93234],
        [77.01829, 18.93231],
        [77.01725, 18.93233],
        [77.01625, 18.9324],
        [77.01593, 18.93234],
        [77.01567, 18.93226],
        [77.01502, 18.93197],
        [77.01478, 18.93189],
        [77.01395, 18.93175],
        [77.01345, 18.93167],
        [77.01185, 18.93128],
        [77.01037, 18.93098],
        [77.00774, 18.93041],
        [77.00678, 18.93022],
        [77.00668, 18.92919],
        [77.00591, 18.9293],
        [77.00515, 18.92947],
        [77.00408, 18.92968],
        [77.00275, 18.92993],
        [77.00024, 18.93039],
        [76.99891, 18.93071],
        [76.99797, 18.93099],
        [76.99641, 18.93134],
        [76.99553, 18.9317],
        [76.99368, 18.93264],
        [76.99183, 18.9335],
        [76.99038, 18.93425],
        [76.98997, 18.93485],
        [76.98926, 18.93552],
        [76.98904, 18.93509],
        [76.98881, 18.93401],
        [76.98845, 18.93317],
        [76.98743, 18.92953],
        [76.98603, 18.92461],
        [76.98491, 18.92139],
        [76.98403, 18.91844],
        [76.98384, 18.91766],
        [76.98289, 18.91486],
        [76.9827, 18.91445],
        [76.98096, 18.9133],
        [76.98009, 18.91296],
        [76.97816, 18.91335],
        [76.97574, 18.91375],
        [76.97218, 18.91438],
        [76.97239, 18.91672],
        [76.97267, 18.91801],
        [76.97303, 18.92157],
        [76.97346, 18.92426],
        [76.97234, 18.92466],
        [76.97137, 18.92514],
        [76.96973, 18.92591],
        [76.96828, 18.92663],
        [76.96838, 18.92735],
        [76.96797, 18.9277],
        [76.96683, 18.92827],
        [76.96484, 18.92986],
        [76.96401, 18.93046],
        [76.96355, 18.92899],
        [76.96284, 18.92916],
        [76.96015, 18.92966],
        [76.96011, 18.93158],
        [76.9603, 18.93259],
        [76.95968, 18.93271],
        [76.95896, 18.93278],
        [76.95685, 18.93319],
        [76.95562, 18.93333],
        [76.95526, 18.93214],
        [76.95452, 18.93155],
        [76.95303, 18.93047],
        [76.95227, 18.9298],
        [76.95167, 18.92862],
        [76.95117, 18.92807],
        [76.95093, 18.92714],
        [76.95039, 18.92702],
        [76.94946, 18.92716],
        [76.94775, 18.92759],
        [76.94777, 18.92595],
        [76.94782, 18.92331],
        [76.94768, 18.92261],
        [76.94744, 18.92059],
        [76.94754, 18.91963],
        [76.94696, 18.91783],
        [76.94661, 18.91633],
        [76.94571, 18.91439],
        [76.94573, 18.91305],
        [76.94559, 18.9112],
        [76.94625, 18.91104],
        [76.94638, 18.90956],
        [76.94694, 18.90761],
        [76.94664, 18.90737],
        [76.94374, 18.90644],
        [76.94067, 18.90513],
        [76.9386, 18.90448],
        [76.93392, 18.90283],
        [76.92948, 18.90125],
        [76.92979, 18.89994],
        [76.93029, 18.89725],
        [76.93081, 18.89632],
        [76.93229, 18.89468],
        [76.93338, 18.89374],
        [76.93404, 18.89374],
        [76.93509, 18.89377],
        [76.93661, 18.89372],
        [76.94122, 18.89345],
        [76.94259, 18.89348],
        [76.9434, 18.89343],
        [76.94487, 18.8934],
        [76.94613, 18.89338],
        [76.94773, 18.89319],
        [76.94958, 18.89278],
        [76.95131, 18.89252],
        [76.95278, 18.89225],
        [76.95438, 18.89192],
        [76.95391, 18.88994],
        [76.95295, 18.88694],
        [76.95257, 18.88566],
        [76.95227, 18.88381],
        [76.9522, 18.87944],
        [76.95236, 18.87804],
        [76.95312, 18.8761],
        [76.95319, 18.87526],
        [76.9534, 18.8739],
        [76.95442, 18.87394],
        [76.95574, 18.87414],
        [76.95756, 18.8744],
        [76.9602, 18.87488],
        [76.96229, 18.87507],
        [76.96334, 18.87555],
        [76.96474, 18.87589],
        [76.967, 18.87629],
        [76.96902, 18.87682],
        [76.96973, 18.87702],
        [76.97125, 18.87728],
        [76.9736, 18.87761],
        [76.97517, 18.87836],
        [76.97657, 18.87869],
        [76.97833, 18.87883],
        [76.97992, 18.87904],
        [76.98141, 18.87928],
        [76.9836, 18.87971],
        [76.98498, 18.88024],
        [76.98617, 18.88029],
        [76.98757, 18.88067],
        [76.98871, 18.88056],
        [76.98971, 18.88047],
        [76.99216, 18.8803],
        [76.99482, 18.87996],
        [76.99701, 18.87972],
        [76.99894, 18.87977],
        [76.99956, 18.88252],
        [77.00121, 18.88205],
        [77.00332, 18.88074],
        [77.00436, 18.88017],
        [77.00507, 18.87991],
        [77.00629, 18.87981],
        [77.00813, 18.8799],
        [77.01312, 18.87982],
        [77.01523, 18.87987],
        [77.01497, 18.87851],
        [77.01557, 18.87495],
        [77.01625, 18.87136],
        [77.01688, 18.868],
        [77.01755, 18.86437],
        [77.01824, 18.86127],
        [77.01889, 18.85754],
        [77.0199, 18.85235],
        [77.02006, 18.85051],
        [77.02, 18.84726],
        [77.02002, 18.84367],
        [77.01436, 18.84326],
        [77.00845, 18.84286],
        [77.00302, 18.83729],
        [76.99895, 18.83343],
        [76.99827, 18.83273],
        [76.99774, 18.83261],
        [76.99714, 18.83244],
        [76.99603, 18.83237],
        [76.99418, 18.83244],
        [76.99232, 18.83261],
        [76.99228, 18.83072],
        [76.9913, 18.82988],
        [76.99066, 18.82905],
        [76.98821, 18.82898],
        [76.98508, 18.82917],
        [76.98247, 18.8296],
        [76.9803, 18.83053],
        [76.97966, 18.8307],
        [76.97855, 18.83027],
        [76.97712, 18.83008],
        [76.97593, 18.82994],
        [76.97503, 18.82994],
        [76.9731, 18.82931],
        [76.9716, 18.82895],
        [76.97049, 18.82874],
        [76.96949, 18.82843],
        [76.96856, 18.82828],
        [76.96728, 18.82893],
        [76.96697, 18.82907],
        [76.9665, 18.8291],
        [76.96607, 18.82926],
        [76.96548, 18.82984],
        [76.96462, 18.82998],
        [76.96457, 18.83018],
        [76.96391, 18.83046],
        [76.9625, 18.83032],
        [76.96173, 18.83027],
        [76.96099, 18.83046],
        [76.96028, 18.8307],
        [76.9598, 18.83075],
        [76.95935, 18.83104],
        [76.95702, 18.83202],
        [76.9559, 18.83265],
        [76.95557, 18.83338],
        [76.95555, 18.83402],
        [76.95431, 18.83364],
        [76.95278, 18.8335],
        [76.95146, 18.83342],
        [76.95098, 18.83331],
        [76.94858, 18.83304],
        [76.9453, 18.83263],
        [76.94461, 18.83261],
        [76.94295, 18.83242],
        [76.93956, 18.83206],
        [76.93808, 18.83177],
        [76.93777, 18.83175],
        [76.93658, 18.83381],
        [76.93592, 18.83426],
        [76.93545, 18.83419],
        [76.93404, 18.83381],
        [76.93278, 18.83357],
        [76.93204, 18.83352],
        [76.93114, 18.83359],
        [76.92958, 18.83393],
        [76.92767, 18.83436],
        [76.92637, 18.83436],
        [76.92442, 18.83467],
        [76.92323, 18.83489],
        [76.92095, 18.83522],
        [76.91839, 18.83577],
        [76.91625, 18.83647],
        [76.91494, 18.83688],
        [76.91418, 18.83714],
        [76.91396, 18.83702],
        [76.91342, 18.83568],
        [76.91325, 18.83513],
        [76.91181, 18.83594],
        [76.90969, 18.83709],
        [76.90846, 18.83765],
        [76.90584, 18.83762],
        [76.90444, 18.83753],
        [76.90258, 18.83762],
        [76.90026, 18.83772],
        [76.89838, 18.83736],
        [76.89567, 18.83664],
        [76.8919, 18.8358],
        [76.89123, 18.8357],
        [76.88978, 18.83575],
        [76.88852, 18.83594],
        [76.88733, 18.83616],
        [76.88619, 18.83618],
        [76.88572, 18.83618],
        [76.88429, 18.83606],
        [76.88301, 18.83568],
        [76.88173, 18.83532],
        [76.8809, 18.83505],
        [76.88151, 18.83333],
        [76.88134, 18.83311],
        [76.87797, 18.83239],
        [76.87671, 18.83191],
        [76.87455, 18.83143],
        [76.87315, 18.83083],
        [76.87115, 18.83047],
        [76.86918, 18.83028],
        [76.86868, 18.82918],
        [76.86711, 18.82612],
        [76.86521, 18.82312],
        [76.8644, 18.82208],
        [76.86065, 18.82282],
        [76.86008, 18.82304],
        [76.85818, 18.81985],
        [76.85745, 18.81959],
        [76.85364, 18.81887],
        [76.8531, 18.81787],
        [76.85269, 18.81554],
        [76.85262, 18.8148],
        [76.85269, 18.81329],
        [76.85278, 18.81213],
        [76.85117, 18.80901],
        [76.85072, 18.80819],
        [76.84984, 18.80794],
        [76.84649, 18.8077],
        [76.84559, 18.80763],
        [76.8443, 18.80876],
        [76.84352, 18.80919],
        [76.84278, 18.80955],
        [76.8415, 18.81003],
        [76.84088, 18.81024],
        [76.83993, 18.81208],
        [76.83958, 18.81316],
        [76.83898, 18.81316],
        [76.83808, 18.81287],
        [76.83666, 18.81273],
        [76.83525, 18.8128],
        [76.8338, 18.81301],
        [76.83252, 18.81311],
        [76.8321, 18.81299],
        [76.83145, 18.81275],
        [76.82789, 18.81261],
        [76.82729, 18.81246],
        [76.82573, 18.81112],
        [76.82468, 18.81002],
        [76.82323, 18.80854],
        [76.82202, 18.80804],
        [76.82057, 18.80799],
        [76.8195, 18.80775],
        [76.81888, 18.80751],
        [76.81774, 18.8071],
        [76.81605, 18.80598],
        [76.81399, 18.80442],
        [76.81294, 18.80329],
        [76.81151, 18.8017],
        [76.81047, 18.80102],
        [76.80959, 18.80062],
        [76.80698, 18.80057],
        [76.80588, 18.80098],
        [76.80508, 18.80114],
        [76.80294, 18.80124],
        [76.8017, 18.80102],
        [76.8, 18.80018],
        [76.79952, 18.79978],
        [76.79862, 18.80002],
        [76.79767, 18.79994],
        [76.79627, 18.79992],
        [76.79491, 18.80035],
        [76.79386, 18.8003],
        [76.79315, 18.80045],
        [76.79151, 18.8003],
        [76.79035, 18.7999],
        [76.78855, 18.79874],
        [76.7864, 18.79769],
        [76.78144, 18.79497],
        [76.77939, 18.79382],
        [76.77849, 18.79343],
        [76.77885, 18.79247],
        [76.77925, 18.7897],
        [76.77925, 18.78791],
        [76.7793, 18.78717],
        [76.77999, 18.786],
        [76.7807, 18.78422],
        [76.78082, 18.78303],
        [76.78054, 18.78167],
        [76.77992, 18.77985],
        [76.7797, 18.77925],
        [76.77896, 18.77813],
        [76.77852, 18.77684],
        [76.77851, 18.77581],
        [76.77854, 18.77557],
        [76.77761, 18.77523],
        [76.77604, 18.77533],
        [76.77469, 18.7753],
        [76.77298, 18.77518],
        [76.77237, 18.77499],
        [76.77065, 18.77473],
        [76.76951, 18.7747],
        [76.76818, 18.77439],
        [76.7668, 18.77415],
        [76.76552, 18.77374],
        [76.76343, 18.77365],
        [76.76141, 18.77377],
        [76.75937, 18.77374],
        [76.75828, 18.77369],
        [76.7572, 18.77341],
        [76.75481, 18.7729],
        [76.75326, 18.77273],
        [76.75167, 18.77264],
        [76.75057, 18.77271],
        [76.74944, 18.77285],
        [76.74883, 18.77271],
        [76.74861, 18.7728],
        [76.74749, 18.77348],
        [76.74515, 18.77465],
        [76.74329, 18.77553],
        [76.74226, 18.77568],
        [76.74207, 18.77482],
        [76.74163, 18.77277],
        [76.74075, 18.76975],
        [76.73939, 18.76556],
        [76.73875, 18.76409],
        [76.73875, 18.76329],
        [76.73826, 18.76265],
        [76.73811, 18.76065],
        [76.73748, 18.75968],
        [76.73758, 18.7586],
        [76.73622, 18.7588],
        [76.73461, 18.75899],
        [76.73329, 18.7586],
        [76.73353, 18.75763],
        [76.7347, 18.75538],
        [76.73236, 18.75358],
        [76.7304, 18.75158],
        [76.73054, 18.75079],
        [76.73055, 18.75033],
        [76.72947, 18.75026],
        [76.72859, 18.75016],
        [76.72578, 18.75008],
        [76.72326, 18.7499],
        [76.72173, 18.7499],
        [76.71966, 18.75028],
        [76.71746, 18.75074],
        [76.71736, 18.75106],
        [76.7155, 18.75174],
        [76.7135, 18.75247],
        [76.7113, 18.75345],
        [76.70837, 18.75477],
        [76.70574, 18.75603],
        [76.70354, 18.75686],
        [76.70218, 18.75721],
        [76.7005, 18.75735],
        [76.69932, 18.7574],
        [76.69884, 18.7572],
        [76.69816, 18.75652],
        [76.69576, 18.75394],
        [76.69269, 18.75262],
        [76.69112, 18.75286],
        [76.68829, 18.75369],
        [76.68439, 18.75457],
        [76.68034, 18.75584],
        [76.67956, 18.75638],
        [76.67854, 18.7573],
        [76.67756, 18.75847],
        [76.67614, 18.75901],
        [76.67546, 18.75977],
        [76.6738, 18.76167],
        [76.67199, 18.7643],
        [76.6715, 18.76445],
        [76.67068, 18.76537],
        [76.67243, 18.76635],
        [76.67492, 18.76874],
        [76.67761, 18.77194],
        [76.6799, 18.77408],
        [76.68049, 18.7755],
        [76.68088, 18.77774],
        [76.68234, 18.77828],
        [76.68288, 18.77842],
        [76.68244, 18.77852],
        [76.68171, 18.77925],
        [76.68091, 18.78137],
        [76.67959, 18.78216],
        [76.67861, 18.7825],
        [76.67793, 18.78343],
        [76.67656, 18.7845],
        [76.67603, 18.78518],
        [76.6751, 18.7863],
        [76.67446, 18.78703],
        [76.67373, 18.78806],
        [76.67305, 18.78894],
        [76.6732, 18.78986],
        [76.67373, 18.79169],
        [76.67495, 18.79247],
        [76.67505, 18.7935],
        [76.67451, 18.79428],
        [76.67412, 18.79467],
        [76.67314, 18.7953],
        [76.67271, 18.79613],
        [76.67236, 18.79716],
        [76.67202, 18.79818],
        [76.67129, 18.79891],
        [76.67046, 18.79935],
        [76.67007, 18.80004],
        [76.66924, 18.80113],
        [76.669, 18.80177],
        [76.66827, 18.80357],
        [76.66724, 18.80538],
        [76.66616, 18.80606],
        [76.66548, 18.8064],
        [76.66514, 18.80738],
        [76.66538, 18.80786],
        [76.66641, 18.80874],
        [76.66919, 18.81223],
        [76.67037, 18.81423],
        [76.66948, 18.81423],
        [76.66754, 18.81423],
        [76.66616, 18.8153],
        [76.66504, 18.81628],
        [76.66431, 18.81799],
        [76.66422, 18.82067],
        [76.66092, 18.81989],
        [76.65795, 18.81935],
        [76.65624, 18.81935],
        [76.6538, 18.81979],
        [76.6517, 18.82106],
        [76.65004, 18.82174],
        [76.64901, 18.82116],
        [76.6456, 18.81999],
        [76.64345, 18.81999],
        [76.6436, 18.82162],
        [76.64423, 18.82362],
        [76.64448, 18.82542],
        [76.64443, 18.83098],
        [76.64384, 18.83323],
        [76.64197, 18.83671],
        [76.64001, 18.83974],
        [76.63914, 18.84184],
        [76.63904, 18.84269],
        [76.63938, 18.84508],
        [76.6406, 18.84659],
        [76.6405, 18.84679],
        [76.63933, 18.84659],
        [76.63626, 18.84606],
        [76.63431, 18.84542],
        [76.63303, 18.84533],
        [76.63225, 18.84562],
        [76.63094, 18.8464],
        [76.6302, 18.84728],
        [76.6281, 18.84777],
        [76.62708, 18.8482],
        [76.62655, 18.84884],
        [76.62586, 18.84981],
        [76.62566, 18.85098],
        [76.62549, 18.85147],
        [76.63013, 18.85705],
        [76.63272, 18.86098],
        [76.63341, 18.86476],
        [76.63291, 18.86858],
        [76.63183, 18.87489],
        [76.63285, 18.88044],
        [76.63536, 18.88759],
        [76.63596, 18.88927],
        [76.63409, 18.89427],
        [76.63361, 18.89831],
        [76.63429, 18.90209],
        [76.63757, 18.9098],
        [76.63778, 18.91035],
        [76.64021, 18.91645],
        [76.63891, 18.91691],
        [76.63218, 18.91962],
        [76.62633, 18.92095],
        [76.61887, 18.92324],
        [76.61414, 18.92473],
        [76.61701, 18.928],
        [76.61815, 18.92913],
        [76.62202, 18.93296],
        [76.63107, 18.93376],
        [76.64293, 18.93209],
        [76.64401, 18.93194],
        [76.64774, 18.93091],
        [76.65431, 18.92978],
        [76.65858, 18.92985],
        [76.6637, 18.92809],
        [76.67111, 18.92917],
        [76.67449, 18.92933],
        [76.67447, 18.92994],
        [76.67681, 18.93838],
        [76.67719, 18.94105],
        [76.6747, 18.94764],
        [76.67426, 18.95707],
        [76.67513, 18.96444],
        [76.67677, 18.96763],
        [76.67751, 18.96906],
        [76.67994, 18.97036],
        [76.68067, 18.97075],
        [76.68148, 18.977],
        [76.68156, 18.98305],
        [76.68081, 18.98466],
        [76.67796, 18.98631],
        [76.67422, 18.98622],
        [76.67401, 18.98756],
        [76.67357, 18.99251],
        [76.67467, 18.99605],
        [76.67069, 18.99619],
        [76.66373, 18.99843],
        [76.65661, 19.00273],
        [76.65347, 19.00462],
        [76.65116, 19.00601],
        [76.6407, 19.01329],
        [76.6393, 19.01438],
        [76.63794, 19.01543],
        [76.63166, 19.02029],
        [76.62831, 19.02375],
        [76.6284, 19.02397],
        [76.62995, 19.02773],
        [76.63656, 19.03199],
        [76.6453, 19.03664],
        [76.64899, 19.04368],
        [76.64974, 19.04881],
        [76.64805, 19.05647],
        [76.64635, 19.06252],
        [76.65976, 19.06041],
        [76.66416, 19.06043],
        [76.67436, 19.06274],
        [76.68705, 19.06808],
        [76.68987, 19.07003],
        [76.69329, 19.07113],
        [76.69469, 19.07158],
        [76.69589, 19.07196],
        [76.71135, 19.06946],
        [76.71675, 19.07083],
        [76.72449, 19.06903],
        [76.7257, 19.06875],
        [76.7328, 19.07244],
        [76.73304, 19.07271],
        [76.73552, 19.07542],
        [76.75216, 19.07212],
        [76.75763, 19.07104],
        [76.75712, 19.06786],
        [76.75655, 19.06425],
        [76.75588, 19.06008],
        [76.75538, 19.05698],
        [76.76017, 19.05533],
        [76.76104, 19.05106],
        [76.76102, 19.04762],
        [76.761, 19.04407],
        [76.76079, 19.0431],
        [76.75985, 19.03859],
        [76.76133, 19.03516],
        [76.76179, 19.03407],
        [76.76342, 19.02601],
        [76.77559, 19.02375],
        [76.77706, 19.02348],
        [76.78563, 19.02318],
        [76.79248, 19.024],
        [76.78998, 19.03099],
        [76.79019, 19.03532],
        [76.79044, 19.04044],
        [76.78908, 19.04803],
        [76.78894, 19.04879],
        [76.79053, 19.05449],
        [76.79383, 19.05637],
        [76.80134, 19.05735],
        [76.80314, 19.06421],
        [76.80472, 19.07029],
        [76.79461, 19.07448],
        [76.79497, 19.07896],
        [76.79513, 19.08102],
        [76.79522, 19.08203],
        [76.80602, 19.07921],
        [76.80817, 19.08105],
        [76.81022, 19.08623],
        [76.81364, 19.08623],
        [76.81536, 19.08623],
        [76.8154, 19.08793],
        [76.81561, 19.09666],
        [76.81376, 19.10519],
        [76.81353, 19.10623],
        [76.82104, 19.10656],
        [76.82049, 19.10911],
        [76.82017, 19.1258],
        [76.82025, 19.12685],
        [76.8206, 19.1314],
        [76.81816, 19.13456],
        [76.82285, 19.13667],
        [76.82665, 19.13823],
        [76.82741, 19.14201],
        [76.82833, 19.14601],
        [76.83452, 19.14562],
        [76.83873, 19.14536],
        [76.84442, 19.14519],
        [76.84539, 19.14516],
        [76.85255, 19.14538],
        [76.85485, 19.14964],
        [76.8618, 19.14862],
        [76.86543, 19.14872],
        [76.86942, 19.14882],
        [76.87472, 19.15163],
        [76.87683, 19.15439],
        [76.87963, 19.15805],
        [76.8798, 19.15866],
        [76.88566, 19.15584],
        [76.88609, 19.15589],
        [76.8908, 19.15644],
        [76.8964, 19.15721],
        [76.89762, 19.16072],
        [76.89818, 19.16435],
        [76.89915, 19.17072],
        [76.90029, 19.17604],
        [76.90215, 19.18255],
        [76.90325, 19.1864],
        [76.90346, 19.19447],
        [76.90533, 19.20018],
        [76.90652, 19.20262],
        [76.9015, 19.20352],
        [76.90341, 19.21041],
        [76.90754, 19.2153],
        [76.90752, 19.21555],
        [76.91077, 19.21509],
        [76.91901, 19.21117],
        [76.92336, 19.20774],
        [76.92563, 19.207],
        [76.92945, 19.20576],
        [76.93011, 19.20587],
        [76.93321, 19.20641],
        [76.93698, 19.20974],
        [76.93714, 19.21422],
        [76.93826, 19.21907],
        [76.94068, 19.22025],
        [76.94357, 19.22409],
        [76.9455, 19.23024],
        [76.94455, 19.23503],
        [76.94341, 19.23554],
        [76.92956, 19.24478],
        [76.9261, 19.24996],
        [76.92707, 19.2503],
        [76.9285, 19.25063]
      ]
    ]
  }
}
