{
  "type": "Feature",
  "id": "OD-AC-100",
  "properties": {
    "stateName": "ODISHA",
    "stateCode": "OD",
    "districtName": "KENDRAPARA",
    "acNo": 100,
    "acName": "MAHAKALAPADA",
    "seatType": null,
    "pcNo": 15,
    "pcName": "KENDRAPARA",
    "quality": "unverified",
    "sources": [
      "TBD"
    ]
  },
  "geometry": {
    "type": "Polygon",
    "coordinates": [
      [
        [86.7363, 20.3971],
        [86.74363, 20.39186],
        [86.7447, 20.3911],
        [86.7438, 20.3788],
        [86.7648, 20.393],
        [86.7791, 20.3917],
        [86.7826, 20.3823],
        [86.78494, 20.38347],
        [86.7856, 20.3838],
        [86.7923, 20.412],
        [86.7914, 20.4334],
        [86.8023, 20.444],
        [86.7971, 20.4601],
        [86.8013, 20.4691],
        [86.7967, 20.4927],
        [86.7968, 20.4924],
        [86.8102, 20.4513],
        [86.7936, 20.4101],
        [86.7956, 20.3895],
        [86.7956, 20.3895],
        [86.7917, 20.3876],
        [86.79579, 20.38073],
        [86.79729, 20.37822],
        [86.7973, 20.3782],
        [86.7972, 20.39621],
        [86.7972, 20.3963],
        [86.80029, 20.38826],
        [86.8007, 20.3872],
        [86.8044, 20.3912],
        [86.7976, 20.4006],
        [86.8052, 20.3991],
        [86.8091, 20.37865],
        [86.8098, 20.37501],
        [86.8098, 20.375],
        [86.7765, 20.3454],
        [86.7766, 20.3347],
        [86.7844, 20.3323],
        [86.78438, 20.33229],
        [86.77658, 20.33466],
        [86.72844, 20.3016],
        [86.6964, 20.29688],
        [86.6895, 20.30022],
        [86.67918, 20.31678],
        [86.65976, 20.32849],
        [86.61778, 20.33597],
        [86.60703, 20.34194],
        [86.57609, 20.3364],
        [86.55239, 20.32381],
        [86.51888, 20.34138],
        [86.49786, 20.32888],
        [86.47331, 20.33776],
        [86.45471, 20.33125],
        [86.44135, 20.33714],
        [86.43219, 20.33558],
        [86.43443, 20.3481],
        [86.42298, 20.34236],
        [86.41111, 20.35213],
        [86.41192, 20.35914],
        [86.41864, 20.36589],
        [86.4207, 20.36019],
        [86.43579, 20.35933],
        [86.44276, 20.3538],
        [86.45137, 20.3618],
        [86.4407, 20.37726],
        [86.44403, 20.38405],
        [86.42966, 20.3959],
        [86.42245, 20.38434],
        [86.40833, 20.38159],
        [86.41014, 20.38981],
        [86.40504, 20.39665],
        [86.40904, 20.40459],
        [86.39618, 20.40724],
        [86.39503, 20.41115],
        [86.39751, 20.41817],
        [86.40333, 20.41587],
        [86.40618, 20.42357],
        [86.41092, 20.41753],
        [86.42268, 20.42385],
        [86.42899, 20.41407],
        [86.46194, 20.41961],
        [86.44925, 20.43843],
        [86.44487, 20.42896],
        [86.44442, 20.44077],
        [86.43434, 20.44546],
        [86.43651, 20.44924],
        [86.44178, 20.4461],
        [86.45524, 20.45012],
        [86.4544, 20.46766],
        [86.46701, 20.47311],
        [86.46192, 20.47846],
        [86.45556, 20.4693],
        [86.45067, 20.46945],
        [86.44489, 20.48237],
        [86.46143, 20.4818],
        [86.47218, 20.48731],
        [86.47564, 20.48616],
        [86.47078, 20.47887],
        [86.47424, 20.47696],
        [86.47691, 20.48783],
        [86.48395, 20.49213],
        [86.50057, 20.48505],
        [86.50425, 20.47051],
        [86.51583, 20.47808],
        [86.53144, 20.47583],
        [86.54895, 20.48685],
        [86.5656, 20.46894],
        [86.57753, 20.47875],
        [86.5952, 20.47727],
        [86.60134, 20.48663],
        [86.59653, 20.492],
        [86.60115, 20.49732],
        [86.60988, 20.49048],
        [86.60869, 20.48346],
        [86.61582, 20.49098],
        [86.63081, 20.48603],
        [86.63562, 20.49653],
        [86.64161, 20.4991],
        [86.65365, 20.50033],
        [86.65583, 20.49569],
        [86.66765, 20.50178],
        [86.70191, 20.50066],
        [86.71987, 20.50735],
        [86.73685, 20.52273],
        [86.7538, 20.51854],
        [86.75381, 20.51849],
        [86.7538, 20.5185],
        [86.7578, 20.4944],
        [86.7491, 20.4744],
        [86.74733, 20.47421],
        [86.7434, 20.4738],
        [86.733, 20.4826],
        [86.72389, 20.48044],
        [86.72331, 20.4803],
        [86.7233, 20.4803],
        [86.73574, 20.46188],
        [86.7362, 20.4612],
        [86.7304, 20.4415],
        [86.7308, 20.4114],
        [86.72477, 20.40167],
        [86.7225, 20.398],
        [86.7109, 20.4012],
        [86.71089, 20.40118],
        [86.71089, 20.40118],
        [86.71006, 20.39776],
        [86.7097, 20.3963],
        [86.7097, 20.3963],
        [86.72477, 20.37824],
        [86.7248, 20.3782],
        [86.7363, 20.3971]
      ]
    ]
  }
}
