{
  "type": "Feature",
  "id": "OD-AC-113",
  "properties": {
    "stateName": "ODISHA",
    "stateCode": "OD",
    "districtName": "KHORDHA",
    "acNo": 113,
    "acName": "BHUBANESWAR(UTTAR)",
    "seatType": null,
    "pcNo": 18,
    "pcName": "BHUBANESWAR",
    "quality": "unverified",
    "sources": [
      "TBD"
    ]
  },
  "geometry": {
    "type": "Polygon",
    "coordinates": [
      [
        [85.85975, 20.3898],
        [85.85892, 20.38104],
        [85.86775, 20.37531],
        [85.87189, 20.35167],
        [85.87639, 20.34737],
        [85.87935, 20.35162],
        [85.89758, 20.33645],
        [85.89264, 20.33285],
        [85.89613, 20.32169],
        [85.88047, 20.30261],
        [85.86265, 20.31381],
        [85.85152, 20.33046],
        [85.84483, 20.33113],
        [85.84505, 20.34421],
        [85.83221, 20.35186],
        [85.83365, 20.35794],
        [85.82853, 20.36492],
        [85.81756, 20.36867],
        [85.81493, 20.38845],
        [85.82626, 20.39504],
        [85.82832, 20.40498],
        [85.83653, 20.40521],
        [85.83999, 20.40995],
        [85.85181, 20.40192],
        [85.864, 20.40203],
        [85.86561, 20.4136],
        [85.8723, 20.41358],
        [85.87111, 20.40197],
        [85.86737, 20.39374],
        [85.85975, 20.3898]
      ]
    ]
  }
}
