{
  "type": "Feature",
  "id": "OD-AC-114",
  "properties": {
    "stateName": "ODISHA",
    "stateCode": "OD",
    "districtName": "KHORDHA",
    "acNo": 114,
    "acName": "EKAMRA-BHUBANESHWAR",
    "seatType": null,
    "pcNo": 18,
    "pcName": "BHUBANESWAR",
    "quality": "unverified",
    "sources": [
      "TBD"
    ]
  },
  "geometry": {
    "type": "Polygon",
    "coordinates": [
      [
        [85.82853, 20.36492],
        [85.83365, 20.35794],
        [85.83221, 20.35186],
        [85.84505, 20.34421],
        [85.84483, 20.33113],
        [85.85152, 20.33046],
        [85.86265, 20.31381],
        [85.88047, 20.30261],
        [85.88611, 20.26515],
        [85.88247, 20.25003],
        [85.86549, 20.22625],
        [85.86049, 20.20028],
        [85.84703, 20.20201],
        [85.84156, 20.19723],
        [85.85372, 20.192],
        [85.85415, 20.17626],
        [85.84437, 20.17509],
        [85.84226, 20.18814],
        [85.83634, 20.19056],
        [85.82548, 20.15926],
        [85.80497, 20.15999],
        [85.80244, 20.16555],
        [85.80704, 20.17718],
        [85.8163, 20.17895],
        [85.82188, 20.18628],
        [85.81506, 20.18937],
        [85.81457, 20.20396],
        [85.80772, 20.20635],
        [85.811, 20.21516],
        [85.82049, 20.21408],
        [85.82837, 20.22508],
        [85.83322, 20.2238],
        [85.83498, 20.21398],
        [85.84033, 20.21437],
        [85.84341, 20.22272],
        [85.84004, 20.22896],
        [85.85051, 20.24129],
        [85.85814, 20.24019],
        [85.87053, 20.2572],
        [85.87092, 20.26946],
        [85.87898, 20.27717],
        [85.86087, 20.27783],
        [85.80898, 20.32419],
        [85.79756, 20.34079],
        [85.79936, 20.34382],
        [85.786, 20.36185],
        [85.79648, 20.3707],
        [85.80166, 20.36613],
        [85.81521, 20.36891],
        [85.81756, 20.36867],
        [85.82853, 20.36492]
      ]
    ]
  }
}
