{
  "type": "Feature",
  "id": "OD-AC-117",
  "properties": {
    "stateName": "ODISHA",
    "stateCode": "OD",
    "districtName": "KHORDHA",
    "acNo": 117,
    "acName": "KHURDA",
    "seatType": null,
    "pcNo": 18,
    "pcName": "BHUBANESWAR",
    "quality": "unverified",
    "sources": [
      "TBD"
    ]
  },
  "geometry": {
    "type": "Polygon",
    "coordinates": [
      [
        [85.63909, 20.19186],
        [85.65509, 20.18898],
        [85.6506, 20.1676],
        [85.66102, 20.16537],
        [85.66018, 20.15631],
        [85.64458, 20.15375],
        [85.62727, 20.13839],
        [85.64007, 20.11573],
        [85.65101, 20.11017],
        [85.64919, 20.0983],
        [85.63285, 20.10171],
        [85.63735, 20.09161],
        [85.64437, 20.08787],
        [85.64368, 20.08267],
        [85.63748, 20.08232],
        [85.63748, 20.07519],
        [85.61964, 20.0662],
        [85.61322, 20.03856],
        [85.62066, 20.0363],
        [85.61959, 20.03191],
        [85.62854, 20.02455],
        [85.61347, 19.99287],
        [85.60626, 19.99666],
        [85.61469, 20.01959],
        [85.60682, 20.01888],
        [85.58842, 19.99832],
        [85.58614, 20.00698],
        [85.58029, 20.01013],
        [85.58254, 20.02144],
        [85.57161, 20.02523],
        [85.56675, 20.00916],
        [85.5724, 20.00722],
        [85.57024, 19.99818],
        [85.56628, 20.00372],
        [85.56201, 19.99551],
        [85.56874, 19.98135],
        [85.56673, 19.97807],
        [85.56006, 19.98124],
        [85.55511, 19.9754],
        [85.56655, 19.97211],
        [85.56456, 19.95525],
        [85.55046, 19.95265],
        [85.55246, 19.96264],
        [85.54757, 19.95699],
        [85.53212, 19.95873],
        [85.53502, 19.96518],
        [85.52875, 19.97136],
        [85.53206, 19.97663],
        [85.52669, 19.97854],
        [85.51476, 19.97031],
        [85.51083, 19.95222],
        [85.50604, 19.95295],
        [85.5036, 19.94624],
        [85.49946, 19.94635],
        [85.50609, 19.94458],
        [85.50551, 19.94798],
        [85.51893, 19.94127],
        [85.50626, 19.93252],
        [85.50765, 19.92733],
        [85.52073, 19.93093],
        [85.52733, 19.94377],
        [85.53425, 19.93901],
        [85.53112, 19.92771],
        [85.56807, 19.91693],
        [85.56044, 19.90819],
        [85.5699, 19.90416],
        [85.56604, 19.90016],
        [85.56765, 19.88184],
        [85.56254, 19.86339],
        [85.56172, 19.85424],
        [85.49994, 19.86972],
        [85.50301, 19.88484],
        [85.43948, 19.8826],
        [85.43279, 19.88892],
        [85.43125, 19.90448],
        [85.42584, 19.91013],
        [85.40784, 19.91602],
        [85.40644, 19.90383],
        [85.39712, 19.90816],
        [85.398, 19.90193],
        [85.38118, 19.90992],
        [85.38583, 19.89757],
        [85.37015, 19.90684],
        [85.35696, 19.89346],
        [85.37753, 19.88518],
        [85.37555, 19.85862],
        [85.34678, 19.86034],
        [85.33703, 19.86507],
        [85.33067, 19.86147],
        [85.32503, 19.86654],
        [85.30458, 19.8492],
        [85.29891, 19.8529],
        [85.29764, 19.86113],
        [85.30403, 19.88382],
        [85.26671, 19.91319],
        [85.26969, 19.91808],
        [85.2784, 19.91503],
        [85.30423, 19.92725],
        [85.32814, 19.92541],
        [85.32826, 19.93028],
        [85.35021, 19.94333],
        [85.36008, 19.95679],
        [85.37247, 19.95048],
        [85.38233, 19.95159],
        [85.38334, 19.94042],
        [85.39353, 19.94101],
        [85.39986, 19.9322],
        [85.41579, 19.92845],
        [85.4179, 19.92437],
        [85.42212, 19.93904],
        [85.43555, 19.93999],
        [85.45511, 19.97279],
        [85.43757, 19.99655],
        [85.41485, 19.99451],
        [85.41561, 20.00357],
        [85.423, 20.0034],
        [85.4317, 20.01495],
        [85.43609, 20.02821],
        [85.43102, 20.02908],
        [85.43382, 20.03823],
        [85.44357, 20.04306],
        [85.46298, 20.03627],
        [85.48092, 20.03998],
        [85.46567, 20.06342],
        [85.46844, 20.07829],
        [85.48815, 20.07316],
        [85.5072, 20.08373],
        [85.51617, 20.08306],
        [85.53554, 20.09137],
        [85.53775, 20.10345],
        [85.51817, 20.12937],
        [85.5286, 20.14005],
        [85.52725, 20.14964],
        [85.51785, 20.16232],
        [85.53052, 20.17293],
        [85.54722, 20.15173],
        [85.56509, 20.14752],
        [85.55575, 20.17039],
        [85.56746, 20.1742],
        [85.58651, 20.17119],
        [85.59018, 20.17718],
        [85.59986, 20.1793],
        [85.60493, 20.20338],
        [85.62077, 20.20389],
        [85.63011, 20.20373],
        [85.63909, 20.19186]
      ]
    ]
  }
}
