{
  "type": "Feature",
  "id": "OD-AC-118",
  "properties": {
    "stateName": "ODISHA",
    "stateCode": "OD",
    "districtName": "KHORDHA",
    "acNo": 118,
    "acName": "CHILIKA",
    "seatType": null,
    "pcNo": 17,
    "pcName": "PURI",
    "quality": "unverified",
    "sources": [
      "TBD"
    ]
  },
  "geometry": {
    "type": "Polygon",
    "coordinates": [
      [
        [85.09337, 19.92927],
        [85.12284, 19.93421],
        [85.16486, 19.90388],
        [85.18166, 19.91062],
        [85.18355, 19.9075],
        [85.22301, 19.91227],
        [85.24155, 19.90629],
        [85.26671, 19.91319],
        [85.30403, 19.88382],
        [85.29764, 19.86113],
        [85.29891, 19.8529],
        [85.30458, 19.8492],
        [85.32503, 19.86654],
        [85.33067, 19.86147],
        [85.33703, 19.86507],
        [85.34678, 19.86034],
        [85.37555, 19.85862],
        [85.37753, 19.88518],
        [85.35696, 19.89346],
        [85.37015, 19.90684],
        [85.38583, 19.89757],
        [85.38118, 19.90992],
        [85.398, 19.90193],
        [85.39712, 19.90816],
        [85.40644, 19.90383],
        [85.40784, 19.91602],
        [85.42584, 19.91013],
        [85.43125, 19.90448],
        [85.43279, 19.88892],
        [85.43948, 19.8826],
        [85.38645, 19.831],
        [85.36004, 19.82282],
        [85.3476, 19.801],
        [85.34339, 19.80159],
        [85.33002, 19.78537],
        [85.2862, 19.78243],
        [85.25228, 19.76794],
        [85.24797, 19.74383],
        [85.22144, 19.74205],
        [85.20318, 19.7193],
        [85.1988, 19.7039],
        [85.21178, 19.69537],
        [85.20846, 19.67918],
        [85.18227, 19.67181],
        [85.18249, 19.6779],
        [85.16198, 19.69514],
        [85.16064, 19.70241],
        [85.14369, 19.71951],
        [85.14452, 19.7271],
        [85.13795, 19.73885],
        [85.12565, 19.74923],
        [85.08664, 19.76806],
        [85.07791, 19.78017],
        [85.07678, 19.78991],
        [85.06722, 19.79641],
        [85.0372, 19.80673],
        [85.00633, 19.80292],
        [84.99901, 19.81473],
        [84.98461, 19.81934],
        [84.96925, 19.85454],
        [84.95102, 19.86567],
        [84.95218, 19.86844],
        [84.93525, 19.87522],
        [84.94003, 19.89731],
        [84.97565, 19.90418],
        [85.00491, 19.89965],
        [85.01902, 19.90572],
        [85.02603, 19.90123],
        [85.04993, 19.9154],
        [85.0553, 19.91386],
        [85.09337, 19.92927]
      ]
    ]
  }
}
