{
  "type": "Feature",
  "id": "OD-AC-123",
  "properties": {
    "stateName": "ODISHA",
    "stateCode": "OD",
    "districtName": "GANJAM",
    "acNo": 123,
    "acName": "BHANJANAGAR",
    "seatType": null,
    "pcNo": 13,
    "pcName": "KANDHAMAL",
    "quality": "unverified",
    "sources": [
      "TBD"
    ]
  },
  "geometry": {
    "type": "Polygon",
    "coordinates": [
      [
        [84.6967, 20.28117],
        [84.7281, 20.25877],
        [84.73539, 20.24409],
        [84.75832, 20.24214],
        [84.7653, 20.24618],
        [84.77383, 20.24344],
        [84.78236, 20.23201],
        [84.82274, 20.22317],
        [84.83175, 20.2163],
        [84.82367, 20.17977],
        [84.82598, 20.15852],
        [84.82184, 20.12009],
        [84.80743, 20.11523],
        [84.80663, 20.1038],
        [84.79777, 20.09217],
        [84.81066, 20.06775],
        [84.84191, 20.04652],
        [84.8571, 20.02989],
        [84.8624, 20.00016],
        [84.88356, 20.0007],
        [84.90039, 19.99305],
        [84.91628, 19.95156],
        [84.89476, 19.94493],
        [84.89199, 19.95188],
        [84.88025, 19.9589],
        [84.88344, 19.94866],
        [84.87746, 19.94547],
        [84.88028, 19.94095],
        [84.86836, 19.94432],
        [84.85644, 19.93898],
        [84.85297, 19.94642],
        [84.85238, 19.94019],
        [84.83102, 19.94214],
        [84.82839, 19.92925],
        [84.8177, 19.93583],
        [84.81318, 19.9307],
        [84.8138, 19.92219],
        [84.79994, 19.91979],
        [84.79563, 19.91079],
        [84.782, 19.91192],
        [84.77466, 19.90345],
        [84.7559, 19.89887],
        [84.74835, 19.87751],
        [84.72042, 19.87948],
        [84.70676, 19.86878],
        [84.69982, 19.87363],
        [84.69751, 19.8583],
        [84.67223, 19.87169],
        [84.6719, 19.88367],
        [84.66341, 19.88592],
        [84.65457, 19.90308],
        [84.65982, 19.91332],
        [84.6483, 19.91658],
        [84.6492, 19.926],
        [84.64288, 19.93025],
        [84.63637, 19.92455],
        [84.63354, 19.93107],
        [84.62628, 19.93155],
        [84.62453, 19.93997],
        [84.61791, 19.94235],
        [84.61462, 19.92827],
        [84.60549, 19.93568],
        [84.59324, 19.92173],
        [84.59075, 19.90496],
        [84.59385, 19.90377],
        [84.58438, 19.89832],
        [84.58361, 19.87909],
        [84.57925, 19.8797],
        [84.57993, 19.88596],
        [84.54911, 19.88682],
        [84.54776, 19.8716],
        [84.54281, 19.8683],
        [84.53679, 19.84485],
        [84.53026, 19.84429],
        [84.52886, 19.83682],
        [84.48489, 19.85539],
        [84.47466, 19.87928],
        [84.46148, 19.87949],
        [84.45656, 19.90553],
        [84.46228, 19.91423],
        [84.46354, 19.93523],
        [84.46956, 19.94095],
        [84.4632, 19.9542],
        [84.44961, 19.95327],
        [84.43349, 19.96049],
        [84.41938, 19.95575],
        [84.41718, 19.96038],
        [84.40714, 19.95867],
        [84.4057, 19.9625],
        [84.39014, 19.95664],
        [84.37641, 19.96564],
        [84.35626, 19.9909],
        [84.33535, 19.97843],
        [84.32842, 19.98074],
        [84.32248, 19.99023],
        [84.33025, 20.0078],
        [84.33858, 20.00871],
        [84.35752, 20.03314],
        [84.36348, 20.02585],
        [84.39332, 20.04108],
        [84.41353, 20.04468],
        [84.41793, 20.04969],
        [84.41565, 20.06273],
        [84.40456, 20.07059],
        [84.40444, 20.08367],
        [84.41182, 20.08643],
        [84.4179, 20.10038],
        [84.41742, 20.11538],
        [84.42745, 20.12079],
        [84.43134, 20.14109],
        [84.44161, 20.14686],
        [84.43599, 20.15456],
        [84.4386, 20.16188],
        [84.43158, 20.17928],
        [84.43775, 20.20199],
        [84.44617, 20.20527],
        [84.45926, 20.18829],
        [84.45334, 20.18222],
        [84.45552, 20.16471],
        [84.48673, 20.14068],
        [84.49718, 20.14174],
        [84.50922, 20.13621],
        [84.51325, 20.15028],
        [84.52307, 20.15228],
        [84.52552, 20.14377],
        [84.56042, 20.13841],
        [84.56418, 20.14535],
        [84.55816, 20.15721],
        [84.58767, 20.17139],
        [84.58499, 20.18653],
        [84.59748, 20.17577],
        [84.62027, 20.18848],
        [84.63387, 20.19015],
        [84.63738, 20.19692],
        [84.64912, 20.2033],
        [84.65129, 20.22685],
        [84.66505, 20.24371],
        [84.66601, 20.25093],
        [84.67233, 20.27414],
        [84.6967, 20.28117]
      ]
    ]
  }
}
