{
  "type": "Feature",
  "id": "OD-AC-14",
  "properties": {
    "stateName": "ODISHA",
    "stateCode": "OD",
    "districtName": "SUNDARGARH",
    "acNo": 14,
    "acName": "BONAI (ST)",
    "seatType": null,
    "pcNo": 2,
    "pcName": "SUNDARGARH (ST)",
    "quality": "unverified",
    "sources": [
      "TBD"
    ]
  },
  "geometry": {
    "type": "Polygon",
    "coordinates": [
      [
        [84.99579, 22.0817],
        [84.9958, 22.0817],
        [85.0096, 22.0889],
        [85.0249, 22.1099],
        [85.0423, 22.1159],
        [85.0704, 22.1133],
        [85.0866, 22.1063],
        [85.099, 22.106],
        [85.1005, 22.0945],
        [85.11024, 22.08801],
        [85.11219, 22.08671],
        [85.1122, 22.0867],
        [85.1126, 22.079],
        [85.122, 22.0708],
        [85.1444, 22.0799],
        [85.15021, 22.0791],
        [85.1553, 22.0784],
        [85.1606, 22.075],
        [85.1673, 22.0537],
        [85.1741, 22.0518],
        [85.17031, 22.06187],
        [85.1674, 22.0696],
        [85.17739, 22.07322],
        [85.179, 22.0738],
        [85.1864, 22.0591],
        [85.19208, 22.05689],
        [85.2036, 22.0524],
        [85.2047, 22.0515],
        [85.20585, 22.05128],
        [85.2136, 22.0498],
        [85.2191, 22.0405],
        [85.22017, 22.02908],
        [85.2212, 22.018],
        [85.2356, 22.01124],
        [85.23913, 22.00958],
        [85.23142, 21.99654],
        [85.26494, 21.9746],
        [85.27167, 21.9605],
        [85.29844, 21.9524],
        [85.31378, 21.95867],
        [85.34711, 21.94984],
        [85.35158, 21.9422],
        [85.36847, 21.9424],
        [85.37594, 21.93649],
        [85.37573, 21.91056],
        [85.37432, 21.90322],
        [85.36756, 21.89966],
        [85.36423, 21.86008],
        [85.34223, 21.82615],
        [85.30954, 21.81966],
        [85.29716, 21.82574],
        [85.28979, 21.83732],
        [85.28065, 21.83501],
        [85.27143, 21.81832],
        [85.25556, 21.81632],
        [85.24295, 21.80457],
        [85.22622, 21.82014],
        [85.21465, 21.79831],
        [85.20986, 21.77479],
        [85.2001, 21.76275],
        [85.20679, 21.74696],
        [85.21436, 21.74692],
        [85.21272, 21.73928],
        [85.19083, 21.72173],
        [85.18416, 21.70944],
        [85.19268, 21.69587],
        [85.18605, 21.67735],
        [85.19099, 21.66133],
        [85.18027, 21.65456],
        [85.18409, 21.64999],
        [85.18162, 21.64344],
        [85.19144, 21.64546],
        [85.19419, 21.64056],
        [85.18798, 21.62869],
        [85.17676, 21.61995],
        [85.16588, 21.62274],
        [85.14391, 21.59528],
        [85.12982, 21.5994],
        [85.10465, 21.59434],
        [85.09133, 21.60296],
        [85.07687, 21.60356],
        [85.06556, 21.59761],
        [85.06477, 21.59178],
        [85.04803, 21.59098],
        [85.03761, 21.60097],
        [85.03693, 21.62351],
        [85.02925, 21.62753],
        [85.02586, 21.65332],
        [85.03075, 21.65837],
        [85.0255, 21.67293],
        [84.99765, 21.68198],
        [84.98828, 21.67864],
        [84.98268, 21.68224],
        [84.98116, 21.67434],
        [84.97529, 21.67265],
        [84.96558, 21.68279],
        [84.95628, 21.68425],
        [84.95328, 21.66458],
        [84.94128, 21.65928],
        [84.91474, 21.67053],
        [84.9031, 21.66818],
        [84.90081, 21.65881],
        [84.87786, 21.65833],
        [84.8611, 21.65192],
        [84.85606, 21.65227],
        [84.85491, 21.66061],
        [84.82872, 21.66028],
        [84.78952, 21.66857],
        [84.78192, 21.64562],
        [84.79284, 21.6366],
        [84.7783, 21.62573],
        [84.75745, 21.62455],
        [84.75237, 21.62817],
        [84.74916, 21.66374],
        [84.74088, 21.66936],
        [84.74679, 21.68247],
        [84.73016, 21.6928],
        [84.71792, 21.71706],
        [84.70302, 21.70736],
        [84.69089, 21.70994],
        [84.67487, 21.73639],
        [84.67692, 21.75084],
        [84.66264, 21.76393],
        [84.64057, 21.76805],
        [84.6274, 21.76155],
        [84.60975, 21.76655],
        [84.58825, 21.75778],
        [84.56995, 21.76776],
        [84.55327, 21.76929],
        [84.56422, 21.77606],
        [84.56691, 21.78683],
        [84.52556, 21.81397],
        [84.52286, 21.83132],
        [84.5272, 21.85161],
        [84.53856, 21.8624],
        [84.52402, 21.8723],
        [84.5298, 21.87771],
        [84.51554, 21.89846],
        [84.49408, 21.90623],
        [84.49201, 21.91128],
        [84.49536, 21.92032],
        [84.50885, 21.91928],
        [84.5249, 21.92592],
        [84.51648, 21.94865],
        [84.51789, 21.9575],
        [84.52708, 21.95856],
        [84.5278, 21.97077],
        [84.52449, 21.97473],
        [84.51468, 21.9735],
        [84.5142, 21.96621],
        [84.50572, 21.95913],
        [84.49995, 21.96129],
        [84.49985, 21.96837],
        [84.50872, 22.00047],
        [84.50745, 22.01895],
        [84.52368, 22.03339],
        [84.52669, 22.04777],
        [84.54921, 22.04142],
        [84.56052, 22.03116],
        [84.57678, 22.04743],
        [84.58914, 22.04469],
        [84.59897, 22.03037],
        [84.65984, 22.03672],
        [84.66777, 22.03045],
        [84.7036, 22.03203],
        [84.70581, 22.02736],
        [84.72873, 22.03658],
        [84.74828, 22.03721],
        [84.81124, 22.03074],
        [84.8198, 22.02101],
        [84.82958, 22.01785],
        [84.84393, 22.02363],
        [84.86533, 22.06064],
        [84.88796, 22.06681],
        [84.89574, 22.07472],
        [84.88695, 22.08645],
        [84.86663, 22.09495],
        [84.87476, 22.10918],
        [84.89591, 22.11268],
        [84.91044, 22.12315],
        [84.92812, 22.12353],
        [84.95417, 22.11127],
        [84.98407, 22.095],
        [84.98415, 22.09032],
        [84.9842, 22.0857],
        [84.98423, 22.08569],
        [84.99579, 22.0817]
      ]
    ]
  }
}
