{
  "type": "Feature",
  "id": "OD-AC-147",
  "properties": {
    "stateName": "ODISHA",
    "stateCode": "OD",
    "districtName": "MALKANGIRI",
    "acNo": 147,
    "acName": "CHITRAKONDA (ST)",
    "seatType": null,
    "pcNo": 12,
    "pcName": "NABARANGPUR (ST)",
    "quality": "unverified",
    "sources": [
      "TBD"
    ]
  },
  "geometry": {
    "type": "Polygon",
    "coordinates": [
      [
        [82.20785, 18.01216],
        [82.2067, 18.01452],
        [82.205, 18.018],
        [82.19718, 18.01673],
        [82.18723, 18.0151],
        [82.18685, 18.01534],
        [82.1789, 18.0207],
        [82.17925, 18.02139],
        [82.1835, 18.0298],
        [82.1689, 18.0514],
        [82.15715, 18.04895],
        [82.15477, 18.04845],
        [82.15294, 18.04807],
        [82.1526, 18.048],
        [82.1463, 18.0509],
        [82.14342, 18.04944],
        [82.137, 18.0462],
        [82.13539, 18.05155],
        [82.133, 18.0595],
        [82.1256, 18.0588],
        [82.1204, 18.0635],
        [82.1025, 18.0595],
        [82.0944, 18.0671],
        [82.0765, 18.0745],
        [82.07374, 18.07027],
        [82.06632, 18.05891],
        [82.06469, 18.0564],
        [82.0639, 18.0552],
        [82.04579, 18.057],
        [82.04141, 18.05744],
        [82.04063, 18.05752],
        [82.0398, 18.0576],
        [82.03841, 18.06096],
        [82.0353, 18.0685],
        [82.03394, 18.0679],
        [82.01765, 18.06074],
        [82.00813, 18.05656],
        [82.008, 18.0565],
        [82.00798, 18.05622],
        [82.00617, 18.05217],
        [81.98808, 18.05356],
        [81.98461, 18.06715],
        [81.96596, 18.0678],
        [81.96066, 18.0791],
        [81.93733, 18.07491],
        [81.93043, 18.07824],
        [81.94237, 18.13288],
        [81.96658, 18.15626],
        [81.9384, 18.19338],
        [81.91756, 18.18004],
        [81.91037, 18.18563],
        [81.88439, 18.18655],
        [81.87201, 18.17014],
        [81.87349, 18.15905],
        [81.84675, 18.15458],
        [81.84287, 18.15588],
        [81.83599, 18.18336],
        [81.80938, 18.1622],
        [81.78448, 18.16638],
        [81.78285, 18.18059],
        [81.79596, 18.18202],
        [81.80212, 18.19352],
        [81.81538, 18.19404],
        [81.82741, 18.20982],
        [81.82269, 18.21815],
        [81.84132, 18.22487],
        [81.86083, 18.21748],
        [81.87255, 18.21886],
        [81.89917, 18.24306],
        [81.91716, 18.23911],
        [81.92071, 18.22436],
        [81.94215, 18.22066],
        [81.94607, 18.25362],
        [81.94103, 18.26486],
        [81.94487, 18.27359],
        [81.95702, 18.27845],
        [81.96549, 18.26985],
        [82.01691, 18.28426],
        [82.01221, 18.2869],
        [82.01314, 18.29395],
        [82.006, 18.29715],
        [82.00936, 18.31307],
        [81.99977, 18.32937],
        [82.00707, 18.34156],
        [82.01918, 18.33349],
        [82.02911, 18.33472],
        [82.02781, 18.3419],
        [82.04137, 18.34804],
        [82.04484, 18.36182],
        [82.05805, 18.36603],
        [82.07187, 18.35953],
        [82.07275, 18.34552],
        [82.07952, 18.33988],
        [82.08747, 18.34153],
        [82.09084, 18.3529],
        [82.08585, 18.36196],
        [82.11301, 18.36786],
        [82.11718, 18.3786],
        [82.12541, 18.38158],
        [82.13479, 18.39134],
        [82.13041, 18.40994],
        [82.12492, 18.42288],
        [82.11583, 18.4213],
        [82.10316, 18.42682],
        [82.09906, 18.44577],
        [82.09205, 18.45053],
        [82.08233, 18.43715],
        [82.07718, 18.44206],
        [82.07233, 18.44064],
        [82.0712, 18.44592],
        [82.05629, 18.44229],
        [82.05429, 18.44894],
        [82.05956, 18.45075],
        [82.047, 18.46673],
        [82.03431, 18.47637],
        [82.01954, 18.47068],
        [82.01521, 18.4864],
        [82.01735, 18.50247],
        [82.00565, 18.50376],
        [82.00525, 18.51795],
        [81.99688, 18.52017],
        [81.99525, 18.52545],
        [82.00156, 18.53026],
        [82.0245, 18.52572],
        [82.0278, 18.52954],
        [82.0243, 18.53699],
        [82.03221, 18.54414],
        [82.01021, 18.55641],
        [81.98935, 18.54221],
        [81.96796, 18.56764],
        [81.94951, 18.57211],
        [81.95, 18.57385],
        [81.9526, 18.5829],
        [81.9632, 18.59],
        [81.9629, 18.5947],
        [81.9414, 18.6019],
        [81.9259, 18.6206],
        [81.92586, 18.62062],
        [81.9087, 18.6282],
        [81.90435, 18.62854],
        [81.89455, 18.6293],
        [81.8945, 18.6293],
        [81.8985, 18.6358],
        [81.8985, 18.6358],
        [81.8939, 18.6418],
        [81.89535, 18.6468],
        [81.8976, 18.6546],
        [81.89516, 18.65599],
        [81.8934, 18.657],
        [81.9004, 18.6612],
        [81.9214, 18.6428],
        [81.94851, 18.64359],
        [81.9487, 18.6436],
        [81.9539, 18.6634],
        [81.96879, 18.67369],
        [81.9688, 18.6737],
        [81.9602, 18.6886],
        [81.9677, 18.6964],
        [81.9983, 18.7073],
        [82.02975, 18.72376],
        [82.0367, 18.7274],
        [82.03671, 18.7274],
        [82.04045, 18.72736],
        [82.0549, 18.7272],
        [82.0619, 18.7196],
        [82.0657, 18.7272],
        [82.06752, 18.72711],
        [82.0719, 18.7269],
        [82.0846, 18.7206],
        [82.09089, 18.74106],
        [82.10953, 18.7287],
        [82.12867, 18.72522],
        [82.12978, 18.71557],
        [82.12541, 18.70881],
        [82.1421, 18.70688],
        [82.14514, 18.69496],
        [82.14097, 18.68262],
        [82.13535, 18.68093],
        [82.14542, 18.66276],
        [82.15274, 18.66266],
        [82.16, 18.67004],
        [82.16388, 18.64969],
        [82.17079, 18.64297],
        [82.17348, 18.64537],
        [82.17584, 18.63433],
        [82.1903, 18.63399],
        [82.20014, 18.65395],
        [82.20941, 18.65492],
        [82.22367, 18.67134],
        [82.23263, 18.64307],
        [82.23011, 18.62823],
        [82.23946, 18.6235],
        [82.24066, 18.61419],
        [82.25225, 18.61601],
        [82.25175, 18.60531],
        [82.25473, 18.60673],
        [82.26349, 18.59132],
        [82.28129, 18.58997],
        [82.29356, 18.58382],
        [82.31628, 18.58418],
        [82.3293, 18.60179],
        [82.33653, 18.60288],
        [82.36049, 18.62595],
        [82.37819, 18.6172],
        [82.39193, 18.61638],
        [82.40075, 18.61108],
        [82.40549, 18.60008],
        [82.38509, 18.59141],
        [82.38593, 18.58418],
        [82.4138, 18.56311],
        [82.40841, 18.55746],
        [82.40308, 18.52561],
        [82.38878, 18.52896],
        [82.38308, 18.51839],
        [82.38927, 18.51071],
        [82.38478, 18.4982],
        [82.39809, 18.48703],
        [82.39942, 18.47088],
        [82.40907, 18.46939],
        [82.40858, 18.46864],
        [82.4035, 18.4642],
        [82.39606, 18.44931],
        [82.396, 18.4492],
        [82.3867, 18.445],
        [82.382, 18.4326],
        [82.36422, 18.42151],
        [82.3642, 18.4215],
        [82.37959, 18.40381],
        [82.3796, 18.4038],
        [82.38149, 18.38965],
        [82.3815, 18.3896],
        [82.38407, 18.38775],
        [82.3861, 18.3863],
        [82.3856, 18.3675],
        [82.3768, 18.3598],
        [82.3699, 18.3585],
        [82.36973, 18.35832],
        [82.3645, 18.3528],
        [82.36313, 18.34439],
        [82.3631, 18.3442],
        [82.349, 18.3304],
        [82.33881, 18.32691],
        [82.3382, 18.3267],
        [82.33994, 18.32506],
        [82.34507, 18.32021],
        [82.34596, 18.31938],
        [82.349, 18.3165],
        [82.3559, 18.3159],
        [82.364, 18.3185],
        [82.3751, 18.3287],
        [82.37539, 18.32873],
        [82.3852, 18.3296],
        [82.38747, 18.32857],
        [82.38815, 18.32826],
        [82.38932, 18.32773],
        [82.3927, 18.3262],
        [82.3951, 18.3156],
        [82.39498, 18.3154],
        [82.3916, 18.3098],
        [82.3923, 18.298],
        [82.38646, 18.29161],
        [82.3765, 18.2807],
        [82.3659, 18.2776],
        [82.3589, 18.2815],
        [82.3589, 18.2815],
        [82.35879, 18.28149],
        [82.3447, 18.2805],
        [82.3401, 18.2623],
        [82.33995, 18.26226],
        [82.3361, 18.2612],
        [82.33359, 18.25349],
        [82.3334, 18.2529],
        [82.3365, 18.2408],
        [82.3267, 18.2364],
        [82.32444, 18.23129],
        [82.32439, 18.23125],
        [82.32442, 18.23124],
        [82.3244, 18.2312],
        [82.33611, 18.22484],
        [82.3371, 18.2243],
        [82.3249, 18.2104],
        [82.31082, 18.20411],
        [82.3108, 18.2041],
        [82.31167, 18.20036],
        [82.31383, 18.19115],
        [82.31549, 18.18402],
        [82.3155, 18.184],
        [82.32499, 18.17889],
        [82.33738, 18.17221],
        [82.3374, 18.1722],
        [82.35335, 18.1717],
        [82.3534, 18.1717],
        [82.3723, 18.1482],
        [82.3632, 18.1348],
        [82.34116, 18.14994],
        [82.3402, 18.1506],
        [82.34041, 18.14902],
        [82.3421, 18.1366],
        [82.3342, 18.1269],
        [82.33418, 18.12659],
        [82.3338, 18.1192],
        [82.33523, 18.11281],
        [82.33805, 18.10017],
        [82.3382, 18.0995],
        [82.33833, 18.09948],
        [82.347, 18.0983],
        [82.347, 18.09801],
        [82.3473, 18.08],
        [82.35029, 18.07774],
        [82.3518, 18.0766],
        [82.3439, 18.058],
        [82.3366, 18.0521],
        [82.32487, 18.0585],
        [82.3223, 18.0599],
        [82.31977, 18.05775],
        [82.31938, 18.05742],
        [82.319, 18.0571],
        [82.31978, 18.05033],
        [82.3204, 18.045],
        [82.32008, 18.0452],
        [82.3166, 18.0474],
        [82.30784, 18.04514],
        [82.30771, 18.04514],
        [82.3103, 18.0539],
        [82.31029, 18.0539],
        [82.30827, 18.0542],
        [82.30248, 18.05505],
        [82.29885, 18.05558],
        [82.2987, 18.0556],
        [82.30417, 18.06663],
        [82.3046, 18.0675],
        [82.30244, 18.06864],
        [82.30143, 18.06918],
        [82.3012, 18.0693],
        [82.29378, 18.069],
        [82.2914, 18.0689],
        [82.2877, 18.0627],
        [82.2835, 18.0645],
        [82.2724, 18.05667],
        [82.2716, 18.0561],
        [82.26931, 18.04651],
        [82.269, 18.0452],
        [82.26163, 18.04181],
        [82.2616, 18.0418],
        [82.2617, 18.0417],
        [82.269, 18.034],
        [82.27291, 18.02321],
        [82.27328, 18.02218],
        [82.2736, 18.0213],
        [82.27226, 18.01754],
        [82.26477, 17.99657],
        [82.2645, 17.9958],
        [82.2483, 17.9931],
        [82.23867, 18.00111],
        [82.2382, 18.0015],
        [82.23812, 18.0015],
        [82.2231, 18.0011],
        [82.209, 18.0098],
        [82.20889, 18.01003],
        [82.20785, 18.01216]
      ]
    ]
  }
}
