{
  "type": "Feature",
  "id": "OD-AC-18",
  "properties": {
    "stateName": "ODISHA",
    "stateCode": "OD",
    "districtName": "SAMBALPUR",
    "acNo": 18,
    "acName": "RAIRAKHOL",
    "seatType": null,
    "pcNo": 3,
    "pcName": "SAMBALPUR",
    "quality": "unverified",
    "sources": [
      "TBD"
    ]
  },
  "geometry": {
    "type": "Polygon",
    "coordinates": [
      [
        [84.11191, 21.50612],
        [84.11487, 21.50138],
        [84.12342, 21.51242],
        [84.13954, 21.5146],
        [84.14175, 21.50962],
        [84.13061, 21.50598],
        [84.13257, 21.49816],
        [84.14091, 21.49241],
        [84.14594, 21.47769],
        [84.16004, 21.46689],
        [84.15912, 21.45764],
        [84.16593, 21.45396],
        [84.1677, 21.4446],
        [84.17757, 21.43403],
        [84.1921, 21.43507],
        [84.19908, 21.4214],
        [84.20828, 21.41819],
        [84.20374, 21.41417],
        [84.21164, 21.41193],
        [84.21629, 21.40441],
        [84.23021, 21.40689],
        [84.25006, 21.42721],
        [84.26472, 21.43029],
        [84.27039, 21.42746],
        [84.27954, 21.41447],
        [84.28397, 21.39634],
        [84.27832, 21.37486],
        [84.30082, 21.36213],
        [84.31189, 21.34572],
        [84.32325, 21.34243],
        [84.32753, 21.35298],
        [84.33638, 21.34869],
        [84.34454, 21.35655],
        [84.32437, 21.38215],
        [84.33276, 21.38678],
        [84.3374, 21.39806],
        [84.34463, 21.39764],
        [84.39498, 21.36729],
        [84.40438, 21.38078],
        [84.42438, 21.38374],
        [84.44889, 21.39415],
        [84.4716, 21.39572],
        [84.48903, 21.39153],
        [84.49229, 21.38129],
        [84.48563, 21.37082],
        [84.49813, 21.36495],
        [84.50231, 21.36974],
        [84.49815, 21.37544],
        [84.51209, 21.37334],
        [84.51783, 21.38186],
        [84.53203, 21.3839],
        [84.54101, 21.37783],
        [84.54564, 21.37397],
        [84.54207, 21.36659],
        [84.55587, 21.34139],
        [84.55488, 21.33535],
        [84.56552, 21.32408],
        [84.56169, 21.31785],
        [84.56889, 21.29514],
        [84.56433, 21.28711],
        [84.56896, 21.26845],
        [84.55984, 21.2583],
        [84.56553, 21.24997],
        [84.57959, 21.25816],
        [84.60317, 21.2622],
        [84.61202, 21.27698],
        [84.62873, 21.27613],
        [84.62655, 21.28078],
        [84.63289, 21.29032],
        [84.64307, 21.29163],
        [84.64551, 21.30002],
        [84.66645, 21.30392],
        [84.65879, 21.31369],
        [84.6646, 21.31677],
        [84.69531, 21.32346],
        [84.70899, 21.31959],
        [84.73092, 21.30232],
        [84.73805, 21.29022],
        [84.76196, 21.27421],
        [84.7517, 21.25828],
        [84.76834, 21.25386],
        [84.76366, 21.24374],
        [84.75809, 21.24257],
        [84.75353, 21.2274],
        [84.74364, 21.23419],
        [84.73743, 21.22906],
        [84.73325, 21.23069],
        [84.73379, 21.2276],
        [84.72308, 21.22899],
        [84.71909, 21.2241],
        [84.72134, 21.21775],
        [84.71578, 21.20902],
        [84.72403, 21.20493],
        [84.72179, 21.19993],
        [84.73746, 21.19693],
        [84.74613, 21.17927],
        [84.73825, 21.17636],
        [84.74333, 21.17054],
        [84.73138, 21.16858],
        [84.72291, 21.14819],
        [84.69046, 21.15276],
        [84.68009, 21.14675],
        [84.6772, 21.12491],
        [84.66862, 21.11208],
        [84.66713, 21.09321],
        [84.66932, 21.07956],
        [84.68014, 21.07322],
        [84.6793, 21.06299],
        [84.66921, 21.0649],
        [84.64526, 21.08366],
        [84.62428, 21.08112],
        [84.61245, 21.07063],
        [84.61001, 21.0732],
        [84.60648, 21.06869],
        [84.59532, 21.06877],
        [84.59403, 21.06374],
        [84.58682, 21.06496],
        [84.58463, 21.06115],
        [84.55227, 21.07035],
        [84.53151, 21.08757],
        [84.50224, 21.08729],
        [84.49636, 21.08012],
        [84.48769, 21.07818],
        [84.48235, 21.08119],
        [84.45408, 21.05791],
        [84.44984, 21.04149],
        [84.4411, 21.03941],
        [84.43891, 21.03295],
        [84.43041, 21.04017],
        [84.4086, 21.03049],
        [84.43281, 21.01947],
        [84.43374, 21.01492],
        [84.41429, 21.00385],
        [84.40523, 20.97624],
        [84.37958, 20.96559],
        [84.37335, 20.95351],
        [84.36566, 20.95142],
        [84.36001, 20.95884],
        [84.35505, 20.95834],
        [84.35189, 20.9518],
        [84.34214, 20.95535],
        [84.33341, 20.94909],
        [84.3288, 20.95151],
        [84.31706, 20.94483],
        [84.31066, 20.93158],
        [84.3019, 20.93626],
        [84.29161, 20.92559],
        [84.27866, 20.92239],
        [84.23787, 20.92282],
        [84.22448, 20.93251],
        [84.20903, 20.96172],
        [84.1994, 20.96625],
        [84.19205, 20.97649],
        [84.17057, 20.97165],
        [84.15591, 20.97466],
        [84.15265, 20.98504],
        [84.15631, 20.99517],
        [84.14816, 20.99961],
        [84.13937, 21.0135],
        [84.14285, 21.03322],
        [84.07345, 21.04921],
        [84.04794, 21.04749],
        [84.04279, 21.04361],
        [84.02902, 21.05329],
        [84.01795, 21.05094],
        [83.98785, 21.07886],
        [83.9913, 21.11057],
        [83.98201, 21.11875],
        [83.98177, 21.13359],
        [83.94977, 21.14688],
        [83.94894, 21.15095],
        [83.90591, 21.17623],
        [83.89264, 21.17733],
        [83.91156, 21.2365],
        [83.90547, 21.25971],
        [83.90782, 21.28584],
        [83.92425, 21.34307],
        [83.93749, 21.36067],
        [83.9586, 21.37101],
        [83.96566, 21.36803],
        [83.96778, 21.3569],
        [83.99079, 21.3549],
        [83.99606, 21.36121],
        [84.01278, 21.35359],
        [84.02318, 21.36465],
        [84.02078, 21.37034],
        [84.02598, 21.38629],
        [84.03198, 21.38699],
        [84.03186, 21.3909],
        [84.04522, 21.38982],
        [84.04368, 21.40063],
        [84.05044, 21.41767],
        [84.06785, 21.39924],
        [84.06721, 21.4091],
        [84.07591, 21.42182],
        [84.0891, 21.42372],
        [84.09013, 21.43447],
        [84.06793, 21.43366],
        [84.04297, 21.45126],
        [84.0529, 21.45351],
        [84.05975, 21.47968],
        [84.08337, 21.48163],
        [84.08466, 21.47444],
        [84.09576, 21.47846],
        [84.0925, 21.50026],
        [84.08254, 21.50372],
        [84.07428, 21.51591],
        [84.08987, 21.52442],
        [84.08991, 21.50837],
        [84.09686, 21.51067],
        [84.11191, 21.50612]
      ]
    ]
  }
}
