{
  "type": "Feature",
  "id": "OD-AC-19",
  "properties": {
    "stateName": "ODISHA",
    "stateCode": "OD",
    "districtName": "DEBAGARH",
    "acNo": 19,
    "acName": "DEOGARH",
    "seatType": null,
    "pcNo": 3,
    "pcName": "SAMBALPUR",
    "quality": "unverified",
    "sources": [
      "TBD"
    ]
  },
  "geometry": {
    "type": "Polygon",
    "coordinates": [
      [
        [84.67487, 21.73639],
        [84.69089, 21.70994],
        [84.70302, 21.70736],
        [84.71792, 21.71706],
        [84.73016, 21.6928],
        [84.74679, 21.68247],
        [84.74088, 21.66936],
        [84.74916, 21.66374],
        [84.75237, 21.62817],
        [84.75745, 21.62455],
        [84.7783, 21.62573],
        [84.79284, 21.6366],
        [84.78192, 21.64562],
        [84.78952, 21.66857],
        [84.82872, 21.66028],
        [84.85491, 21.66061],
        [84.85606, 21.65227],
        [84.8611, 21.65192],
        [84.87786, 21.65833],
        [84.90081, 21.65881],
        [84.9031, 21.66818],
        [84.91474, 21.67053],
        [84.94128, 21.65928],
        [84.95328, 21.66458],
        [84.95628, 21.68425],
        [84.96558, 21.68279],
        [84.97529, 21.67265],
        [84.98116, 21.67434],
        [84.98268, 21.68224],
        [84.98828, 21.67864],
        [84.99765, 21.68198],
        [85.0255, 21.67293],
        [85.03075, 21.65837],
        [85.02586, 21.65332],
        [85.02925, 21.62753],
        [85.03693, 21.62351],
        [85.03761, 21.60097],
        [85.04803, 21.59098],
        [85.06477, 21.59178],
        [85.06556, 21.59761],
        [85.07687, 21.60356],
        [85.09133, 21.60296],
        [85.10465, 21.59434],
        [85.12982, 21.5994],
        [85.14391, 21.59528],
        [85.15762, 21.59072],
        [85.18655, 21.58999],
        [85.19886, 21.58059],
        [85.20368, 21.56261],
        [85.21271, 21.55428],
        [85.20732, 21.54248],
        [85.20868, 21.53291],
        [85.20153, 21.53177],
        [85.20304, 21.52165],
        [85.18101, 21.50171],
        [85.17325, 21.48515],
        [85.16242, 21.47752],
        [85.15852, 21.46356],
        [85.14965, 21.45808],
        [85.13634, 21.46351],
        [85.13097, 21.45778],
        [85.11705, 21.45477],
        [85.10713, 21.45871],
        [85.07958, 21.45896],
        [85.06376, 21.45332],
        [85.06043, 21.44216],
        [85.02072, 21.45829],
        [85.02621, 21.44805],
        [84.99992, 21.43996],
        [84.99202, 21.41275],
        [84.99459, 21.40162],
        [85.00645, 21.38616],
        [85.01021, 21.35599],
        [85.00696, 21.34793],
        [85.0125, 21.3332],
        [85.0082, 21.32473],
        [85.01029, 21.31739],
        [85.01497, 21.31056],
        [85.02743, 21.30759],
        [85.03432, 21.29889],
        [85.03367, 21.29223],
        [85.01113, 21.29744],
        [85.0026, 21.28718],
        [84.98883, 21.28735],
        [84.95696, 21.29743],
        [84.89766, 21.26093],
        [84.90289, 21.25044],
        [84.92623, 21.23352],
        [84.93944, 21.19598],
        [84.96998, 21.18881],
        [84.9627, 21.17747],
        [84.9624, 21.1658],
        [84.96942, 21.16161],
        [84.96855, 21.15779],
        [84.96194, 21.14748],
        [84.95157, 21.14796],
        [84.94716, 21.1552],
        [84.9503, 21.17047],
        [84.92742, 21.18084],
        [84.93196, 21.15367],
        [84.91891, 21.14084],
        [84.88478, 21.15331],
        [84.87724, 21.16445],
        [84.81808, 21.17129],
        [84.80078, 21.16714],
        [84.79942, 21.15544],
        [84.81337, 21.14656],
        [84.80855, 21.13678],
        [84.80261, 21.14162],
        [84.79868, 21.13107],
        [84.78934, 21.13199],
        [84.78873, 21.13856],
        [84.77705, 21.14571],
        [84.76244, 21.14911],
        [84.74333, 21.17054],
        [84.73825, 21.17636],
        [84.74613, 21.17927],
        [84.73746, 21.19693],
        [84.72179, 21.19993],
        [84.72403, 21.20493],
        [84.71578, 21.20902],
        [84.72134, 21.21775],
        [84.71909, 21.2241],
        [84.72308, 21.22899],
        [84.73379, 21.2276],
        [84.73325, 21.23069],
        [84.73743, 21.22906],
        [84.74364, 21.23419],
        [84.75353, 21.2274],
        [84.75809, 21.24257],
        [84.76366, 21.24374],
        [84.76834, 21.25386],
        [84.7517, 21.25828],
        [84.76196, 21.27421],
        [84.73805, 21.29022],
        [84.73092, 21.30232],
        [84.70899, 21.31959],
        [84.69531, 21.32346],
        [84.6646, 21.31677],
        [84.65879, 21.31369],
        [84.66645, 21.30392],
        [84.64551, 21.30002],
        [84.64307, 21.29163],
        [84.63289, 21.29032],
        [84.62655, 21.28078],
        [84.62873, 21.27613],
        [84.61202, 21.27698],
        [84.60317, 21.2622],
        [84.57959, 21.25816],
        [84.56553, 21.24997],
        [84.55984, 21.2583],
        [84.56896, 21.26845],
        [84.56433, 21.28711],
        [84.56889, 21.29514],
        [84.56169, 21.31785],
        [84.56552, 21.32408],
        [84.55488, 21.33535],
        [84.55587, 21.34139],
        [84.54207, 21.36659],
        [84.54564, 21.37397],
        [84.54101, 21.37783],
        [84.53203, 21.3839],
        [84.51783, 21.38186],
        [84.51209, 21.37334],
        [84.49815, 21.37544],
        [84.50231, 21.36974],
        [84.49813, 21.36495],
        [84.48563, 21.37082],
        [84.49229, 21.38129],
        [84.48903, 21.39153],
        [84.4716, 21.39572],
        [84.44889, 21.39415],
        [84.42438, 21.38374],
        [84.40438, 21.38078],
        [84.39427, 21.39462],
        [84.3986, 21.40798],
        [84.39224, 21.42767],
        [84.39317, 21.43651],
        [84.40896, 21.44232],
        [84.4085, 21.45105],
        [84.41441, 21.4551],
        [84.4074, 21.47632],
        [84.41871, 21.48528],
        [84.42987, 21.48338],
        [84.44434, 21.49078],
        [84.44669, 21.50276],
        [84.44016, 21.51345],
        [84.44299, 21.5195],
        [84.45746, 21.51706],
        [84.46154, 21.52445],
        [84.47506, 21.52649],
        [84.5026, 21.52317],
        [84.49482, 21.53445],
        [84.50399, 21.55169],
        [84.49589, 21.5733],
        [84.48918, 21.57876],
        [84.51019, 21.57259],
        [84.51082, 21.58171],
        [84.53394, 21.5684],
        [84.53771, 21.57132],
        [84.53222, 21.57753],
        [84.54255, 21.58375],
        [84.56585, 21.57731],
        [84.56959, 21.58172],
        [84.53128, 21.60664],
        [84.53384, 21.61203],
        [84.52263, 21.62623],
        [84.51413, 21.62181],
        [84.50024, 21.6246],
        [84.48486, 21.64013],
        [84.49233, 21.6636],
        [84.51586, 21.67261],
        [84.53891, 21.66516],
        [84.60652, 21.66766],
        [84.65747, 21.68223],
        [84.66059, 21.69066],
        [84.64342, 21.74211],
        [84.65316, 21.75094],
        [84.66545, 21.75135],
        [84.67692, 21.75084],
        [84.67487, 21.73639]
      ]
    ]
  }
}
