{
  "type": "Feature",
  "id": "OD-AC-69",
  "properties": {
    "stateName": "ODISHA",
    "stateCode": "OD",
    "districtName": "BALANGIR",
    "acNo": 69,
    "acName": "TITLAGARH",
    "seatType": null,
    "pcNo": 10,
    "pcName": "BOLANGIR",
    "quality": "unverified",
    "sources": [
      "TBD"
    ]
  },
  "geometry": {
    "type": "Polygon",
    "coordinates": [
      [
        [83.1828, 20.57522],
        [83.18493, 20.57063],
        [83.206, 20.56739],
        [83.20507, 20.56108],
        [83.21353, 20.55699],
        [83.20067, 20.55281],
        [83.21229, 20.54252],
        [83.22867, 20.53883],
        [83.24233, 20.55024],
        [83.25076, 20.548],
        [83.25232, 20.53491],
        [83.24254, 20.52658],
        [83.25713, 20.5115],
        [83.28377, 20.51589],
        [83.29293, 20.5279],
        [83.31388, 20.52127],
        [83.32731, 20.53443],
        [83.33157, 20.53156],
        [83.34362, 20.5356],
        [83.35483, 20.52718],
        [83.36761, 20.52719],
        [83.36877, 20.5183],
        [83.39403, 20.51609],
        [83.38885, 20.51249],
        [83.40967, 20.50149],
        [83.43413, 20.53026],
        [83.47197, 20.50731],
        [83.4844, 20.52063],
        [83.48295, 20.53043],
        [83.4779, 20.53237],
        [83.48211, 20.53903],
        [83.49013, 20.53118],
        [83.49855, 20.52976],
        [83.50186, 20.51905],
        [83.50929, 20.51543],
        [83.51561, 20.52253],
        [83.52573, 20.5152],
        [83.52692, 20.52633],
        [83.52218, 20.53659],
        [83.5261, 20.53758],
        [83.53755, 20.52356],
        [83.5421, 20.50961],
        [83.53599, 20.50408],
        [83.5405, 20.50387],
        [83.53957, 20.5007],
        [83.52886, 20.49215],
        [83.53731, 20.49732],
        [83.54868, 20.49606],
        [83.55063, 20.46926],
        [83.56333, 20.47276],
        [83.56929, 20.48293],
        [83.5838, 20.48788],
        [83.59626, 20.4766],
        [83.59644, 20.46898],
        [83.61017, 20.4656],
        [83.61841, 20.45785],
        [83.61856, 20.44727],
        [83.62732, 20.44749],
        [83.65611, 20.43317],
        [83.65854, 20.42472],
        [83.66584, 20.42263],
        [83.66238, 20.41471],
        [83.65791, 20.41429],
        [83.6624, 20.40344],
        [83.65511, 20.38921],
        [83.65066, 20.3883],
        [83.64808, 20.38099],
        [83.65384, 20.37105],
        [83.65203, 20.36588],
        [83.62796, 20.36883],
        [83.62266, 20.36197],
        [83.62431, 20.35027],
        [83.60355, 20.35721],
        [83.57701, 20.36353],
        [83.56985, 20.38766],
        [83.55433, 20.39994],
        [83.54908, 20.40155],
        [83.54289, 20.39695],
        [83.51935, 20.40514],
        [83.51911, 20.41152],
        [83.50227, 20.41594],
        [83.49137, 20.40503],
        [83.48755, 20.41845],
        [83.49025, 20.42902],
        [83.49786, 20.43524],
        [83.49445, 20.43593],
        [83.49408, 20.45035],
        [83.48615, 20.45482],
        [83.44823, 20.41983],
        [83.42217, 20.40401],
        [83.41061, 20.37251],
        [83.38827, 20.34781],
        [83.36442, 20.34219],
        [83.36079, 20.31634],
        [83.34069, 20.31637],
        [83.31436, 20.30521],
        [83.30062, 20.30532],
        [83.28192, 20.2786],
        [83.23802, 20.25702],
        [83.23423, 20.24757],
        [83.23956, 20.23177],
        [83.2252, 20.20489],
        [83.20362, 20.19467],
        [83.19308, 20.17834],
        [83.1737, 20.1715],
        [83.15232, 20.17375],
        [83.14465, 20.16981],
        [83.12811, 20.195],
        [83.10106, 20.19163],
        [83.09048, 20.20014],
        [83.0853, 20.19246],
        [83.06565, 20.19074],
        [83.06034, 20.18594],
        [83.05123, 20.18846],
        [83.03797, 20.18209],
        [83.0339, 20.18635],
        [83.02923, 20.17817],
        [83.01564, 20.17168],
        [82.9905, 20.17885],
        [82.97972, 20.17632],
        [82.97543, 20.18062],
        [82.94397, 20.17394],
        [82.92433, 20.17816],
        [82.92863, 20.20094],
        [82.93569, 20.21039],
        [82.94223, 20.20823],
        [82.95157, 20.2139],
        [82.97931, 20.20152],
        [82.99221, 20.20208],
        [82.99455, 20.21855],
        [82.98407, 20.21785],
        [82.97877, 20.23285],
        [82.98533, 20.26007],
        [82.99307, 20.25436],
        [83.00877, 20.25753],
        [83.0274, 20.24578],
        [83.02654, 20.25802],
        [83.03205, 20.2608],
        [83.05995, 20.25916],
        [83.05933, 20.263],
        [83.08234, 20.25509],
        [83.09209, 20.28376],
        [83.1003, 20.27714],
        [83.11472, 20.28134],
        [83.12294, 20.29383],
        [83.14859, 20.29469],
        [83.14336, 20.32671],
        [83.13511, 20.32398],
        [83.12855, 20.33198],
        [83.13112, 20.37064],
        [83.12583, 20.39688],
        [83.1317, 20.40195],
        [83.1364, 20.39554],
        [83.13983, 20.40335],
        [83.15319, 20.403],
        [83.15966, 20.41861],
        [83.18054, 20.41679],
        [83.179, 20.42676],
        [83.20739, 20.41029],
        [83.2007, 20.41537],
        [83.20509, 20.42248],
        [83.2026, 20.43428],
        [83.19115, 20.42468],
        [83.1802, 20.43054],
        [83.16783, 20.45217],
        [83.16413, 20.45009],
        [83.16169, 20.45559],
        [83.15015, 20.45704],
        [83.12848, 20.47894],
        [83.12625, 20.49654],
        [83.11243, 20.50595],
        [83.1013, 20.52445],
        [83.07756, 20.53447],
        [83.08251, 20.54778],
        [83.09403, 20.55281],
        [83.10413, 20.54988],
        [83.09818, 20.55924],
        [83.1095, 20.5555],
        [83.10933, 20.56457],
        [83.1033, 20.56664],
        [83.10946, 20.57295],
        [83.11014, 20.58276],
        [83.11879, 20.58907],
        [83.11891, 20.60345],
        [83.13262, 20.59095],
        [83.14926, 20.60764],
        [83.16212, 20.60005],
        [83.18904, 20.58652],
        [83.1828, 20.57522]
      ]
    ]
  }
}
