{
  "type": "Feature",
  "id": "OD-AC-72",
  "properties": {
    "stateName": "ODISHA",
    "stateCode": "OD",
    "districtName": "NUAPADA",
    "acNo": 72,
    "acName": "KHARIAR",
    "seatType": null,
    "pcNo": 11,
    "pcName": "KALAHANDI",
    "quality": "unverified",
    "sources": [
      "TBD"
    ]
  },
  "geometry": {
    "type": "Polygon",
    "coordinates": [
      [
        [82.39774, 20.07308],
        [82.4015, 20.081],
        [82.4014, 20.0961],
        [82.3977, 20.1238],
        [82.38581, 20.14648],
        [82.3858, 20.1465],
        [82.3941, 20.1527],
        [82.39075, 20.16169],
        [82.39, 20.1637],
        [82.4116, 20.1815],
        [82.4135, 20.1994],
        [82.4206, 20.2049],
        [82.4225, 20.2208],
        [82.42246, 20.22083],
        [82.41686, 20.22537],
        [82.4151, 20.2268],
        [82.4106, 20.2427],
        [82.4223, 20.248],
        [82.4114, 20.2601],
        [82.41184, 20.26353],
        [82.4123, 20.2671],
        [82.4329, 20.2818],
        [82.4378, 20.2944],
        [82.43547, 20.29637],
        [82.43262, 20.29878],
        [82.43, 20.301],
        [82.4308, 20.314],
        [82.43046, 20.31435],
        [82.421, 20.3241],
        [82.4089, 20.3278],
        [82.4004, 20.3416],
        [82.4212, 20.3929],
        [82.4166, 20.4077],
        [82.42969, 20.41552],
        [82.43197, 20.41688],
        [82.53694, 20.36955],
        [82.55871, 20.42458],
        [82.55534, 20.42992],
        [82.55794, 20.43776],
        [82.55377, 20.43971],
        [82.5578, 20.4494],
        [82.57345, 20.45289],
        [82.57748, 20.44411],
        [82.57145, 20.42816],
        [82.59283, 20.44363],
        [82.60213, 20.43682],
        [82.62563, 20.43215],
        [82.63654, 20.42382],
        [82.63093, 20.42047],
        [82.63694, 20.4061],
        [82.65297, 20.39226],
        [82.65831, 20.38162],
        [82.67337, 20.37976],
        [82.67859, 20.39153],
        [82.69182, 20.38156],
        [82.69942, 20.38545],
        [82.70688, 20.38303],
        [82.71523, 20.39855],
        [82.73001, 20.38276],
        [82.72326, 20.37134],
        [82.71403, 20.36634],
        [82.71529, 20.35622],
        [82.73189, 20.35628],
        [82.74816, 20.36244],
        [82.76356, 20.35356],
        [82.77123, 20.35435],
        [82.77651, 20.35714],
        [82.78117, 20.37013],
        [82.79618, 20.37219],
        [82.80368, 20.38515],
        [82.81482, 20.3816],
        [82.81273, 20.36363],
        [82.79016, 20.3471],
        [82.79381, 20.33832],
        [82.78847, 20.32437],
        [82.80269, 20.32104],
        [82.81157, 20.32726],
        [82.80705, 20.34073],
        [82.81501, 20.35866],
        [82.82245, 20.34434],
        [82.83516, 20.33597],
        [82.84678, 20.34085],
        [82.85214, 20.33824],
        [82.85179, 20.30155],
        [82.84646, 20.29153],
        [82.83645, 20.29528],
        [82.84148, 20.30309],
        [82.83359, 20.307],
        [82.83704, 20.31656],
        [82.83411, 20.3211],
        [82.81848, 20.32037],
        [82.81549, 20.31594],
        [82.8193, 20.30747],
        [82.81056, 20.2952],
        [82.82099, 20.28108],
        [82.83924, 20.28158],
        [82.84588, 20.29],
        [82.86008, 20.26934],
        [82.85094, 20.2431],
        [82.85223, 20.23685],
        [82.85942, 20.23651],
        [82.86095, 20.23139],
        [82.84796, 20.20668],
        [82.8471, 20.19577],
        [82.83696, 20.18915],
        [82.8165, 20.18902],
        [82.81192, 20.18475],
        [82.81059, 20.17141],
        [82.82284, 20.16513],
        [82.81609, 20.12826],
        [82.82051, 20.11306],
        [82.81356, 20.10136],
        [82.78744, 20.10208],
        [82.75486, 20.05481],
        [82.74398, 20.05397],
        [82.74765, 20.04268],
        [82.74348, 20.02572],
        [82.73989, 20.02184],
        [82.72991, 20.0238],
        [82.71215, 19.99743],
        [82.6756, 20.00217],
        [82.6417, 20.0066],
        [82.633, 20.0043],
        [82.6205, 19.9924],
        [82.5953, 19.9918],
        [82.58585, 20.00078],
        [82.5833, 20.0032],
        [82.5505, 20.018],
        [82.5081, 20.0186],
        [82.4946, 20.02404],
        [82.49416, 20.02422],
        [82.49372, 20.02439],
        [82.49139, 20.02651],
        [82.4786, 20.0382],
        [82.47, 20.0359],
        [82.4607, 20.0419],
        [82.448, 20.0407],
        [82.3983, 20.0582],
        [82.3958, 20.069],
        [82.39774, 20.07308]
      ]
    ]
  }
}
