{
  "type": "Feature",
  "id": "OD-AC-77",
  "properties": {
    "stateName": "ODISHA",
    "stateCode": "OD",
    "districtName": "KALAHANDI",
    "acNo": 77,
    "acName": "LANJIGARH (ST)",
    "seatType": null,
    "pcNo": 11,
    "pcName": "KALAHANDI",
    "quality": "unverified",
    "sources": [
      "TBD"
    ]
  },
  "geometry": {
    "type": "Polygon",
    "coordinates": [
      [
        [83.46377, 20.06081],
        [83.4803, 20.06009],
        [83.50123, 20.04088],
        [83.54686, 20.03257],
        [83.5411, 20.02097],
        [83.5243, 20.01717],
        [83.50038, 19.99371],
        [83.50321, 19.97477],
        [83.49491, 19.96056],
        [83.47946, 19.96573],
        [83.47374, 19.96323],
        [83.47294, 19.96654],
        [83.44626, 19.97334],
        [83.44181, 19.93339],
        [83.42322, 19.92841],
        [83.41863, 19.93429],
        [83.40416, 19.92053],
        [83.41316, 19.90693],
        [83.40922, 19.90033],
        [83.42031, 19.89187],
        [83.42439, 19.87599],
        [83.43043, 19.87087],
        [83.42195, 19.85002],
        [83.43916, 19.83287],
        [83.43152, 19.82565],
        [83.43768, 19.81338],
        [83.43686, 19.80159],
        [83.4594, 19.7964],
        [83.45056, 19.78471],
        [83.45439, 19.77566],
        [83.45455, 19.74108],
        [83.45209, 19.73396],
        [83.44435, 19.73158],
        [83.44627, 19.71959],
        [83.43306, 19.71304],
        [83.42828, 19.69666],
        [83.41661, 19.68521],
        [83.40233, 19.68268],
        [83.38371, 19.66742],
        [83.36977, 19.61992],
        [83.37507, 19.60791],
        [83.37306, 19.59735],
        [83.36556, 19.59793],
        [83.36404, 19.60493],
        [83.35845, 19.60709],
        [83.31918, 19.59219],
        [83.29964, 19.59133],
        [83.28768, 19.59684],
        [83.28757, 19.58899],
        [83.27798, 19.59843],
        [83.26639, 19.60119],
        [83.2691, 19.57744],
        [83.25808, 19.57704],
        [83.25304, 19.5696],
        [83.26555, 19.55939],
        [83.26361, 19.54809],
        [83.25603, 19.5473],
        [83.24835, 19.53961],
        [83.25709, 19.52793],
        [83.24532, 19.51395],
        [83.24544, 19.50462],
        [83.22821, 19.50608],
        [83.21934, 19.49577],
        [83.21983, 19.48938],
        [83.2046, 19.4733],
        [83.20841, 19.46932],
        [83.20108, 19.46024],
        [83.2113, 19.4439],
        [83.21914, 19.44324],
        [83.21612, 19.43115],
        [83.21156, 19.43483],
        [83.21359, 19.43809],
        [83.2018, 19.43936],
        [83.20222, 19.45257],
        [83.19112, 19.46534],
        [83.18574, 19.46379],
        [83.1825, 19.45236],
        [83.18525, 19.4236],
        [83.16942, 19.42716],
        [83.14829, 19.46787],
        [83.15943, 19.48191],
        [83.14224, 19.50055],
        [83.13136, 19.50774],
        [83.12163, 19.49792],
        [83.10737, 19.50874],
        [83.11449, 19.51471],
        [83.10895, 19.52511],
        [83.1029, 19.52419],
        [83.1077, 19.53784],
        [83.10184, 19.54261],
        [83.10089, 19.53745],
        [83.08794, 19.53712],
        [83.0864, 19.54532],
        [83.07712, 19.55435],
        [83.07822, 19.5592],
        [83.06964, 19.56171],
        [83.04379, 19.5564],
        [83.03597, 19.55015],
        [83.03462, 19.538],
        [83.02809, 19.53393],
        [83.02519, 19.50797],
        [82.99883, 19.49741],
        [82.99284, 19.48465],
        [82.9974, 19.46785],
        [82.99181, 19.46198],
        [82.97826, 19.4493],
        [82.93838, 19.44569],
        [82.93414, 19.45112],
        [82.92987, 19.44317],
        [82.92135, 19.43946],
        [82.92263, 19.43306],
        [82.93135, 19.43128],
        [82.93533, 19.42471],
        [82.93737, 19.40363],
        [82.94687, 19.40135],
        [82.95668, 19.39089],
        [82.94605, 19.36269],
        [82.95249, 19.35685],
        [82.9514, 19.34603],
        [82.93798, 19.322],
        [82.9387, 19.30588],
        [82.93045, 19.29731],
        [82.9185, 19.2995],
        [82.91186, 19.29603],
        [82.90162, 19.28393],
        [82.90738, 19.26911],
        [82.90253, 19.26378],
        [82.9183, 19.2382],
        [82.89486, 19.21687],
        [82.88294, 19.21958],
        [82.89317, 19.20759],
        [82.88047, 19.1973],
        [82.87192, 19.19889],
        [82.86335, 19.20652],
        [82.85659, 19.20321],
        [82.84551, 19.20836],
        [82.84763, 19.22454],
        [82.83675, 19.236],
        [82.83316, 19.23369],
        [82.82325, 19.23925],
        [82.82179, 19.23409],
        [82.81019, 19.22955],
        [82.79842, 19.23582],
        [82.80369, 19.23685],
        [82.81711, 19.25641],
        [82.82509, 19.2556],
        [82.83015, 19.27534],
        [82.82598, 19.28219],
        [82.83124, 19.28457],
        [82.83896, 19.30095],
        [82.84343, 19.30053],
        [82.84085, 19.30783],
        [82.85322, 19.30714],
        [82.84279, 19.31647],
        [82.84867, 19.31955],
        [82.84732, 19.32454],
        [82.82268, 19.32231],
        [82.80774, 19.33078],
        [82.79005, 19.33199],
        [82.78623, 19.34204],
        [82.77964, 19.34326],
        [82.77044, 19.33809],
        [82.76866, 19.33479],
        [82.77296, 19.33267],
        [82.75617, 19.32661],
        [82.7568, 19.33308],
        [82.74816, 19.33804],
        [82.74137, 19.34949],
        [82.72563, 19.34506],
        [82.72496, 19.35427],
        [82.71415, 19.35559],
        [82.71159, 19.36821],
        [82.71577, 19.37013],
        [82.70706, 19.38623],
        [82.7115, 19.39123],
        [82.70611, 19.4002],
        [82.71431, 19.40267],
        [82.71478, 19.40909],
        [82.70697, 19.41463],
        [82.70826, 19.41926],
        [82.69378, 19.41684],
        [82.68249, 19.43739],
        [82.6739, 19.43441],
        [82.67404, 19.44206],
        [82.66418, 19.44402],
        [82.66052, 19.45211],
        [82.66016, 19.45715],
        [82.65466, 19.45626],
        [82.6497, 19.45948],
        [82.649, 19.47749],
        [82.64053, 19.48369],
        [82.63315, 19.48177],
        [82.63313, 19.49111],
        [82.6458, 19.50763],
        [82.64331, 19.51906],
        [82.65436, 19.53474],
        [82.6513, 19.5523],
        [82.66973, 19.58118],
        [82.67492, 19.58364],
        [82.68357, 19.57964],
        [82.69293, 19.58526],
        [82.70248, 19.58482],
        [82.74159, 19.60184],
        [82.75352, 19.60189],
        [82.77672, 19.57838],
        [82.78092, 19.58263],
        [82.77522, 19.59049],
        [82.80243, 19.59559],
        [82.80651, 19.59244],
        [82.80303, 19.5862],
        [82.79591, 19.57838],
        [82.78962, 19.57896],
        [82.79833, 19.55997],
        [82.82798, 19.54741],
        [82.84212, 19.55556],
        [82.85149, 19.55447],
        [82.84398, 19.53918],
        [82.84763, 19.53447],
        [82.84333, 19.52948],
        [82.84475, 19.5221],
        [82.83829, 19.51961],
        [82.84005, 19.51519],
        [82.85615, 19.51237],
        [82.8634, 19.50464],
        [82.86755, 19.51959],
        [82.88466, 19.52096],
        [82.88716, 19.52488],
        [82.89414, 19.5228],
        [82.9007, 19.52999],
        [82.90097, 19.53425],
        [82.8965, 19.5349],
        [82.90111, 19.53845],
        [82.88642, 19.54256],
        [82.88774, 19.56009],
        [82.87595, 19.55772],
        [82.87502, 19.56861],
        [82.89662, 19.57449],
        [82.90782, 19.56859],
        [82.90631, 19.57789],
        [82.9234, 19.59403],
        [82.90808, 19.59932],
        [82.90245, 19.61173],
        [82.91422, 19.61353],
        [82.91342, 19.62189],
        [82.92532, 19.63267],
        [82.90996, 19.63628],
        [82.90196, 19.65375],
        [82.90432, 19.66558],
        [82.91773, 19.65898],
        [82.93561, 19.66596],
        [82.97151, 19.6997],
        [82.97228, 19.68962],
        [82.99019, 19.68974],
        [82.99306, 19.68118],
        [83.02615, 19.69377],
        [83.03885, 19.70687],
        [83.03769, 19.73836],
        [83.06164, 19.74989],
        [83.07831, 19.76987],
        [83.05455, 19.78205],
        [83.05352, 19.78855],
        [83.06452, 19.78864],
        [83.07053, 19.79664],
        [83.06258, 19.81238],
        [83.07878, 19.81696],
        [83.0792, 19.82368],
        [83.06762, 19.82681],
        [83.07349, 19.82694],
        [83.07662, 19.84351],
        [83.08644, 19.83378],
        [83.09148, 19.83673],
        [83.0832, 19.84908],
        [83.08908, 19.85644],
        [83.07309, 19.86031],
        [83.05943, 19.8715],
        [83.05462, 19.87005],
        [83.05112, 19.87704],
        [83.04416, 19.87692],
        [83.03952, 19.89023],
        [83.04346, 19.90387],
        [83.03012, 19.91261],
        [83.03838, 19.91832],
        [83.05355, 19.91809],
        [83.06507, 19.91144],
        [83.07028, 19.91665],
        [83.08501, 19.91585],
        [83.08893, 19.9417],
        [83.10214, 19.93603],
        [83.11048, 19.95594],
        [83.11535, 19.944],
        [83.12374, 19.94243],
        [83.12155, 19.9351],
        [83.14653, 19.92302],
        [83.13919, 19.90945],
        [83.14978, 19.90288],
        [83.15122, 19.88956],
        [83.16894, 19.896],
        [83.17308, 19.88942],
        [83.19792, 19.8972],
        [83.22149, 19.88644],
        [83.22668, 19.89372],
        [83.22107, 19.90059],
        [83.22481, 19.9051],
        [83.22256, 19.91096],
        [83.22774, 19.91349],
        [83.22231, 19.92191],
        [83.23403, 19.91997],
        [83.23099, 19.93112],
        [83.24411, 19.94854],
        [83.25177, 19.94737],
        [83.24809, 19.95769],
        [83.25408, 19.95554],
        [83.2578, 19.95964],
        [83.26537, 19.94743],
        [83.26826, 19.96785],
        [83.27612, 19.96754],
        [83.28465, 19.95821],
        [83.29254, 19.96324],
        [83.30893, 19.95955],
        [83.31104, 19.94429],
        [83.30001, 19.93936],
        [83.30468, 19.93742],
        [83.30557, 19.92949],
        [83.31979, 19.93571],
        [83.33476, 19.93101],
        [83.36333, 19.93499],
        [83.36184, 19.95992],
        [83.33293, 19.99083],
        [83.34568, 20.00047],
        [83.35593, 19.99736],
        [83.36008, 20.01439],
        [83.36971, 20.01924],
        [83.37548, 20.01254],
        [83.373, 20.00884],
        [83.39232, 20.00227],
        [83.39722, 19.98776],
        [83.4014, 19.98766],
        [83.40261, 19.99748],
        [83.41201, 20.007],
        [83.41177, 20.01721],
        [83.43189, 20.04455],
        [83.43368, 20.06411],
        [83.43996, 20.0665],
        [83.44169, 20.08101],
        [83.44463, 20.06665],
        [83.45051, 20.06868],
        [83.46377, 20.06081]
      ]
    ]
  }
}
