{
  "type": "Feature",
  "id": "OD-AC-85",
  "properties": {
    "stateName": "ODISHA",
    "stateCode": "OD",
    "districtName": "BAUDH",
    "acNo": 85,
    "acName": "KANTAMAL",
    "seatType": null,
    "pcNo": 13,
    "pcName": "KANDHAMAL",
    "quality": "unverified",
    "sources": [
      "TBD"
    ]
  },
  "geometry": {
    "type": "Polygon",
    "coordinates": [
      [
        [84.03744, 20.82025],
        [84.06434, 20.83033],
        [84.10754, 20.83835],
        [84.14386, 20.86208],
        [84.16228, 20.82394],
        [84.1698, 20.8295],
        [84.18251, 20.82135],
        [84.18178, 20.81155],
        [84.19047, 20.80949],
        [84.19153, 20.80005],
        [84.17484, 20.79431],
        [84.17482, 20.78291],
        [84.15639, 20.79044],
        [84.15736, 20.77738],
        [84.15391, 20.77423],
        [84.16156, 20.75682],
        [84.14468, 20.75571],
        [84.13199, 20.7615],
        [84.12459, 20.75869],
        [84.12136, 20.76394],
        [84.11274, 20.76003],
        [84.11478, 20.73627],
        [84.08171, 20.74064],
        [84.072, 20.73512],
        [84.08479, 20.7269],
        [84.0851, 20.71536],
        [84.08977, 20.71374],
        [84.09586, 20.69965],
        [84.10529, 20.69525],
        [84.10573, 20.67545],
        [84.11182, 20.6814],
        [84.12163, 20.67298],
        [84.11839, 20.66107],
        [84.13088, 20.63688],
        [84.11219, 20.63832],
        [84.11279, 20.62742],
        [84.11999, 20.62579],
        [84.1225, 20.61748],
        [84.13419, 20.62043],
        [84.14269, 20.61507],
        [84.1282, 20.61159],
        [84.10481, 20.59185],
        [84.08239, 20.58441],
        [84.07055, 20.59015],
        [84.05462, 20.58871],
        [84.01464, 20.56811],
        [84.00304, 20.56893],
        [83.97932, 20.58579],
        [83.96573, 20.58688],
        [83.94598, 20.58164],
        [83.93743, 20.58428],
        [83.92947, 20.59573],
        [83.94026, 20.60436],
        [83.92094, 20.61006],
        [83.9125, 20.60104],
        [83.91223, 20.57913],
        [83.87326, 20.58197],
        [83.85582, 20.57144],
        [83.85692, 20.56277],
        [83.84248, 20.54601],
        [83.82306, 20.54873],
        [83.81954, 20.54428],
        [83.82436, 20.53513],
        [83.81898, 20.52205],
        [83.813, 20.52105],
        [83.80509, 20.50889],
        [83.79598, 20.50856],
        [83.80834, 20.49107],
        [83.81168, 20.46303],
        [83.82805, 20.45225],
        [83.81219, 20.45286],
        [83.80817, 20.44698],
        [83.81455, 20.43671],
        [83.80601, 20.43282],
        [83.79238, 20.43447],
        [83.7866, 20.44311],
        [83.78034, 20.42631],
        [83.78091, 20.41037],
        [83.76803, 20.41305],
        [83.75436, 20.42717],
        [83.73935, 20.42263],
        [83.71752, 20.43505],
        [83.69102, 20.41368],
        [83.68486, 20.41474],
        [83.67655, 20.43027],
        [83.66584, 20.42263],
        [83.65854, 20.42472],
        [83.65611, 20.43317],
        [83.62732, 20.44749],
        [83.61856, 20.44727],
        [83.61841, 20.45785],
        [83.61017, 20.4656],
        [83.59644, 20.46898],
        [83.59626, 20.4766],
        [83.5838, 20.48788],
        [83.56929, 20.48293],
        [83.57799, 20.50219],
        [83.57807, 20.52094],
        [83.58464, 20.52613],
        [83.60264, 20.5281],
        [83.64223, 20.53659],
        [83.66939, 20.55558],
        [83.68564, 20.56064],
        [83.73171, 20.61107],
        [83.73106, 20.62501],
        [83.71414, 20.63847],
        [83.73259, 20.66755],
        [83.74223, 20.70399],
        [83.75751, 20.71649],
        [83.76386, 20.75774],
        [83.76081, 20.77511],
        [83.77305, 20.79776],
        [83.83374, 20.82371],
        [83.85173, 20.82395],
        [83.86632, 20.81497],
        [83.89192, 20.81587],
        [83.93654, 20.84242],
        [84.01113, 20.84081],
        [84.03744, 20.82025]
      ]
    ]
  }
}
