{
  "type": "Feature",
  "id": "OD-AC-86",
  "properties": {
    "stateName": "ODISHA",
    "stateCode": "OD",
    "districtName": "BAUDH",
    "acNo": 86,
    "acName": "BOUDH",
    "seatType": null,
    "pcNo": 13,
    "pcName": "KANDHAMAL",
    "quality": "unverified",
    "sources": [
      "TBD"
    ]
  },
  "geometry": {
    "type": "Polygon",
    "coordinates": [
      [
        [84.21531, 20.89574],
        [84.24092, 20.89362],
        [84.26627, 20.88127],
        [84.3466, 20.83645],
        [84.3556, 20.81829],
        [84.35572, 20.79329],
        [84.34914, 20.78154],
        [84.35997, 20.7664],
        [84.37773, 20.75402],
        [84.42083, 20.73744],
        [84.45068, 20.73888],
        [84.46337, 20.7351],
        [84.49886, 20.71758],
        [84.51428, 20.70298],
        [84.56172, 20.68939],
        [84.58139, 20.67501],
        [84.61367, 20.63825],
        [84.63876, 20.62386],
        [84.69944, 20.61153],
        [84.72949, 20.6156],
        [84.75985, 20.60875],
        [84.77832, 20.59778],
        [84.79017, 20.58123],
        [84.79126, 20.56097],
        [84.78591, 20.54994],
        [84.77787, 20.5492],
        [84.766, 20.53182],
        [84.74778, 20.53911],
        [84.73682, 20.53965],
        [84.73166, 20.53256],
        [84.71252, 20.52417],
        [84.71098, 20.50659],
        [84.69666, 20.49777],
        [84.69248, 20.47014],
        [84.68049, 20.46016],
        [84.68816, 20.45894],
        [84.69113, 20.45027],
        [84.6858, 20.44822],
        [84.68957, 20.44122],
        [84.68142, 20.4375],
        [84.68067, 20.43287],
        [84.67373, 20.43397],
        [84.66322, 20.42457],
        [84.64661, 20.42359],
        [84.61817, 20.43422],
        [84.60397, 20.42008],
        [84.58978, 20.42374],
        [84.56352, 20.41137],
        [84.54227, 20.4187],
        [84.53959, 20.41008],
        [84.53041, 20.41043],
        [84.52205, 20.40325],
        [84.51832, 20.40546],
        [84.51005, 20.39588],
        [84.49303, 20.39512],
        [84.48148, 20.38429],
        [84.46354, 20.39519],
        [84.4584, 20.42484],
        [84.46498, 20.44537],
        [84.4549, 20.4663],
        [84.44847, 20.46482],
        [84.42575, 20.48408],
        [84.43402, 20.49577],
        [84.43353, 20.50881],
        [84.40131, 20.52817],
        [84.38817, 20.53054],
        [84.38935, 20.54231],
        [84.38138, 20.55867],
        [84.38443, 20.56886],
        [84.3913, 20.56667],
        [84.39407, 20.57595],
        [84.38541, 20.57814],
        [84.37971, 20.58833],
        [84.38434, 20.59814],
        [84.36978, 20.63334],
        [84.37282, 20.64128],
        [84.36905, 20.65078],
        [84.35656, 20.66441],
        [84.35682, 20.67109],
        [84.33747, 20.67259],
        [84.33911, 20.67955],
        [84.32691, 20.68741],
        [84.29822, 20.68699],
        [84.27654, 20.67247],
        [84.27311, 20.66795],
        [84.28025, 20.63567],
        [84.27185, 20.6361],
        [84.25646, 20.60196],
        [84.23577, 20.59297],
        [84.22516, 20.582],
        [84.18538, 20.58446],
        [84.17567, 20.59926],
        [84.14241, 20.57764],
        [84.13475, 20.58265],
        [84.11217, 20.58245],
        [84.10481, 20.59185],
        [84.1282, 20.61159],
        [84.14269, 20.61507],
        [84.13419, 20.62043],
        [84.1225, 20.61748],
        [84.11999, 20.62579],
        [84.11279, 20.62742],
        [84.11219, 20.63832],
        [84.13088, 20.63688],
        [84.11839, 20.66107],
        [84.12163, 20.67298],
        [84.11182, 20.6814],
        [84.10573, 20.67545],
        [84.10529, 20.69525],
        [84.09586, 20.69965],
        [84.08977, 20.71374],
        [84.0851, 20.71536],
        [84.08479, 20.7269],
        [84.072, 20.73512],
        [84.08171, 20.74064],
        [84.11478, 20.73627],
        [84.11274, 20.76003],
        [84.12136, 20.76394],
        [84.12459, 20.75869],
        [84.13199, 20.7615],
        [84.14468, 20.75571],
        [84.16156, 20.75682],
        [84.15391, 20.77423],
        [84.15736, 20.77738],
        [84.15639, 20.79044],
        [84.17482, 20.78291],
        [84.17484, 20.79431],
        [84.19153, 20.80005],
        [84.19047, 20.80949],
        [84.18178, 20.81155],
        [84.18251, 20.82135],
        [84.1698, 20.8295],
        [84.16228, 20.82394],
        [84.14386, 20.86208],
        [84.192, 20.8896],
        [84.21531, 20.89574]
      ]
    ]
  }
}
