{
  "type": "Feature",
  "id": "OD-AC-92",
  "properties": {
    "stateName": "ODISHA",
    "stateCode": "OD",
    "districtName": "CUTTACK",
    "acNo": 92,
    "acName": "NIALI (SC)",
    "seatType": null,
    "pcNo": 16,
    "pcName": "JAGATSINGHPUR (SC)",
    "quality": "unverified",
    "sources": [
      "TBD"
    ]
  },
  "geometry": {
    "type": "Polygon",
    "coordinates": [
      [
        [86.0333, 20.33844],
        [86.02794, 20.33361],
        [86.03155, 20.31017],
        [86.02739, 20.29736],
        [86.03647, 20.29323],
        [86.04531, 20.27885],
        [86.06686, 20.26667],
        [86.07225, 20.24868],
        [86.12616, 20.22252],
        [86.14527, 20.2198],
        [86.14987, 20.21456],
        [86.14723, 20.20068],
        [86.13997, 20.20093],
        [86.13855, 20.1955],
        [86.14743, 20.191],
        [86.15093, 20.17812],
        [86.16336, 20.17366],
        [86.16817, 20.16585],
        [86.14583, 20.17187],
        [86.14239, 20.16715],
        [86.14855, 20.16048],
        [86.14185, 20.14426],
        [86.15616, 20.13481],
        [86.15332, 20.11918],
        [86.16026, 20.10367],
        [86.1552, 20.10095],
        [86.15358, 20.09156],
        [86.1659, 20.08318],
        [86.16778, 20.07244],
        [86.18288, 20.05732],
        [86.18378, 20.05076],
        [86.17112, 20.04881],
        [86.16842, 20.0409],
        [86.16011, 20.0452],
        [86.12231, 20.03983],
        [86.11656, 20.04728],
        [86.1273, 20.05691],
        [86.12406, 20.06001],
        [86.10851, 20.06677],
        [86.09641, 20.06517],
        [86.08769, 20.05841],
        [86.07626, 20.07309],
        [86.07594, 20.08329],
        [86.08787, 20.08518],
        [86.08985, 20.09033],
        [86.07905, 20.10556],
        [86.07716, 20.11048],
        [86.06946, 20.11262],
        [86.07132, 20.11809],
        [86.06508, 20.12362],
        [86.04678, 20.13369],
        [86.03521, 20.13478],
        [86.03165, 20.14187],
        [86.04428, 20.14063],
        [86.04792, 20.14577],
        [86.04502, 20.15487],
        [86.05346, 20.16372],
        [86.0375, 20.17921],
        [86.03364, 20.17007],
        [86.02171, 20.16729],
        [86.02227, 20.17836],
        [86.02788, 20.18195],
        [86.01704, 20.18662],
        [86.00425, 20.22489],
        [85.99197, 20.22624],
        [85.9821, 20.23801],
        [85.97003, 20.24296],
        [85.95133, 20.26136],
        [85.95047, 20.26969],
        [85.94366, 20.26835],
        [85.93956, 20.27224],
        [85.93491, 20.26751],
        [85.93197, 20.27479],
        [85.93913, 20.28098],
        [85.92262, 20.29503],
        [85.9201, 20.30744],
        [85.91113, 20.31408],
        [85.91558, 20.32592],
        [85.92392, 20.31254],
        [85.92752, 20.31109],
        [85.92908, 20.31518],
        [85.92674, 20.32899],
        [85.91774, 20.33507],
        [85.91409, 20.3476],
        [85.94371, 20.37129],
        [85.98179, 20.36353],
        [85.9864, 20.36716],
        [85.99334, 20.36447],
        [86.00697, 20.36778],
        [86.01457, 20.37475],
        [86.02325, 20.34984],
        [86.0333, 20.33844]
      ]
    ]
  }
}
