{
  "type": "Feature",
  "id": "OD-AC-99",
  "properties": {
    "stateName": "ODISHA",
    "stateCode": "OD",
    "districtName": "KENDRAPARA",
    "acNo": 99,
    "acName": "RAJANAGAR",
    "seatType": null,
    "pcNo": 15,
    "pcName": "KENDRAPARA",
    "quality": "unverified",
    "sources": [
      "TBD"
    ]
  },
  "geometry": {
    "type": "Polygon",
    "coordinates": [
      [
        [86.7538, 20.51854],
        [86.73685, 20.52273],
        [86.71987, 20.50735],
        [86.70191, 20.50066],
        [86.66765, 20.50178],
        [86.65583, 20.49569],
        [86.65365, 20.50033],
        [86.64161, 20.4991],
        [86.63562, 20.49653],
        [86.63081, 20.48603],
        [86.61582, 20.49098],
        [86.60869, 20.48346],
        [86.60988, 20.49048],
        [86.60115, 20.49732],
        [86.59653, 20.492],
        [86.60134, 20.48663],
        [86.5952, 20.47727],
        [86.57753, 20.47875],
        [86.5656, 20.46894],
        [86.54895, 20.48685],
        [86.54363, 20.49284],
        [86.54815, 20.49563],
        [86.54226, 20.49939],
        [86.54656, 20.50163],
        [86.53711, 20.51769],
        [86.54901, 20.53234],
        [86.55086, 20.51646],
        [86.55704, 20.51781],
        [86.55421, 20.53639],
        [86.57248, 20.54679],
        [86.561, 20.5555],
        [86.56308, 20.56501],
        [86.52747, 20.57809],
        [86.53015, 20.58424],
        [86.54153, 20.58264],
        [86.53895, 20.5972],
        [86.54729, 20.59404],
        [86.56599, 20.60304],
        [86.5685, 20.61611],
        [86.59224, 20.59412],
        [86.59761, 20.56852],
        [86.60651, 20.5679],
        [86.61902, 20.58466],
        [86.60982, 20.60647],
        [86.66312, 20.60695],
        [86.67321, 20.62756],
        [86.65619, 20.62849],
        [86.65562, 20.63365],
        [86.6712, 20.63482],
        [86.68149, 20.6435],
        [86.7037, 20.63799],
        [86.72738, 20.66043],
        [86.73521, 20.66294],
        [86.74332, 20.65421],
        [86.72814, 20.61694],
        [86.73339, 20.60592],
        [86.73925, 20.60801],
        [86.763, 20.62484],
        [86.76928, 20.64179],
        [86.8113, 20.70205],
        [86.81633, 20.73181],
        [86.81778, 20.7323],
        [86.8207, 20.7333],
        [86.8284, 20.7558],
        [86.8481, 20.76901],
        [86.8548, 20.7735],
        [86.86406, 20.77365],
        [86.87889, 20.7739],
        [86.8789, 20.7739],
        [86.9024, 20.7627],
        [86.93491, 20.76566],
        [86.9441, 20.7665],
        [86.9765, 20.7719],
        [87.0146, 20.7662],
        [87.01808, 20.7681],
        [87.0221, 20.7703],
        [87.0269, 20.7683],
        [87.0411, 20.7589],
        [87.04078, 20.75513],
        [87.0397, 20.7422],
        [87.0557, 20.715],
        [86.7887, 20.5341],
        [86.78357, 20.52923],
        [86.7753, 20.5214],
        [86.7655, 20.504],
        [86.75381, 20.51849],
        [86.7538, 20.51854]
      ]
    ]
  }
}
