{
  "type": "Feature",
  "id": "GJ-AC-126",
  "properties": {
    "stateName": "GUJARAT",
    "stateCode": "GJ",
    "districtName": null,
    "acNo": 126,
    "acName": "Godhra",
    "seatType": null,
    "pcNo": 18,
    "pcName": "PANCHMAHAL",
    "quality": "unverified",
    "sources": [
      "TBD"
    ]
  },
  "geometry": {
    "type": "Polygon",
    "coordinates": [
      [
        [73.79215, 22.8931],
        [73.80495, 22.87656],
        [73.81313, 22.85125],
        [73.81313, 22.83587],
        [73.79811, 22.81874],
        [73.78839, 22.79187],
        [73.74996, 22.78019],
        [73.73406, 22.76326],
        [73.73207, 22.75586],
        [73.74113, 22.70583],
        [73.72501, 22.70096],
        [73.70645, 22.70427],
        [73.67112, 22.72179],
        [73.65897, 22.72179],
        [73.65411, 22.714],
        [73.63379, 22.71186],
        [73.62253, 22.70369],
        [73.61988, 22.70797],
        [73.59095, 22.71537],
        [73.57814, 22.70855],
        [73.57151, 22.71361],
        [73.57593, 22.71907],
        [73.57063, 22.72296],
        [73.57151, 22.73055],
        [73.56511, 22.73347],
        [73.5618, 22.73191],
        [73.56489, 22.72607],
        [73.56091, 22.70252],
        [73.55451, 22.69824],
        [73.52602, 22.70096],
        [73.52381, 22.70991],
        [73.51917, 22.70524],
        [73.51034, 22.70524],
        [73.50614, 22.71439],
        [73.49333, 22.70485],
        [73.4845, 22.70797],
        [73.46175, 22.70349],
        [73.44187, 22.71264],
        [73.38887, 22.69882],
        [73.3829, 22.71945],
        [73.38445, 22.74165],
        [73.41206, 22.758],
        [73.42708, 22.76034],
        [73.42553, 22.77825],
        [73.42288, 22.78448],
        [73.41692, 22.78448],
        [73.44651, 22.79246],
        [73.45004, 22.79771],
        [73.44386, 22.81173],
        [73.45557, 22.81192],
        [73.46705, 22.81757],
        [73.48074, 22.81601],
        [73.48472, 22.8057],
        [73.50393, 22.80433],
        [73.50504, 22.81251],
        [73.49929, 22.82146],
        [73.51497, 22.84444],
        [73.54081, 22.84502],
        [73.54788, 22.84132],
        [73.55649, 22.84716],
        [73.57615, 22.8495],
        [73.58079, 22.83899],
        [73.58786, 22.83976],
        [73.59139, 22.8347],
        [73.62408, 22.83762],
        [73.62915, 22.83198],
        [73.63225, 22.84483],
        [73.64925, 22.84327],
        [73.65477, 22.84852],
        [73.65301, 22.8604],
        [73.67288, 22.87597],
        [73.68945, 22.87383],
        [73.69453, 22.86566],
        [73.7133, 22.85904],
        [73.70888, 22.84191],
        [73.72169, 22.83431],
        [73.74069, 22.85261],
        [73.73627, 22.86838],
        [73.77315, 22.87169],
        [73.78464, 22.88104],
        [73.78552, 22.89291],
        [73.79215, 22.8931]
      ]
    ]
  }
}
