{
  "type": "Feature",
  "id": "GJ-AC-141",
  "properties": {
    "stateName": "GUJARAT",
    "stateCode": "GJ",
    "districtName": null,
    "acNo": 141,
    "acName": "Vadodara City(SC)",
    "seatType": null,
    "pcNo": 20,
    "pcName": "VADODARA",
    "quality": "unverified",
    "sources": [
      "TBD"
    ]
  },
  "geometry": {
    "type": "Polygon",
    "coordinates": [
      [
        [73.25945, 22.31239],
        [73.26077, 22.31064],
        [73.24399, 22.30966],
        [73.24222, 22.32271],
        [73.22654, 22.32329],
        [73.23228, 22.35074],
        [73.28286, 22.35463],
        [73.28507, 22.34996],
        [73.27601, 22.34626],
        [73.27601, 22.34062],
        [73.25415, 22.33692],
        [73.25658, 22.32991],
        [73.27005, 22.33283],
        [73.27093, 22.3231],
        [73.25746, 22.3192],
        [73.25525, 22.31278],
        [73.25945, 22.31239]
      ]
    ]
  }
}
