{
  "type": "Feature",
  "id": "GJ-AC-166",
  "properties": {
    "stateName": "GUJARAT",
    "stateCode": "GJ",
    "districtName": null,
    "acNo": 166,
    "acName": "Katargam",
    "seatType": null,
    "pcNo": 24,
    "pcName": "SURAT",
    "quality": "unverified",
    "sources": [
      "TBD"
    ]
  },
  "geometry": {
    "type": "Polygon",
    "coordinates": [
      [
        [72.81333, 21.20702],
        [72.80847, 21.21306],
        [72.79875, 21.22785],
        [72.79742, 21.23194],
        [72.79742, 21.23622],
        [72.79809, 21.24012],
        [72.80096, 21.24362],
        [72.80692, 21.24946],
        [72.82083, 21.25997],
        [72.82724, 21.26134],
        [72.85021, 21.23856],
        [72.84491, 21.23486],
        [72.84712, 21.23175],
        [72.8332, 21.21929],
        [72.82503, 21.20858],
        [72.81333, 21.20702]
      ]
    ]
  }
}
