{
  "type": "Feature",
  "id": "GJ-AC-171",
  "properties": {
    "stateName": "GUJARAT",
    "stateCode": "GJ",
    "districtName": null,
    "acNo": 171,
    "acName": "Vyara (ST)",
    "seatType": null,
    "pcNo": 23,
    "pcName": "BARDOLI (ST)",
    "quality": "unverified",
    "sources": [
      "TBD"
    ]
  },
  "geometry": {
    "type": "Polygon",
    "coordinates": [
      [
        [73.45468, 21.13324],
        [73.45866, 21.11085],
        [73.44739, 21.10131],
        [73.45115, 21.0873],
        [73.44585, 21.08165],
        [73.45049, 21.07017],
        [73.44651, 21.06121],
        [73.43768, 21.05712],
        [73.44209, 21.05089],
        [73.45402, 21.047],
        [73.46639, 21.05167],
        [73.47699, 21.05031],
        [73.48869, 21.03649],
        [73.50217, 21.04058],
        [73.50217, 21.03396],
        [73.50813, 21.02928],
        [73.53441, 21.03182],
        [73.547, 21.02889],
        [73.56621, 21.02033],
        [73.57681, 21.00748],
        [73.57085, 21.01176],
        [73.56334, 21.00923],
        [73.55649, 21.01352],
        [73.54744, 21.0067],
        [73.54435, 20.9738],
        [73.53596, 20.95901],
        [73.5375, 20.95103],
        [73.5205, 20.94694],
        [73.53043, 20.93876],
        [73.53021, 20.93409],
        [73.51277, 20.93526],
        [73.51122, 20.92591],
        [73.49664, 20.92182],
        [73.48958, 20.91384],
        [73.49223, 20.90002],
        [73.48847, 20.89087],
        [73.49929, 20.87822],
        [73.49156, 20.86147],
        [73.50283, 20.85622],
        [73.50504, 20.84395],
        [73.49885, 20.83889],
        [73.49642, 20.81962],
        [73.48383, 20.81495],
        [73.47235, 20.81903],
        [73.46087, 20.81728],
        [73.45358, 20.80911],
        [73.44231, 20.80891],
        [73.39461, 20.82799],
        [73.38843, 20.82254],
        [73.38158, 20.8239],
        [73.36767, 20.83247],
        [73.36568, 20.84181],
        [73.35066, 20.84882],
        [73.34956, 20.86011],
        [73.34249, 20.86284],
        [73.33299, 20.85992],
        [73.33277, 20.86712],
        [73.32283, 20.86907],
        [73.31709, 20.87997],
        [73.31576, 20.9006],
        [73.29633, 20.91676],
        [73.28948, 20.92961],
        [73.26099, 20.9226],
        [73.25879, 20.94207],
        [73.24487, 20.95025],
        [73.24355, 20.97049],
        [73.28308, 20.97672],
        [73.2844, 20.96056],
        [73.30119, 20.94888],
        [73.30649, 20.95648],
        [73.32438, 20.95317],
        [73.33034, 20.96056],
        [73.3299, 20.9701],
        [73.31974, 20.97711],
        [73.32261, 20.98976],
        [73.30251, 20.99833],
        [73.29213, 21.02987],
        [73.32637, 21.0322],
        [73.3394, 21.03843],
        [73.33785, 21.05303],
        [73.32968, 21.06043],
        [73.331, 21.0725],
        [73.31444, 21.09372],
        [73.27314, 21.11124],
        [73.26872, 21.11961],
        [73.27712, 21.1311],
        [73.28661, 21.12896],
        [73.30053, 21.13266],
        [73.30251, 21.14395],
        [73.31289, 21.15232],
        [73.34227, 21.15816],
        [73.33895, 21.16964],
        [73.30759, 21.19982],
        [73.33299, 21.21617],
        [73.35221, 21.21481],
        [73.36634, 21.22221],
        [73.37297, 21.23817],
        [73.36369, 21.26212],
        [73.38909, 21.27808],
        [73.41316, 21.27652],
        [73.4189, 21.23155],
        [73.43171, 21.23136],
        [73.43348, 21.22746],
        [73.42884, 21.22084],
        [73.41471, 21.21695],
        [73.41935, 21.19807],
        [73.42531, 21.19398],
        [73.42332, 21.17179],
        [73.43525, 21.1531],
        [73.43436, 21.12974],
        [73.45468, 21.13324]
      ]
    ]
  }
}
