{
  "type": "Feature",
  "id": "GJ-AC-28",
  "properties": {
    "stateName": "GUJARAT",
    "stateCode": "GJ",
    "districtName": null,
    "acNo": 28,
    "acName": "Idar (SC)",
    "seatType": null,
    "pcNo": 5,
    "pcName": "SABARKANTHA",
    "quality": "unverified",
    "sources": [
      "TBD"
    ]
  },
  "geometry": {
    "type": "Polygon",
    "coordinates": [
      [
        [72.89968, 24.02592],
        [72.90984, 24.02203],
        [72.92044, 24.02456],
        [72.92022, 24.02923],
        [72.93347, 24.03741],
        [72.94098, 24.02553],
        [72.92994, 24.02125],
        [72.94517, 24.01015],
        [72.97521, 24.00665],
        [72.98515, 24.01891],
        [73.0048, 24.00723],
        [73.01055, 23.98815],
        [73.02358, 23.98484],
        [73.03285, 23.98776],
        [73.03572, 23.99594],
        [73.04301, 23.99555],
        [73.04456, 24.00587],
        [73.07261, 24.00587],
        [73.08674, 24.00159],
        [73.09469, 23.99166],
        [73.09315, 23.9755],
        [73.12539, 23.97102],
        [73.15962, 23.95428],
        [73.14725, 23.92488],
        [73.15211, 23.92313],
        [73.16095, 23.87699],
        [73.17994, 23.89198],
        [73.18635, 23.89101],
        [73.19032, 23.90016],
        [73.21616, 23.89646],
        [73.23074, 23.87758],
        [73.22544, 23.87076],
        [73.22411, 23.85422],
        [73.20203, 23.82268],
        [73.17552, 23.8182],
        [73.1636, 23.79873],
        [73.15896, 23.78102],
        [73.14571, 23.7818],
        [73.13975, 23.77615],
        [73.13202, 23.74208],
        [73.14438, 23.73469],
        [73.1488, 23.7378],
        [73.14129, 23.72593],
        [73.12672, 23.72417],
        [73.12451, 23.70879],
        [73.11567, 23.70548],
        [73.10905, 23.69205],
        [73.07526, 23.68465],
        [73.07592, 23.69478],
        [73.06355, 23.69556],
        [73.04279, 23.70626],
        [73.04323, 23.7304],
        [73.03307, 23.74131],
        [73.02468, 23.74033],
        [73.02115, 23.74423],
        [73.00768, 23.72923],
        [73.01408, 23.71756],
        [73.01143, 23.70763],
        [72.99067, 23.70081],
        [72.97676, 23.70393],
        [72.96152, 23.69108],
        [72.95489, 23.69731],
        [72.96019, 23.71853],
        [72.92243, 23.71931],
        [72.92485, 23.72846],
        [72.91735, 23.73585],
        [72.88974, 23.72437],
        [72.87119, 23.72203],
        [72.85772, 23.71444],
        [72.85794, 23.71016],
        [72.84955, 23.7086],
        [72.84888, 23.71249],
        [72.84446, 23.70899],
        [72.84071, 23.71386],
        [72.82945, 23.71483],
        [72.8332, 23.72086],
        [72.82923, 23.72281],
        [72.83077, 23.73177],
        [72.80471, 23.7306],
        [72.79499, 23.76136],
        [72.80802, 23.78919],
        [72.81487, 23.79815],
        [72.81134, 23.80496],
        [72.80427, 23.81392],
        [72.79455, 23.81664],
        [72.78881, 23.82638],
        [72.7908, 23.85091],
        [72.80405, 23.87544],
        [72.80449, 23.91359],
        [72.80913, 23.92002],
        [72.83055, 23.93092],
        [72.81951, 23.95019],
        [72.82856, 23.96187],
        [72.85175, 23.97258],
        [72.85728, 23.98991],
        [72.85264, 24.01054],
        [72.86611, 24.02475],
        [72.89968, 24.02592]
      ]
    ]
  }
}
