{
  "type": "Feature",
  "id": "GJ-AC-46",
  "properties": {
    "stateName": "GUJARAT",
    "stateCode": "GJ",
    "districtName": null,
    "acNo": 46,
    "acName": "Nikol",
    "seatType": null,
    "pcNo": 7,
    "pcName": "AHMEDABAD EAST",
    "quality": "unverified",
    "sources": [
      "TBD"
    ]
  },
  "geometry": {
    "type": "Polygon",
    "coordinates": [
      [
        [72.68192, 23.04826],
        [72.68523, 23.02704],
        [72.67286, 23.02471],
        [72.65188, 23.02918],
        [72.6574, 23.04651],
        [72.66359, 23.04826],
        [72.68192, 23.04826]
      ]
    ]
  }
}
