{
  "type": "Feature",
  "id": "GJ-AC-5",
  "properties": {
    "stateName": "GUJARAT",
    "stateCode": "GJ",
    "districtName": null,
    "acNo": 5,
    "acName": "Gandhidham(SC)",
    "seatType": null,
    "pcNo": 1,
    "pcName": "KACHCHH (SC)",
    "quality": "unverified",
    "sources": [
      "TBD"
    ]
  },
  "geometry": {
    "type": "MultiPolygon",
    "coordinates": [
      [
        [
          [70.42436, 23.21646],
          [70.41729, 23.21043],
          [70.40735, 23.21782],
          [70.38902, 23.21393],
          [70.38725, 23.21782],
          [70.38505, 23.21451],
          [70.38151, 23.2186],
          [70.37135, 23.21919],
          [70.33977, 23.21062],
          [70.3369, 23.21471],
          [70.31702, 23.21159],
          [70.31216, 23.21529],
          [70.30223, 23.20848],
          [70.29803, 23.21004],
          [70.30112, 23.20478],
          [70.29406, 23.20751],
          [70.2998, 23.204],
          [70.29649, 23.2005],
          [70.30245, 23.19933],
          [70.30112, 23.19388],
          [70.30863, 23.19232],
          [70.30841, 23.18103],
          [70.26468, 23.16176],
          [70.25784, 23.16877],
          [70.24017, 23.16838],
          [70.24238, 23.17402],
          [70.23818, 23.16877],
          [70.24238, 23.16448],
          [70.22427, 23.16078],
          [70.21499, 23.14365],
          [70.22184, 23.13217],
          [70.21499, 23.12983],
          [70.21035, 23.12126],
          [70.20881, 23.10822],
          [70.19821, 23.10433],
          [70.17899, 23.07182],
          [70.16994, 23.06617],
          [70.16464, 23.06792],
          [70.16132, 23.04982],
          [70.14896, 23.03755],
          [70.15978, 23.03463],
          [70.17038, 23.04359],
          [70.16994, 23.05722],
          [70.18606, 23.06812],
          [70.1929, 23.0798],
          [70.2077, 23.08019],
          [70.21057, 23.07629],
          [70.19555, 23.07201],
          [70.19799, 23.06267],
          [70.21322, 23.06247],
          [70.21035, 23.05157],
          [70.19666, 23.05021],
          [70.21941, 23.04748],
          [70.22206, 23.03483],
          [70.21742, 23.02179],
          [70.22184, 23.01536],
          [70.22405, 22.99122],
          [70.21631, 22.99531],
          [70.21521, 23.00037],
          [70.21963, 23.00349],
          [70.19246, 23.02471],
          [70.18716, 23.00329],
          [70.16751, 23.00777],
          [70.16154, 22.98343],
          [70.19445, 22.9809],
          [70.19092, 22.96903],
          [70.19578, 22.95929],
          [70.18628, 22.95345],
          [70.17899, 22.96319],
          [70.17016, 22.9554],
          [70.16927, 22.96358],
          [70.15094, 22.95131],
          [70.14785, 22.95968],
          [70.14255, 22.95813],
          [70.14608, 22.9663],
          [70.13129, 22.96708],
          [70.1463, 22.97798],
          [70.13151, 22.9885],
          [70.13416, 22.9955],
          [70.14299, 22.99823],
          [70.14918, 22.99472],
          [70.15161, 23.00037],
          [70.16464, 23.00251],
          [70.1653, 23.00796],
          [70.15271, 23.01088],
          [70.15801, 23.03269],
          [70.14807, 23.03463],
          [70.15006, 23.03113],
          [70.13504, 23.0212],
          [70.13327, 23.01127],
          [70.12201, 22.99648],
          [70.11826, 22.99687],
          [70.1134, 22.9846],
          [70.09175, 22.99356],
          [70.07828, 23.01088],
          [70.07762, 23.02159],
          [70.07121, 23.0212],
          [70.06503, 23.0138],
          [70.05465, 23.02256],
          [70.0266, 23.0251],
          [70.01909, 23.04164],
          [70.02241, 23.04651],
          [70.04427, 23.04923],
          [70.04891, 23.06481],
          [70.06106, 23.06422],
          [70.06746, 23.05819],
          [70.0679, 23.06481],
          [70.06216, 23.07065],
          [70.08623, 23.08136],
          [70.08977, 23.1016],
          [70.12444, 23.1053],
          [70.13394, 23.11523],
          [70.1388, 23.13431],
          [70.16486, 23.13703],
          [70.16309, 23.15864],
          [70.18032, 23.16954],
          [70.17987, 23.17616],
          [70.20019, 23.1822],
          [70.21433, 23.19329],
          [70.20571, 23.19466],
          [70.21499, 23.19836],
          [70.20505, 23.2005],
          [70.20086, 23.21218],
          [70.19379, 23.2112],
          [70.19931, 23.21412],
          [70.19555, 23.21957],
          [70.2013, 23.21919],
          [70.20019, 23.22483],
          [70.2066, 23.22931],
          [70.20903, 23.26318],
          [70.16927, 23.26221],
          [70.15933, 23.28421],
          [70.16552, 23.29628],
          [70.1463, 23.30718],
          [70.13769, 23.3175],
          [70.14365, 23.32528],
          [70.16022, 23.32197],
          [70.16662, 23.30329],
          [70.18252, 23.30932],
          [70.19268, 23.30562],
          [70.20174, 23.31049],
          [70.19268, 23.33988],
          [70.19445, 23.36208],
          [70.20792, 23.38719],
          [70.2289, 23.40004],
          [70.22824, 23.4088],
          [70.25143, 23.41036],
          [70.25298, 23.41834],
          [70.27595, 23.42535],
          [70.28191, 23.44365],
          [70.27109, 23.44754],
          [70.25762, 23.46662],
          [70.25607, 23.49601],
          [70.26623, 23.51159],
          [70.26976, 23.50497],
          [70.27948, 23.504],
          [70.29185, 23.4855],
          [70.30907, 23.48355],
          [70.31283, 23.46136],
          [70.33138, 23.47791],
          [70.338, 23.49816],
          [70.35899, 23.49465],
          [70.37975, 23.50458],
          [70.36804, 23.4929],
          [70.37202, 23.47168],
          [70.39211, 23.45708],
          [70.40249, 23.45922],
          [70.41486, 23.45396],
          [70.41442, 23.44267],
          [70.43098, 23.42866],
          [70.44887, 23.42651],
          [70.44799, 23.41912],
          [70.4566, 23.41114],
          [70.47405, 23.40705],
          [70.46743, 23.38427],
          [70.47427, 23.36188],
          [70.46522, 23.33074],
          [70.4767, 23.3319],
          [70.48112, 23.32197],
          [70.4915, 23.31789],
          [70.51469, 23.33385],
          [70.51999, 23.31711],
          [70.5233, 23.33288],
          [70.5582, 23.3212],
          [70.55466, 23.31497],
          [70.5646, 23.30991],
          [70.56438, 23.29628],
          [70.55996, 23.29219],
          [70.52352, 23.29744],
          [70.50232, 23.29122],
          [70.49702, 23.27389],
          [70.48178, 23.27331],
          [70.47317, 23.25793],
          [70.44998, 23.23554],
          [70.42833, 23.23398],
          [70.42436, 23.21646]
        ]
      ],
      [
        [
          [70.21587, 23.40841],
          [70.20549, 23.39868],
          [70.20439, 23.38563],
          [70.1823, 23.36013],
          [70.17767, 23.37103],
          [70.14498, 23.37551],
          [70.15072, 23.3831],
          [70.13968, 23.40958],
          [70.15094, 23.41795],
          [70.16773, 23.42165],
          [70.17612, 23.42048],
          [70.17899, 23.42457],
          [70.18098, 23.42106],
          [70.18981, 23.41211],
          [70.21587, 23.40841]
        ]
      ]
    ]
  }
}
