{
  "type": "Feature",
  "id": "GJ-AC-79",
  "properties": {
    "stateName": "GUJARAT",
    "stateCode": "GJ",
    "districtName": null,
    "acNo": 79,
    "acName": "Jamnagar South",
    "seatType": null,
    "pcNo": 12,
    "pcName": "JAMNAGAR",
    "quality": "unverified",
    "sources": [
      "TBD"
    ]
  },
  "geometry": {
    "type": "Polygon",
    "coordinates": [
      [
        [70.11318, 22.46054],
        [70.12046, 22.44263],
        [70.09529, 22.44263],
        [70.0922, 22.42783],
        [70.07696, 22.42588],
        [70.07718, 22.407],
        [70.04692, 22.3996],
        [70.02947, 22.40038],
        [70.02395, 22.40564],
        [70.02285, 22.42686],
        [70.01733, 22.43134],
        [69.99745, 22.42919],
        [69.99458, 22.45041],
        [69.97713, 22.45139],
        [69.96719, 22.46346],
        [70.01379, 22.4839],
        [70.04427, 22.46988],
        [70.09882, 22.45937],
        [70.11318, 22.46054]
      ]
    ]
  }
}
