{
  "type": "Feature",
  "id": "TR-AC-25",
  "properties": {
    "stateName": "TRIPURA",
    "stateCode": "TR",
    "districtName": "WEST TRIPURA",
    "acNo": 25,
    "acName": "KHOWAI",
    "seatType": null,
    "pcNo": 2,
    "pcName": "TRIPURA EAST(ST)",
    "quality": "unverified",
    "sources": [
      "TBD"
    ]
  },
  "geometry": {
    "type": "Polygon",
    "coordinates": [
      [
        [91.58494, 24.07706],
        [91.60253, 24.08133],
        [91.59994, 24.09612],
        [91.62188, 24.09592],
        [91.63236, 24.10162],
        [91.65177, 24.09408],
        [91.64767, 24.08704],
        [91.63502, 24.08907],
        [91.63002, 24.07593],
        [91.63971, 24.06898],
        [91.64345, 24.05955],
        [91.65786, 24.05693],
        [91.66357, 24.04951],
        [91.65618, 24.03488],
        [91.64653, 24.03002],
        [91.62831, 24.03114],
        [91.61458, 24.0193],
        [91.60526, 24.02068],
        [91.58998, 24.03255],
        [91.56205, 24.0233],
        [91.55192, 24.03577],
        [91.58494, 24.07706]
      ]
    ]
  }
}
