{
  "type": "Feature",
  "id": "TR-AC-29",
  "properties": {
    "stateName": "TRIPURA",
    "stateCode": "TR",
    "districtName": "WEST TRIPURA",
    "acNo": 29,
    "acName": "KRISHNAPUR (ST)",
    "seatType": null,
    "pcNo": 1,
    "pcName": "TRIPURA WEST",
    "quality": "unverified",
    "sources": [
      "TBD"
    ]
  },
  "geometry": {
    "type": "Polygon",
    "coordinates": [
      [
        [91.76502, 23.91649],
        [91.77447, 23.91195],
        [91.77596, 23.88956],
        [91.78313, 23.88333],
        [91.77926, 23.82386],
        [91.77929, 23.81993],
        [91.76356, 23.82372],
        [91.77937, 23.8075],
        [91.77227, 23.80007],
        [91.77518, 23.79136],
        [91.77095, 23.78143],
        [91.77682, 23.75034],
        [91.78398, 23.74284],
        [91.76982, 23.7193],
        [91.77573, 23.69146],
        [91.77146, 23.68527],
        [91.75721, 23.68286],
        [91.74799, 23.67361],
        [91.74132, 23.69268],
        [91.72987, 23.70136],
        [91.73112, 23.70827],
        [91.7429, 23.71389],
        [91.74376, 23.7292],
        [91.73754, 23.74087],
        [91.7242, 23.74862],
        [91.71732, 23.76899],
        [91.69301, 23.75779],
        [91.67314, 23.76463],
        [91.64906, 23.76432],
        [91.64692, 23.76876],
        [91.60048, 23.76382],
        [91.59558, 23.7695],
        [91.59681, 23.78225],
        [91.61101, 23.79037],
        [91.61778, 23.80473],
        [91.63053, 23.80499],
        [91.64056, 23.81381],
        [91.6374, 23.82175],
        [91.6456, 23.82694],
        [91.64314, 23.83894],
        [91.65297, 23.84297],
        [91.65991, 23.85453],
        [91.65556, 23.86668],
        [91.66193, 23.88313],
        [91.67027, 23.88967],
        [91.66023, 23.89446],
        [91.69262, 23.90638],
        [91.70191, 23.92177],
        [91.70893, 23.92365],
        [91.72722, 23.90934],
        [91.74693, 23.91917],
        [91.76331, 23.93312],
        [91.75997, 23.94006],
        [91.76563, 23.94004],
        [91.76864, 23.93398],
        [91.76435, 23.93053],
        [91.76502, 23.91649]
      ]
    ]
  }
}
