{
  "type": "Feature",
  "id": "TR-AC-33",
  "properties": {
    "stateName": "TRIPURA",
    "stateCode": "TR",
    "districtName": "SOUTH TRIPURA",
    "acNo": 33,
    "acName": "KAKRABAN-SALGARAH(SC)",
    "seatType": null,
    "pcNo": 1,
    "pcName": "TRIPURA WEST",
    "quality": "unverified",
    "sources": [
      "TBD"
    ]
  },
  "geometry": {
    "type": "Polygon",
    "coordinates": [
      [
        [91.44892, 23.56939],
        [91.43931, 23.54806],
        [91.44972, 23.54619],
        [91.449, 23.52346],
        [91.44439, 23.5186],
        [91.45019, 23.50533],
        [91.44692, 23.49686],
        [91.46238, 23.48723],
        [91.45819, 23.48349],
        [91.46108, 23.47475],
        [91.45658, 23.46672],
        [91.46131, 23.4499],
        [91.45711, 23.43889],
        [91.46518, 23.42545],
        [91.46069, 23.42281],
        [91.46535, 23.41542],
        [91.46001, 23.41346],
        [91.44566, 23.41123],
        [91.43318, 23.43036],
        [91.42187, 23.43274],
        [91.41333, 23.43709],
        [91.4111, 23.42298],
        [91.38353, 23.42255],
        [91.37347, 23.44325],
        [91.37906, 23.46685],
        [91.38755, 23.47677],
        [91.37899, 23.48176],
        [91.38033, 23.49791],
        [91.37459, 23.50911],
        [91.37882, 23.51904],
        [91.3973, 23.52272],
        [91.39146, 23.5538],
        [91.39571, 23.56236],
        [91.42011, 23.5693],
        [91.42622, 23.56712],
        [91.43245, 23.5726],
        [91.439, 23.56846],
        [91.44892, 23.56939]
      ]
    ]
  }
}
