{
  "type": "Feature",
  "id": "TR-AC-44",
  "properties": {
    "stateName": "TRIPURA",
    "stateCode": "TR",
    "districtName": "DHALAI",
    "acNo": 44,
    "acName": "RAIMA VALLEY (ST)",
    "seatType": null,
    "pcNo": 2,
    "pcName": "TRIPURA EAST(ST)",
    "quality": "unverified",
    "sources": [
      "TBD"
    ]
  },
  "geometry": {
    "type": "Polygon",
    "coordinates": [
      [
        [91.77926, 23.82386],
        [91.79868, 23.82239],
        [91.80231, 23.81746],
        [91.8066, 23.82104],
        [91.83104, 23.8188],
        [91.83777, 23.8281],
        [91.86019, 23.83035],
        [91.86826, 23.8357],
        [91.87625, 23.8261],
        [91.88467, 23.82478],
        [91.89591, 23.83205],
        [91.92578, 23.83924],
        [91.95083, 23.83173],
        [91.95771, 23.83473],
        [91.95794, 23.84195],
        [91.96527, 23.83718],
        [91.96129, 23.83042],
        [91.96444, 23.80869],
        [91.98066, 23.74226],
        [91.97691, 23.73331],
        [91.96786, 23.73542],
        [91.95572, 23.73175],
        [91.95043, 23.71411],
        [91.95856, 23.6987],
        [91.94183, 23.69221],
        [91.9359, 23.68188],
        [91.93818, 23.66139],
        [91.9464, 23.64698],
        [91.94515, 23.62747],
        [91.95664, 23.60575],
        [91.9536, 23.5716],
        [91.96398, 23.53896],
        [91.95632, 23.52501],
        [91.96794, 23.5126],
        [91.97565, 23.48293],
        [91.9437, 23.4714],
        [91.94013, 23.46216],
        [91.943, 23.43969],
        [91.9394, 23.43642],
        [91.90895, 23.44006],
        [91.88951, 23.43427],
        [91.86364, 23.4083],
        [91.85889, 23.43698],
        [91.80164, 23.52499],
        [91.7979, 23.53848],
        [91.77466, 23.65603],
        [91.78013, 23.68879],
        [91.77573, 23.69146],
        [91.76982, 23.7193],
        [91.78398, 23.74284],
        [91.77682, 23.75034],
        [91.77095, 23.78143],
        [91.77518, 23.79136],
        [91.77227, 23.80007],
        [91.77937, 23.8075],
        [91.76356, 23.82372],
        [91.77929, 23.81993],
        [91.77926, 23.82386]
      ]
    ]
  }
}
