{
  "type": "Feature",
  "id": "TR-AC-52",
  "properties": {
    "stateName": "TRIPURA",
    "stateCode": "TR",
    "districtName": "NORTH TRIPURA",
    "acNo": 52,
    "acName": "CHANDIPUR",
    "seatType": null,
    "pcNo": 2,
    "pcName": "TRIPURA EAST(ST)",
    "quality": "unverified",
    "sources": [
      "TBD"
    ]
  },
  "geometry": {
    "type": "Polygon",
    "coordinates": [
      [
        [91.99326, 24.32874],
        [91.99245, 24.31238],
        [92.00917, 24.29887],
        [92.01256, 24.32221],
        [92.02027, 24.32383],
        [92.03778, 24.31638],
        [92.04023, 24.33008],
        [92.05258, 24.32944],
        [92.05086, 24.30345],
        [92.04236, 24.28364],
        [92.04838, 24.23968],
        [92.04465, 24.22321],
        [92.03665, 24.22163],
        [92.03627, 24.21654],
        [92.0437, 24.21341],
        [92.0438, 24.20689],
        [92.02993, 24.20577],
        [92.02911, 24.21038],
        [92.03266, 24.21171],
        [92.02557, 24.2223],
        [92.03069, 24.22758],
        [92.01153, 24.23062],
        [92.01529, 24.23696],
        [92.01854, 24.23206],
        [92.02599, 24.23795],
        [92.02524, 24.24121],
        [92.0167, 24.24072],
        [92.0221, 24.24976],
        [92.0116, 24.27301],
        [92.00836, 24.26937],
        [92.01163, 24.23658],
        [91.99639, 24.22071],
        [91.99427, 24.2074],
        [91.9832, 24.20773],
        [91.97675, 24.20062],
        [91.96037, 24.21036],
        [91.94159, 24.20236],
        [91.92819, 24.18653],
        [91.92341, 24.16622],
        [91.91512, 24.16593],
        [91.92883, 24.22868],
        [91.94095, 24.25837],
        [91.9401, 24.28393],
        [91.9244, 24.32231],
        [91.92488, 24.33974],
        [91.95926, 24.35861],
        [91.97842, 24.33424],
        [91.99326, 24.32874]
      ]
    ]
  }
}
