{
  "type": "Feature",
  "id": "UK-AC-22",
  "properties": {
    "stateName": "UTTARAKHAND",
    "stateCode": "UK",
    "districtName": "DEHRADUN",
    "acNo": 22,
    "acName": "MUSSOORIE",
    "seatType": null,
    "pcNo": null,
    "pcName": null,
    "quality": "unverified",
    "sources": [
      "TBD"
    ]
  },
  "geometry": {
    "type": "Polygon",
    "coordinates": [
      [
        [77.97385, 30.48246],
        [77.97458, 30.47794],
        [77.9752, 30.47667],
        [77.9759, 30.47524],
        [77.9764, 30.47505],
        [77.97682, 30.47512],
        [77.97759, 30.47516],
        [77.97848, 30.47516],
        [77.97925, 30.4752],
        [77.98053, 30.47551],
        [77.98137, 30.47431],
        [77.98242, 30.47219],
        [77.98295, 30.47092],
        [77.98319, 30.47011],
        [77.98385, 30.46895],
        [77.98481, 30.46791],
        [77.98651, 30.46675],
        [77.98758, 30.46621],
        [77.98793, 30.46629],
        [77.98848, 30.46667],
        [77.9891, 30.46694],
        [77.98955, 30.46733],
        [77.99013, 30.46783],
        [77.99064, 30.46779],
        [77.99148, 30.46764],
        [77.9918, 30.46725],
        [77.99264, 30.46683],
        [77.9938, 30.46633],
        [77.99566, 30.46574],
        [77.99623, 30.46582],
        [77.99681, 30.46605],
        [77.99746, 30.46629],
        [77.9983, 30.46709],
        [78.00006, 30.47986],
        [78.00073, 30.48003],
        [78.00206, 30.48011],
        [78.00292, 30.48017],
        [78.00408, 30.48021],
        [78.00494, 30.48043],
        [78.00581, 30.48088],
        [78.00746, 30.48276],
        [78.00797, 30.48327],
        [78.00819, 30.48335],
        [78.00944, 30.48301],
        [78.01013, 30.4828],
        [78.01182, 30.48286],
        [78.01398, 30.48386],
        [78.01422, 30.4839],
        [78.0148, 30.48345],
        [78.01565, 30.48305],
        [78.01739, 30.48238],
        [78.01916, 30.48157],
        [78.02029, 30.48092],
        [78.02148, 30.4802],
        [78.02232, 30.47943],
        [78.02279, 30.47882],
        [78.02306, 30.47841],
        [78.02198, 30.47669],
        [78.02148, 30.47546],
        [78.02406, 30.47537],
        [78.02576, 30.47523],
        [78.02755, 30.4744],
        [78.02856, 30.47421],
        [78.02981, 30.47368],
        [78.03082, 30.47307],
        [78.03114, 30.47259],
        [78.03118, 30.47179],
        [78.03122, 30.47092],
        [78.03155, 30.47015],
        [78.03178, 30.46819],
        [78.03205, 30.46692],
        [78.03264, 30.46633],
        [78.03528, 30.46572],
        [78.03626, 30.46555],
        [78.03637, 30.46561],
        [78.03625, 30.46642],
        [78.03556, 30.46851],
        [78.03544, 30.46905],
        [78.03568, 30.46947],
        [78.03798, 30.47122],
        [78.03949, 30.47235],
        [78.03966, 30.47257],
        [78.03966, 30.47355],
        [78.03901, 30.47786],
        [78.03881, 30.48072],
        [78.03885, 30.48172],
        [78.03903, 30.48219],
        [78.03937, 30.48248],
        [78.04011, 30.48256],
        [78.04238, 30.48244],
        [78.04409, 30.4824],
        [78.04484, 30.48236],
        [78.04542, 30.48205],
        [78.04578, 30.48179],
        [78.04625, 30.4813],
        [78.04659, 30.48112],
        [78.04812, 30.4813],
        [78.04996, 30.48142],
        [78.05133, 30.48141],
        [78.05195, 30.48132],
        [78.05301, 30.48082],
        [78.05417, 30.47981],
        [78.05502, 30.47906],
        [78.05548, 30.47839],
        [78.05639, 30.47781],
        [78.05761, 30.47722],
        [78.05889, 30.47661],
        [78.05989, 30.47608],
        [78.06095, 30.47588],
        [78.06311, 30.4759],
        [78.06465, 30.47598],
        [78.06537, 30.47584],
        [78.06629, 30.47627],
        [78.06708, 30.477],
        [78.06745, 30.4772],
        [78.06854, 30.47673],
        [78.0692, 30.47643],
        [78.06986, 30.47635],
        [78.07029, 30.47588],
        [78.07031, 30.47541],
        [78.07019, 30.474],
        [78.06973, 30.47165],
        [78.06967, 30.47042],
        [78.06974, 30.46999],
        [78.06999, 30.46997],
        [78.07076, 30.4704],
        [78.0715, 30.47078],
        [78.07186, 30.47082],
        [78.07231, 30.47066],
        [78.07265, 30.47003],
        [78.07298, 30.46946],
        [78.07342, 30.46895],
        [78.07452, 30.46791],
        [78.07539, 30.46742],
        [78.0763, 30.46733],
        [78.07755, 30.46753],
        [78.07894, 30.46775],
        [78.07957, 30.46783],
        [78.07993, 30.46781],
        [78.08062, 30.4667],
        [78.08096, 30.46656],
        [78.08135, 30.46676],
        [78.08195, 30.46718],
        [78.08195, 30.46745],
        [78.08151, 30.46777],
        [78.08104, 30.46803],
        [78.0806, 30.46836],
        [78.08045, 30.46897],
        [78.08025, 30.47213],
        [78.08016, 30.47312],
        [78.08017, 30.47341],
        [78.08104, 30.47346],
        [78.08221, 30.47336],
        [78.08276, 30.47348],
        [78.08374, 30.47392],
        [78.08457, 30.47429],
        [78.08499, 30.47429],
        [78.08673, 30.47358],
        [78.08849, 30.47293],
        [78.08917, 30.47281],
        [78.08961, 30.47281],
        [78.09016, 30.47318],
        [78.09064, 30.4739],
        [78.09099, 30.47417],
        [78.09135, 30.47423],
        [78.09191, 30.47419],
        [78.09262, 30.47413],
        [78.09296, 30.47413],
        [78.09369, 30.47398],
        [78.09425, 30.47409],
        [78.0945, 30.47575],
        [78.09492, 30.47698],
        [78.09536, 30.47782],
        [78.09647, 30.47795],
        [78.09835, 30.47807],
        [78.10055, 30.47821],
        [78.10296, 30.47845],
        [78.10399, 30.47856],
        [78.10436, 30.47854],
        [78.10456, 30.47838],
        [78.10464, 30.47744],
        [78.10464, 30.47655],
        [78.10516, 30.47548],
        [78.10565, 30.4743],
        [78.10597, 30.47311],
        [78.10615, 30.47186],
        [78.10637, 30.47123],
        [78.10663, 30.47093],
        [78.10823, 30.47109],
        [78.11085, 30.47149],
        [78.11327, 30.47163],
        [78.11456, 30.47171],
        [78.11515, 30.47171],
        [78.11581, 30.47147],
        [78.1173, 30.47073],
        [78.11938, 30.46972],
        [78.12039, 30.46929],
        [78.12172, 30.46899],
        [78.12245, 30.46881],
        [78.12295, 30.4686],
        [78.1242, 30.46783],
        [78.12477, 30.46731],
        [78.12525, 30.46613],
        [78.1255, 30.46558],
        [78.12592, 30.46504],
        [78.12705, 30.46419],
        [78.12848, 30.4631],
        [78.12963, 30.46203],
        [78.1304, 30.4613],
        [78.13106, 30.46049],
        [78.13177, 30.45964],
        [78.13231, 30.45932],
        [78.13297, 30.45926],
        [78.13384, 30.45926],
        [78.13467, 30.45932],
        [78.13562, 30.45897],
        [78.13661, 30.45847],
        [78.13776, 30.45768],
        [78.13911, 30.4567],
        [78.14024, 30.45603],
        [78.14073, 30.45594],
        [78.14114, 30.45602],
        [78.14182, 30.45651],
        [78.14312, 30.45716],
        [78.1443, 30.4574],
        [78.14536, 30.45754],
        [78.14667, 30.45756],
        [78.14786, 30.45758],
        [78.14954, 30.45764],
        [78.15031, 30.45758],
        [78.15071, 30.45738],
        [78.15228, 30.45651],
        [78.15466, 30.45529],
        [78.15583, 30.45465],
        [78.15903, 30.45293],
        [78.15968, 30.45238],
        [78.16002, 30.45192],
        [78.16021, 30.45141],
        [78.16027, 30.45048],
        [78.16027, 30.4491],
        [78.16051, 30.44886],
        [78.16125, 30.44811],
        [78.16271, 30.44663],
        [78.16366, 30.44591],
        [78.16448, 30.44558],
        [78.16575, 30.44534],
        [78.16697, 30.44524],
        [78.16781, 30.44491],
        [78.16844, 30.44465],
        [78.16898, 30.44471],
        [78.16923, 30.44493],
        [78.16989, 30.44562],
        [78.17089, 30.44641],
        [78.17211, 30.447],
        [78.17305, 30.44724],
        [78.17408, 30.44726],
        [78.17467, 30.44741],
        [78.17596, 30.44777],
        [78.17711, 30.4483],
        [78.17807, 30.4489],
        [78.17888, 30.44927],
        [78.17939, 30.44935],
        [78.18141, 30.44951],
        [78.18318, 30.44951],
        [78.18408, 30.44937],
        [78.18511, 30.44953],
        [78.18602, 30.44967],
        [78.18707, 30.44953],
        [78.18968, 30.44905],
        [78.19137, 30.44864],
        [78.19309, 30.44813],
        [78.19473, 30.44728],
        [78.1952, 30.44706],
        [78.19589, 30.4471],
        [78.19655, 30.44712],
        [78.19814, 30.44658],
        [78.19976, 30.44599],
        [78.20095, 30.44566],
        [78.20198, 30.44534],
        [78.2039, 30.44411],
        [78.20559, 30.44312],
        [78.20734, 30.44241],
        [78.20878, 30.44184],
        [78.21071, 30.44138],
        [78.21232, 30.44114],
        [78.21406, 30.44051],
        [78.21575, 30.43972],
        [78.21711, 30.43897],
        [78.21809, 30.4383],
        [78.21872, 30.43771],
        [78.21937, 30.43705],
        [78.21987, 30.43628],
        [78.22037, 30.43589],
        [78.2216, 30.43537],
        [78.22307, 30.43484],
        [78.22436, 30.43441],
        [78.2257, 30.43387],
        [78.2263, 30.43351],
        [78.22648, 30.43302],
        [78.22654, 30.43199],
        [78.22657, 30.43093],
        [78.22677, 30.43014],
        [78.22701, 30.42974],
        [78.22789, 30.42883],
        [78.22856, 30.42811],
        [78.2289, 30.42733],
        [78.22911, 30.42659],
        [78.22929, 30.42648],
        [78.22957, 30.42663],
        [78.22981, 30.42717],
        [78.22999, 30.42764],
        [78.23012, 30.4278],
        [78.23031, 30.42784],
        [78.23048, 30.42786],
        [78.23108, 30.42752],
        [78.23201, 30.42683],
        [78.2333, 30.42605],
        [78.23399, 30.42572],
        [78.23478, 30.42558],
        [78.23568, 30.4255],
        [78.23653, 30.42507],
        [78.23758, 30.42432],
        [78.23842, 30.42369],
        [78.23899, 30.42311],
        [78.23929, 30.4226],
        [78.23915, 30.41979],
        [78.23879, 30.41892],
        [78.2382, 30.41817],
        [78.23768, 30.41742],
        [78.23598, 30.41492],
        [78.23447, 30.41262],
        [78.23409, 30.41211],
        [78.23262, 30.4115],
        [78.23096, 30.41067],
        [78.22918, 30.40972],
        [78.2277, 30.40814],
        [78.22648, 30.40682],
        [78.22527, 30.40589],
        [78.22364, 30.40512],
        [78.22197, 30.40431],
        [78.22073, 30.40389],
        [78.2196, 30.40389],
        [78.21888, 30.40362],
        [78.21666, 30.40282],
        [78.21309, 30.40136],
        [78.21104, 30.40043],
        [78.20866, 30.40013],
        [78.20747, 30.39985],
        [78.20646, 30.39983],
        [78.20565, 30.40021],
        [78.20515, 30.40023],
        [78.2043, 30.39971],
        [78.20359, 30.39924],
        [78.20315, 30.39922],
        [78.20164, 30.39916],
        [78.20091, 30.39896],
        [78.19978, 30.39874],
        [78.19905, 30.39855],
        [78.19839, 30.39813],
        [78.19789, 30.3976],
        [78.19704, 30.39687],
        [78.19552, 30.39598],
        [78.19472, 30.39548],
        [78.19438, 30.39505],
        [78.19357, 30.39483],
        [78.19292, 30.39481],
        [78.19234, 30.39475],
        [78.19193, 30.39453],
        [78.19169, 30.39416],
        [78.19153, 30.39355],
        [78.19141, 30.39297],
        [78.19093, 30.39206],
        [78.19052, 30.39175],
        [78.18981, 30.39149],
        [78.18907, 30.39135],
        [78.18818, 30.39122],
        [78.18762, 30.39104],
        [78.18582, 30.3905],
        [78.18498, 30.3902],
        [78.18441, 30.39008],
        [78.18386, 30.38989],
        [78.18368, 30.38973],
        [78.1837, 30.38935],
        [78.18411, 30.38894],
        [78.18443, 30.38866],
        [78.18465, 30.38841],
        [78.18487, 30.38809],
        [78.18495, 30.38777],
        [78.18459, 30.38734],
        [78.18443, 30.38726],
        [78.18389, 30.3872],
        [78.18219, 30.3874],
        [78.18104, 30.38724],
        [78.18026, 30.38663],
        [78.17965, 30.38604],
        [78.17881, 30.38465],
        [78.17778, 30.38393],
        [78.17646, 30.38291],
        [78.17559, 30.38218],
        [78.17481, 30.38188],
        [78.17374, 30.3821],
        [78.17305, 30.38216],
        [78.17251, 30.38234],
        [78.17173, 30.38283],
        [78.17108, 30.38281],
        [78.17061, 30.38277],
        [78.17019, 30.38293],
        [78.16989, 30.38319],
        [78.16923, 30.38364],
        [78.16872, 30.38372],
        [78.16804, 30.38374],
        [78.16741, 30.3836],
        [78.16672, 30.38339],
        [78.16569, 30.38303],
        [78.16442, 30.38261],
        [78.16382, 30.38238],
        [78.16265, 30.38199],
        [78.16227, 30.3818],
        [78.16162, 30.3815],
        [78.16136, 30.38116],
        [78.16099, 30.38059],
        [78.16089, 30.38004],
        [78.16073, 30.37941],
        [78.16028, 30.37905],
        [78.15987, 30.37893],
        [78.15916, 30.37897],
        [78.15855, 30.37921],
        [78.15811, 30.37937],
        [78.15791, 30.37917],
        [78.15783, 30.3787],
        [78.15777, 30.37821],
        [78.15739, 30.37793],
        [78.1563, 30.37737],
        [78.15609, 30.37698],
        [78.15577, 30.37515],
        [78.15541, 30.37473],
        [78.1548, 30.3739],
        [78.15388, 30.37331],
        [78.15358, 30.37318],
        [78.15288, 30.37389],
        [78.15074, 30.37535],
        [78.1498, 30.3761],
        [78.14853, 30.37742],
        [78.14795, 30.37851],
        [78.1477, 30.37974],
        [78.14758, 30.38087],
        [78.14745, 30.38172],
        [78.14713, 30.38228],
        [78.1463, 30.38269],
        [78.14506, 30.38287],
        [78.14238, 30.38294],
        [78.13736, 30.38371],
        [78.13508, 30.38421],
        [78.13384, 30.38462],
        [78.13286, 30.38494],
        [78.13271, 30.38549],
        [78.13173, 30.38645],
        [78.12983, 30.38821],
        [78.12707, 30.3913],
        [78.12468, 30.39488],
        [78.12302, 30.39383],
        [78.12209, 30.39274],
        [78.12164, 30.39085],
        [78.12208, 30.38792],
        [78.12277, 30.38587],
        [78.12333, 30.38413],
        [78.12342, 30.38196],
        [78.12266, 30.38011],
        [78.12174, 30.37918],
        [78.12104, 30.37867],
        [78.12008, 30.37942],
        [78.11899, 30.38003],
        [78.11846, 30.38033],
        [78.117, 30.38122],
        [78.11618, 30.38187],
        [78.11581, 30.38233],
        [78.11551, 30.38312],
        [78.11477, 30.3845],
        [78.11345, 30.38591],
        [78.11211, 30.38686],
        [78.11121, 30.38748],
        [78.11057, 30.38762],
        [78.11008, 30.38762],
        [78.10963, 30.38749],
        [78.10836, 30.38693],
        [78.10796, 30.3865],
        [78.10778, 30.38555],
        [78.10706, 30.38354],
        [78.10636, 30.3829],
        [78.10575, 30.38243],
        [78.10512, 30.3819],
        [78.10478, 30.38115],
        [78.10449, 30.37986],
        [78.10395, 30.37998],
        [78.10371, 30.37991],
        [78.10336, 30.37955],
        [78.10254, 30.37701],
        [78.10225, 30.37428],
        [78.1025, 30.36989],
        [78.10197, 30.36963],
        [78.10143, 30.36935],
        [78.10081, 30.36904],
        [78.09976, 30.36794],
        [78.09865, 30.36689],
        [78.09772, 30.36519],
        [78.09712, 30.36412],
        [78.09633, 30.3626],
        [78.09437, 30.36015],
        [78.09244, 30.35846],
        [78.09229, 30.35833],
        [78.09132, 30.35795],
        [78.09035, 30.35786],
        [78.08896, 30.35782],
        [78.08638, 30.3581],
        [78.08488, 30.35844],
        [78.08287, 30.35901],
        [78.08192, 30.36067],
        [78.08085, 30.36205],
        [78.0789, 30.3629],
        [78.07563, 30.36434],
        [78.07265, 30.36632],
        [78.06924, 30.36798],
        [78.06714, 30.36899],
        [78.06695, 30.36908],
        [78.06681, 30.36912],
        [78.06509, 30.36946],
        [78.06332, 30.3701],
        [78.06085, 30.37059],
        [78.05885, 30.37086],
        [78.05891, 30.37184],
        [78.05894, 30.37231],
        [78.05913, 30.37428],
        [78.05951, 30.37529],
        [78.06027, 30.3775],
        [78.06056, 30.37828],
        [78.06058, 30.37855],
        [78.06038, 30.37881],
        [78.0585, 30.3797],
        [78.05629, 30.38029],
        [78.05421, 30.38053],
        [78.05371, 30.38045],
        [78.05331, 30.38074],
        [78.05303, 30.38085],
        [78.05278, 30.38087],
        [78.05243, 30.38083],
        [78.05161, 30.3807],
        [78.05052, 30.38016],
        [78.04915, 30.37904],
        [78.04737, 30.37749],
        [78.04712, 30.37742],
        [78.047, 30.37764],
        [78.04693, 30.378],
        [78.04685, 30.37839],
        [78.04667, 30.37785],
        [78.04639, 30.37731],
        [78.04614, 30.37692],
        [78.04622, 30.37659],
        [78.04633, 30.37629],
        [78.04673, 30.37469],
        [78.047, 30.37424],
        [78.04702, 30.37333],
        [78.04405, 30.37296],
        [78.03976, 30.37246],
        [78.03487, 30.37191],
        [78.03275, 30.3718],
        [78.03271, 30.36906],
        [78.03371, 30.36797],
        [78.0344, 30.36659],
        [78.03379, 30.36561],
        [78.03219, 30.36529],
        [78.03012, 30.36482],
        [78.02974, 30.36477],
        [78.02933, 30.36462],
        [78.02904, 30.36452],
        [78.02851, 30.36413],
        [78.02781, 30.3637],
        [78.02669, 30.36292],
        [78.02641, 30.36273],
        [78.025, 30.36195],
        [78.02425, 30.3609],
        [78.02383, 30.36012],
        [78.02254, 30.35907],
        [78.02068, 30.35736],
        [78.01994, 30.3576],
        [78.01889, 30.35795],
        [78.01811, 30.35896],
        [78.0159, 30.35903],
        [78.01421, 30.35656],
        [78.01245, 30.35512],
        [78.01029, 30.35418],
        [78.00989, 30.35305],
        [78.0098, 30.35156],
        [78.00929, 30.34969],
        [78.00833, 30.34842],
        [78.00749, 30.34778],
        [78.00594, 30.34699],
        [78.00493, 30.34468],
        [78.00331, 30.34234],
        [78.00382, 30.34043],
        [78.00386, 30.33916],
        [78.0021, 30.33873],
        [77.99958, 30.33918],
        [77.99754, 30.33836],
        [77.99729, 30.33682],
        [77.99822, 30.33569],
        [77.99529, 30.33498],
        [77.99266, 30.33427],
        [77.99137, 30.33296],
        [77.99189, 30.3308],
        [77.99122, 30.32861],
        [77.987, 30.32671],
        [77.98381, 30.3251],
        [77.9834, 30.32406],
        [77.98034, 30.32309],
        [77.97697, 30.32191],
        [77.97388, 30.3219],
        [77.97078, 30.32068],
        [77.96876, 30.32075],
        [77.96599, 30.31979],
        [77.96206, 30.31803],
        [77.95932, 30.31617],
        [77.95612, 30.31468],
        [77.95273, 30.3146],
        [77.95054, 30.31416],
        [77.94895, 30.31364],
        [77.94933, 30.3154],
        [77.95006, 30.31731],
        [77.95115, 30.31929],
        [77.95226, 30.32131],
        [77.9526, 30.32193],
        [77.95369, 30.3246],
        [77.95426, 30.32743],
        [77.95459, 30.33362],
        [77.95462, 30.33677],
        [77.95463, 30.33805],
        [77.95498, 30.3396],
        [77.95543, 30.3404],
        [77.95587, 30.34062],
        [77.95702, 30.34083],
        [77.95852, 30.34088],
        [77.95869, 30.34086],
        [77.96118, 30.34053],
        [77.96286, 30.3399],
        [77.96437, 30.33938],
        [77.97188, 30.33684],
        [77.97358, 30.33653],
        [77.97375, 30.33674],
        [77.97394, 30.33698],
        [77.97392, 30.33729],
        [77.97517, 30.33775],
        [77.97578, 30.33808],
        [77.97622, 30.33863],
        [77.97651, 30.3392],
        [77.9768, 30.33997],
        [77.97724, 30.34067],
        [77.97782, 30.34112],
        [77.97925, 30.34195],
        [77.98011, 30.34244],
        [77.98051, 30.34259],
        [77.98171, 30.34301],
        [77.98294, 30.34358],
        [77.98341, 30.34404],
        [77.98388, 30.34443],
        [77.98467, 30.34519],
        [77.98485, 30.34516],
        [77.98843, 30.34488],
        [77.99217, 30.3446],
        [77.99425, 30.3446],
        [77.99543, 30.34482],
        [77.9957, 30.34512],
        [77.99562, 30.34544],
        [77.99532, 30.34669],
        [77.9945, 30.34842],
        [77.99403, 30.35097],
        [77.99465, 30.35232],
        [77.99572, 30.35351],
        [77.99628, 30.35394],
        [77.99814, 30.35537],
        [77.99949, 30.35589],
        [78.00094, 30.35573],
        [78.00113, 30.35491],
        [78.00188, 30.35326],
        [78.00288, 30.35236],
        [78.00497, 30.35184],
        [78.00374, 30.35454],
        [78.00256, 30.35665],
        [78.00366, 30.35846],
        [78.00421, 30.36087],
        [78.00462, 30.36441],
        [78.00498, 30.36596],
        [78.00562, 30.36671],
        [78.0062, 30.36731],
        [78.00626, 30.36769],
        [78.00606, 30.37012],
        [78.00526, 30.37044],
        [78.00388, 30.37164],
        [78.00332, 30.37231],
        [78.00332, 30.37303],
        [78.00358, 30.37342],
        [78.00446, 30.37438],
        [78.00624, 30.37571],
        [78.00749, 30.37674],
        [78.00768, 30.37682],
        [78.00821, 30.37703],
        [78.01065, 30.37746],
        [78.01191, 30.37768],
        [78.01281, 30.37812],
        [78.01324, 30.37886],
        [78.01331, 30.37899],
        [78.01359, 30.37952],
        [78.01422, 30.37959],
        [78.01495, 30.37944],
        [78.01523, 30.37922],
        [78.01588, 30.37855],
        [78.0167, 30.3781],
        [78.0177, 30.3778],
        [78.0183, 30.37775],
        [78.01849, 30.37773],
        [78.01924, 30.37787],
        [78.01943, 30.378],
        [78.01978, 30.37824],
        [78.02031, 30.37891],
        [78.02072, 30.38083],
        [78.02133, 30.38256],
        [78.02176, 30.38359],
        [78.02217, 30.38433],
        [78.02245, 30.38484],
        [78.02323, 30.38639],
        [78.02356, 30.38742],
        [78.02371, 30.3889],
        [78.02332, 30.38986],
        [78.02264, 30.39114],
        [78.02559, 30.39408],
        [78.02814, 30.39556],
        [78.02746, 30.39848],
        [78.02606, 30.40126],
        [78.02468, 30.40376],
        [78.02119, 30.40567],
        [78.01768, 30.40922],
        [78.01407, 30.41026],
        [78.01174, 30.4119],
        [78.01072, 30.41328],
        [78.01088, 30.41836],
        [78.00711, 30.42418],
        [78.00573, 30.42668],
        [78.00524, 30.43174],
        [78.00514, 30.43484],
        [78.00505, 30.43737],
        [78.00525, 30.44055],
        [78.00532, 30.4417],
        [78.00528, 30.44281],
        [78.0045, 30.44438],
        [78.00242, 30.44654],
        [77.99872, 30.44772],
        [77.99613, 30.44861],
        [77.99192, 30.44866],
        [77.99004, 30.4502],
        [77.98776, 30.45268],
        [77.98485, 30.458],
        [77.98183, 30.46078],
        [77.98115, 30.46175],
        [77.97856, 30.46545],
        [77.97687, 30.46699],
        [77.97518, 30.46806],
        [77.97312, 30.46959],
        [77.97249, 30.47211],
        [77.97258, 30.47481],
        [77.97198, 30.4791],
        [77.97385, 30.48246]
      ]
    ]
  }
}
