{
  "type": "Feature",
  "id": "UK-AC-31",
  "properties": {
    "stateName": "UTTARAKHAND",
    "stateCode": "UK",
    "districtName": "HARDWAR",
    "acNo": 31,
    "acName": "ROORKEE",
    "seatType": null,
    "pcNo": null,
    "pcName": null,
    "quality": "unverified",
    "sources": [
      "TBD"
    ]
  },
  "geometry": {
    "type": "Polygon",
    "coordinates": [
      [
        [77.91799, 29.87164],
        [77.91723, 29.87134],
        [77.91644, 29.87086],
        [77.91725, 29.86947],
        [77.91871, 29.86816],
        [77.91886, 29.86374],
        [77.91927, 29.85896],
        [77.91872, 29.85874],
        [77.91445, 29.85715],
        [77.9105, 29.85527],
        [77.91003, 29.85238],
        [77.90879, 29.85012],
        [77.90645, 29.84796],
        [77.90401, 29.84663],
        [77.90175, 29.84603],
        [77.90169, 29.8417],
        [77.89866, 29.83964],
        [77.89427, 29.83958],
        [77.89442, 29.83951],
        [77.89302, 29.8363],
        [77.89231, 29.83496],
        [77.89212, 29.83474],
        [77.89191, 29.83463],
        [77.89175, 29.83464],
        [77.89125, 29.83479],
        [77.8904, 29.83547],
        [77.88932, 29.83401],
        [77.88897, 29.83367],
        [77.88843, 29.83302],
        [77.88823, 29.83285],
        [77.88761, 29.83187],
        [77.88677, 29.82924],
        [77.88747, 29.82949],
        [77.88877, 29.82974],
        [77.88996, 29.82973],
        [77.89073, 29.82945],
        [77.8914, 29.82868],
        [77.89178, 29.82771],
        [77.89192, 29.82649],
        [77.89206, 29.82581],
        [77.89227, 29.82536],
        [77.89236, 29.82477],
        [77.89104, 29.82425],
        [77.89036, 29.82393],
        [77.89025, 29.82371],
        [77.89032, 29.82339],
        [77.89129, 29.82243],
        [77.89138, 29.82215],
        [77.89141, 29.82179],
        [77.89117, 29.82151],
        [77.891, 29.82141],
        [77.88951, 29.82075],
        [77.8888, 29.82032],
        [77.8884, 29.81998],
        [77.88913, 29.81919],
        [77.89149, 29.81705],
        [77.89196, 29.81656],
        [77.89235, 29.8168],
        [77.89293, 29.81678],
        [77.89347, 29.81649],
        [77.89596, 29.81413],
        [77.89532, 29.8085],
        [77.89439, 29.80807],
        [77.89345, 29.80763],
        [77.89241, 29.8076],
        [77.89158, 29.80683],
        [77.89142, 29.80575],
        [77.89027, 29.80517],
        [77.88799, 29.80591],
        [77.88613, 29.80777],
        [77.88543, 29.80858],
        [77.88445, 29.80939],
        [77.8834, 29.80978],
        [77.8814, 29.80973],
        [77.87998, 29.80969],
        [77.87962, 29.80603],
        [77.87772, 29.80615],
        [77.87667, 29.80612],
        [77.87521, 29.80716],
        [77.87375, 29.8082],
        [77.87208, 29.80978],
        [77.87105, 29.81109],
        [77.8697, 29.81248],
        [77.86843, 29.81453],
        [77.8674, 29.81621],
        [77.86762, 29.81926],
        [77.86797, 29.82182],
        [77.86778, 29.82471],
        [77.86922, 29.82524],
        [77.8699, 29.82566],
        [77.86999, 29.8261],
        [77.87001, 29.82623],
        [77.86973, 29.82704],
        [77.86868, 29.82856],
        [77.8674, 29.82943],
        [77.86572, 29.83048],
        [77.86535, 29.83106],
        [77.86524, 29.8317],
        [77.86535, 29.83232],
        [77.86707, 29.83497],
        [77.86828, 29.83693],
        [77.86875, 29.83799],
        [77.86895, 29.84074],
        [77.86882, 29.84304],
        [77.86817, 29.84492],
        [77.87041, 29.8448],
        [77.87358, 29.84445],
        [77.87596, 29.84394],
        [77.87716, 29.84362],
        [77.87697, 29.8457],
        [77.87697, 29.8465],
        [77.87726, 29.84717],
        [77.87757, 29.84759],
        [77.87762, 29.84773],
        [77.87766, 29.84793],
        [77.87758, 29.84824],
        [77.87715, 29.84864],
        [77.87695, 29.84907],
        [77.87681, 29.84933],
        [77.87679, 29.84963],
        [77.87677, 29.84989],
        [77.87687, 29.85008],
        [77.87715, 29.8502],
        [77.87748, 29.85031],
        [77.87786, 29.85062],
        [77.87802, 29.8508],
        [77.8783, 29.85157],
        [77.87833, 29.85197],
        [77.87825, 29.85228],
        [77.87822, 29.85263],
        [77.87847, 29.85315],
        [77.87958, 29.85438],
        [77.87991, 29.85464],
        [77.88131, 29.85583],
        [77.8817, 29.85599],
        [77.88184, 29.85647],
        [77.88146, 29.85692],
        [77.88055, 29.85757],
        [77.87958, 29.85838],
        [77.87924, 29.85907],
        [77.87931, 29.85971],
        [77.87941, 29.86075],
        [77.87952, 29.86191],
        [77.87905, 29.86201],
        [77.87733, 29.86258],
        [77.87546, 29.86294],
        [77.87365, 29.86447],
        [77.87238, 29.86567],
        [77.87229, 29.86844],
        [77.87358, 29.87201],
        [77.87134, 29.87245],
        [77.87179, 29.87362],
        [77.87246, 29.87617],
        [77.87248, 29.87704],
        [77.87201, 29.87768],
        [77.87121, 29.87829],
        [77.87277, 29.88015],
        [77.87553, 29.88222],
        [77.87778, 29.88351],
        [77.88154, 29.8873],
        [77.88442, 29.89106],
        [77.88572, 29.89433],
        [77.88708, 29.89605],
        [77.88833, 29.89815],
        [77.88757, 29.90148],
        [77.8875, 29.90301],
        [77.8878, 29.90469],
        [77.88838, 29.90586],
        [77.88899, 29.90658],
        [77.89005, 29.90747],
        [77.89111, 29.90828],
        [77.89295, 29.90808],
        [77.89514, 29.90784],
        [77.89564, 29.90779],
        [77.89636, 29.90771],
        [77.89658, 29.90764],
        [77.89734, 29.90739],
        [77.89781, 29.90712],
        [77.89824, 29.90672],
        [77.8988, 29.90591],
        [77.89921, 29.90507],
        [77.89931, 29.90423],
        [77.8994, 29.90373],
        [77.89943, 29.90329],
        [77.89939, 29.90307],
        [77.89903, 29.90249],
        [77.89828, 29.89372],
        [77.89736, 29.89198],
        [77.89468, 29.8904],
        [77.89298, 29.88851],
        [77.89194, 29.88802],
        [77.89252, 29.88634],
        [77.89441, 29.8827],
        [77.89641, 29.88106],
        [77.89873, 29.88019],
        [77.90151, 29.88008],
        [77.90344, 29.88103],
        [77.90528, 29.88215],
        [77.9064, 29.88276],
        [77.90676, 29.88367],
        [77.90662, 29.88441],
        [77.90565, 29.88642],
        [77.90467, 29.88747],
        [77.90338, 29.88832],
        [77.90641, 29.88879],
        [77.90761, 29.88904],
        [77.90812, 29.88937],
        [77.90855, 29.89012],
        [77.90897, 29.89121],
        [77.90765, 29.8935],
        [77.90614, 29.89638],
        [77.90853, 29.89891],
        [77.90976, 29.90363],
        [77.91066, 29.90283],
        [77.91165, 29.90251],
        [77.91294, 29.90233],
        [77.91438, 29.90203],
        [77.91511, 29.90162],
        [77.91611, 29.9006],
        [77.9175, 29.89856],
        [77.91839, 29.89779],
        [77.91892, 29.89763],
        [77.91969, 29.89756],
        [77.92023, 29.89718],
        [77.92026, 29.89672],
        [77.92006, 29.89594],
        [77.91963, 29.89478],
        [77.9191, 29.89317],
        [77.91886, 29.89202],
        [77.91981, 29.89049],
        [77.91994, 29.89027],
        [77.92033, 29.88938],
        [77.92035, 29.88812],
        [77.92034, 29.88733],
        [77.92037, 29.88698],
        [77.92045, 29.88669],
        [77.92078, 29.88654],
        [77.92123, 29.88656],
        [77.92192, 29.88672],
        [77.92192, 29.87956],
        [77.9198, 29.87766],
        [77.91857, 29.87652],
        [77.91735, 29.87513],
        [77.91672, 29.87385],
        [77.91723, 29.87337],
        [77.91784, 29.87221],
        [77.91799, 29.87164]
      ]
    ]
  }
}
