{
  "type": "Feature",
  "id": "UK-AC-35",
  "properties": {
    "stateName": "UTTARAKHAND",
    "stateCode": "UK",
    "districtName": "HARDWAR",
    "acNo": 35,
    "acName": "HARIDWAR RURAL",
    "seatType": null,
    "pcNo": null,
    "pcName": null,
    "quality": "unverified",
    "sources": [
      "TBD"
    ]
  },
  "geometry": {
    "type": "Polygon",
    "coordinates": [
      [
        [78.20261, 29.96565],
        [78.2036, 29.96485],
        [78.20518, 29.96348],
        [78.20652, 29.96253],
        [78.20821, 29.96158],
        [78.20971, 29.9607],
        [78.21405, 29.95743],
        [78.21551, 29.9561],
        [78.21682, 29.95522],
        [78.21846, 29.95351],
        [78.21965, 29.95233],
        [78.22042, 29.95157],
        [78.22254, 29.94997],
        [78.22395, 29.94913],
        [78.22703, 29.94811],
        [78.22891, 29.9475],
        [78.22922, 29.94689],
        [78.22922, 29.94624],
        [78.22945, 29.94533],
        [78.23037, 29.94438],
        [78.23094, 29.94347],
        [78.23194, 29.94252],
        [78.23348, 29.94179],
        [78.23521, 29.94042],
        [78.23674, 29.93985],
        [78.23805, 29.93959],
        [78.23943, 29.93864],
        [78.2407, 29.93769],
        [78.24219, 29.93673],
        [78.24384, 29.93597],
        [78.24473, 29.93483],
        [78.24603, 29.93361],
        [78.24692, 29.93232],
        [78.24776, 29.93164],
        [78.2487, 29.93104],
        [78.24886, 29.93042],
        [78.24898, 29.93023],
        [78.24909, 29.93004],
        [78.24925, 29.92979],
        [78.24959, 29.92953],
        [78.2498, 29.92938],
        [78.25002, 29.92926],
        [78.25025, 29.92914],
        [78.25049, 29.92904],
        [78.25073, 29.92895],
        [78.25098, 29.92888],
        [78.25123, 29.92882],
        [78.25155, 29.92865],
        [78.25189, 29.9285],
        [78.25224, 29.92838],
        [78.2526, 29.92827],
        [78.25297, 29.92824],
        [78.25336, 29.92824],
        [78.25374, 29.9282],
        [78.25412, 29.92814],
        [78.2545, 29.92805],
        [78.25488, 29.92793],
        [78.25527, 29.92788],
        [78.25587, 29.92792],
        [78.25625, 29.92803],
        [78.25649, 29.92805],
        [78.25672, 29.92806],
        [78.25695, 29.92806],
        [78.25719, 29.92805],
        [78.25742, 29.92802],
        [78.25765, 29.92798],
        [78.25788, 29.92794],
        [78.2581, 29.92788],
        [78.25832, 29.92781],
        [78.25847, 29.92763],
        [78.25864, 29.92749],
        [78.25883, 29.92736],
        [78.25903, 29.92727],
        [78.25925, 29.9272],
        [78.25947, 29.92716],
        [78.25969, 29.92715],
        [78.25992, 29.92716],
        [78.26013, 29.92721],
        [78.2604, 29.9273],
        [78.26066, 29.92736],
        [78.26094, 29.9274],
        [78.26121, 29.92741],
        [78.26148, 29.9274],
        [78.26176, 29.92736],
        [78.26202, 29.9273],
        [78.26229, 29.92721],
        [78.26254, 29.9271],
        [78.26268, 29.92691],
        [78.26286, 29.92676],
        [78.26307, 29.92667],
        [78.26331, 29.92662],
        [78.26353, 29.92663],
        [78.26375, 29.92663],
        [78.26396, 29.92661],
        [78.26417, 29.92656],
        [78.26438, 29.92649],
        [78.2646, 29.92636],
        [78.26484, 29.92624],
        [78.26509, 29.92615],
        [78.26534, 29.92608],
        [78.2656, 29.92604],
        [78.26587, 29.92601],
        [78.26613, 29.92601],
        [78.26639, 29.92604],
        [78.26684, 29.92616],
        [78.26723, 29.92621],
        [78.26763, 29.92614],
        [78.26798, 29.92594],
        [78.26812, 29.9258],
        [78.26824, 29.92564],
        [78.26847, 29.92546],
        [78.26874, 29.92534],
        [78.26918, 29.92532],
        [78.26946, 29.9254],
        [78.26967, 29.92546],
        [78.26988, 29.92551],
        [78.2701, 29.92554],
        [78.27032, 29.92556],
        [78.27053, 29.92557],
        [78.27075, 29.92556],
        [78.27097, 29.92554],
        [78.27119, 29.9255],
        [78.2714, 29.92546],
        [78.2716, 29.92529],
        [78.27178, 29.92512],
        [78.27194, 29.92493],
        [78.27209, 29.92473],
        [78.27222, 29.92449],
        [78.27238, 29.92425],
        [78.2726, 29.92405],
        [78.27286, 29.9239],
        [78.27314, 29.92382],
        [78.2734, 29.92361],
        [78.27363, 29.92336],
        [78.27383, 29.92309],
        [78.27399, 29.9228],
        [78.27409, 29.92254],
        [78.27415, 29.92233],
        [78.27419, 29.92211],
        [78.27423, 29.9219],
        [78.27425, 29.92168],
        [78.27436, 29.92146],
        [78.27448, 29.92124],
        [78.27462, 29.92103],
        [78.27476, 29.92082],
        [78.27481, 29.92039],
        [78.27474, 29.92007],
        [78.27465, 29.91975],
        [78.27452, 29.91944],
        [78.27435, 29.91915],
        [78.27416, 29.91888],
        [78.27394, 29.91863],
        [78.2737, 29.91841],
        [78.27343, 29.91821],
        [78.27315, 29.91809],
        [78.27288, 29.91794],
        [78.27262, 29.91777],
        [78.27238, 29.91758],
        [78.27215, 29.91737],
        [78.27194, 29.91715],
        [78.27175, 29.9169],
        [78.27158, 29.91665],
        [78.27143, 29.91638],
        [78.27109, 29.91571],
        [78.27074, 29.91505],
        [78.27039, 29.91439],
        [78.27002, 29.91373],
        [78.26965, 29.91308],
        [78.26928, 29.91243],
        [78.26889, 29.91178],
        [78.2685, 29.91114],
        [78.2681, 29.91051],
        [78.26789, 29.91026],
        [78.26774, 29.90997],
        [78.26766, 29.90966],
        [78.26764, 29.90934],
        [78.26768, 29.90906],
        [78.26769, 29.90882],
        [78.26767, 29.90859],
        [78.26761, 29.90836],
        [78.26751, 29.90814],
        [78.26731, 29.90783],
        [78.26712, 29.90752],
        [78.26693, 29.9072],
        [78.26675, 29.90688],
        [78.26658, 29.90655],
        [78.26641, 29.90622],
        [78.26625, 29.90588],
        [78.2661, 29.90555],
        [78.26596, 29.90521],
        [78.26583, 29.90498],
        [78.26576, 29.90474],
        [78.26574, 29.90448],
        [78.26577, 29.90422],
        [78.26621, 29.90346],
        [78.26661, 29.90283],
        [78.26701, 29.9022],
        [78.26742, 29.90158],
        [78.26784, 29.90096],
        [78.26827, 29.90034],
        [78.2687, 29.89973],
        [78.26914, 29.89913],
        [78.26958, 29.89852],
        [78.26982, 29.89825],
        [78.2701, 29.89802],
        [78.27049, 29.89796],
        [78.27082, 29.89795],
        [78.27114, 29.89796],
        [78.27146, 29.89796],
        [78.27178, 29.89798],
        [78.2721, 29.898],
        [78.27242, 29.89802],
        [78.27274, 29.89805],
        [78.27307, 29.89808],
        [78.2733, 29.89812],
        [78.27353, 29.89814],
        [78.27377, 29.89813],
        [78.274, 29.89811],
        [78.27423, 29.89807],
        [78.27446, 29.89801],
        [78.27468, 29.89793],
        [78.27489, 29.89783],
        [78.2751, 29.89771],
        [78.27539, 29.89745],
        [78.27567, 29.89717],
        [78.27594, 29.89689],
        [78.27621, 29.8966],
        [78.27646, 29.89629],
        [78.2767, 29.89598],
        [78.27693, 29.89566],
        [78.27715, 29.89533],
        [78.27736, 29.895],
        [78.27759, 29.89452],
        [78.27781, 29.89403],
        [78.27803, 29.89354],
        [78.27825, 29.89305],
        [78.27846, 29.89256],
        [78.27866, 29.89207],
        [78.27886, 29.89157],
        [78.27905, 29.89107],
        [78.27924, 29.89057],
        [78.27939, 29.89022],
        [78.27954, 29.88987],
        [78.27971, 29.88953],
        [78.27989, 29.8892],
        [78.28007, 29.88887],
        [78.28027, 29.88854],
        [78.28047, 29.88822],
        [78.28068, 29.88791],
        [78.28091, 29.8876],
        [78.28137, 29.88711],
        [78.28185, 29.88663],
        [78.28234, 29.88616],
        [78.28284, 29.88571],
        [78.28336, 29.88527],
        [78.28389, 29.88485],
        [78.28444, 29.88445],
        [78.285, 29.88406],
        [78.28556, 29.88369],
        [78.286, 29.88341],
        [78.28644, 29.88314],
        [78.2869, 29.88289],
        [78.28736, 29.88266],
        [78.28783, 29.88244],
        [78.28831, 29.88224],
        [78.2888, 29.88206],
        [78.28929, 29.8819],
        [78.28979, 29.88176],
        [78.2902, 29.88168],
        [78.29058, 29.88154],
        [78.29077, 29.88145],
        [78.29094, 29.88134],
        [78.29111, 29.88122],
        [78.29127, 29.88109],
        [78.29141, 29.88094],
        [78.29159, 29.88078],
        [78.29176, 29.88062],
        [78.29193, 29.88046],
        [78.29211, 29.8803],
        [78.29228, 29.88014],
        [78.29246, 29.87999],
        [78.29264, 29.87984],
        [78.29282, 29.87969],
        [78.293, 29.87954],
        [78.29324, 29.87927],
        [78.29349, 29.87901],
        [78.29375, 29.87877],
        [78.29403, 29.87853],
        [78.29431, 29.87831],
        [78.2946, 29.8781],
        [78.2949, 29.8779],
        [78.2952, 29.87772],
        [78.29552, 29.87755],
        [78.29591, 29.87716],
        [78.2963, 29.87677],
        [78.29669, 29.87638],
        [78.29707, 29.87599],
        [78.29746, 29.87559],
        [78.29784, 29.87519],
        [78.29822, 29.87479],
        [78.29859, 29.87439],
        [78.29896, 29.87399],
        [78.29937, 29.87345],
        [78.2998, 29.87293],
        [78.30025, 29.87244],
        [78.30072, 29.87196],
        [78.30122, 29.8715],
        [78.30173, 29.87106],
        [78.30225, 29.87065],
        [78.3028, 29.87026],
        [78.30336, 29.86989],
        [78.30382, 29.86948],
        [78.30429, 29.86908],
        [78.30477, 29.86869],
        [78.30525, 29.86831],
        [78.30575, 29.86794],
        [78.30625, 29.86759],
        [78.30676, 29.86724],
        [78.30728, 29.86691],
        [78.3078, 29.86659],
        [78.308, 29.86645],
        [78.3082, 29.86631],
        [78.30841, 29.86618],
        [78.30862, 29.86606],
        [78.30883, 29.86594],
        [78.30905, 29.86584],
        [78.30927, 29.86573],
        [78.3095, 29.86564],
        [78.30972, 29.86555],
        [78.31, 29.86543],
        [78.31028, 29.86532],
        [78.31055, 29.8652],
        [78.31083, 29.86509],
        [78.31111, 29.86498],
        [78.31139, 29.86487],
        [78.31167, 29.86476],
        [78.31196, 29.86466],
        [78.31224, 29.86456],
        [78.31251, 29.86439],
        [78.31278, 29.86421],
        [78.31304, 29.86402],
        [78.3133, 29.86382],
        [78.31355, 29.86361],
        [78.31379, 29.8634],
        [78.31402, 29.86317],
        [78.31424, 29.86294],
        [78.31446, 29.8627],
        [78.31486, 29.86237],
        [78.31522, 29.862],
        [78.31554, 29.8616],
        [78.31582, 29.86117],
        [78.31606, 29.86071],
        [78.31624, 29.86023],
        [78.31638, 29.85973],
        [78.31646, 29.85922],
        [78.31649, 29.85871],
        [78.31656, 29.85821],
        [78.31662, 29.8577],
        [78.31669, 29.8572],
        [78.31676, 29.8567],
        [78.31684, 29.85619],
        [78.31692, 29.85569],
        [78.31699, 29.85519],
        [78.31708, 29.85469],
        [78.31716, 29.85419],
        [78.31742, 29.84839],
        [78.31764, 29.84646],
        [78.31783, 29.84576],
        [78.31827, 29.84291],
        [78.31868, 29.83987],
        [78.31905, 29.83539],
        [78.31919, 29.83406],
        [78.31934, 29.83339],
        [78.31982, 29.83236],
        [78.3206, 29.83085],
        [78.32115, 29.82893],
        [78.32178, 29.82707],
        [78.32249, 29.82415],
        [78.32278, 29.82293],
        [78.32443, 29.81935],
        [78.32455, 29.81903],
        [78.32463, 29.8187],
        [78.32465, 29.81837],
        [78.32461, 29.81803],
        [78.32455, 29.81764],
        [78.32455, 29.81741],
        [78.32458, 29.81718],
        [78.32464, 29.81696],
        [78.32473, 29.81675],
        [78.32484, 29.81655],
        [78.32498, 29.81636],
        [78.32514, 29.8162],
        [78.32531, 29.81605],
        [78.32557, 29.81587],
        [78.32581, 29.81567],
        [78.32603, 29.81545],
        [78.32623, 29.81522],
        [78.32642, 29.81497],
        [78.32658, 29.8147],
        [78.32672, 29.81442],
        [78.32684, 29.81414],
        [78.32694, 29.81384],
        [78.327, 29.81352],
        [78.32705, 29.8132],
        [78.32709, 29.81288],
        [78.32714, 29.81256],
        [78.32718, 29.81224],
        [78.32722, 29.81191],
        [78.32725, 29.81159],
        [78.32728, 29.81127],
        [78.32731, 29.81095],
        [78.32734, 29.81053],
        [78.32738, 29.81011],
        [78.32742, 29.80969],
        [78.32748, 29.80927],
        [78.32754, 29.80886],
        [78.32762, 29.80844],
        [78.3277, 29.80803],
        [78.3278, 29.80762],
        [78.3279, 29.80721],
        [78.32801, 29.80692],
        [78.32811, 29.80663],
        [78.32822, 29.80634],
        [78.32832, 29.80605],
        [78.32842, 29.80575],
        [78.32853, 29.80546],
        [78.32863, 29.80517],
        [78.32873, 29.80488],
        [78.32883, 29.80458],
        [78.32891, 29.80425],
        [78.32901, 29.80391],
        [78.32912, 29.80358],
        [78.32924, 29.80326],
        [78.32937, 29.80294],
        [78.32952, 29.80262],
        [78.32967, 29.80231],
        [78.32984, 29.802],
        [78.33001, 29.8017],
        [78.33015, 29.80155],
        [78.33029, 29.80138],
        [78.33041, 29.80121],
        [78.33053, 29.80103],
        [78.33063, 29.80085],
        [78.33073, 29.80067],
        [78.33082, 29.80047],
        [78.3309, 29.80028],
        [78.33097, 29.80008],
        [78.33097, 29.79988],
        [78.33098, 29.79969],
        [78.331, 29.79949],
        [78.33104, 29.7993],
        [78.3311, 29.79911],
        [78.33116, 29.79893],
        [78.33125, 29.79875],
        [78.33134, 29.79858],
        [78.33145, 29.79842],
        [78.33385, 29.7969],
        [78.33811, 29.79453],
        [78.33948, 29.7935],
        [78.34133, 29.79253],
        [78.3435, 29.79149],
        [78.34239, 29.78999],
        [78.339, 29.7875],
        [78.33697, 29.78723],
        [78.33467, 29.78598],
        [78.33283, 29.78548],
        [78.33236, 29.78548],
        [78.32912, 29.78545],
        [78.32715, 29.78507],
        [78.32278, 29.78336],
        [78.32093, 29.78302],
        [78.31936, 29.78237],
        [78.31795, 29.78072],
        [78.31757, 29.78025],
        [78.31693, 29.77939],
        [78.31601, 29.77805],
        [78.31535, 29.77796],
        [78.31386, 29.77746],
        [78.31357, 29.77692],
        [78.31329, 29.77576],
        [78.31443, 29.77447],
        [78.31417, 29.774],
        [78.31348, 29.77345],
        [78.31173, 29.77291],
        [78.31074, 29.77181],
        [78.3093, 29.77151],
        [78.30905, 29.77154],
        [78.30766, 29.77167],
        [78.30619, 29.77214],
        [78.30498, 29.77123],
        [78.30468, 29.77065],
        [78.30324, 29.76745],
        [78.30253, 29.76691],
        [78.30184, 29.76547],
        [78.30095, 29.76418],
        [78.29949, 29.76283],
        [78.29928, 29.76173],
        [78.29853, 29.76033],
        [78.2974, 29.75952],
        [78.29621, 29.75891],
        [78.29489, 29.75841],
        [78.29411, 29.75845],
        [78.29364, 29.75861],
        [78.29184, 29.76005],
        [78.29086, 29.76046],
        [78.2896, 29.76032],
        [78.2887, 29.75999],
        [78.28835, 29.75956],
        [78.28789, 29.75862],
        [78.28772, 29.7569],
        [78.28731, 29.7542],
        [78.28708, 29.7539],
        [78.28678, 29.75371],
        [78.28651, 29.75371],
        [78.28587, 29.75393],
        [78.28543, 29.75434],
        [78.28482, 29.75444],
        [78.28414, 29.75498],
        [78.28369, 29.75515],
        [78.28317, 29.75517],
        [78.28275, 29.75498],
        [78.2824, 29.75463],
        [78.28208, 29.75391],
        [78.28187, 29.75393],
        [78.28142, 29.75395],
        [78.28091, 29.75367],
        [78.28039, 29.7532],
        [78.27998, 29.75251],
        [78.27943, 29.75173],
        [78.27904, 29.75178],
        [78.27831, 29.75181],
        [78.27724, 29.752],
        [78.27614, 29.75193],
        [78.27559, 29.75162],
        [78.27536, 29.7513],
        [78.27507, 29.75056],
        [78.27446, 29.7498],
        [78.2741, 29.74969],
        [78.27371, 29.74952],
        [78.27252, 29.74886],
        [78.27142, 29.74808],
        [78.27089, 29.74764],
        [78.27078, 29.74719],
        [78.27085, 29.74688],
        [78.27103, 29.74648],
        [78.2708, 29.74548],
        [78.27051, 29.74532],
        [78.27027, 29.74518],
        [78.26875, 29.7447],
        [78.26846, 29.74304],
        [78.2683, 29.74287],
        [78.26706, 29.7424],
        [78.26566, 29.74163],
        [78.26506, 29.74102],
        [78.26412, 29.74083],
        [78.26339, 29.7405],
        [78.26276, 29.7398],
        [78.26288, 29.73907],
        [78.26422, 29.73744],
        [78.26441, 29.73674],
        [78.26432, 29.73632],
        [78.26379, 29.73595],
        [78.26305, 29.7357],
        [78.26214, 29.73551],
        [78.26181, 29.73514],
        [78.26176, 29.73473],
        [78.26184, 29.73426],
        [78.2615, 29.73404],
        [78.26106, 29.734],
        [78.26052, 29.73414],
        [78.25997, 29.73438],
        [78.25942, 29.73468],
        [78.25888, 29.73467],
        [78.25822, 29.73406],
        [78.25801, 29.73399],
        [78.25673, 29.73394],
        [78.25604, 29.73404],
        [78.25584, 29.7341],
        [78.25554, 29.73417],
        [78.25525, 29.7342],
        [78.25494, 29.73406],
        [78.25473, 29.7339],
        [78.25446, 29.7336],
        [78.25421, 29.7333],
        [78.25366, 29.73241],
        [78.25331, 29.73187],
        [78.25306, 29.73156],
        [78.25241, 29.73095],
        [78.2521, 29.73077],
        [78.25191, 29.73074],
        [78.25129, 29.73071],
        [78.25098, 29.73074],
        [78.25054, 29.73086],
        [78.24998, 29.73097],
        [78.24951, 29.73101],
        [78.24918, 29.73089],
        [78.24894, 29.73082],
        [78.24828, 29.73067],
        [78.2479, 29.73057],
        [78.24756, 29.73069],
        [78.2473, 29.73115],
        [78.2469, 29.73195],
        [78.24683, 29.73249],
        [78.24649, 29.73282],
        [78.24566, 29.73306],
        [78.24487, 29.73363],
        [78.24419, 29.73383],
        [78.24216, 29.73387],
        [78.24153, 29.73407],
        [78.24041, 29.73657],
        [78.23976, 29.73711],
        [78.23889, 29.73726],
        [78.23836, 29.7372],
        [78.23774, 29.7369],
        [78.23661, 29.73611],
        [78.23571, 29.73533],
        [78.23486, 29.73464],
        [78.23405, 29.73437],
        [78.23273, 29.73401],
        [78.23254, 29.73381],
        [78.23232, 29.7324],
        [78.2319, 29.73176],
        [78.23124, 29.73141],
        [78.2305, 29.7316],
        [78.22937, 29.73242],
        [78.22882, 29.73326],
        [78.22847, 29.734],
        [78.22819, 29.73534],
        [78.22701, 29.73612],
        [78.22576, 29.73609],
        [78.22517, 29.73638],
        [78.22496, 29.73696],
        [78.22461, 29.73734],
        [78.22408, 29.73732],
        [78.22346, 29.73702],
        [78.2228, 29.73628],
        [78.22263, 29.73561],
        [78.2225, 29.7351],
        [78.22213, 29.73505],
        [78.2209, 29.73599],
        [78.22016, 29.73631],
        [78.21892, 29.73603],
        [78.21803, 29.73673],
        [78.21691, 29.73692],
        [78.21661, 29.73725],
        [78.21621, 29.73783],
        [78.21553, 29.73795],
        [78.21487, 29.73755],
        [78.21301, 29.73671],
        [78.2125, 29.73602],
        [78.21247, 29.73501],
        [78.2128, 29.73371],
        [78.21205, 29.73294],
        [78.21118, 29.73292],
        [78.21006, 29.73323],
        [78.20859, 29.734],
        [78.20792, 29.73417],
        [78.20712, 29.73356],
        [78.20522, 29.7328],
        [78.20524, 29.73208],
        [78.2065, 29.73092],
        [78.20658, 29.72805],
        [78.20514, 29.72574],
        [78.20455, 29.72496],
        [78.20322, 29.72738],
        [78.20111, 29.73049],
        [78.20109, 29.7307],
        [78.20096, 29.73206],
        [78.20044, 29.73351],
        [78.19959, 29.73522],
        [78.19782, 29.73675],
        [78.1955, 29.73729],
        [78.19461, 29.73725],
        [78.19355, 29.7372],
        [78.19064, 29.73707],
        [78.18294, 29.73799],
        [78.16568, 29.74022],
        [78.16437, 29.74051],
        [78.16385, 29.74104],
        [78.16377, 29.74136],
        [78.16362, 29.74198],
        [78.16402, 29.74308],
        [78.16427, 29.74401],
        [78.16437, 29.74487],
        [78.16407, 29.74611],
        [78.16319, 29.74734],
        [78.1583, 29.7528],
        [78.1544, 29.75665],
        [78.15263, 29.75779],
        [78.15246, 29.75783],
        [78.15048, 29.75829],
        [78.14829, 29.75849],
        [78.14773, 29.75854],
        [78.14538, 29.75823],
        [78.14343, 29.7572],
        [78.13947, 29.75514],
        [78.13897, 29.75488],
        [78.13729, 29.75394],
        [78.136, 29.75353],
        [78.13292, 29.75346],
        [78.13156, 29.75387],
        [78.13052, 29.75472],
        [78.12941, 29.75638],
        [78.12867, 29.75775],
        [78.12816, 29.75858],
        [78.12794, 29.75903],
        [78.12737, 29.7595],
        [78.12699, 29.75978],
        [78.12673, 29.75979],
        [78.12609, 29.75999],
        [78.12534, 29.75976],
        [78.12455, 29.75951],
        [78.12235, 29.75803],
        [78.12018, 29.75594],
        [78.11954, 29.75517],
        [78.11879, 29.75458],
        [78.11811, 29.75426],
        [78.11678, 29.75432],
        [78.11536, 29.75439],
        [78.11433, 29.75444],
        [78.11403, 29.75445],
        [78.11246, 29.75417],
        [78.11028, 29.75384],
        [78.1083, 29.75315],
        [78.10679, 29.7521],
        [78.10433, 29.74967],
        [78.10292, 29.7483],
        [78.10182, 29.74646],
        [78.10141, 29.74552],
        [78.10106, 29.74419],
        [78.10057, 29.74293],
        [78.09992, 29.74212],
        [78.09912, 29.74169],
        [78.09894, 29.7416],
        [78.09857, 29.74143],
        [78.098, 29.74135],
        [78.0969, 29.74155],
        [78.09617, 29.7421],
        [78.09428, 29.74382],
        [78.09375, 29.74423],
        [78.09321, 29.7447],
        [78.09268, 29.7451],
        [78.0917, 29.74542],
        [78.09034, 29.74589],
        [78.08987, 29.74623],
        [78.08986, 29.74647],
        [78.08989, 29.74689],
        [78.09018, 29.74736],
        [78.09089, 29.7481],
        [78.09133, 29.74872],
        [78.09187, 29.74949],
        [78.09236, 29.75148],
        [78.09245, 29.75283],
        [78.09239, 29.75363],
        [78.09225, 29.7545],
        [78.09208, 29.75513],
        [78.09185, 29.75563],
        [78.09127, 29.75659],
        [78.09111, 29.75697],
        [78.0907, 29.75742],
        [78.09043, 29.75775],
        [78.09007, 29.7582],
        [78.08966, 29.7587],
        [78.0894, 29.75953],
        [78.08932, 29.76046],
        [78.08959, 29.7626],
        [78.08999, 29.76381],
        [78.09068, 29.76457],
        [78.09227, 29.7651],
        [78.09436, 29.76562],
        [78.09558, 29.76605],
        [78.09638, 29.76656],
        [78.09733, 29.76724],
        [78.09789, 29.76822],
        [78.09808, 29.76921],
        [78.09803, 29.77031],
        [78.09802, 29.7709],
        [78.09802, 29.77117],
        [78.09799, 29.77235],
        [78.09796, 29.77317],
        [78.09803, 29.77395],
        [78.09816, 29.77453],
        [78.09825, 29.77503],
        [78.09831, 29.77593],
        [78.09832, 29.77634],
        [78.0983, 29.77657],
        [78.09817, 29.77694],
        [78.09796, 29.77727],
        [78.09541, 29.78018],
        [78.09495, 29.78065],
        [78.09465, 29.78089],
        [78.09427, 29.78113],
        [78.09409, 29.78127],
        [78.09397, 29.78137],
        [78.09369, 29.78147],
        [78.09341, 29.78148],
        [78.09323, 29.78148],
        [78.09304, 29.78149],
        [78.09279, 29.7815],
        [78.09235, 29.78156],
        [78.09221, 29.78162],
        [78.09206, 29.78176],
        [78.0919, 29.78194],
        [78.0918, 29.78208],
        [78.09169, 29.78231],
        [78.09142, 29.78273],
        [78.09127, 29.78283],
        [78.09103, 29.78297],
        [78.0908, 29.78298],
        [78.09062, 29.78299],
        [78.09026, 29.78291],
        [78.0896, 29.78262],
        [78.08708, 29.78096],
        [78.08408, 29.77866],
        [78.08328, 29.77824],
        [78.08265, 29.77819],
        [78.08186, 29.77836],
        [78.07918, 29.77965],
        [78.07582, 29.78142],
        [78.07475, 29.7821],
        [78.07462, 29.7826],
        [78.07464, 29.78447],
        [78.07465, 29.78465],
        [78.07473, 29.78608],
        [78.07469, 29.78676],
        [78.0745, 29.78739],
        [78.07419, 29.78785],
        [78.07374, 29.78823],
        [78.07275, 29.78863],
        [78.06908, 29.7892],
        [78.06528, 29.7892],
        [78.06357, 29.78947],
        [78.06254, 29.7897],
        [78.06197, 29.78988],
        [78.06108, 29.79017],
        [78.06012, 29.79066],
        [78.05933, 29.79136],
        [78.0583, 29.7927],
        [78.05757, 29.79428],
        [78.05697, 29.79689],
        [78.057, 29.79821],
        [78.05737, 29.79974],
        [78.05834, 29.80216],
        [78.0604, 29.80529],
        [78.06417, 29.80912],
        [78.06786, 29.81233],
        [78.07171, 29.81565],
        [78.07211, 29.81616],
        [78.07235, 29.8166],
        [78.07237, 29.81686],
        [78.07234, 29.81717],
        [78.07217, 29.81753],
        [78.07181, 29.81803],
        [78.07016, 29.81958],
        [78.06953, 29.82004],
        [78.06879, 29.82015],
        [78.06797, 29.82009],
        [78.06716, 29.8195],
        [78.06077, 29.81355],
        [78.06029, 29.81326],
        [78.0599, 29.81332],
        [78.05955, 29.81342],
        [78.05936, 29.81352],
        [78.05891, 29.81389],
        [78.05873, 29.81415],
        [78.05859, 29.81438],
        [78.05852, 29.81474],
        [78.05843, 29.81514],
        [78.05836, 29.81545],
        [78.05833, 29.8158],
        [78.05812, 29.81664],
        [78.05799, 29.817],
        [78.05788, 29.81727],
        [78.05781, 29.81749],
        [78.05764, 29.81789],
        [78.05748, 29.81812],
        [78.05731, 29.81856],
        [78.05715, 29.81883],
        [78.05689, 29.8191],
        [78.05669, 29.81933],
        [78.05626, 29.81957],
        [78.05592, 29.81976],
        [78.05526, 29.82],
        [78.05479, 29.82015],
        [78.05432, 29.82039],
        [78.05373, 29.82076],
        [78.05348, 29.82103],
        [78.05313, 29.82144],
        [78.05296, 29.82175],
        [78.0518, 29.82287],
        [78.0513, 29.82348],
        [78.05099, 29.82381],
        [78.0508, 29.82404],
        [78.05048, 29.82453],
        [78.05017, 29.82486],
        [78.04986, 29.82514],
        [78.04949, 29.82559],
        [78.04894, 29.82609],
        [78.04834, 29.82649],
        [78.0477, 29.82683],
        [78.04672, 29.82708],
        [78.04632, 29.82721],
        [78.04581, 29.82728],
        [78.04513, 29.82736],
        [78.04388, 29.82757],
        [78.04354, 29.82758],
        [78.04282, 29.82756],
        [78.04181, 29.82755],
        [78.04097, 29.82758],
        [78.03962, 29.82759],
        [78.03906, 29.82756],
        [78.03762, 29.8274],
        [78.03724, 29.82731],
        [78.03626, 29.82693],
        [78.03442, 29.82627],
        [78.03416, 29.82611],
        [78.03348, 29.82819],
        [78.03335, 29.82967],
        [78.03387, 29.83103],
        [78.03523, 29.83228],
        [78.03631, 29.83345],
        [78.03666, 29.83464],
        [78.03639, 29.83665],
        [78.03604, 29.83848],
        [78.03629, 29.83977],
        [78.03732, 29.84051],
        [78.039, 29.84114],
        [78.04174, 29.84104],
        [78.04461, 29.83955],
        [78.04615, 29.83872],
        [78.04819, 29.83838],
        [78.05073, 29.83847],
        [78.05303, 29.83927],
        [78.05588, 29.84101],
        [78.05787, 29.84305],
        [78.05901, 29.84554],
        [78.05937, 29.84753],
        [78.05904, 29.85101],
        [78.0588, 29.85258],
        [78.05816, 29.85355],
        [78.0573, 29.854],
        [78.05588, 29.85456],
        [78.05558, 29.85491],
        [78.05552, 29.85552],
        [78.05599, 29.85629],
        [78.05697, 29.8571],
        [78.05667, 29.85729],
        [78.05631, 29.85758],
        [78.05559, 29.85783],
        [78.05437, 29.85817],
        [78.05272, 29.85871],
        [78.05196, 29.85889],
        [78.0515, 29.85906],
        [78.05121, 29.85949],
        [78.05089, 29.8603],
        [78.05021, 29.86013],
        [78.04842, 29.86011],
        [78.04695, 29.8604],
        [78.04523, 29.86107],
        [78.04425, 29.86169],
        [78.04566, 29.86278],
        [78.04652, 29.86319],
        [78.0476, 29.86346],
        [78.04853, 29.86393],
        [78.04949, 29.86464],
        [78.05568, 29.86898],
        [78.05636, 29.86933],
        [78.05717, 29.86962],
        [78.05865, 29.86972],
        [78.05926, 29.87008],
        [78.06067, 29.87158],
        [78.06254, 29.87364],
        [78.06472, 29.87581],
        [78.06709, 29.87805],
        [78.06869, 29.87945],
        [78.06917, 29.87986],
        [78.07035, 29.88095],
        [78.07111, 29.8818],
        [78.07197, 29.8829],
        [78.07249, 29.88412],
        [78.0726, 29.88571],
        [78.0724, 29.88845],
        [78.07144, 29.89144],
        [78.07145, 29.8926],
        [78.07185, 29.89381],
        [78.07233, 29.89552],
        [78.0725, 29.89776],
        [78.07259, 29.90013],
        [78.07314, 29.9031],
        [78.07403, 29.90522],
        [78.07419, 29.90603],
        [78.07496, 29.90715],
        [78.07526, 29.9074],
        [78.07569, 29.90758],
        [78.07766, 29.90834],
        [78.0774, 29.90915],
        [78.07776, 29.91137],
        [78.07815, 29.91255],
        [78.07855, 29.9132],
        [78.07948, 29.91364],
        [78.08062, 29.91365],
        [78.08211, 29.91366],
        [78.08605, 29.91305],
        [78.08701, 29.91323],
        [78.0876, 29.91361],
        [78.0881, 29.91427],
        [78.08857, 29.91536],
        [78.08927, 29.91918],
        [78.09566, 29.92082],
        [78.10384, 29.92231],
        [78.10953, 29.92324],
        [78.11696, 29.92292],
        [78.11689, 29.92163],
        [78.1156, 29.91901],
        [78.11443, 29.91629],
        [78.11368, 29.91478],
        [78.11372, 29.91349],
        [78.1145, 29.91042],
        [78.1159, 29.91002],
        [78.11738, 29.9096],
        [78.12208, 29.90911],
        [78.12532, 29.9078],
        [78.1274, 29.90723],
        [78.1289, 29.90659],
        [78.13017, 29.90612],
        [78.13796, 29.90541],
        [78.14189, 29.9076],
        [78.14425, 29.90945],
        [78.14845, 29.91323],
        [78.15135, 29.91702],
        [78.15398, 29.91913],
        [78.15653, 29.92178],
        [78.15924, 29.92642],
        [78.1594, 29.92851],
        [78.16011, 29.93152],
        [78.15994, 29.93669],
        [78.16047, 29.93799],
        [78.17998, 29.94848],
        [78.18226, 29.95025],
        [78.18345, 29.95217],
        [78.18455, 29.95379],
        [78.18529, 29.9555],
        [78.18624, 29.95831],
        [78.1906, 29.96527],
        [78.19069, 29.96528],
        [78.19161, 29.96528],
        [78.19225, 29.96556],
        [78.19308, 29.96569],
        [78.19373, 29.96573],
        [78.19446, 29.96562],
        [78.1951, 29.9653],
        [78.19558, 29.96517],
        [78.19616, 29.96513],
        [78.19677, 29.96521],
        [78.19739, 29.96543],
        [78.19793, 29.96568],
        [78.19825, 29.96598],
        [78.19851, 29.96631],
        [78.199, 29.96656],
        [78.19945, 29.96656],
        [78.20028, 29.96629],
        [78.20106, 29.96599],
        [78.20189, 29.96575],
        [78.20261, 29.96565]
      ]
    ]
  }
}
