{
  "type": "Feature",
  "id": "UK-AC-38",
  "properties": {
    "stateName": "UTTARAKHAND",
    "stateCode": "UK",
    "districtName": "GARHWAL",
    "acNo": 38,
    "acName": "SHRINAGAR",
    "seatType": null,
    "pcNo": null,
    "pcName": null,
    "quality": "unverified",
    "sources": [
      "TBD"
    ]
  },
  "geometry": {
    "type": "Polygon",
    "coordinates": [
      [
        [78.90292, 30.24333],
        [78.90484, 30.24068],
        [78.90502, 30.24032],
        [78.90519, 30.23988],
        [78.90524, 30.23966],
        [78.90521, 30.2392],
        [78.90517, 30.23884],
        [78.90513, 30.23847],
        [78.90504, 30.23823],
        [78.90497, 30.23807],
        [78.90487, 30.2377],
        [78.90466, 30.23737],
        [78.90409, 30.23684],
        [78.90286, 30.23648],
        [78.90181, 30.23623],
        [78.9004, 30.23591],
        [78.8994, 30.23567],
        [78.89841, 30.23547],
        [78.89741, 30.23519],
        [78.89704, 30.23491],
        [78.89689, 30.23454],
        [78.89696, 30.23416],
        [78.89716, 30.23379],
        [78.89747, 30.23331],
        [78.89771, 30.23295],
        [78.89798, 30.2327],
        [78.8983, 30.23251],
        [78.89886, 30.23235],
        [78.89953, 30.23222],
        [78.89984, 30.23222],
        [78.9005, 30.23222],
        [78.90184, 30.23215],
        [78.90238, 30.23213],
        [78.9035, 30.23195],
        [78.90483, 30.23153],
        [78.90549, 30.23132],
        [78.90597, 30.23117],
        [78.90705, 30.23083],
        [78.90821, 30.23045],
        [78.9092, 30.23002],
        [78.90989, 30.22951],
        [78.91014, 30.22915],
        [78.91049, 30.2284],
        [78.91063, 30.22789],
        [78.91075, 30.22738],
        [78.91083, 30.22654],
        [78.91073, 30.22575],
        [78.91053, 30.22519],
        [78.91034, 30.2248],
        [78.91015, 30.22449],
        [78.91007, 30.22397],
        [78.9101, 30.22375],
        [78.91026, 30.22336],
        [78.91045, 30.22311],
        [78.91116, 30.22217],
        [78.91185, 30.22107],
        [78.91207, 30.2206],
        [78.91221, 30.22004],
        [78.9123, 30.21909],
        [78.91267, 30.21795],
        [78.91289, 30.21754],
        [78.91324, 30.21662],
        [78.91359, 30.21569],
        [78.91392, 30.21426],
        [78.914, 30.21365],
        [78.91409, 30.213],
        [78.91429, 30.21191],
        [78.91437, 30.21151],
        [78.91443, 30.21061],
        [78.91489, 30.20883],
        [78.91524, 30.20765],
        [78.91547, 30.20671],
        [78.91565, 30.20576],
        [78.91572, 30.20495],
        [78.91574, 30.20395],
        [78.91575, 30.20347],
        [78.91559, 30.2029],
        [78.91533, 30.20217],
        [78.91462, 30.20177],
        [78.91368, 30.2016],
        [78.91158, 30.20149],
        [78.91009, 30.20145],
        [78.90921, 30.20152],
        [78.90872, 30.2016],
        [78.90841, 30.20093],
        [78.90804, 30.20103],
        [78.90749, 30.20123],
        [78.90682, 30.20153],
        [78.90598, 30.20176],
        [78.90448, 30.20201],
        [78.90104, 30.20286],
        [78.90098, 30.20253],
        [78.90088, 30.20224],
        [78.90067, 30.20199],
        [78.90023, 30.20174],
        [78.89958, 30.20143],
        [78.89898, 30.20126],
        [78.89853, 30.20125],
        [78.89781, 30.20138],
        [78.89725, 30.2016],
        [78.89539, 30.20271],
        [78.89454, 30.20337],
        [78.89376, 30.20374],
        [78.89304, 30.20376],
        [78.89277, 30.20351],
        [78.89251, 30.20302],
        [78.89226, 30.20229],
        [78.89189, 30.20163],
        [78.89157, 30.20128],
        [78.8912, 30.20064],
        [78.89117, 30.20006],
        [78.89109, 30.19923],
        [78.89124, 30.1986],
        [78.89156, 30.19832],
        [78.89207, 30.19794],
        [78.89251, 30.19781],
        [78.89307, 30.19773],
        [78.89391, 30.19746],
        [78.8943, 30.19718],
        [78.89499, 30.19647],
        [78.89545, 30.19581],
        [78.89574, 30.19538],
        [78.89603, 30.1951],
        [78.89625, 30.19501],
        [78.89703, 30.19469],
        [78.89731, 30.19451],
        [78.89776, 30.19428],
        [78.89804, 30.194],
        [78.89816, 30.1938],
        [78.89834, 30.19352],
        [78.8984, 30.19328],
        [78.89842, 30.19279],
        [78.89843, 30.19245],
        [78.89833, 30.19211],
        [78.89801, 30.19166],
        [78.89786, 30.19146],
        [78.89754, 30.19116],
        [78.89705, 30.1909],
        [78.89645, 30.19069],
        [78.89601, 30.19067],
        [78.89513, 30.19064],
        [78.89431, 30.19071],
        [78.89303, 30.19091],
        [78.89204, 30.19098],
        [78.89127, 30.19095],
        [78.89024, 30.19053],
        [78.89007, 30.19042],
        [78.88965, 30.19016],
        [78.88918, 30.18956],
        [78.88887, 30.18892],
        [78.88879, 30.18823],
        [78.88893, 30.18756],
        [78.88916, 30.18717],
        [78.88956, 30.1867],
        [78.89002, 30.18633],
        [78.89036, 30.18604],
        [78.89108, 30.18573],
        [78.89122, 30.18568],
        [78.89158, 30.18555],
        [78.89297, 30.18529],
        [78.89534, 30.18513],
        [78.89765, 30.18501],
        [78.89897, 30.18487],
        [78.89981, 30.18461],
        [78.90075, 30.1842],
        [78.90143, 30.18379],
        [78.90171, 30.18356],
        [78.90228, 30.18294],
        [78.90262, 30.18252],
        [78.90298, 30.1817],
        [78.90312, 30.18093],
        [78.90326, 30.18016],
        [78.90328, 30.17948],
        [78.90299, 30.17845],
        [78.90258, 30.17746],
        [78.90227, 30.17706],
        [78.90196, 30.17642],
        [78.90157, 30.17523],
        [78.90145, 30.17468],
        [78.90134, 30.17413],
        [78.90132, 30.17306],
        [78.90134, 30.17243],
        [78.90155, 30.17142],
        [78.90197, 30.17027],
        [78.90244, 30.16946],
        [78.90273, 30.16903],
        [78.90324, 30.16842],
        [78.90377, 30.16757],
        [78.90457, 30.16653],
        [78.90525, 30.16537],
        [78.90567, 30.1653],
        [78.90626, 30.16529],
        [78.90707, 30.16533],
        [78.9081, 30.16544],
        [78.90926, 30.1656],
        [78.91077, 30.16595],
        [78.91635, 30.16778],
        [78.91863, 30.16848],
        [78.92025, 30.16896],
        [78.92339, 30.16966],
        [78.92382, 30.16976],
        [78.92685, 30.17054],
        [78.92948, 30.17112],
        [78.93147, 30.17152],
        [78.93216, 30.17159],
        [78.93373, 30.17175],
        [78.93791, 30.17253],
        [78.93982, 30.17284],
        [78.94022, 30.17291],
        [78.94183, 30.17321],
        [78.94259, 30.17339],
        [78.94306, 30.1735],
        [78.94419, 30.17368],
        [78.94574, 30.17407],
        [78.94654, 30.17434],
        [78.94911, 30.17511],
        [78.95206, 30.17584],
        [78.95496, 30.17652],
        [78.96351, 30.17841],
        [78.96818, 30.17943],
        [78.96975, 30.17973],
        [78.97195, 30.17996],
        [78.97381, 30.18013],
        [78.97482, 30.18026],
        [78.97612, 30.18046],
        [78.97713, 30.18069],
        [78.97842, 30.18099],
        [78.97938, 30.18127],
        [78.98062, 30.18141],
        [78.98259, 30.18188],
        [78.98667, 30.18284],
        [78.98854, 30.18344],
        [78.99001, 30.18371],
        [78.99117, 30.18428],
        [78.99481, 30.18585],
        [78.99741, 30.18708],
        [78.9991, 30.18799],
        [79.0003, 30.1884],
        [79.00281, 30.19009],
        [79.00417, 30.19066],
        [79.0052, 30.19103],
        [79.0064, 30.19145],
        [79.00787, 30.19235],
        [79.008, 30.19243],
        [79.01015, 30.19389],
        [79.01168, 30.19479],
        [79.01204, 30.195],
        [79.01383, 30.19597],
        [79.016, 30.1969],
        [79.01741, 30.19724],
        [79.01865, 30.19739],
        [79.01985, 30.19726],
        [79.02056, 30.19715],
        [79.02165, 30.19691],
        [79.02274, 30.19687],
        [79.02366, 30.19696],
        [79.02531, 30.19747],
        [79.02562, 30.19766],
        [79.02663, 30.19827],
        [79.0277, 30.19917],
        [79.02878, 30.19986],
        [79.02984, 30.20045],
        [79.03031, 30.20072],
        [79.0306, 30.20087],
        [79.03143, 30.20145],
        [79.03195, 30.202],
        [79.03334, 30.20334],
        [79.0342, 30.20423],
        [79.03603, 30.20602],
        [79.03807, 30.20803],
        [79.03929, 30.20937],
        [79.04044, 30.2106],
        [79.044, 30.21465],
        [79.04467, 30.21422],
        [79.04904, 30.21393],
        [79.05118, 30.21471],
        [79.05214, 30.21553],
        [79.0533, 30.21595],
        [79.05436, 30.21602],
        [79.05604, 30.2157],
        [79.05929, 30.21598],
        [79.05984, 30.21615],
        [79.0608, 30.21519],
        [79.06148, 30.21485],
        [79.06264, 30.2154],
        [79.06412, 30.21642],
        [79.06691, 30.21702],
        [79.06829, 30.21732],
        [79.06899, 30.21713],
        [79.06954, 30.21737],
        [79.07032, 30.21983],
        [79.07072, 30.2201],
        [79.0758, 30.22009],
        [79.07717, 30.21974],
        [79.07786, 30.2193],
        [79.08027, 30.21775],
        [79.08242, 30.21709],
        [79.08443, 30.21604],
        [79.08739, 30.21544],
        [79.08812, 30.21498],
        [79.08898, 30.21495],
        [79.09005, 30.21554],
        [79.09136, 30.21577],
        [79.09196, 30.2158],
        [79.09397, 30.21566],
        [79.09474, 30.21478],
        [79.09609, 30.21338],
        [79.09794, 30.21211],
        [79.1009, 30.21066],
        [79.10155, 30.21047],
        [79.10002, 30.2082],
        [79.09711, 30.2064],
        [79.09507, 30.20567],
        [79.09584, 30.20182],
        [79.09633, 30.20018],
        [79.09737, 30.19783],
        [79.09754, 30.19671],
        [79.09789, 30.19624],
        [79.09857, 30.19665],
        [79.10106, 30.19602],
        [79.10343, 30.19464],
        [79.1047, 30.19292],
        [79.10663, 30.19118],
        [79.10816, 30.18932],
        [79.11004, 30.18887],
        [79.11199, 30.18935],
        [79.1128, 30.18872],
        [79.11659, 30.18432],
        [79.11956, 30.18234],
        [79.12171, 30.18038],
        [79.12267, 30.17955],
        [79.12535, 30.18064],
        [79.12674, 30.18087],
        [79.12696, 30.1806],
        [79.12638, 30.17558],
        [79.12569, 30.17148],
        [79.12545, 30.1704],
        [79.12582, 30.16949],
        [79.12716, 30.16885],
        [79.13098, 30.16751],
        [79.13206, 30.16716],
        [79.13571, 30.16705],
        [79.13883, 30.16673],
        [79.14003, 30.1657],
        [79.14008, 30.16448],
        [79.14014, 30.16173],
        [79.14079, 30.16074],
        [79.1438, 30.15907],
        [79.14402, 30.15874],
        [79.14367, 30.15533],
        [79.14069, 30.15368],
        [79.13845, 30.15298],
        [79.1367, 30.15125],
        [79.13496, 30.14858],
        [79.13351, 30.14525],
        [79.13292, 30.14304],
        [79.13211, 30.13957],
        [79.13427, 30.13841],
        [79.13446, 30.1373],
        [79.13423, 30.13502],
        [79.13497, 30.13297],
        [79.13459, 30.1321],
        [79.13375, 30.12899],
        [79.13397, 30.12778],
        [79.1355, 30.12476],
        [79.13555, 30.12353],
        [79.1348, 30.11972],
        [79.13414, 30.11844],
        [79.13439, 30.11808],
        [79.13891, 30.11516],
        [79.14275, 30.1137],
        [79.14575, 30.11247],
        [79.14846, 30.11212],
        [79.15058, 30.11156],
        [79.15172, 30.11193],
        [79.15258, 30.10818],
        [79.15369, 30.10564],
        [79.15395, 30.10153],
        [79.1539, 30.09976],
        [79.15423, 30.09868],
        [79.15684, 30.09668],
        [79.15872, 30.09419],
        [79.16035, 30.09291],
        [79.16127, 30.09243],
        [79.16409, 30.09265],
        [79.16792, 30.09374],
        [79.16959, 30.09397],
        [79.17017, 30.09493],
        [79.17076, 30.09603],
        [79.17174, 30.09637],
        [79.17284, 30.09624],
        [79.17656, 30.09278],
        [79.17882, 30.09126],
        [79.18051, 30.09052],
        [79.1815, 30.09034],
        [79.18441, 30.09093],
        [79.1862, 30.09101],
        [79.18782, 30.08907],
        [79.19041, 30.08613],
        [79.19299, 30.08428],
        [79.19345, 30.08394],
        [79.19325, 30.08028],
        [79.19577, 30.078],
        [79.19677, 30.07678],
        [79.19697, 30.07446],
        [79.19769, 30.07232],
        [79.19858, 30.06989],
        [79.199, 30.06821],
        [79.19996, 30.06723],
        [79.20234, 30.06559],
        [79.20255, 30.06472],
        [79.20281, 30.06306],
        [79.20205, 30.06258],
        [79.19921, 30.06226],
        [79.1969, 30.06084],
        [79.19535, 30.05944],
        [79.19331, 30.05873],
        [79.19302, 30.05675],
        [79.19052, 30.05181],
        [79.18874, 30.04705],
        [79.189, 30.04504],
        [79.18849, 30.04241],
        [79.18843, 30.03878],
        [79.18865, 30.03755],
        [79.18903, 30.03663],
        [79.19049, 30.0357],
        [79.19463, 30.03565],
        [79.19629, 30.03591],
        [79.19834, 30.03557],
        [79.19911, 30.03536],
        [79.20229, 30.03538],
        [79.20404, 30.03334],
        [79.20644, 30.03186],
        [79.20913, 30.0314],
        [79.20947, 30.0313],
        [79.21005, 30.02891],
        [79.21067, 30.0276],
        [79.21193, 30.0269],
        [79.21444, 30.02602],
        [79.21648, 30.02375],
        [79.21744, 30.02241],
        [79.21661, 30.02018],
        [79.21611, 30.01691],
        [79.21589, 30.0127],
        [79.21595, 30.01127],
        [79.21641, 30.009],
        [79.21793, 30.00533],
        [79.21911, 30.0037],
        [79.22186, 30.00172],
        [79.22274, 30.00093],
        [79.22281, 30.00006],
        [79.22203, 29.99954],
        [79.22209, 29.99925],
        [79.22217, 29.99896],
        [79.22228, 29.99869],
        [79.22231, 29.99842],
        [79.22235, 29.99816],
        [79.2224, 29.99791],
        [79.22248, 29.99765],
        [79.22256, 29.9974],
        [79.22267, 29.99716],
        [79.22278, 29.99693],
        [79.22291, 29.9967],
        [79.22306, 29.99648],
        [79.22333, 29.99625],
        [79.22348, 29.99592],
        [79.22347, 29.99556],
        [79.22346, 29.99529],
        [79.22344, 29.99502],
        [79.22343, 29.99474],
        [79.22343, 29.99447],
        [79.22342, 29.9942],
        [79.22342, 29.99392],
        [79.22341, 29.99365],
        [79.22341, 29.99338],
        [79.22342, 29.99312],
        [79.22344, 29.99286],
        [79.22346, 29.99261],
        [79.22348, 29.99235],
        [79.2235, 29.99209],
        [79.22354, 29.99184],
        [79.22357, 29.99159],
        [79.22361, 29.99133],
        [79.22365, 29.99108],
        [79.22372, 29.99077],
        [79.22372, 29.99046],
        [79.22368, 29.99015],
        [79.22357, 29.98986],
        [79.22342, 29.98958],
        [79.22322, 29.98934],
        [79.22298, 29.98914],
        [79.22271, 29.98899],
        [79.22241, 29.98888],
        [79.22206, 29.98875],
        [79.22172, 29.9886],
        [79.22138, 29.98842],
        [79.22106, 29.98823],
        [79.22074, 29.98802],
        [79.22044, 29.98779],
        [79.22015, 29.98755],
        [79.21988, 29.98729],
        [79.21962, 29.98701],
        [79.21935, 29.98681],
        [79.21912, 29.98656],
        [79.21894, 29.98626],
        [79.21883, 29.98594],
        [79.21883, 29.98559],
        [79.21888, 29.98541],
        [79.21895, 29.98523],
        [79.21902, 29.98506],
        [79.21922, 29.98474],
        [79.21946, 29.98446],
        [79.21973, 29.98416],
        [79.21988, 29.984],
        [79.22004, 29.98385],
        [79.22022, 29.98372],
        [79.22042, 29.98361],
        [79.22062, 29.98352],
        [79.22083, 29.98345],
        [79.22105, 29.9834],
        [79.2214, 29.9834],
        [79.22166, 29.98336],
        [79.22187, 29.9832],
        [79.22198, 29.98296],
        [79.22197, 29.98269],
        [79.22195, 29.98236],
        [79.22231, 29.98189],
        [79.22335, 29.98079],
        [79.22482, 29.97941],
        [79.22513, 29.97926],
        [79.22549, 29.97874],
        [79.2258, 29.97838],
        [79.22609, 29.978],
        [79.22636, 29.97762],
        [79.22661, 29.97721],
        [79.22684, 29.9768],
        [79.22695, 29.97657],
        [79.22705, 29.97633],
        [79.22713, 29.97609],
        [79.22719, 29.97584],
        [79.22725, 29.97559],
        [79.22728, 29.97534],
        [79.22731, 29.97508],
        [79.22732, 29.97483],
        [79.22732, 29.97457],
        [79.22733, 29.97421],
        [79.2274, 29.97385],
        [79.22754, 29.97352],
        [79.22773, 29.97321],
        [79.228, 29.97295],
        [79.2283, 29.9727],
        [79.22857, 29.97243],
        [79.22883, 29.97214],
        [79.22895, 29.97199],
        [79.22909, 29.97177],
        [79.22923, 29.97155],
        [79.22939, 29.97134],
        [79.22956, 29.97115],
        [79.22974, 29.97096],
        [79.22993, 29.97078],
        [79.23012, 29.97061],
        [79.23033, 29.97045],
        [79.23055, 29.9703],
        [79.23072, 29.97003],
        [79.2309, 29.96976],
        [79.2311, 29.9695],
        [79.2313, 29.96924],
        [79.2315, 29.96899],
        [79.23172, 29.96875],
        [79.23194, 29.96851],
        [79.23217, 29.96828],
        [79.2324, 29.96805],
        [79.23266, 29.96779],
        [79.23273, 29.96761],
        [79.23274, 29.96743],
        [79.23246, 29.96559],
        [79.23241, 29.96524],
        [79.23238, 29.96489],
        [79.23235, 29.96454],
        [79.23233, 29.96419],
        [79.23232, 29.96384],
        [79.23231, 29.96349],
        [79.23231, 29.96314],
        [79.23232, 29.96279],
        [79.23234, 29.96244],
        [79.23236, 29.96213],
        [79.23235, 29.96181],
        [79.2323, 29.9615],
        [79.23223, 29.9612],
        [79.23212, 29.9609],
        [79.23199, 29.96061],
        [79.23183, 29.96034],
        [79.23164, 29.96009],
        [79.23143, 29.95985],
        [79.23125, 29.95972],
        [79.23106, 29.95959],
        [79.23087, 29.95946],
        [79.23068, 29.95932],
        [79.23049, 29.95919],
        [79.2303, 29.95906],
        [79.23011, 29.95893],
        [79.22992, 29.9588],
        [79.22973, 29.95867],
        [79.22954, 29.95849],
        [79.22937, 29.95828],
        [79.22923, 29.95807],
        [79.2291, 29.95784],
        [79.22899, 29.95759],
        [79.22891, 29.95734],
        [79.22885, 29.95709],
        [79.22881, 29.95682],
        [79.2288, 29.95656],
        [79.22881, 29.95629],
        [79.22881, 29.95603],
        [79.22878, 29.95576],
        [79.22873, 29.9555],
        [79.22866, 29.95524],
        [79.22857, 29.95499],
        [79.22847, 29.95474],
        [79.22834, 29.95451],
        [79.2282, 29.95428],
        [79.22804, 29.95408],
        [79.22789, 29.95387],
        [79.22774, 29.95367],
        [79.22758, 29.95347],
        [79.22743, 29.95327],
        [79.22727, 29.95306],
        [79.22711, 29.95286],
        [79.22695, 29.95266],
        [79.2268, 29.95247],
        [79.22665, 29.95218],
        [79.22661, 29.95185],
        [79.22668, 29.95154],
        [79.22686, 29.95127],
        [79.22713, 29.95097],
        [79.22728, 29.95078],
        [79.22743, 29.95059],
        [79.22759, 29.9504],
        [79.22774, 29.95022],
        [79.2279, 29.95003],
        [79.22806, 29.94985],
        [79.22822, 29.94967],
        [79.22839, 29.94949],
        [79.22845, 29.94925],
        [79.22848, 29.949],
        [79.2285, 29.94874],
        [79.22849, 29.94849],
        [79.22846, 29.94824],
        [79.22841, 29.94799],
        [79.22834, 29.94776],
        [79.22824, 29.94752],
        [79.22812, 29.9473],
        [79.22801, 29.94708],
        [79.22788, 29.94686],
        [79.22774, 29.94666],
        [79.22757, 29.94648],
        [79.22739, 29.9463],
        [79.2272, 29.94615],
        [79.227, 29.94601],
        [79.22678, 29.94589],
        [79.22655, 29.94579],
        [79.22619, 29.94574],
        [79.22583, 29.94569],
        [79.22548, 29.94566],
        [79.22512, 29.94562],
        [79.22476, 29.9456],
        [79.2244, 29.94557],
        [79.22404, 29.94556],
        [79.22368, 29.94555],
        [79.22332, 29.94554],
        [79.22295, 29.94556],
        [79.22259, 29.94565],
        [79.22225, 29.9458],
        [79.22195, 29.94602],
        [79.22156, 29.94626],
        [79.22124, 29.94607],
        [79.2212, 29.94588],
        [79.221, 29.94571],
        [79.22081, 29.94554],
        [79.22062, 29.94537],
        [79.22043, 29.94519],
        [79.22024, 29.94502],
        [79.22006, 29.94484],
        [79.21987, 29.94466],
        [79.21969, 29.94448],
        [79.21951, 29.9443],
        [79.21935, 29.94398],
        [79.2192, 29.94365],
        [79.21903, 29.94333],
        [79.21886, 29.94302],
        [79.21869, 29.94271],
        [79.21851, 29.9424],
        [79.21832, 29.94209],
        [79.21813, 29.94178],
        [79.21794, 29.94148],
        [79.21773, 29.94131],
        [79.21751, 29.94114],
        [79.21728, 29.94099],
        [79.21705, 29.94084],
        [79.21682, 29.9407],
        [79.21658, 29.94057],
        [79.21633, 29.94046],
        [79.21607, 29.94035],
        [79.21582, 29.94026],
        [79.21558, 29.94019],
        [79.21534, 29.94016],
        [79.2151, 29.94016],
        [79.21486, 29.94018],
        [79.21462, 29.94024],
        [79.2144, 29.94032],
        [79.21418, 29.94043],
        [79.21398, 29.94057],
        [79.2138, 29.94073],
        [79.21352, 29.941],
        [79.21338, 29.94114],
        [79.21324, 29.94127],
        [79.2131, 29.94141],
        [79.21296, 29.94155],
        [79.21269, 29.94183],
        [79.21255, 29.94198],
        [79.21234, 29.94203],
        [79.21213, 29.94209],
        [79.21192, 29.94214],
        [79.21171, 29.9422],
        [79.2115, 29.94227],
        [79.21129, 29.94233],
        [79.21108, 29.94239],
        [79.21087, 29.94246],
        [79.21066, 29.94252],
        [79.21045, 29.94267],
        [79.21022, 29.94279],
        [79.20998, 29.94289],
        [79.20973, 29.94296],
        [79.20947, 29.94301],
        [79.20922, 29.94303],
        [79.20896, 29.94303],
        [79.2087, 29.943],
        [79.20845, 29.94294],
        [79.20816, 29.94286],
        [79.20787, 29.94275],
        [79.20759, 29.94262],
        [79.20733, 29.94247],
        [79.20701, 29.94232],
        [79.20666, 29.94212],
        [79.20651, 29.94198],
        [79.20637, 29.94184],
        [79.20625, 29.94168],
        [79.20615, 29.9415],
        [79.20607, 29.94132],
        [79.20601, 29.94113],
        [79.2054, 29.93984],
        [79.20487, 29.93918],
        [79.20432, 29.93959],
        [79.20396, 29.93994],
        [79.20359, 29.94029],
        [79.2032, 29.94064],
        [79.20282, 29.94097],
        [79.20242, 29.94129],
        [79.20202, 29.94161],
        [79.2016, 29.94191],
        [79.20119, 29.9422],
        [79.20076, 29.94249],
        [79.20056, 29.94271],
        [79.20035, 29.94293],
        [79.20014, 29.94314],
        [79.19991, 29.94335],
        [79.19968, 29.94354],
        [79.19945, 29.94373],
        [79.1992, 29.94391],
        [79.19895, 29.94408],
        [79.1987, 29.94424],
        [79.1985, 29.94455],
        [79.19834, 29.94488],
        [79.19821, 29.94523],
        [79.19812, 29.94558],
        [79.19811, 29.94587],
        [79.19806, 29.94609],
        [79.1979, 29.94626],
        [79.19769, 29.94632],
        [79.19747, 29.94626],
        [79.19708, 29.94623],
        [79.19669, 29.94618],
        [79.19631, 29.94609],
        [79.19593, 29.94597],
        [79.19557, 29.94582],
        [79.19522, 29.94564],
        [79.19489, 29.94543],
        [79.19457, 29.9452],
        [79.19428, 29.94494],
        [79.19392, 29.94487],
        [79.19357, 29.94478],
        [79.19322, 29.94467],
        [79.19289, 29.94452],
        [79.19254, 29.94427],
        [79.19236, 29.94409],
        [79.19219, 29.9439],
        [79.19203, 29.94371],
        [79.19188, 29.9435],
        [79.19175, 29.94329],
        [79.19162, 29.94307],
        [79.19151, 29.94285],
        [79.19141, 29.94262],
        [79.19134, 29.94243],
        [79.19127, 29.94224],
        [79.19122, 29.94205],
        [79.19118, 29.94185],
        [79.19115, 29.94165],
        [79.19113, 29.94145],
        [79.19113, 29.94125],
        [79.19113, 29.94105],
        [79.19115, 29.94085],
        [79.19123, 29.94054],
        [79.19131, 29.94023],
        [79.19137, 29.93991],
        [79.19143, 29.93959],
        [79.19145, 29.93925],
        [79.19145, 29.93889],
        [79.19143, 29.93853],
        [79.19138, 29.93817],
        [79.19131, 29.93782],
        [79.19132, 29.93757],
        [79.19132, 29.93733],
        [79.19133, 29.93708],
        [79.19134, 29.93683],
        [79.19135, 29.93658],
        [79.19137, 29.93634],
        [79.19139, 29.93609],
        [79.19141, 29.93584],
        [79.19143, 29.9356],
        [79.19137, 29.9353],
        [79.19131, 29.93501],
        [79.19124, 29.93471],
        [79.19117, 29.93442],
        [79.19109, 29.93413],
        [79.19102, 29.93384],
        [79.19094, 29.93355],
        [79.19085, 29.93326],
        [79.19077, 29.93297],
        [79.19055, 29.93268],
        [79.19041, 29.93233],
        [79.19038, 29.93215],
        [79.19037, 29.93196],
        [79.19039, 29.93178],
        [79.19043, 29.9316],
        [79.1905, 29.93142],
        [79.19051, 29.93115],
        [79.19052, 29.93088],
        [79.19051, 29.93061],
        [79.19048, 29.93034],
        [79.19044, 29.93008],
        [79.19038, 29.92981],
        [79.19031, 29.92955],
        [79.19023, 29.92929],
        [79.19013, 29.92904],
        [79.19016, 29.92873],
        [79.19016, 29.92842],
        [79.19015, 29.92811],
        [79.19012, 29.9278],
        [79.19008, 29.92749],
        [79.19002, 29.92718],
        [79.18994, 29.92688],
        [79.18985, 29.92659],
        [79.18974, 29.92629],
        [79.18964, 29.926],
        [79.18955, 29.9257],
        [79.18946, 29.92539],
        [79.18939, 29.92509],
        [79.18932, 29.92478],
        [79.18927, 29.92447],
        [79.18922, 29.92416],
        [79.18918, 29.92385],
        [79.18916, 29.92353],
        [79.18908, 29.92325],
        [79.18897, 29.92297],
        [79.18885, 29.9227],
        [79.18872, 29.92244],
        [79.18856, 29.92218],
        [79.18839, 29.92194],
        [79.18821, 29.92171],
        [79.18801, 29.92149],
        [79.1878, 29.92129],
        [79.18756, 29.92092],
        [79.1873, 29.92058],
        [79.18701, 29.92026],
        [79.18669, 29.91996],
        [79.18635, 29.9197],
        [79.18598, 29.91946],
        [79.1856, 29.91926],
        [79.1852, 29.91909],
        [79.18479, 29.91895],
        [79.18454, 29.91887],
        [79.18433, 29.91872],
        [79.18418, 29.9185],
        [79.18411, 29.91825],
        [79.18406, 29.91781],
        [79.18399, 29.9175],
        [79.18392, 29.91719],
        [79.18382, 29.91688],
        [79.18371, 29.91659],
        [79.18359, 29.91629],
        [79.18345, 29.91601],
        [79.18329, 29.91573],
        [79.18312, 29.91546],
        [79.18295, 29.91528],
        [79.18277, 29.9151],
        [79.18259, 29.91493],
        [79.1824, 29.91476],
        [79.18221, 29.9146],
        [79.18201, 29.91444],
        [79.18181, 29.91428],
        [79.18161, 29.91413],
        [79.1814, 29.91399],
        [79.18106, 29.91381],
        [79.18074, 29.91358],
        [79.18046, 29.91331],
        [79.18033, 29.91316],
        [79.18022, 29.91301],
        [79.18011, 29.91284],
        [79.17986, 29.91252],
        [79.17962, 29.91218],
        [79.17939, 29.91183],
        [79.17918, 29.91147],
        [79.17899, 29.91111],
        [79.17881, 29.91073],
        [79.17866, 29.91035],
        [79.17852, 29.90996],
        [79.1784, 29.90956],
        [79.17833, 29.9093],
        [79.17825, 29.90905],
        [79.17815, 29.9088],
        [79.17803, 29.90856],
        [79.1779, 29.90834],
        [79.17775, 29.90812],
        [79.17758, 29.90791],
        [79.1774, 29.90772],
        [79.17721, 29.90754],
        [79.17694, 29.90745],
        [79.17651, 29.90743],
        [79.17624, 29.90749],
        [79.17598, 29.9076],
        [79.17559, 29.90769],
        [79.1752, 29.90776],
        [79.1748, 29.90779],
        [79.1744, 29.90779],
        [79.17399, 29.90774],
        [79.17378, 29.90769],
        [79.17358, 29.90765],
        [79.17337, 29.90761],
        [79.17316, 29.90757],
        [79.17295, 29.90754],
        [79.17273, 29.90751],
        [79.17252, 29.90748],
        [79.17231, 29.90745],
        [79.17194, 29.90744],
        [79.17172, 29.90756],
        [79.17156, 29.90776],
        [79.1715, 29.908],
        [79.17144, 29.90824],
        [79.17138, 29.90848],
        [79.17133, 29.90873],
        [79.17127, 29.90897],
        [79.17121, 29.90921],
        [79.17116, 29.90946],
        [79.1711, 29.9097],
        [79.17104, 29.90994],
        [79.17097, 29.91029],
        [79.17093, 29.91048],
        [79.17086, 29.91067],
        [79.17078, 29.91084],
        [79.17069, 29.91102],
        [79.17046, 29.91118],
        [79.17022, 29.91135],
        [79.16999, 29.91151],
        [79.16975, 29.91166],
        [79.16952, 29.91182],
        [79.16928, 29.91197],
        [79.16904, 29.91213],
        [79.1688, 29.91228],
        [79.16856, 29.91242],
        [79.16815, 29.91271],
        [79.16774, 29.913],
        [79.16733, 29.91329],
        [79.16692, 29.91357],
        [79.16651, 29.91386],
        [79.1661, 29.91414],
        [79.16569, 29.91443],
        [79.16528, 29.91471],
        [79.16487, 29.91499],
        [79.16466, 29.91519],
        [79.16441, 29.91533],
        [79.16413, 29.91542],
        [79.16385, 29.91545],
        [79.16346, 29.91545],
        [79.16322, 29.91547],
        [79.16299, 29.9155],
        [79.16275, 29.91554],
        [79.16252, 29.9156],
        [79.16229, 29.91566],
        [79.16206, 29.91574],
        [79.16184, 29.91583],
        [79.16162, 29.91593],
        [79.16127, 29.91606],
        [79.16092, 29.91616],
        [79.16055, 29.91622],
        [79.16018, 29.91626],
        [79.15981, 29.91627],
        [79.15944, 29.91624],
        [79.15907, 29.91619],
        [79.15871, 29.9161],
        [79.15836, 29.91599],
        [79.15804, 29.91578],
        [79.15773, 29.91557],
        [79.15742, 29.91536],
        [79.15711, 29.91515],
        [79.15679, 29.91494],
        [79.15648, 29.91473],
        [79.15617, 29.91451],
        [79.15586, 29.9143],
        [79.15555, 29.91409],
        [79.15531, 29.91383],
        [79.15502, 29.91364],
        [79.15469, 29.91352],
        [79.15434, 29.91348],
        [79.15397, 29.91349],
        [79.15359, 29.91347],
        [79.1532, 29.91342],
        [79.15282, 29.91334],
        [79.15245, 29.91324],
        [79.15198, 29.91294],
        [79.15151, 29.91263],
        [79.15104, 29.91233],
        [79.15057, 29.91201],
        [79.15011, 29.9117],
        [79.14965, 29.91138],
        [79.14919, 29.91106],
        [79.14873, 29.91074],
        [79.14827, 29.91041],
        [79.14808, 29.91019],
        [79.14787, 29.91],
        [79.14763, 29.90984],
        [79.14738, 29.9097],
        [79.14711, 29.90959],
        [79.14683, 29.90952],
        [79.14655, 29.90948],
        [79.14626, 29.90948],
        [79.14597, 29.9095],
        [79.14558, 29.90941],
        [79.14519, 29.90931],
        [79.1448, 29.90918],
        [79.14442, 29.90904],
        [79.14404, 29.90889],
        [79.14368, 29.90873],
        [79.14331, 29.90854],
        [79.14296, 29.90835],
        [79.14261, 29.90814],
        [79.14167, 29.90782],
        [79.14071, 29.90752],
        [79.13975, 29.90726],
        [79.13878, 29.90703],
        [79.1378, 29.90683],
        [79.13682, 29.90665],
        [79.13583, 29.90651],
        [79.13484, 29.9064],
        [79.13385, 29.90633],
        [79.13364, 29.90626],
        [79.13331, 29.90629],
        [79.13312, 29.90639],
        [79.13296, 29.90653],
        [79.13271, 29.90666],
        [79.13237, 29.90671],
        [79.13195, 29.90667],
        [79.13153, 29.90664],
        [79.13111, 29.90661],
        [79.1307, 29.90659],
        [79.13028, 29.90658],
        [79.12986, 29.90658],
        [79.12944, 29.90659],
        [79.12902, 29.90661],
        [79.12861, 29.90664],
        [79.12828, 29.90658],
        [79.12796, 29.90657],
        [79.12763, 29.90662],
        [79.12732, 29.90672],
        [79.12705, 29.90685],
        [79.12694, 29.90668],
        [79.12696, 29.90646],
        [79.12695, 29.90627],
        [79.12694, 29.90609],
        [79.12693, 29.9059],
        [79.12691, 29.90572],
        [79.12687, 29.90535],
        [79.12684, 29.90517],
        [79.12681, 29.90499],
        [79.12668, 29.90467],
        [79.12656, 29.90435],
        [79.12646, 29.90402],
        [79.12637, 29.90369],
        [79.1263, 29.90336],
        [79.12624, 29.90302],
        [79.1262, 29.90267],
        [79.12618, 29.90233],
        [79.12617, 29.90199],
        [79.12617, 29.90175],
        [79.12608, 29.90154],
        [79.12592, 29.90136],
        [79.12572, 29.90126],
        [79.1247, 29.90092],
        [79.12447, 29.9009],
        [79.12424, 29.90084],
        [79.12403, 29.90076],
        [79.12383, 29.90065],
        [79.12364, 29.90051],
        [79.12348, 29.90034],
        [79.12334, 29.90016],
        [79.12323, 29.89996],
        [79.12314, 29.89975],
        [79.12301, 29.89939],
        [79.12286, 29.89904],
        [79.12269, 29.8987],
        [79.1225, 29.89837],
        [79.12229, 29.89806],
        [79.12206, 29.89775],
        [79.12182, 29.89746],
        [79.12155, 29.89719],
        [79.12127, 29.89693],
        [79.1201, 29.89571],
        [79.11969, 29.89558],
        [79.11929, 29.89545],
        [79.11888, 29.89532],
        [79.11847, 29.89518],
        [79.11806, 29.89505],
        [79.11765, 29.89492],
        [79.11724, 29.8948],
        [79.11683, 29.89467],
        [79.11642, 29.89454],
        [79.11615, 29.89443],
        [79.11587, 29.89433],
        [79.11559, 29.89423],
        [79.11531, 29.89415],
        [79.11503, 29.89408],
        [79.11474, 29.89401],
        [79.11446, 29.89396],
        [79.11416, 29.89392],
        [79.11387, 29.89388],
        [79.11316, 29.89387],
        [79.11245, 29.89387],
        [79.11173, 29.89386],
        [79.11102, 29.89385],
        [79.1103, 29.89384],
        [79.10959, 29.89384],
        [79.10888, 29.89383],
        [79.10816, 29.89382],
        [79.10745, 29.8938],
        [79.10707, 29.89383],
        [79.10669, 29.8938],
        [79.10632, 29.89373],
        [79.10596, 29.8936],
        [79.10562, 29.89344],
        [79.1053, 29.89323],
        [79.10501, 29.89298],
        [79.10476, 29.8927],
        [79.10454, 29.89239],
        [79.10429, 29.89205],
        [79.10401, 29.89174],
        [79.1037, 29.89145],
        [79.10337, 29.8912],
        [79.10302, 29.89097],
        [79.10265, 29.89077],
        [79.10226, 29.89061],
        [79.10186, 29.89048],
        [79.10145, 29.89039],
        [79.10107, 29.89025],
        [79.10047, 29.89025],
        [79.1001, 29.8904],
        [79.09993, 29.89051],
        [79.09979, 29.89065],
        [79.09949, 29.89072],
        [79.0992, 29.89078],
        [79.0989, 29.89083],
        [79.0986, 29.89087],
        [79.0983, 29.8909],
        [79.098, 29.89092],
        [79.0977, 29.89093],
        [79.0974, 29.89093],
        [79.0971, 29.89092],
        [79.09668, 29.89088],
        [79.0964, 29.89093],
        [79.09613, 29.89103],
        [79.09589, 29.89118],
        [79.09571, 29.89134],
        [79.09552, 29.8915],
        [79.09533, 29.89166],
        [79.09514, 29.89181],
        [79.09494, 29.89196],
        [79.09475, 29.89211],
        [79.09455, 29.89226],
        [79.09435, 29.8924],
        [79.09415, 29.89254],
        [79.09384, 29.89268],
        [79.09352, 29.89279],
        [79.0932, 29.89288],
        [79.09287, 29.89295],
        [79.09254, 29.893],
        [79.09221, 29.89302],
        [79.09187, 29.89302],
        [79.09153, 29.893],
        [79.0912, 29.89295],
        [79.09067, 29.89289],
        [79.09014, 29.8928],
        [79.08963, 29.89267],
        [79.08911, 29.89252],
        [79.08861, 29.89234],
        [79.08812, 29.89213],
        [79.08764, 29.8919],
        [79.08717, 29.89164],
        [79.08672, 29.89135],
        [79.08658, 29.89132],
        [79.08452, 29.8917],
        [79.0819, 29.89268],
        [79.07832, 29.89352],
        [79.07261, 29.89375],
        [79.06993, 29.89427],
        [79.06818, 29.89423],
        [79.06705, 29.89435],
        [79.06549, 29.89458],
        [79.06496, 29.89502],
        [79.06434, 29.89594],
        [79.06345, 29.89635],
        [79.06144, 29.89676],
        [79.05835, 29.89765],
        [79.05727, 29.89796],
        [79.05595, 29.89833],
        [79.05511, 29.89874],
        [79.05286, 29.89982],
        [79.05006, 29.90084],
        [79.04923, 29.90117],
        [79.04798, 29.90167],
        [79.04439, 29.9033],
        [79.0438, 29.90371],
        [79.04264, 29.90452],
        [79.0405, 29.9056],
        [79.03625, 29.90854],
        [79.03509, 29.90898],
        [79.03189, 29.91151],
        [79.03062, 29.91233],
        [79.02795, 29.91379],
        [79.02404, 29.91603],
        [79.0208, 29.91756],
        [79.01885, 29.91885],
        [79.01626, 29.91974],
        [79.01622, 29.92142],
        [79.01806, 29.92376],
        [79.01527, 29.92575],
        [79.01367, 29.92737],
        [79.01261, 29.92943],
        [79.01254, 29.92957],
        [79.01218, 29.93146],
        [79.01257, 29.93388],
        [79.01343, 29.93532],
        [79.0138, 29.93628],
        [79.01003, 29.93775],
        [79.0055, 29.93897],
        [78.99947, 29.9396],
        [78.98808, 29.9407],
        [78.98075, 29.94206],
        [78.97517, 29.94251],
        [78.97898, 29.95305],
        [78.98056, 29.95887],
        [78.98235, 29.96432],
        [78.97912, 29.97341],
        [78.97707, 29.97823],
        [78.97386, 29.98676],
        [78.97106, 29.99586],
        [78.96852, 30.00329],
        [78.96642, 30.00902],
        [78.96864, 30.01212],
        [78.97073, 30.01496],
        [78.97267, 30.01804],
        [78.97332, 30.01907],
        [78.97942, 30.02236],
        [78.98555, 30.02602],
        [78.99941, 30.03879],
        [79.00356, 30.04447],
        [79.00796, 30.04903],
        [79.01165, 30.0562],
        [79.01513, 30.06317],
        [79.01715, 30.06844],
        [79.01416, 30.06764],
        [79.01054, 30.06626],
        [79.0072, 30.06492],
        [79.00499, 30.06457],
        [79.00302, 30.0632],
        [78.99731, 30.06032],
        [78.99503, 30.05841],
        [78.99298, 30.05913],
        [78.99046, 30.05997],
        [78.98856, 30.06028],
        [78.98626, 30.06062],
        [78.98628, 30.06077],
        [78.9862, 30.06179],
        [78.98548, 30.06303],
        [78.9845, 30.06412],
        [78.9827, 30.06479],
        [78.98188, 30.06478],
        [78.98191, 30.06505],
        [78.98178, 30.06589],
        [78.98159, 30.06709],
        [78.98101, 30.06911],
        [78.98042, 30.07129],
        [78.97969, 30.07158],
        [78.9783, 30.07195],
        [78.97568, 30.0723],
        [78.97398, 30.07243],
        [78.97112, 30.07213],
        [78.97064, 30.0718],
        [78.96958, 30.07104],
        [78.96738, 30.06974],
        [78.96551, 30.06828],
        [78.96497, 30.06785],
        [78.96579, 30.06764],
        [78.96635, 30.0672],
        [78.96686, 30.06638],
        [78.96733, 30.06445],
        [78.96807, 30.0603],
        [78.96846, 30.05879],
        [78.96938, 30.05696],
        [78.97, 30.05578],
        [78.97065, 30.05507],
        [78.97141, 30.05475],
        [78.97216, 30.05471],
        [78.97294, 30.05499],
        [78.97354, 30.0558],
        [78.97447, 30.0579],
        [78.97643, 30.05583],
        [78.97788, 30.05442],
        [78.97897, 30.05321],
        [78.98021, 30.05057],
        [78.9811, 30.04823],
        [78.98177, 30.04506],
        [78.9811, 30.0433],
        [78.97962, 30.04122],
        [78.97696, 30.03922],
        [78.9744, 30.03795],
        [78.97193, 30.03749],
        [78.97, 30.03743],
        [78.96827, 30.03763],
        [78.96458, 30.0391],
        [78.96015, 30.04178],
        [78.95733, 30.04392],
        [78.95775, 30.04477],
        [78.95674, 30.04506],
        [78.95488, 30.04636],
        [78.95367, 30.04712],
        [78.95308, 30.04802],
        [78.95287, 30.04836],
        [78.95231, 30.0505],
        [78.95196, 30.05214],
        [78.95164, 30.05327],
        [78.95118, 30.05402],
        [78.94931, 30.05466],
        [78.94817, 30.05478],
        [78.9478, 30.05493],
        [78.94759, 30.05498],
        [78.9471, 30.05502],
        [78.94577, 30.05546],
        [78.94442, 30.05609],
        [78.94275, 30.05795],
        [78.94099, 30.0615],
        [78.94162, 30.06196],
        [78.94256, 30.06322],
        [78.94226, 30.06326],
        [78.94172, 30.06392],
        [78.93969, 30.06727],
        [78.93717, 30.07009],
        [78.93476, 30.07232],
        [78.93396, 30.07364],
        [78.93383, 30.07432],
        [78.93385, 30.07521],
        [78.93355, 30.07668],
        [78.93324, 30.07752],
        [78.93245, 30.07837],
        [78.93077, 30.07885],
        [78.92814, 30.07933],
        [78.92696, 30.08083],
        [78.92538, 30.0824],
        [78.92328, 30.08459],
        [78.92149, 30.08612],
        [78.92122, 30.08747],
        [78.9203, 30.08803],
        [78.91937, 30.08864],
        [78.91773, 30.09134],
        [78.91615, 30.09422],
        [78.91549, 30.09739],
        [78.91381, 30.10051],
        [78.9121, 30.10058],
        [78.90953, 30.10054],
        [78.90769, 30.10018],
        [78.90561, 30.09929],
        [78.90569, 30.0991],
        [78.90666, 30.09772],
        [78.90574, 30.09703],
        [78.90407, 30.09564],
        [78.90198, 30.09304],
        [78.89961, 30.08844],
        [78.89796, 30.08399],
        [78.89804, 30.08261],
        [78.8974, 30.07992],
        [78.8958, 30.07717],
        [78.89497, 30.0754],
        [78.89495, 30.07484],
        [78.89493, 30.07412],
        [78.89532, 30.07315],
        [78.89179, 30.07117],
        [78.88967, 30.07038],
        [78.88752, 30.07016],
        [78.88657, 30.07019],
        [78.88481, 30.07024],
        [78.88435, 30.06599],
        [78.88376, 30.06434],
        [78.88256, 30.06152],
        [78.88208, 30.05957],
        [78.88214, 30.05918],
        [78.88096, 30.05659],
        [78.8796, 30.0536],
        [78.87835, 30.05194],
        [78.8778, 30.05009],
        [78.87668, 30.04776],
        [78.87546, 30.04645],
        [78.87377, 30.04584],
        [78.87155, 30.04401],
        [78.8703, 30.04379],
        [78.86912, 30.04415],
        [78.8677, 30.0447],
        [78.86723, 30.04626],
        [78.86706, 30.04693],
        [78.86627, 30.04897],
        [78.86571, 30.05069],
        [78.86567, 30.05302],
        [78.86575, 30.05317],
        [78.86549, 30.05315],
        [78.86248, 30.05537],
        [78.86135, 30.05661],
        [78.85911, 30.05724],
        [78.85801, 30.05711],
        [78.8573, 30.05613],
        [78.85684, 30.05484],
        [78.85619, 30.0539],
        [78.85556, 30.05685],
        [78.85619, 30.05867],
        [78.85643, 30.05877],
        [78.85666, 30.0589],
        [78.85686, 30.05897],
        [78.8573, 30.05921],
        [78.85788, 30.05966],
        [78.85464, 30.06696],
        [78.85647, 30.0674],
        [78.85817, 30.06777],
        [78.85816, 30.0735],
        [78.8589, 30.07383],
        [78.86057, 30.07543],
        [78.86152, 30.07655],
        [78.86147, 30.08089],
        [78.8603, 30.08435],
        [78.85905, 30.08696],
        [78.85833, 30.08833],
        [78.85558, 30.08927],
        [78.85189, 30.08954],
        [78.84806, 30.0903],
        [78.84579, 30.09046],
        [78.84284, 30.0904],
        [78.84146, 30.09301],
        [78.84031, 30.09314],
        [78.84037, 30.0936],
        [78.84117, 30.0953],
        [78.83743, 30.0974],
        [78.83258, 30.10047],
        [78.82772, 30.10412],
        [78.82815, 30.10859],
        [78.82687, 30.11082],
        [78.82678, 30.11398],
        [78.82733, 30.11932],
        [78.82755, 30.12649],
        [78.82702, 30.13116],
        [78.82575, 30.13627],
        [78.82475, 30.14],
        [78.82198, 30.14152],
        [78.81836, 30.14968],
        [78.81804, 30.15265],
        [78.81785, 30.15271],
        [78.8176, 30.15291],
        [78.81745, 30.15308],
        [78.81723, 30.15359],
        [78.81692, 30.15423],
        [78.81654, 30.15498],
        [78.81633, 30.15538],
        [78.8159, 30.15617],
        [78.81729, 30.15701],
        [78.8167, 30.16085],
        [78.81619, 30.16325],
        [78.81565, 30.16544],
        [78.81454, 30.16833],
        [78.81333, 30.17055],
        [78.81246, 30.1729],
        [78.81101, 30.17537],
        [78.80865, 30.17733],
        [78.80631, 30.17859],
        [78.80467, 30.17956],
        [78.80305, 30.17983],
        [78.80061, 30.18038],
        [78.79872, 30.18027],
        [78.79727, 30.18041],
        [78.79552, 30.18118],
        [78.79321, 30.18205],
        [78.78659, 30.18455],
        [78.7811, 30.18663],
        [78.77786, 30.18785],
        [78.77467, 30.18919],
        [78.77377, 30.18945],
        [78.77255, 30.19016],
        [78.77111, 30.1906],
        [78.76959, 30.19142],
        [78.76789, 30.19204],
        [78.76605, 30.19275],
        [78.76436, 30.19319],
        [78.7631, 30.19377],
        [78.76172, 30.19444],
        [78.76007, 30.19546],
        [78.75787, 30.19627],
        [78.75641, 30.19706],
        [78.75586, 30.19834],
        [78.7553, 30.19962],
        [78.7546, 30.20174],
        [78.75495, 30.2024],
        [78.7552, 30.20301],
        [78.75524, 30.20323],
        [78.75542, 30.20384],
        [78.75564, 30.20467],
        [78.75592, 30.2064],
        [78.75433, 30.20681],
        [78.75506, 30.2085],
        [78.75431, 30.21053],
        [78.75251, 30.21488],
        [78.75357, 30.21552],
        [78.75437, 30.21607],
        [78.75479, 30.2163],
        [78.75671, 30.21624],
        [78.75718, 30.2163],
        [78.75842, 30.21662],
        [78.75941, 30.21682],
        [78.76036, 30.21684],
        [78.76125, 30.21667],
        [78.76243, 30.2162],
        [78.76282, 30.21632],
        [78.7633, 30.21674],
        [78.76375, 30.21772],
        [78.76509, 30.22243],
        [78.76585, 30.22535],
        [78.7662, 30.22597],
        [78.76678, 30.22627],
        [78.76827, 30.22642],
        [78.76922, 30.22637],
        [78.77064, 30.2261],
        [78.77337, 30.2254],
        [78.77504, 30.2254],
        [78.7769, 30.2258],
        [78.77887, 30.22665],
        [78.78031, 30.22704],
        [78.78262, 30.22804],
        [78.78429, 30.22874],
        [78.78608, 30.22909],
        [78.78702, 30.22924],
        [78.78804, 30.22926],
        [78.78899, 30.22911],
        [78.79043, 30.22874],
        [78.7916, 30.22822],
        [78.7929, 30.22727],
        [78.79416, 30.22559],
        [78.7952, 30.22428],
        [78.79632, 30.22263],
        [78.79677, 30.22173],
        [78.79789, 30.22093],
        [78.79853, 30.22013],
        [78.79926, 30.21966],
        [78.80095, 30.21913],
        [78.80269, 30.21891],
        [78.80476, 30.21903],
        [78.80583, 30.21918],
        [78.80792, 30.21948],
        [78.80881, 30.22003],
        [78.80921, 30.22076],
        [78.80913, 30.22253],
        [78.80866, 30.22423],
        [78.80796, 30.22627],
        [78.80826, 30.22712],
        [78.80881, 30.22772],
        [78.8098, 30.22812],
        [78.81132, 30.22814],
        [78.8147, 30.22814],
        [78.81772, 30.22827],
        [78.81965, 30.22834],
        [78.82092, 30.22862],
        [78.82189, 30.22909],
        [78.82241, 30.22999],
        [78.82224, 30.23076],
        [78.81998, 30.23428],
        [78.8196, 30.2352],
        [78.81913, 30.23702],
        [78.81911, 30.23855],
        [78.81915, 30.23887],
        [78.81943, 30.23912],
        [78.82017, 30.2392],
        [78.8213, 30.23927],
        [78.82251, 30.23932],
        [78.82321, 30.23945],
        [78.82435, 30.23989],
        [78.82532, 30.24044],
        [78.82614, 30.24117],
        [78.82651, 30.24189],
        [78.82647, 30.24314],
        [78.82647, 30.24361],
        [78.82657, 30.24379],
        [78.82746, 30.24359],
        [78.82843, 30.24304],
        [78.83082, 30.24084],
        [78.83233, 30.23962],
        [78.83393, 30.23849],
        [78.8348, 30.23809],
        [78.83606, 30.23779],
        [78.83798, 30.23715],
        [78.83997, 30.23627],
        [78.84169, 30.2357],
        [78.84298, 30.23575],
        [78.84405, 30.23592],
        [78.84489, 30.23617],
        [78.84536, 30.23652],
        [78.84594, 30.23715],
        [78.84698, 30.23899],
        [78.84768, 30.24052],
        [78.84788, 30.24151],
        [78.84783, 30.24244],
        [78.84706, 30.24438],
        [78.84683, 30.24531],
        [78.84674, 30.24603],
        [78.84688, 30.2466],
        [78.84711, 30.24678],
        [78.84735, 30.24683],
        [78.84818, 30.24693],
        [78.85151, 30.24653],
        [78.8532, 30.24623],
        [78.8543, 30.24586],
        [78.85597, 30.24441],
        [78.85673, 30.24378],
        [78.85763, 30.24343],
        [78.85838, 30.24328],
        [78.85949, 30.24338],
        [78.86061, 30.24381],
        [78.86138, 30.24416],
        [78.86253, 30.24531],
        [78.86292, 30.24563],
        [78.8636, 30.24596],
        [78.86511, 30.24636],
        [78.86661, 30.24693],
        [78.86775, 30.2476],
        [78.86927, 30.2489],
        [78.87017, 30.24983],
        [78.87031, 30.24997],
        [78.87087, 30.25051],
        [78.87164, 30.25113],
        [78.87356, 30.25226],
        [78.87555, 30.25336],
        [78.87602, 30.25377],
        [78.87613, 30.25401],
        [78.87626, 30.25431],
        [78.8764, 30.255],
        [78.8767, 30.25659],
        [78.87686, 30.2579],
        [78.87697, 30.25893],
        [78.87725, 30.25968],
        [78.87762, 30.26016],
        [78.87838, 30.26074],
        [78.87909, 30.26107],
        [78.88007, 30.26129],
        [78.88081, 30.26129],
        [78.8816, 30.26125],
        [78.88221, 30.26101],
        [78.88333, 30.25999],
        [78.88614, 30.25717],
        [78.88873, 30.25529],
        [78.88934, 30.2548],
        [78.88973, 30.2546],
        [78.89065, 30.25427],
        [78.89252, 30.25326],
        [78.89398, 30.25252],
        [78.89477, 30.25211],
        [78.89589, 30.25123],
        [78.89671, 30.25042],
        [78.89713, 30.24998],
        [78.89827, 30.24895],
        [78.89925, 30.24795],
        [78.89955, 30.24669],
        [78.89935, 30.24481],
        [78.89935, 30.24408],
        [78.89972, 30.24306],
        [78.90042, 30.2425],
        [78.90122, 30.2425],
        [78.90261, 30.24313],
        [78.90292, 30.24333]
      ]
    ]
  }
}
