{
  "type": "Feature",
  "id": "UK-AC-60",
  "properties": {
    "stateName": "UTTARAKHAND",
    "stateCode": "UK",
    "districtName": "NAINITAL",
    "acNo": 60,
    "acName": "KALADHUNGI",
    "seatType": null,
    "pcNo": null,
    "pcName": null,
    "quality": "unverified",
    "sources": [
      "TBD"
    ]
  },
  "geometry": {
    "type": "Polygon",
    "coordinates": [
      [
        [79.32841, 29.41205],
        [79.32838, 29.41136],
        [79.32834, 29.41038],
        [79.32832, 29.40974],
        [79.32829, 29.40951],
        [79.32819, 29.40873],
        [79.3282, 29.40806],
        [79.32841, 29.40764],
        [79.32872, 29.40723],
        [79.32895, 29.40709],
        [79.32918, 29.40696],
        [79.32936, 29.40686],
        [79.32949, 29.40658],
        [79.32956, 29.4063],
        [79.32958, 29.40599],
        [79.32964, 29.40564],
        [79.32977, 29.40532],
        [79.32991, 29.40511],
        [79.33005, 29.40498],
        [79.33022, 29.4047],
        [79.33035, 29.40432],
        [79.33048, 29.40386],
        [79.33046, 29.40337],
        [79.33017, 29.40267],
        [79.33002, 29.40239],
        [79.32997, 29.40222],
        [79.32992, 29.40179],
        [79.32998, 29.40147],
        [79.33015, 29.40116],
        [79.33025, 29.40102],
        [79.3304, 29.40092],
        [79.33075, 29.40061],
        [79.33092, 29.40041],
        [79.33106, 29.40017],
        [79.33122, 29.3995],
        [79.33128, 29.39918],
        [79.33185, 29.39789],
        [79.33198, 29.39762],
        [79.33215, 29.3973],
        [79.33233, 29.39699],
        [79.33279, 29.3964],
        [79.33318, 29.39606],
        [79.33346, 29.39582],
        [79.334, 29.39552],
        [79.33429, 29.39539],
        [79.33473, 29.39531],
        [79.33502, 29.39525],
        [79.33549, 29.39512],
        [79.33578, 29.39506],
        [79.33625, 29.39487],
        [79.33657, 29.39467],
        [79.33693, 29.39437],
        [79.33721, 29.39406],
        [79.33749, 29.39365],
        [79.3378, 29.39306],
        [79.33828, 29.39231],
        [79.3386, 29.39193],
        [79.33888, 29.39174],
        [79.33932, 29.39151],
        [79.33964, 29.39134],
        [79.3399, 29.39132],
        [79.34049, 29.39131],
        [79.34097, 29.39144],
        [79.34127, 29.39159],
        [79.34157, 29.39178],
        [79.34191, 29.392],
        [79.34275, 29.39267],
        [79.34324, 29.39306],
        [79.34381, 29.39321],
        [79.34406, 29.39322],
        [79.34428, 29.39313],
        [79.3445, 29.39293],
        [79.34467, 29.39269],
        [79.34477, 29.39252],
        [79.34502, 29.39224],
        [79.3452, 29.39208],
        [79.34549, 29.39191],
        [79.34593, 29.39176],
        [79.34636, 29.39167],
        [79.34688, 29.39157],
        [79.34706, 29.39152],
        [79.34738, 29.39126],
        [79.34745, 29.39112],
        [79.34759, 29.39081],
        [79.34776, 29.39034],
        [79.34775, 29.39013],
        [79.34775, 29.38999],
        [79.3477, 29.38981],
        [79.34758, 29.38963],
        [79.34747, 29.38948],
        [79.34732, 29.38937],
        [79.34713, 29.38926],
        [79.34697, 29.38918],
        [79.34682, 29.3891],
        [79.3466, 29.38892],
        [79.3464, 29.38877],
        [79.34621, 29.38862],
        [79.34587, 29.38839],
        [79.34515, 29.38776],
        [79.34499, 29.38762],
        [79.34483, 29.38733],
        [79.34466, 29.38679],
        [79.34462, 29.38661],
        [79.34459, 29.38631],
        [79.34454, 29.38569],
        [79.34456, 29.38527],
        [79.34466, 29.38485],
        [79.34475, 29.3844],
        [79.34484, 29.38384],
        [79.34481, 29.38331],
        [79.34475, 29.38268],
        [79.3447, 29.38239],
        [79.34468, 29.38193],
        [79.34471, 29.38165],
        [79.34481, 29.38145],
        [79.34491, 29.38131],
        [79.34506, 29.38128],
        [79.34535, 29.38123],
        [79.34558, 29.38124],
        [79.34621, 29.38134],
        [79.34669, 29.38143],
        [79.34691, 29.38141],
        [79.34724, 29.38135],
        [79.34739, 29.38122],
        [79.34756, 29.38094],
        [79.34777, 29.38071],
        [79.34798, 29.3803],
        [79.34818, 29.37985],
        [79.34838, 29.37944],
        [79.34855, 29.37913],
        [79.34887, 29.37872],
        [79.34923, 29.37842],
        [79.34965, 29.37799],
        [79.35001, 29.37762],
        [79.3507, 29.37707],
        [79.35121, 29.37685],
        [79.35154, 29.37676],
        [79.35198, 29.37668],
        [79.35282, 29.37648],
        [79.35359, 29.37637],
        [79.35418, 29.3763],
        [79.35492, 29.37623],
        [79.35555, 29.37626],
        [79.35651, 29.37613],
        [79.35699, 29.37595],
        [79.3572, 29.37575],
        [79.35734, 29.37551],
        [79.3575, 29.3751],
        [79.35757, 29.37478],
        [79.35751, 29.37436],
        [79.35731, 29.37403],
        [79.35719, 29.37389],
        [79.35693, 29.3737],
        [79.3567, 29.37358],
        [79.3564, 29.3735],
        [79.35614, 29.37344],
        [79.35587, 29.3734],
        [79.35557, 29.37328],
        [79.35484, 29.37296],
        [79.35432, 29.37279],
        [79.35405, 29.37258],
        [79.35373, 29.37232],
        [79.35346, 29.37211],
        [79.3533, 29.37201],
        [79.35309, 29.37185],
        [79.35282, 29.37164],
        [79.35261, 29.37148],
        [79.35213, 29.37116],
        [79.35166, 29.3709],
        [79.35103, 29.37062],
        [79.35055, 29.3703],
        [79.35029, 29.37009],
        [79.34975, 29.36963],
        [79.3492, 29.36886],
        [79.34904, 29.36861],
        [79.3487, 29.36796],
        [79.34852, 29.36741],
        [79.34832, 29.36642],
        [79.34808, 29.36568],
        [79.34789, 29.36488],
        [79.34765, 29.36419],
        [79.34746, 29.36359],
        [79.34739, 29.36314],
        [79.34717, 29.36179],
        [79.34692, 29.36085],
        [79.34684, 29.36045],
        [79.34666, 29.3599],
        [79.34633, 29.35935],
        [79.34614, 29.3587],
        [79.3459, 29.35805],
        [79.34567, 29.35745],
        [79.34542, 29.3567],
        [79.34528, 29.3559],
        [79.34518, 29.35492],
        [79.34497, 29.35289],
        [79.34494, 29.3523],
        [79.34476, 29.35087],
        [79.34457, 29.35021],
        [79.34444, 29.34962],
        [79.34421, 29.34833],
        [79.34412, 29.34753],
        [79.34399, 29.34694],
        [79.34391, 29.34639],
        [79.34375, 29.34545],
        [79.34381, 29.34451],
        [79.34396, 29.34359],
        [79.34422, 29.34259],
        [79.34435, 29.34225],
        [79.34439, 29.34196],
        [79.34447, 29.34157],
        [79.3446, 29.34099],
        [79.34467, 29.3404],
        [79.3447, 29.34006],
        [79.34468, 29.33858],
        [79.34465, 29.33808],
        [79.34447, 29.33758],
        [79.34424, 29.33718],
        [79.34407, 29.33692],
        [79.3439, 29.33651],
        [79.34377, 29.33611],
        [79.34362, 29.33517],
        [79.34372, 29.33408],
        [79.3438, 29.33359],
        [79.34383, 29.33315],
        [79.34419, 29.33204],
        [79.34437, 29.33156],
        [79.34451, 29.33117],
        [79.34464, 29.33074],
        [79.34473, 29.33035],
        [79.34476, 29.32996],
        [79.34485, 29.32957],
        [79.34497, 29.32899],
        [79.34495, 29.32855],
        [79.34499, 29.32816],
        [79.34497, 29.32786],
        [79.34491, 29.32756],
        [79.34483, 29.32716],
        [79.34476, 29.32672],
        [79.34463, 29.32617],
        [79.3442, 29.32481],
        [79.34408, 29.32441],
        [79.34385, 29.32395],
        [79.34366, 29.32315],
        [79.34351, 29.32216],
        [79.34348, 29.32157],
        [79.34351, 29.32103],
        [79.34379, 29.32018],
        [79.34434, 29.31948],
        [79.34459, 29.31916],
        [79.34499, 29.31874],
        [79.34539, 29.31842],
        [79.34585, 29.31811],
        [79.3461, 29.31788],
        [79.34656, 29.31757],
        [79.34717, 29.31712],
        [79.34748, 29.31684],
        [79.34768, 29.31661],
        [79.34783, 29.31638],
        [79.34798, 29.31614],
        [79.34832, 29.31558],
        [79.34842, 29.31534],
        [79.34856, 29.3149],
        [79.34901, 29.31169],
        [79.34975, 29.30718],
        [79.34988, 29.30631],
        [79.35002, 29.30587],
        [79.35011, 29.30544],
        [79.35027, 29.3052],
        [79.35052, 29.3051],
        [79.35084, 29.30505],
        [79.35105, 29.30506],
        [79.35174, 29.30506],
        [79.35217, 29.30514],
        [79.35286, 29.30534],
        [79.35468, 29.30591],
        [79.35564, 29.30632],
        [79.35665, 29.30659],
        [79.35782, 29.30682],
        [79.35894, 29.30709],
        [79.36005, 29.30717],
        [79.36227, 29.30703],
        [79.36321, 29.30676],
        [79.36384, 29.30651],
        [79.36478, 29.30609],
        [79.36576, 29.30555],
        [79.36622, 29.3053],
        [79.36685, 29.3049],
        [79.36748, 29.3046],
        [79.36873, 29.30396],
        [79.37041, 29.30339],
        [79.3721, 29.30308],
        [79.37284, 29.30303],
        [79.37379, 29.30305],
        [79.37528, 29.3033],
        [79.37576, 29.30344],
        [79.37645, 29.30363],
        [79.37757, 29.30396],
        [79.37826, 29.3042],
        [79.37885, 29.30444],
        [79.38056, 29.30492],
        [79.38226, 29.30524],
        [79.38831, 29.30659],
        [79.39207, 29.30744],
        [79.39382, 29.30796],
        [79.39562, 29.30862],
        [79.39626, 29.30886],
        [79.3969, 29.30924],
        [79.39812, 29.30991],
        [79.39951, 29.31079],
        [79.401, 29.31186],
        [79.40378, 29.31384],
        [79.40452, 29.31436],
        [79.40583, 29.31553],
        [79.40623, 29.31587],
        [79.40652, 29.31615],
        [79.40675, 29.31653],
        [79.40709, 29.31697],
        [79.40761, 29.31757],
        [79.40784, 29.31795],
        [79.40807, 29.31843],
        [79.4083, 29.31886],
        [79.40837, 29.31938],
        [79.40838, 29.3198],
        [79.40832, 29.32005],
        [79.40827, 29.32036],
        [79.40829, 29.32113],
        [79.40835, 29.32165],
        [79.40893, 29.32268],
        [79.40916, 29.32295],
        [79.40974, 29.32377],
        [79.41003, 29.32435],
        [79.41055, 29.32501],
        [79.41094, 29.32524],
        [79.41151, 29.32554],
        [79.41252, 29.32586],
        [79.41286, 29.32599],
        [79.41376, 29.32626],
        [79.41427, 29.32655],
        [79.41467, 29.32673],
        [79.41528, 29.32677],
        [79.41584, 29.32676],
        [79.41651, 29.32655],
        [79.41679, 29.32641],
        [79.41762, 29.32595],
        [79.41795, 29.32577],
        [79.41845, 29.32554],
        [79.41895, 29.32548],
        [79.41945, 29.32525],
        [79.41838, 29.32514],
        [79.41784, 29.32524],
        [79.4174, 29.32525],
        [79.41701, 29.32527],
        [79.41652, 29.32524],
        [79.41598, 29.32515],
        [79.415, 29.32487],
        [79.4149, 29.32468],
        [79.4148, 29.32449],
        [79.41435, 29.32392],
        [79.4133, 29.32295],
        [79.41301, 29.32275],
        [79.41281, 29.32265],
        [79.41215, 29.32138],
        [79.41194, 29.32055],
        [79.41188, 29.32],
        [79.41187, 29.31955],
        [79.41187, 29.3191],
        [79.41196, 29.3187],
        [79.41215, 29.31831],
        [79.41292, 29.31764],
        [79.41341, 29.31745],
        [79.41385, 29.31735],
        [79.41424, 29.31733],
        [79.41463, 29.31731],
        [79.41507, 29.31734],
        [79.41556, 29.31737],
        [79.41615, 29.31746],
        [79.41669, 29.31754],
        [79.41728, 29.31777],
        [79.41878, 29.31856],
        [79.41861, 29.31818],
        [79.41849, 29.31776],
        [79.41826, 29.31707],
        [79.41808, 29.31644],
        [79.41796, 29.31602],
        [79.41772, 29.31521],
        [79.41761, 29.31474],
        [79.41766, 29.31428],
        [79.41782, 29.31388],
        [79.41809, 29.31343],
        [79.41814, 29.31282],
        [79.41814, 29.31251],
        [79.41802, 29.31224],
        [79.41785, 29.31207],
        [79.41763, 29.31195],
        [79.41644, 29.31099],
        [79.41598, 29.3106],
        [79.41559, 29.31026],
        [79.41541, 29.30999],
        [79.41519, 29.30971],
        [79.41502, 29.30944],
        [79.41467, 29.30896],
        [79.41427, 29.3081],
        [79.41381, 29.30708],
        [79.41358, 29.30645],
        [79.41329, 29.30529],
        [79.42099, 29.30991],
        [79.42882, 29.31567],
        [79.42909, 29.31554],
        [79.4306, 29.31564],
        [79.43144, 29.31576],
        [79.43206, 29.31611],
        [79.43256, 29.3164],
        [79.4334, 29.31687],
        [79.43397, 29.31717],
        [79.43509, 29.31755],
        [79.43659, 29.31787],
        [79.43967, 29.31865],
        [79.44154, 29.31542],
        [79.45177, 29.3104],
        [79.45621, 29.30822],
        [79.45606, 29.30767],
        [79.45652, 29.30771],
        [79.45804, 29.30776],
        [79.45852, 29.30792],
        [79.45915, 29.30816],
        [79.46004, 29.30848],
        [79.46053, 29.3087],
        [79.4617, 29.30911],
        [79.46219, 29.30927],
        [79.46288, 29.30939],
        [79.4635, 29.30943],
        [79.46377, 29.30926],
        [79.46398, 29.30902],
        [79.46412, 29.30878],
        [79.46412, 29.30853],
        [79.46404, 29.30827],
        [79.46391, 29.308],
        [79.4637, 29.30773],
        [79.46342, 29.30752],
        [79.46328, 29.30726],
        [79.46328, 29.30694],
        [79.46335, 29.30676],
        [79.46356, 29.30646],
        [79.46383, 29.30616],
        [79.46395, 29.30585],
        [79.46403, 29.30522],
        [79.46403, 29.30484],
        [79.4641, 29.30447],
        [79.46431, 29.30398],
        [79.47386, 29.30225],
        [79.48365, 29.30109],
        [79.48406, 29.3002],
        [79.48507, 29.29929],
        [79.48607, 29.29872],
        [79.48749, 29.29822],
        [79.48885, 29.29795],
        [79.48991, 29.29786],
        [79.4918, 29.29806],
        [79.49316, 29.29839],
        [79.49499, 29.29902],
        [79.52964, 29.29684],
        [79.5482, 29.29638],
        [79.55044, 29.2958],
        [79.5528, 29.2938],
        [79.55238, 29.29328],
        [79.55216, 29.29267],
        [79.55216, 29.29179],
        [79.55237, 29.29102],
        [79.55278, 29.29017],
        [79.5532, 29.28951],
        [79.55352, 29.28934],
        [79.55446, 29.28942],
        [79.55509, 29.28947],
        [79.55678, 29.28584],
        [79.55856, 29.28306],
        [79.55919, 29.27839],
        [79.55978, 29.27571],
        [79.55356, 29.27578],
        [79.54327, 29.27469],
        [79.53813, 29.27352],
        [79.53347, 29.27169],
        [79.53352, 29.27072],
        [79.53337, 29.27002],
        [79.53323, 29.26926],
        [79.53288, 29.26873],
        [79.53224, 29.26826],
        [79.53185, 29.26823],
        [79.53116, 29.26817],
        [79.52987, 29.26825],
        [79.52818, 29.26858],
        [79.52442, 29.26567],
        [79.52181, 29.26282],
        [79.52007, 29.26045],
        [79.51727, 29.25854],
        [79.51182, 29.25642],
        [79.50459, 29.25436],
        [79.50803, 29.24966],
        [79.50866, 29.24876],
        [79.50894, 29.24814],
        [79.50916, 29.24708],
        [79.50938, 29.24589],
        [79.5096, 29.24489],
        [79.50981, 29.24433],
        [79.51002, 29.24378],
        [79.5103, 29.24342],
        [79.51071, 29.24301],
        [79.51085, 29.24289],
        [79.51139, 29.24268],
        [79.51221, 29.24249],
        [79.51295, 29.24255],
        [79.51343, 29.24266],
        [79.51376, 29.24281],
        [79.51564, 29.24373],
        [79.51672, 29.24401],
        [79.51821, 29.24426],
        [79.51885, 29.24438],
        [79.51942, 29.24448],
        [79.52037, 29.24475],
        [79.52165, 29.24511],
        [79.52272, 29.24551],
        [79.52381, 29.24603],
        [79.52481, 29.24361],
        [79.52501, 29.2431],
        [79.52519, 29.24256],
        [79.52525, 29.24208],
        [79.52531, 29.24166],
        [79.52532, 29.24113],
        [79.52533, 29.24066],
        [79.52531, 29.24023],
        [79.52526, 29.23989],
        [79.52517, 29.23964],
        [79.52507, 29.23939],
        [79.52496, 29.2392],
        [79.52479, 29.23903],
        [79.52462, 29.23888],
        [79.52559, 29.23856],
        [79.52621, 29.2384],
        [79.52689, 29.23835],
        [79.52748, 29.23837],
        [79.52891, 29.23846],
        [79.52966, 29.23847],
        [79.53031, 29.23845],
        [79.53062, 29.23842],
        [79.53096, 29.23842],
        [79.52917, 29.23557],
        [79.52871, 29.23471],
        [79.5283, 29.23372],
        [79.52806, 29.23296],
        [79.52788, 29.23207],
        [79.52853, 29.23199],
        [79.52912, 29.23198],
        [79.52993, 29.23205],
        [79.53077, 29.23214],
        [79.53172, 29.23233],
        [79.53231, 29.23246],
        [79.53286, 29.23263],
        [79.53342, 29.23284],
        [79.53409, 29.23313],
        [79.53473, 29.23327],
        [79.53566, 29.23337],
        [79.53641, 29.2334],
        [79.53669, 29.23335],
        [79.53692, 29.23321],
        [79.53709, 29.23298],
        [79.53718, 29.23283],
        [79.53721, 29.2326],
        [79.53718, 29.23225],
        [79.53711, 29.23179],
        [79.53662, 29.23068],
        [79.53634, 29.23008],
        [79.5361, 29.2295],
        [79.53588, 29.22903],
        [79.53561, 29.22861],
        [79.53528, 29.22824],
        [79.53478, 29.22788],
        [79.5344, 29.22764],
        [79.53406, 29.22745],
        [79.53378, 29.22732],
        [79.53342, 29.22729],
        [79.53297, 29.22728],
        [79.5325, 29.22729],
        [79.5318, 29.22724],
        [79.53124, 29.22716],
        [79.53093, 29.22708],
        [79.53043, 29.22699],
        [79.52979, 29.22694],
        [79.52852, 29.22699],
        [79.52699, 29.22719],
        [79.52528, 29.22734],
        [79.52424, 29.22736],
        [79.52287, 29.22725],
        [79.52236, 29.22723],
        [79.52205, 29.22726],
        [79.52172, 29.22734],
        [79.52143, 29.22745],
        [79.52123, 29.22762],
        [79.52103, 29.22781],
        [79.52092, 29.22799],
        [79.5208, 29.22824],
        [79.52077, 29.22848],
        [79.52076, 29.22882],
        [79.52079, 29.22909],
        [79.52086, 29.22939],
        [79.52089, 29.2296],
        [79.52088, 29.2299],
        [79.52085, 29.23008],
        [79.52071, 29.23017],
        [79.52046, 29.23023],
        [79.52015, 29.23023],
        [79.5197, 29.2302],
        [79.5188, 29.22996],
        [79.5145, 29.22845],
        [79.51343, 29.22807],
        [79.5125, 29.22774],
        [79.51016, 29.22691],
        [79.50797, 29.22633],
        [79.50724, 29.22621],
        [79.50623, 29.2261],
        [79.50595, 29.22611],
        [79.50561, 29.22619],
        [79.50532, 29.22627],
        [79.5043, 29.22658],
        [79.50367, 29.22674],
        [79.50266, 29.22687],
        [79.50169, 29.2269],
        [79.50144, 29.22691],
        [79.49759, 29.22198],
        [79.49679, 29.22122],
        [79.49566, 29.22014],
        [79.49394, 29.2188],
        [79.49314, 29.21808],
        [79.49214, 29.21718],
        [79.4912, 29.21657],
        [79.49075, 29.21635],
        [79.49027, 29.2162],
        [79.48932, 29.21596],
        [79.48839, 29.21586],
        [79.48829, 29.21537],
        [79.4881, 29.21504],
        [79.48736, 29.21394],
        [79.48894, 29.21275],
        [79.48942, 29.21222],
        [79.48974, 29.2118],
        [79.48991, 29.21153],
        [79.49009, 29.21117],
        [79.49024, 29.21079],
        [79.49027, 29.21055],
        [79.49027, 29.21033],
        [79.49026, 29.21009],
        [79.49017, 29.20981],
        [79.49008, 29.20961],
        [79.48993, 29.20942],
        [79.48977, 29.20925],
        [79.48938, 29.20891],
        [79.48913, 29.20867],
        [79.489, 29.20853],
        [79.48875, 29.2082],
        [79.48857, 29.20794],
        [79.48846, 29.20773],
        [79.4884, 29.20753],
        [79.48836, 29.20733],
        [79.48834, 29.20713],
        [79.48832, 29.20693],
        [79.48828, 29.20679],
        [79.48819, 29.20665],
        [79.48778, 29.20638],
        [79.48739, 29.20606],
        [79.48659, 29.20522],
        [79.4861, 29.20312],
        [79.48608, 29.20256],
        [79.48606, 29.20214],
        [79.48603, 29.20169],
        [79.48597, 29.20123],
        [79.4859, 29.20082],
        [79.48565, 29.20016],
        [79.48947, 29.20008],
        [79.49183, 29.19997],
        [79.49321, 29.20001],
        [79.49326, 29.1989],
        [79.49327, 29.19858],
        [79.49329, 29.19809],
        [79.49331, 29.19749],
        [79.49329, 29.19706],
        [79.49331, 29.19657],
        [79.49329, 29.19625],
        [79.49327, 29.1959],
        [79.4933, 29.19524],
        [79.49334, 29.1949],
        [79.49335, 29.19458],
        [79.49336, 29.19424],
        [79.49337, 29.19392],
        [79.49339, 29.1936],
        [79.49331, 29.19317],
        [79.49315, 29.19258],
        [79.49274, 29.19122],
        [79.49412, 29.19176],
        [79.49442, 29.19186],
        [79.49443, 29.19078],
        [79.49444, 29.18967],
        [79.49449, 29.189],
        [79.49458, 29.18851],
        [79.49469, 29.18809],
        [79.49488, 29.1874],
        [79.49507, 29.1868],
        [79.49531, 29.18636],
        [79.49556, 29.1858],
        [79.4958, 29.18542],
        [79.4965, 29.18446],
        [79.49703, 29.18454],
        [79.49786, 29.18465],
        [79.49952, 29.18116],
        [79.49886, 29.1811],
        [79.49817, 29.17937],
        [79.49776, 29.17832],
        [79.49736, 29.17719],
        [79.49725, 29.17693],
        [79.49709, 29.1767],
        [79.4969, 29.17655],
        [79.49657, 29.17644],
        [79.49631, 29.17636],
        [79.49616, 29.17631],
        [79.4958, 29.17625],
        [79.49526, 29.17612],
        [79.49477, 29.17605],
        [79.49332, 29.17585],
        [79.49389, 29.17459],
        [79.49404, 29.17396],
        [79.4942, 29.17304],
        [79.49423, 29.17241],
        [79.49432, 29.17148],
        [79.49122, 29.17139],
        [79.49164, 29.1704],
        [79.49205, 29.16986],
        [79.49232, 29.16957],
        [79.49254, 29.16938],
        [79.49274, 29.16926],
        [79.49294, 29.16917],
        [79.49313, 29.16917],
        [79.49346, 29.16917],
        [79.49367, 29.16921],
        [79.49392, 29.16926],
        [79.49418, 29.16737],
        [79.49422, 29.16653],
        [79.49423, 29.1658],
        [79.49417, 29.16483],
        [79.49409, 29.16425],
        [79.49397, 29.16388],
        [79.49382, 29.1635],
        [79.49334, 29.16285],
        [79.49236, 29.16164],
        [79.49132, 29.16024],
        [79.48964, 29.15848],
        [79.48865, 29.15763],
        [79.48776, 29.15701],
        [79.48705, 29.15658],
        [79.48622, 29.15625],
        [79.48517, 29.156],
        [79.48406, 29.15588],
        [79.48219, 29.15579],
        [79.48208, 29.15507],
        [79.48197, 29.15434],
        [79.48184, 29.15396],
        [79.48162, 29.15364],
        [79.48129, 29.15331],
        [79.48046, 29.15279],
        [79.47841, 29.15182],
        [79.47712, 29.15115],
        [79.47637, 29.15071],
        [79.476, 29.1503],
        [79.4758, 29.14984],
        [79.47568, 29.14879],
        [79.47574, 29.14741],
        [79.47588, 29.14648],
        [79.47636, 29.14472],
        [79.47676, 29.14408],
        [79.4771, 29.14373],
        [79.47751, 29.14351],
        [79.47794, 29.14339],
        [79.47889, 29.14332],
        [79.48017, 29.14336],
        [79.48114, 29.14344],
        [79.48215, 29.14357],
        [79.48265, 29.14361],
        [79.48316, 29.14362],
        [79.48379, 29.14345],
        [79.48404, 29.14324],
        [79.48422, 29.14292],
        [79.48432, 29.14263],
        [79.48438, 29.14226],
        [79.48442, 29.14181],
        [79.4823, 29.13996],
        [79.47944, 29.13724],
        [79.47697, 29.13511],
        [79.47396, 29.1332],
        [79.46766, 29.13066],
        [79.46319, 29.12896],
        [79.4553, 29.12663],
        [79.44228, 29.12223],
        [79.4361, 29.12016],
        [79.4339, 29.11768],
        [79.4309, 29.11578],
        [79.42838, 29.11454],
        [79.42475, 29.11242],
        [79.42291, 29.11158],
        [79.41583, 29.10832],
        [79.40741, 29.10598],
        [79.39318, 29.10273],
        [79.38066, 29.09996],
        [79.36394, 29.09585],
        [79.36094, 29.09493],
        [79.35737, 29.09723],
        [79.35362, 29.09984],
        [79.34991, 29.10279],
        [79.34873, 29.10374],
        [79.34678, 29.10532],
        [79.34366, 29.10793],
        [79.34085, 29.11021],
        [79.33669, 29.11399],
        [79.33389, 29.11658],
        [79.33067, 29.11971],
        [79.32707, 29.12361],
        [79.32513, 29.1257],
        [79.32371, 29.1268],
        [79.32146, 29.12852],
        [79.31892, 29.13035],
        [79.316, 29.13237],
        [79.31269, 29.13453],
        [79.31027, 29.13631],
        [79.30772, 29.13796],
        [79.30113, 29.14259],
        [79.29726, 29.14591],
        [79.29426, 29.14833],
        [79.29196, 29.15003],
        [79.29096, 29.15089],
        [79.29034, 29.15163],
        [79.28964, 29.15184],
        [79.2884, 29.15201],
        [79.28643, 29.15273],
        [79.28453, 29.15379],
        [79.28293, 29.15529],
        [79.28063, 29.15779],
        [79.27935, 29.15915],
        [79.27781, 29.16017],
        [79.27546, 29.16221],
        [79.27486, 29.16274],
        [79.27354, 29.16408],
        [79.27154, 29.16651],
        [79.26933, 29.16958],
        [79.26698, 29.17212],
        [79.26515, 29.17431],
        [79.2641, 29.17532],
        [79.26163, 29.17657],
        [79.25945, 29.17745],
        [79.25547, 29.17863],
        [79.25148, 29.18007],
        [79.24856, 29.18122],
        [79.24781, 29.18193],
        [79.24764, 29.18224],
        [79.24756, 29.18254],
        [79.24753, 29.18283],
        [79.24752, 29.18315],
        [79.24755, 29.18362],
        [79.24765, 29.1845],
        [79.24768, 29.18491],
        [79.24764, 29.18628],
        [79.24746, 29.18797],
        [79.2475, 29.18954],
        [79.24755, 29.19072],
        [79.24745, 29.19174],
        [79.24718, 29.19306],
        [79.24669, 29.19435],
        [79.24533, 29.19728],
        [79.24423, 29.19909],
        [79.24409, 29.19937],
        [79.24409, 29.19958],
        [79.2442, 29.19978],
        [79.24473, 29.20024],
        [79.24538, 29.20109],
        [79.24655, 29.20326],
        [79.24681, 29.20554],
        [79.24698, 29.20717],
        [79.2472, 29.20908],
        [79.24751, 29.21094],
        [79.24767, 29.21148],
        [79.24802, 29.21205],
        [79.2486, 29.21231],
        [79.25011, 29.21355],
        [79.25276, 29.21566],
        [79.25598, 29.21771],
        [79.25859, 29.21953],
        [79.26067, 29.2216],
        [79.26185, 29.22245],
        [79.26363, 29.22403],
        [79.26458, 29.22509],
        [79.26499, 29.22588],
        [79.26531, 29.2268],
        [79.26559, 29.22796],
        [79.26597, 29.22855],
        [79.26687, 29.22956],
        [79.26991, 29.23241],
        [79.27145, 29.23405],
        [79.27271, 29.23549],
        [79.2736, 29.23679],
        [79.27394, 29.23777],
        [79.27432, 29.23906],
        [79.2744, 29.23917],
        [79.27445, 29.23932],
        [79.27445, 29.23949],
        [79.27443, 29.23964],
        [79.27438, 29.23968],
        [79.27414, 29.23974],
        [79.27333, 29.23988],
        [79.27256, 29.24004],
        [79.26947, 29.24104],
        [79.26749, 29.24147],
        [79.26369, 29.24173],
        [79.25914, 29.2419],
        [79.25333, 29.24235],
        [79.24881, 29.24266],
        [79.24772, 29.24231],
        [79.24631, 29.24271],
        [79.24445, 29.24316],
        [79.24244, 29.24339],
        [79.23971, 29.24377],
        [79.23814, 29.2441],
        [79.23591, 29.24455],
        [79.23209, 29.24523],
        [79.22956, 29.24577],
        [79.22595, 29.24639],
        [79.22285, 29.24726],
        [79.21844, 29.2486],
        [79.21552, 29.24953],
        [79.21404, 29.25008],
        [79.20774, 29.25169],
        [79.2013, 29.25341],
        [79.19447, 29.25521],
        [79.18934, 29.25648],
        [79.18443, 29.25778],
        [79.17999, 29.259],
        [79.17163, 29.26118],
        [79.16671, 29.26244],
        [79.16407, 29.26312],
        [79.16238, 29.26345],
        [79.16137, 29.26384],
        [79.1602, 29.26475],
        [79.15894, 29.26607],
        [79.15787, 29.26697],
        [79.15696, 29.26739],
        [79.1559, 29.26756],
        [79.15449, 29.26752],
        [79.15295, 29.26731],
        [79.15208, 29.26719],
        [79.15155, 29.26715],
        [79.15062, 29.26725],
        [79.14922, 29.26775],
        [79.14576, 29.26915],
        [79.14189, 29.2715],
        [79.13992, 29.27304],
        [79.1386, 29.27372],
        [79.13878, 29.27405],
        [79.13891, 29.27479],
        [79.13941, 29.27644],
        [79.13961, 29.27769],
        [79.14012, 29.27877],
        [79.14037, 29.27942],
        [79.14069, 29.27993],
        [79.14094, 29.28036],
        [79.14113, 29.28065],
        [79.14138, 29.28101],
        [79.14163, 29.28145],
        [79.14176, 29.28173],
        [79.14189, 29.28216],
        [79.14196, 29.28279],
        [79.14197, 29.28363],
        [79.14198, 29.28467],
        [79.14199, 29.28558],
        [79.14201, 29.28725],
        [79.14172, 29.28859],
        [79.14153, 29.28893],
        [79.14123, 29.28996],
        [79.14105, 29.29037],
        [79.14076, 29.29217],
        [79.1409, 29.293],
        [79.14104, 29.29404],
        [79.14111, 29.29466],
        [79.14137, 29.2955],
        [79.14164, 29.2964],
        [79.14178, 29.29695],
        [79.14197, 29.2973],
        [79.14223, 29.29792],
        [79.14269, 29.29848],
        [79.1434, 29.29945],
        [79.14359, 29.29973],
        [79.14385, 29.30014],
        [79.14392, 29.30042],
        [79.14413, 29.30131],
        [79.14434, 29.30247],
        [79.14468, 29.30376],
        [79.14495, 29.30438],
        [79.14534, 29.30499],
        [79.14625, 29.30616],
        [79.14677, 29.30691],
        [79.14704, 29.30729],
        [79.14789, 29.30851],
        [79.14809, 29.30912],
        [79.14811, 29.30966],
        [79.14812, 29.31006],
        [79.14814, 29.31066],
        [79.14815, 29.31126],
        [79.14823, 29.3116],
        [79.14837, 29.31221],
        [79.1485, 29.31254],
        [79.14857, 29.31274],
        [79.14877, 29.31301],
        [79.14909, 29.31335],
        [79.14941, 29.31356],
        [79.14967, 29.31383],
        [79.14993, 29.31403],
        [79.15019, 29.3143],
        [79.15052, 29.31464],
        [79.15152, 29.31569],
        [79.15233, 29.31653],
        [79.15285, 29.31707],
        [79.15376, 29.31795],
        [79.15409, 29.31835],
        [79.15434, 29.31855],
        [79.15493, 29.31909],
        [79.15558, 29.31976],
        [79.15577, 29.32003],
        [79.15604, 29.32043],
        [79.15624, 29.32083],
        [79.15653, 29.32124],
        [79.1582, 29.32292],
        [79.15846, 29.32325],
        [79.15878, 29.32358],
        [79.15905, 29.32391],
        [79.15931, 29.32438],
        [79.15951, 29.32464],
        [79.15971, 29.32497],
        [79.15991, 29.32536],
        [79.16005, 29.32563],
        [79.1602, 29.32621],
        [79.16068, 29.32739],
        [79.16083, 29.32798],
        [79.16097, 29.32856],
        [79.16098, 29.32878],
        [79.161, 29.32921],
        [79.16109, 29.32979],
        [79.1611, 29.33018],
        [79.16119, 29.33076],
        [79.16122, 29.33154],
        [79.16125, 29.33231],
        [79.16129, 29.33328],
        [79.1613, 29.33355],
        [79.16131, 29.33379],
        [79.16139, 29.33424],
        [79.1614, 29.33448],
        [79.16142, 29.33475],
        [79.16143, 29.33501],
        [79.16151, 29.33559],
        [79.16155, 29.33636],
        [79.16164, 29.33706],
        [79.16185, 29.33771],
        [79.1622, 29.33854],
        [79.16225, 29.33956],
        [79.16217, 29.34046],
        [79.1621, 29.34138],
        [79.16212, 29.34184],
        [79.16215, 29.34254],
        [79.16229, 29.34323],
        [79.16244, 29.34398],
        [79.16258, 29.34445],
        [79.16271, 29.34491],
        [79.16302, 29.34543],
        [79.16318, 29.34564],
        [79.16338, 29.3459],
        [79.16361, 29.34613],
        [79.16403, 29.34649],
        [79.16455, 29.34672],
        [79.16519, 29.34708],
        [79.16648, 29.34808],
        [79.16677, 29.34831],
        [79.16701, 29.34854],
        [79.16783, 29.34919],
        [79.16836, 29.34971],
        [79.16923, 29.35041],
        [79.1696, 29.35071],
        [79.17124, 29.35188],
        [79.17164, 29.35212],
        [79.17222, 29.35247],
        [79.17257, 29.3527],
        [79.17304, 29.353],
        [79.17356, 29.35329],
        [79.17409, 29.35364],
        [79.17461, 29.35388],
        [79.1749, 29.35417],
        [79.17531, 29.35446],
        [79.177, 29.35558],
        [79.17741, 29.35604],
        [79.17765, 29.35627],
        [79.17789, 29.3565],
        [79.17824, 29.35696],
        [79.17848, 29.35725],
        [79.17867, 29.35759],
        [79.17885, 29.35794],
        [79.17899, 29.35845],
        [79.17918, 29.35891],
        [79.17942, 29.35925],
        [79.17977, 29.35971],
        [79.18012, 29.35994],
        [79.18047, 29.36012],
        [79.18093, 29.36035],
        [79.18167, 29.36065],
        [79.18213, 29.36077],
        [79.18264, 29.36089],
        [79.18327, 29.36107],
        [79.18384, 29.36131],
        [79.18487, 29.36166],
        [79.18544, 29.36184],
        [79.18687, 29.36221],
        [79.1883, 29.3628],
        [79.19132, 29.36445],
        [79.19419, 29.36597],
        [79.19465, 29.3662],
        [79.19533, 29.36644],
        [79.19582, 29.36665],
        [79.19605, 29.36674],
        [79.19646, 29.36688],
        [79.19691, 29.36706],
        [79.19752, 29.36732],
        [79.20333, 29.36923],
        [79.20659, 29.37025],
        [79.20981, 29.37165],
        [79.21066, 29.37242],
        [79.21113, 29.37312],
        [79.21139, 29.37512],
        [79.2114, 29.37699],
        [79.21111, 29.37852],
        [79.21791, 29.38366],
        [79.22147, 29.38896],
        [79.22595, 29.39427],
        [79.22889, 29.39634],
        [79.23298, 29.39883],
        [79.24047, 29.40339],
        [79.24547, 29.40629],
        [79.2514, 29.40821],
        [79.25643, 29.4099],
        [79.26306, 29.41183],
        [79.26944, 29.41476],
        [79.27236, 29.41763],
        [79.27405, 29.41423],
        [79.27665, 29.41085],
        [79.28037, 29.4093],
        [79.28454, 29.40796],
        [79.28683, 29.40861],
        [79.29073, 29.40887],
        [79.29507, 29.41015],
        [79.29804, 29.41121],
        [79.30042, 29.41283],
        [79.30157, 29.41279],
        [79.30533, 29.41289],
        [79.30743, 29.413],
        [79.30853, 29.41294],
        [79.30997, 29.41289],
        [79.31116, 29.41289],
        [79.31288, 29.41287],
        [79.31332, 29.41277],
        [79.31343, 29.41266],
        [79.31353, 29.41252],
        [79.31359, 29.41231],
        [79.31363, 29.41214],
        [79.31363, 29.41198],
        [79.31448, 29.41173],
        [79.31556, 29.41183],
        [79.31604, 29.41208],
        [79.31677, 29.4124],
        [79.3175, 29.41289],
        [79.31805, 29.41332],
        [79.31848, 29.41351],
        [79.31958, 29.41419],
        [79.32025, 29.41479],
        [79.32112, 29.41563],
        [79.32167, 29.41606],
        [79.32228, 29.41643],
        [79.32307, 29.41686],
        [79.32386, 29.4173],
        [79.32436, 29.4179],
        [79.32492, 29.41844],
        [79.3256, 29.41906],
        [79.32572, 29.41916],
        [79.3262, 29.41935],
        [79.32646, 29.41931],
        [79.32667, 29.41908],
        [79.32677, 29.41862],
        [79.32676, 29.41828],
        [79.32679, 29.41795],
        [79.3268, 29.41782],
        [79.3269, 29.41748],
        [79.32701, 29.41714],
        [79.32718, 29.41685],
        [79.32751, 29.41623],
        [79.32784, 29.41555],
        [79.32811, 29.41493],
        [79.32827, 29.41441],
        [79.3284, 29.41387],
        [79.32847, 29.41356],
        [79.32844, 29.41275],
        [79.32841, 29.41205]
      ]
    ]
  }
}
