{
  "type": "Feature",
  "id": "UK-AC-62",
  "properties": {
    "stateName": "UTTARAKHAND",
    "stateCode": "UK",
    "districtName": "UDHAM SINGH NAGAR",
    "acNo": 62,
    "acName": "JASPUR",
    "seatType": null,
    "pcNo": null,
    "pcName": null,
    "quality": "unverified",
    "sources": [
      "TBD"
    ]
  },
  "geometry": {
    "type": "Polygon",
    "coordinates": [
      [
        [78.85612, 29.34992],
        [78.85655, 29.35001],
        [78.85668, 29.34997],
        [78.85682, 29.34995],
        [78.85695, 29.34993],
        [78.85709, 29.34992],
        [78.85722, 29.34992],
        [78.85736, 29.34992],
        [78.85749, 29.34994],
        [78.85763, 29.34996],
        [78.85776, 29.34999],
        [78.85788, 29.35007],
        [78.85799, 29.35016],
        [78.85811, 29.35025],
        [78.85822, 29.35034],
        [78.85833, 29.35043],
        [78.85843, 29.35053],
        [78.85853, 29.35064],
        [78.85863, 29.35074],
        [78.85873, 29.35085],
        [78.85883, 29.35087],
        [78.85894, 29.35088],
        [78.85904, 29.35089],
        [78.85914, 29.35089],
        [78.85925, 29.35089],
        [78.85935, 29.35087],
        [78.85946, 29.35086],
        [78.85956, 29.35083],
        [78.85966, 29.3508],
        [78.85985, 29.35074],
        [78.86004, 29.35068],
        [78.86024, 29.35063],
        [78.86044, 29.35059],
        [78.86064, 29.35056],
        [78.86084, 29.35054],
        [78.86104, 29.35053],
        [78.86124, 29.35053],
        [78.86145, 29.35055],
        [78.86183, 29.35046],
        [78.86221, 29.35037],
        [78.86259, 29.35028],
        [78.86296, 29.35018],
        [78.86334, 29.35007],
        [78.86371, 29.34995],
        [78.86408, 29.34982],
        [78.86445, 29.34969],
        [78.86481, 29.34955],
        [78.86524, 29.34936],
        [78.86566, 29.34914],
        [78.86606, 29.3489],
        [78.86645, 29.34864],
        [78.86683, 29.34835],
        [78.86719, 29.34804],
        [78.86753, 29.34772],
        [78.86785, 29.34737],
        [78.86815, 29.34701],
        [78.86831, 29.34681],
        [78.86846, 29.34661],
        [78.8686, 29.3464],
        [78.86873, 29.34618],
        [78.86886, 29.34596],
        [78.86897, 29.34574],
        [78.86908, 29.34551],
        [78.86918, 29.34528],
        [78.86928, 29.34504],
        [78.86932, 29.34499],
        [78.86938, 29.34495],
        [78.86944, 29.34492],
        [78.8695, 29.34489],
        [78.86957, 29.34488],
        [78.86964, 29.34487],
        [78.86971, 29.34488],
        [78.86977, 29.34489],
        [78.86984, 29.34491],
        [78.87024, 29.34501],
        [78.87064, 29.34511],
        [78.87105, 29.34521],
        [78.87145, 29.34532],
        [78.87185, 29.34543],
        [78.87225, 29.34555],
        [78.87264, 29.34567],
        [78.87304, 29.3458],
        [78.87344, 29.34593],
        [78.87535, 29.34672],
        [78.87593, 29.34702],
        [78.87614, 29.34733],
        [78.87841, 29.3509],
        [78.87884, 29.35175],
        [78.88084, 29.34913],
        [78.88615, 29.34185],
        [78.88751, 29.34226],
        [78.89025, 29.3434],
        [78.89211, 29.3445],
        [78.89323, 29.34541],
        [78.89353, 29.34552],
        [78.89383, 29.34561],
        [78.89414, 29.34567],
        [78.89446, 29.3457],
        [78.89478, 29.34571],
        [78.8951, 29.34569],
        [78.89541, 29.34564],
        [78.89572, 29.34556],
        [78.89602, 29.34545],
        [78.89646, 29.34535],
        [78.89692, 29.34529],
        [78.89737, 29.34527],
        [78.89783, 29.34529],
        [78.89828, 29.34534],
        [78.89873, 29.34543],
        [78.89917, 29.34556],
        [78.8996, 29.34572],
        [78.90001, 29.34592],
        [78.90034, 29.34598],
        [78.90067, 29.34601],
        [78.901, 29.34602],
        [78.90133, 29.346],
        [78.90166, 29.34597],
        [78.90199, 29.34591],
        [78.90231, 29.34583],
        [78.90263, 29.34572],
        [78.90294, 29.3456],
        [78.90336, 29.34555],
        [78.90378, 29.3455],
        [78.90421, 29.34546],
        [78.90463, 29.34542],
        [78.90505, 29.34539],
        [78.90548, 29.34536],
        [78.9059, 29.34534],
        [78.90632, 29.34533],
        [78.90675, 29.34532],
        [78.90721, 29.34527],
        [78.90767, 29.34522],
        [78.90812, 29.34516],
        [78.90858, 29.34511],
        [78.90904, 29.34505],
        [78.9095, 29.34499],
        [78.90995, 29.34493],
        [78.91041, 29.34487],
        [78.91087, 29.3448],
        [78.91157, 29.34466],
        [78.91227, 29.34449],
        [78.91296, 29.34428],
        [78.91364, 29.34404],
        [78.9143, 29.34377],
        [78.91495, 29.34347],
        [78.91559, 29.34314],
        [78.91621, 29.34278],
        [78.91682, 29.34239],
        [78.91698, 29.34225],
        [78.91716, 29.34214],
        [78.91736, 29.34205],
        [78.91756, 29.34197],
        [78.91777, 29.34193],
        [78.91798, 29.3419],
        [78.91819, 29.3419],
        [78.91841, 29.34192],
        [78.91861, 29.34197],
        [78.91888, 29.34197],
        [78.91914, 29.34197],
        [78.91941, 29.34196],
        [78.91967, 29.34193],
        [78.91993, 29.3419],
        [78.92019, 29.34186],
        [78.92045, 29.34181],
        [78.92071, 29.34176],
        [78.92096, 29.34169],
        [78.92143, 29.34165],
        [78.9219, 29.3416],
        [78.92236, 29.34154],
        [78.92282, 29.34147],
        [78.92329, 29.34139],
        [78.92374, 29.34129],
        [78.9242, 29.34118],
        [78.92465, 29.34107],
        [78.9251, 29.34094],
        [78.92525, 29.34094],
        [78.92539, 29.34095],
        [78.92553, 29.34097],
        [78.92567, 29.34099],
        [78.92581, 29.34103],
        [78.92595, 29.34107],
        [78.92608, 29.34112],
        [78.92621, 29.34117],
        [78.92634, 29.34124],
        [78.92659, 29.34137],
        [78.92686, 29.34145],
        [78.92713, 29.3415],
        [78.92741, 29.34149],
        [78.92769, 29.34145],
        [78.92796, 29.34136],
        [78.92821, 29.34123],
        [78.92843, 29.34106],
        [78.92862, 29.34085],
        [78.92889, 29.34052],
        [78.92915, 29.34018],
        [78.92941, 29.33984],
        [78.92966, 29.33949],
        [78.9299, 29.33914],
        [78.93013, 29.33878],
        [78.93036, 29.33842],
        [78.93059, 29.33805],
        [78.9308, 29.33769],
        [78.93094, 29.33733],
        [78.93112, 29.337],
        [78.93135, 29.33671],
        [78.93163, 29.33645],
        [78.93194, 29.33624],
        [78.93228, 29.33608],
        [78.93264, 29.33596],
        [78.93301, 29.33591],
        [78.93339, 29.33591],
        [78.93392, 29.33577],
        [78.93444, 29.3356],
        [78.93494, 29.3354],
        [78.93544, 29.33517],
        [78.93591, 29.33491],
        [78.93638, 29.33462],
        [78.93682, 29.3343],
        [78.93724, 29.33395],
        [78.93764, 29.33358],
        [78.93793, 29.33325],
        [78.93824, 29.33293],
        [78.93857, 29.33265],
        [78.93892, 29.33239],
        [78.9393, 29.33216],
        [78.93969, 29.33196],
        [78.94009, 29.33179],
        [78.94051, 29.33166],
        [78.94094, 29.33156],
        [78.94131, 29.33138],
        [78.94168, 29.33121],
        [78.94206, 29.33105],
        [78.94244, 29.33089],
        [78.94282, 29.33073],
        [78.9432, 29.33058],
        [78.94358, 29.33044],
        [78.94397, 29.3303],
        [78.94435, 29.33017],
        [78.94466, 29.33009],
        [78.94497, 29.33001],
        [78.94528, 29.32995],
        [78.9456, 29.32989],
        [78.94591, 29.32984],
        [78.94623, 29.32981],
        [78.94654, 29.32978],
        [78.94686, 29.32977],
        [78.94718, 29.32976],
        [78.94741, 29.32975],
        [78.94763, 29.3297],
        [78.94784, 29.32962],
        [78.94804, 29.32952],
        [78.94823, 29.32938],
        [78.94839, 29.32923],
        [78.94853, 29.32905],
        [78.94865, 29.32885],
        [78.94873, 29.32864],
        [78.94892, 29.32842],
        [78.94911, 29.3282],
        [78.94931, 29.32798],
        [78.94951, 29.32777],
        [78.94971, 29.32755],
        [78.94991, 29.32734],
        [78.95012, 29.32714],
        [78.95033, 29.32694],
        [78.95055, 29.32674],
        [78.95069, 29.32658],
        [78.95083, 29.32642],
        [78.95097, 29.32625],
        [78.95111, 29.32609],
        [78.95124, 29.32592],
        [78.95137, 29.32575],
        [78.9515, 29.32558],
        [78.95163, 29.3254],
        [78.95176, 29.32523],
        [78.95188, 29.32513],
        [78.952, 29.32505],
        [78.95214, 29.32497],
        [78.95229, 29.32491],
        [78.95243, 29.32487],
        [78.95259, 29.32483],
        [78.95274, 29.32481],
        [78.95289, 29.32481],
        [78.95305, 29.32482],
        [78.95424, 29.32499],
        [78.95439, 29.325],
        [78.95453, 29.32498],
        [78.95466, 29.32495],
        [78.9548, 29.32491],
        [78.95493, 29.32485],
        [78.95505, 29.32477],
        [78.95516, 29.32469],
        [78.95526, 29.32459],
        [78.95535, 29.32448],
        [78.95547, 29.32432],
        [78.95561, 29.32416],
        [78.95574, 29.324],
        [78.95587, 29.32385],
        [78.95601, 29.32369],
        [78.95615, 29.32354],
        [78.95629, 29.32339],
        [78.95643, 29.32324],
        [78.95658, 29.32309],
        [78.95693, 29.32286],
        [78.95727, 29.32262],
        [78.95761, 29.32237],
        [78.95794, 29.32211],
        [78.95827, 29.32185],
        [78.95859, 29.32157],
        [78.9589, 29.32129],
        [78.9592, 29.321],
        [78.95949, 29.3207],
        [78.95964, 29.32065],
        [78.95979, 29.32059],
        [78.95993, 29.32052],
        [78.96007, 29.32044],
        [78.9602, 29.32035],
        [78.96032, 29.32025],
        [78.96043, 29.32014],
        [78.96054, 29.32003],
        [78.96063, 29.3199],
        [78.96116, 29.31945],
        [78.96121, 29.31936],
        [78.96125, 29.31926],
        [78.96128, 29.31916],
        [78.96129, 29.31906],
        [78.9613, 29.31896],
        [78.96129, 29.31886],
        [78.96128, 29.31876],
        [78.96125, 29.31866],
        [78.96121, 29.31857],
        [78.96119, 29.31849],
        [78.9612, 29.31841],
        [78.96122, 29.31833],
        [78.96127, 29.31827],
        [78.96134, 29.31822],
        [78.96141, 29.31819],
        [78.96149, 29.31819],
        [78.96157, 29.3182],
        [78.96164, 29.31824],
        [78.96216, 29.31819],
        [78.96269, 29.31815],
        [78.96321, 29.3181],
        [78.96374, 29.31805],
        [78.96426, 29.318],
        [78.96479, 29.31796],
        [78.96531, 29.31791],
        [78.96583, 29.31786],
        [78.96636, 29.31781],
        [78.9669, 29.31765],
        [78.96744, 29.31747],
        [78.96798, 29.31726],
        [78.9685, 29.31704],
        [78.96901, 29.31679],
        [78.96952, 29.31653],
        [78.97001, 29.31624],
        [78.97049, 29.31593],
        [78.97095, 29.31561],
        [78.97149, 29.31524],
        [78.97201, 29.31483],
        [78.97249, 29.31439],
        [78.97294, 29.31391],
        [78.97336, 29.31341],
        [78.97375, 29.31288],
        [78.9741, 29.31233],
        [78.97442, 29.31175],
        [78.97469, 29.31116],
        [78.97483, 29.31094],
        [78.97497, 29.31073],
        [78.97513, 29.31052],
        [78.97529, 29.31032],
        [78.97546, 29.31013],
        [78.97564, 29.30994],
        [78.97583, 29.30976],
        [78.97602, 29.30959],
        [78.97622, 29.30943],
        [78.97642, 29.30926],
        [78.97664, 29.30911],
        [78.97687, 29.30899],
        [78.97711, 29.3089],
        [78.97737, 29.30883],
        [78.97763, 29.3088],
        [78.97789, 29.30879],
        [78.97815, 29.30882],
        [78.9784, 29.30887],
        [78.97871, 29.30883],
        [78.97901, 29.30881],
        [78.97932, 29.30882],
        [78.97962, 29.30885],
        [78.97992, 29.3089],
        [78.98022, 29.30897],
        [78.98052, 29.30906],
        [78.9808, 29.30917],
        [78.98108, 29.3093],
        [78.98141, 29.30963],
        [78.98172, 29.30998],
        [78.98201, 29.31035],
        [78.98227, 29.31074],
        [78.98251, 29.31115],
        [78.98272, 29.31157],
        [78.9829, 29.312],
        [78.98305, 29.31245],
        [78.98317, 29.3129],
        [78.9833, 29.31318],
        [78.98343, 29.31346],
        [78.98355, 29.31375],
        [78.98367, 29.31403],
        [78.98378, 29.31432],
        [78.98389, 29.31461],
        [78.98399, 29.31491],
        [78.98408, 29.3152],
        [78.98417, 29.3155],
        [78.98417, 29.31556],
        [78.98419, 29.31561],
        [78.98423, 29.31567],
        [78.98427, 29.31571],
        [78.98433, 29.31573],
        [78.98439, 29.31574],
        [78.98445, 29.31574],
        [78.9845, 29.31572],
        [78.98456, 29.31569],
        [78.98538, 29.31533],
        [78.98621, 29.31497],
        [78.98704, 29.31461],
        [78.98787, 29.31425],
        [78.98869, 29.3139],
        [78.98952, 29.31354],
        [78.99035, 29.31319],
        [78.99118, 29.31283],
        [78.99201, 29.31248],
        [78.9922, 29.3124],
        [78.99239, 29.31233],
        [78.99241, 29.31233],
        [78.9929, 29.30852],
        [78.9931, 29.30838],
        [78.99378, 29.3079],
        [78.99506, 29.30756],
        [78.99668, 29.30751],
        [78.99806, 29.30785],
        [79.0009, 29.30875],
        [79.00243, 29.30974],
        [79.00242, 29.30915],
        [79.0025, 29.30784],
        [79.00263, 29.30575],
        [79.0024, 29.30271],
        [79.00232, 29.30051],
        [79.0019, 29.29753],
        [79.00076, 29.29391],
        [78.99957, 29.29188],
        [78.99881, 29.29099],
        [78.99821, 29.29029],
        [78.99637, 29.28876],
        [78.99376, 29.28637],
        [78.99116, 29.28451],
        [78.98977, 29.28318],
        [78.98926, 29.28248],
        [78.98861, 29.28272],
        [78.98838, 29.2828],
        [78.98743, 29.28029],
        [78.98644, 29.27733],
        [78.9856, 29.27517],
        [78.9822, 29.27407],
        [78.97976, 29.27427],
        [78.97833, 29.27449],
        [78.97587, 29.27545],
        [78.97501, 29.27569],
        [78.97007, 29.27582],
        [78.96799, 29.27531],
        [78.96552, 29.27483],
        [78.96281, 29.27402],
        [78.96308, 29.27249],
        [78.96366, 29.271],
        [78.96421, 29.2694],
        [78.96421, 29.26836],
        [78.96403, 29.26721],
        [78.96369, 29.26638],
        [78.96326, 29.26596],
        [78.96216, 29.26543],
        [78.95976, 29.26499],
        [78.95742, 29.2643],
        [78.9556, 29.26342],
        [78.95442, 29.26205],
        [78.95379, 29.26073],
        [78.9538, 29.2597],
        [78.95439, 29.2599],
        [78.95508, 29.26036],
        [78.95576, 29.25643],
        [78.95604, 29.25359],
        [78.95759, 29.25013],
        [78.95934, 29.24577],
        [78.96024, 29.24431],
        [78.96042, 29.24165],
        [78.96091, 29.2369],
        [78.96066, 29.23605],
        [78.96079, 29.23064],
        [78.96099, 29.22678],
        [78.95977, 29.2252],
        [78.95793, 29.22342],
        [78.95491, 29.22169],
        [78.9524, 29.22047],
        [78.94994, 29.21975],
        [78.94596, 29.2195],
        [78.94265, 29.21909],
        [78.93784, 29.219],
        [78.93349, 29.21844],
        [78.92979, 29.21875],
        [78.92704, 29.21952],
        [78.92492, 29.22077],
        [78.92139, 29.22364],
        [78.91863, 29.22462],
        [78.91625, 29.22524],
        [78.91471, 29.22588],
        [78.91129, 29.22721],
        [78.9073, 29.22838],
        [78.90515, 29.22925],
        [78.9041, 29.22992],
        [78.9032, 29.23077],
        [78.90265, 29.23141],
        [78.90271, 29.2299],
        [78.90278, 29.2293],
        [78.90257, 29.22902],
        [78.9021, 29.22865],
        [78.90142, 29.22812],
        [78.90072, 29.22698],
        [78.90022, 29.22592],
        [78.89967, 29.22427],
        [78.8988, 29.2214],
        [78.89849, 29.22079],
        [78.89814, 29.22059],
        [78.89725, 29.22048],
        [78.89665, 29.22045],
        [78.89467, 29.22091],
        [78.89066, 29.2221],
        [78.8893, 29.22245],
        [78.88844, 29.22259],
        [78.88718, 29.22245],
        [78.88738, 29.22153],
        [78.88756, 29.22069],
        [78.88737, 29.22007],
        [78.88688, 29.21965],
        [78.88584, 29.21878],
        [78.88549, 29.21791],
        [78.88522, 29.21689],
        [78.88473, 29.21505],
        [78.88411, 29.21283],
        [78.88382, 29.21185],
        [78.88346, 29.2115],
        [78.88324, 29.21164],
        [78.88303, 29.21176],
        [78.88282, 29.21188],
        [78.88261, 29.212],
        [78.8824, 29.21212],
        [78.88219, 29.21223],
        [78.88197, 29.21235],
        [78.88176, 29.21247],
        [78.8814, 29.21268],
        [78.88111, 29.2129],
        [78.88084, 29.21313],
        [78.88057, 29.21338],
        [78.88033, 29.21364],
        [78.8801, 29.21373],
        [78.87986, 29.21378],
        [78.87961, 29.21378],
        [78.87937, 29.21374],
        [78.87907, 29.21367],
        [78.87875, 29.21383],
        [78.87865, 29.21409],
        [78.87863, 29.21442],
        [78.87862, 29.21474],
        [78.87862, 29.21507],
        [78.87863, 29.2154],
        [78.87865, 29.21571],
        [78.87876, 29.216],
        [78.87894, 29.21625],
        [78.87918, 29.21644],
        [78.87947, 29.21654],
        [78.87968, 29.21659],
        [78.87988, 29.21666],
        [78.88006, 29.21677],
        [78.88022, 29.21691],
        [78.88036, 29.21708],
        [78.88046, 29.21727],
        [78.88052, 29.21748],
        [78.88054, 29.21769],
        [78.88049, 29.21805],
        [78.88036, 29.21831],
        [78.88016, 29.21852],
        [78.8799, 29.21867],
        [78.87961, 29.21874],
        [78.87936, 29.21879],
        [78.87911, 29.21882],
        [78.87885, 29.21883],
        [78.8786, 29.21884],
        [78.87834, 29.21883],
        [78.87809, 29.21881],
        [78.87783, 29.21877],
        [78.87758, 29.21872],
        [78.87734, 29.21866],
        [78.87707, 29.21856],
        [78.87679, 29.2185],
        [78.87637, 29.21854],
        [78.8761, 29.21863],
        [78.87582, 29.2187],
        [78.87555, 29.2188],
        [78.87529, 29.21892],
        [78.87505, 29.21908],
        [78.87483, 29.21927],
        [78.87463, 29.21947],
        [78.87446, 29.21971],
        [78.87431, 29.21995],
        [78.8742, 29.22022],
        [78.87415, 29.22041],
        [78.8741, 29.2206],
        [78.87402, 29.22079],
        [78.87393, 29.22097],
        [78.87383, 29.22114],
        [78.87372, 29.2213],
        [78.87359, 29.22145],
        [78.87345, 29.22159],
        [78.8733, 29.22172],
        [78.87302, 29.22192],
        [78.87273, 29.2221],
        [78.87242, 29.22225],
        [78.8721, 29.22237],
        [78.87182, 29.2225],
        [78.87166, 29.22274],
        [78.87162, 29.22302],
        [78.8717, 29.22329],
        [78.87188, 29.2235],
        [78.87211, 29.22355],
        [78.87234, 29.2236],
        [78.87257, 29.22365],
        [78.8728, 29.22368],
        [78.87303, 29.22371],
        [78.87326, 29.22374],
        [78.87349, 29.22376],
        [78.87372, 29.22377],
        [78.87396, 29.22378],
        [78.87419, 29.22379],
        [78.87443, 29.22381],
        [78.87466, 29.22385],
        [78.87489, 29.22391],
        [78.87511, 29.22399],
        [78.87532, 29.22408],
        [78.87553, 29.2242],
        [78.87572, 29.22433],
        [78.8759, 29.22448],
        [78.87614, 29.22476],
        [78.87625, 29.22511],
        [78.87626, 29.22529],
        [78.87615, 29.22565],
        [78.87592, 29.22593],
        [78.87571, 29.22612],
        [78.87547, 29.22625],
        [78.8752, 29.22633],
        [78.87492, 29.22635],
        [78.87466, 29.22631],
        [78.87441, 29.22633],
        [78.8742, 29.22646],
        [78.87406, 29.22667],
        [78.87402, 29.22692],
        [78.87406, 29.22729],
        [78.8741, 29.22766],
        [78.87412, 29.22803],
        [78.87413, 29.2284],
        [78.87413, 29.22878],
        [78.87413, 29.22915],
        [78.87411, 29.22952],
        [78.87408, 29.22989],
        [78.87404, 29.23026],
        [78.87387, 29.23045],
        [78.87366, 29.23059],
        [78.87342, 29.23068],
        [78.87317, 29.23071],
        [78.87292, 29.23067],
        [78.87268, 29.23057],
        [78.87248, 29.23042],
        [78.87232, 29.23022],
        [78.87222, 29.22999],
        [78.87214, 29.22982],
        [78.87208, 29.22964],
        [78.87204, 29.22946],
        [78.87203, 29.22927],
        [78.87204, 29.22908],
        [78.87208, 29.22889],
        [78.87213, 29.22871],
        [78.87221, 29.22854],
        [78.87231, 29.22838],
        [78.87242, 29.22816],
        [78.87243, 29.22792],
        [78.87234, 29.22769],
        [78.87217, 29.22752],
        [78.87188, 29.22738],
        [78.8715, 29.2273],
        [78.87112, 29.22731],
        [78.87075, 29.22743],
        [78.87043, 29.22765],
        [78.8703, 29.22784],
        [78.87014, 29.228],
        [78.86995, 29.22813],
        [78.86975, 29.22824],
        [78.86953, 29.2283],
        [78.86931, 29.22834],
        [78.86908, 29.22833],
        [78.86886, 29.2283],
        [78.86864, 29.22822],
        [78.86845, 29.22813],
        [78.86813, 29.22811],
        [78.86793, 29.22818],
        [78.86777, 29.22832],
        [78.86734, 29.22861],
        [78.8669, 29.22888],
        [78.86645, 29.22913],
        [78.86598, 29.22936],
        [78.86551, 29.22958],
        [78.86502, 29.22977],
        [78.86453, 29.22993],
        [78.86403, 29.23008],
        [78.86353, 29.2302],
        [78.86329, 29.23046],
        [78.86327, 29.23065],
        [78.86337, 29.2309],
        [78.86344, 29.23121],
        [78.86346, 29.23152],
        [78.86345, 29.23184],
        [78.8634, 29.23215],
        [78.86322, 29.23237],
        [78.86302, 29.23218],
        [78.86292, 29.23201],
        [78.86282, 29.23184],
        [78.86273, 29.23166],
        [78.86265, 29.23148],
        [78.86242, 29.23137],
        [78.86217, 29.23137],
        [78.86195, 29.23149],
        [78.86181, 29.23169],
        [78.86176, 29.23198],
        [78.86175, 29.23232],
        [78.86174, 29.23265],
        [78.86151, 29.23292],
        [78.86119, 29.23307],
        [78.861, 29.23314],
        [78.8608, 29.2332],
        [78.8604, 29.23327],
        [78.85998, 29.2333],
        [78.85957, 29.23326],
        [78.8593, 29.23315],
        [78.85884, 29.23317],
        [78.85874, 29.23334],
        [78.85878, 29.23354],
        [78.85886, 29.23373],
        [78.85897, 29.2339],
        [78.8591, 29.23406],
        [78.85924, 29.23421],
        [78.85941, 29.23439],
        [78.85958, 29.23457],
        [78.85975, 29.23475],
        [78.85993, 29.23492],
        [78.86011, 29.23509],
        [78.8603, 29.23525],
        [78.86049, 29.23542],
        [78.86068, 29.23557],
        [78.86087, 29.23572],
        [78.86099, 29.23589],
        [78.8611, 29.23606],
        [78.86119, 29.23625],
        [78.86127, 29.23644],
        [78.86134, 29.23663],
        [78.86139, 29.23683],
        [78.86142, 29.23703],
        [78.86144, 29.23724],
        [78.86145, 29.23744],
        [78.86133, 29.23765],
        [78.86135, 29.23789],
        [78.86149, 29.23808],
        [78.8617, 29.23817],
        [78.8621, 29.23833],
        [78.86231, 29.23857],
        [78.86243, 29.23888],
        [78.86243, 29.2392],
        [78.86234, 29.23945],
        [78.86222, 29.23963],
        [78.86208, 29.23979],
        [78.86191, 29.23993],
        [78.86173, 29.24005],
        [78.86142, 29.24021],
        [78.86112, 29.24038],
        [78.86083, 29.24056],
        [78.86053, 29.24074],
        [78.86025, 29.24094],
        [78.85997, 29.24113],
        [78.85969, 29.24134],
        [78.85942, 29.24155],
        [78.85915, 29.24178],
        [78.85884, 29.24187],
        [78.85854, 29.24174],
        [78.8568, 29.23986],
        [78.85533, 29.23791],
        [78.85515, 29.23755],
        [78.85489, 29.23734],
        [78.85447, 29.23726],
        [78.85413, 29.23733],
        [78.85379, 29.23741],
        [78.85345, 29.23753],
        [78.85313, 29.23766],
        [78.85285, 29.23775],
        [78.85241, 29.23742],
        [78.85218, 29.2372],
        [78.85195, 29.23698],
        [78.85174, 29.23675],
        [78.85153, 29.2365],
        [78.85133, 29.23626],
        [78.85114, 29.236],
        [78.85095, 29.23574],
        [78.85078, 29.23547],
        [78.85051, 29.23521],
        [78.85026, 29.23493],
        [78.85004, 29.23462],
        [78.84986, 29.23428],
        [78.84979, 29.23411],
        [78.84965, 29.23396],
        [78.84953, 29.23379],
        [78.84943, 29.23361],
        [78.84935, 29.23342],
        [78.8493, 29.23322],
        [78.84926, 29.23301],
        [78.84926, 29.23281],
        [78.84927, 29.2326],
        [78.84931, 29.2324],
        [78.84905, 29.23229],
        [78.84885, 29.23251],
        [78.84863, 29.23273],
        [78.8484, 29.23294],
        [78.84817, 29.23314],
        [78.84792, 29.23333],
        [78.84767, 29.23351],
        [78.84742, 29.23368],
        [78.84715, 29.23385],
        [78.84689, 29.234],
        [78.8467, 29.23419],
        [78.8465, 29.23438],
        [78.8463, 29.23456],
        [78.8461, 29.23474],
        [78.8459, 29.23492],
        [78.8457, 29.2351],
        [78.84549, 29.23527],
        [78.84528, 29.23544],
        [78.84485, 29.23568],
        [78.8445, 29.23546],
        [78.84431, 29.23531],
        [78.84412, 29.23516],
        [78.84393, 29.23501],
        [78.84375, 29.23486],
        [78.84356, 29.23471],
        [78.84338, 29.23455],
        [78.8432, 29.23439],
        [78.84302, 29.23423],
        [78.84269, 29.23415],
        [78.84247, 29.23427],
        [78.84227, 29.23412],
        [78.84199, 29.23389],
        [78.84178, 29.23388],
        [78.84161, 29.23401],
        [78.84134, 29.23422],
        [78.84107, 29.23443],
        [78.8408, 29.23464],
        [78.84052, 29.23485],
        [78.84024, 29.23505],
        [78.83996, 29.23524],
        [78.83968, 29.23544],
        [78.83939, 29.23563],
        [78.83909, 29.23584],
        [78.83915, 29.23604],
        [78.83932, 29.23616],
        [78.83949, 29.2363],
        [78.83966, 29.23643],
        [78.83982, 29.23656],
        [78.83998, 29.2367],
        [78.84014, 29.23684],
        [78.8403, 29.23698],
        [78.84046, 29.23712],
        [78.84062, 29.23745],
        [78.84049, 29.23764],
        [78.84069, 29.23778],
        [78.8408, 29.23799],
        [78.84065, 29.23818],
        [78.8406, 29.2384],
        [78.84075, 29.23856],
        [78.84102, 29.23875],
        [78.84091, 29.239],
        [78.84067, 29.23914],
        [78.84043, 29.23928],
        [78.84018, 29.23941],
        [78.83994, 29.23954],
        [78.83969, 29.23967],
        [78.83944, 29.2398],
        [78.83919, 29.23992],
        [78.83893, 29.24004],
        [78.83865, 29.24018],
        [78.83852, 29.2405],
        [78.83848, 29.24075],
        [78.83845, 29.241],
        [78.83842, 29.24124],
        [78.83839, 29.24149],
        [78.83827, 29.24174],
        [78.83794, 29.24153],
        [78.8377, 29.24134],
        [78.83746, 29.24115],
        [78.83721, 29.24096],
        [78.83698, 29.24077],
        [78.83674, 29.24057],
        [78.83651, 29.24037],
        [78.83628, 29.24017],
        [78.83605, 29.23997],
        [78.8359, 29.23983],
        [78.83575, 29.2397],
        [78.8356, 29.23956],
        [78.83546, 29.23942],
        [78.83532, 29.23927],
        [78.83518, 29.23913],
        [78.83504, 29.23899],
        [78.8349, 29.23884],
        [78.83476, 29.23869],
        [78.83445, 29.23852],
        [78.83414, 29.23834],
        [78.83384, 29.23816],
        [78.83354, 29.23798],
        [78.83325, 29.23778],
        [78.83296, 29.23759],
        [78.83266, 29.23741],
        [78.83256, 29.2372],
        [78.83254, 29.23698],
        [78.83253, 29.23673],
        [78.83257, 29.23649],
        [78.83233, 29.23652],
        [78.83203, 29.23676],
        [78.83172, 29.23699],
        [78.83148, 29.23709],
        [78.83122, 29.23711],
        [78.83094, 29.23692],
        [78.83082, 29.23676],
        [78.8306, 29.2366],
        [78.83022, 29.23664],
        [78.83002, 29.23678],
        [78.82984, 29.23693],
        [78.8297, 29.23665],
        [78.82966, 29.23645],
        [78.82961, 29.23626],
        [78.82953, 29.23607],
        [78.82944, 29.23588],
        [78.82918, 29.23584],
        [78.82898, 29.23602],
        [78.82878, 29.23618],
        [78.82851, 29.23634],
        [78.82823, 29.23613],
        [78.82808, 29.23595],
        [78.82792, 29.23578],
        [78.82774, 29.23562],
        [78.82754, 29.23549],
        [78.82726, 29.23531],
        [78.82686, 29.23539],
        [78.8267, 29.23553],
        [78.82652, 29.23564],
        [78.82633, 29.23573],
        [78.82612, 29.23581],
        [78.82583, 29.23585],
        [78.82559, 29.2358],
        [78.82537, 29.23564],
        [78.82515, 29.23544],
        [78.82494, 29.23522],
        [78.82475, 29.23499],
        [78.82458, 29.23474],
        [78.82432, 29.23459],
        [78.82382, 29.23453],
        [78.82363, 29.23438],
        [78.82343, 29.2342],
        [78.82303, 29.23424],
        [78.82283, 29.23397],
        [78.82272, 29.23381],
        [78.82261, 29.23365],
        [78.82247, 29.23351],
        [78.82214, 29.23332],
        [78.8219, 29.23342],
        [78.82172, 29.23324],
        [78.82135, 29.23326],
        [78.82107, 29.23337],
        [78.8208, 29.2335],
        [78.82054, 29.23364],
        [78.82025, 29.23382],
        [78.82021, 29.23212],
        [78.81636, 29.23352],
        [78.81186, 29.23516],
        [78.8078, 29.2364],
        [78.80749, 29.23658],
        [78.80726, 29.23685],
        [78.80728, 29.23716],
        [78.80715, 29.23737],
        [78.80629, 29.23782],
        [78.80544, 29.23828],
        [78.8046, 29.23877],
        [78.80377, 29.23926],
        [78.80295, 29.23978],
        [78.80214, 29.24031],
        [78.80134, 29.24086],
        [78.80055, 29.24143],
        [78.7997, 29.24207],
        [78.79964, 29.24225],
        [78.79976, 29.24246],
        [78.79987, 29.24272],
        [78.79985, 29.2429],
        [78.79969, 29.24314],
        [78.79946, 29.24327],
        [78.79923, 29.24339],
        [78.79899, 29.24351],
        [78.79875, 29.24362],
        [78.79851, 29.24372],
        [78.79826, 29.24382],
        [78.79801, 29.24391],
        [78.79776, 29.24399],
        [78.79736, 29.2441],
        [78.79713, 29.24399],
        [78.7969, 29.24386],
        [78.79666, 29.24376],
        [78.7964, 29.24375],
        [78.79616, 29.24386],
        [78.79586, 29.244],
        [78.79557, 29.24414],
        [78.79528, 29.24428],
        [78.79499, 29.24444],
        [78.7947, 29.24459],
        [78.79441, 29.24476],
        [78.79413, 29.24492],
        [78.79385, 29.2451],
        [78.79352, 29.24529],
        [78.7933, 29.24532],
        [78.79307, 29.24527],
        [78.79273, 29.24522],
        [78.79249, 29.24534],
        [78.79216, 29.24552],
        [78.79183, 29.2457],
        [78.79151, 29.2459],
        [78.79119, 29.24611],
        [78.79088, 29.24632],
        [78.79058, 29.24654],
        [78.79028, 29.24677],
        [78.78999, 29.24701],
        [78.78968, 29.24727],
        [78.78972, 29.24746],
        [78.79007, 29.24764],
        [78.79041, 29.24785],
        [78.79073, 29.24808],
        [78.79088, 29.2482],
        [78.79103, 29.24833],
        [78.79119, 29.2485],
        [78.79119, 29.24874],
        [78.79096, 29.24883],
        [78.79075, 29.24893],
        [78.79054, 29.24906],
        [78.79035, 29.2492],
        [78.79014, 29.24935],
        [78.79017, 29.24965],
        [78.79028, 29.24984],
        [78.79052, 29.25003],
        [78.7906, 29.25021],
        [78.79072, 29.25044],
        [78.79085, 29.25066],
        [78.79098, 29.25087],
        [78.79113, 29.25108],
        [78.79128, 29.25129],
        [78.79145, 29.25148],
        [78.79161, 29.25168],
        [78.79179, 29.25186],
        [78.792, 29.25206],
        [78.79202, 29.25231],
        [78.79173, 29.25251],
        [78.79144, 29.25271],
        [78.79115, 29.25293],
        [78.79087, 29.25315],
        [78.79059, 29.25337],
        [78.79041, 29.25367],
        [78.79042, 29.25399],
        [78.79046, 29.25422],
        [78.79045, 29.25448],
        [78.79028, 29.25463],
        [78.79034, 29.25483],
        [78.79043, 29.25503],
        [78.79048, 29.25533],
        [78.79028, 29.25545],
        [78.79009, 29.25553],
        [78.78985, 29.25558],
        [78.7896, 29.25546],
        [78.78951, 29.2552],
        [78.78946, 29.25497],
        [78.78933, 29.25476],
        [78.78922, 29.25458],
        [78.78913, 29.25438],
        [78.78905, 29.25418],
        [78.78898, 29.25398],
        [78.78894, 29.25378],
        [78.78887, 29.25359],
        [78.78877, 29.25343],
        [78.78856, 29.25323],
        [78.7882, 29.25326],
        [78.78792, 29.25316],
        [78.78775, 29.25304],
        [78.7875, 29.25292],
        [78.78723, 29.25285],
        [78.78696, 29.25282],
        [78.78669, 29.25282],
        [78.78643, 29.25285],
        [78.78618, 29.25293],
        [78.78597, 29.25308],
        [78.7858, 29.25328],
        [78.78569, 29.25356],
        [78.78546, 29.2538],
        [78.78512, 29.25385],
        [78.78494, 29.25399],
        [78.78484, 29.25417],
        [78.7847, 29.25432],
        [78.78439, 29.25454],
        [78.78409, 29.25476],
        [78.78378, 29.25498],
        [78.78347, 29.25519],
        [78.78316, 29.25541],
        [78.78285, 29.25562],
        [78.78254, 29.25583],
        [78.78222, 29.25603],
        [78.78172, 29.25642],
        [78.78159, 29.25673],
        [78.78131, 29.25696],
        [78.78098, 29.25718],
        [78.78064, 29.25739],
        [78.7803, 29.25759],
        [78.77996, 29.25778],
        [78.7794, 29.25805],
        [78.77885, 29.25833],
        [78.77831, 29.25863],
        [78.77777, 29.25894],
        [78.77724, 29.25926],
        [78.77672, 29.2596],
        [78.77621, 29.25995],
        [78.77571, 29.26031],
        [78.77522, 29.26068],
        [78.77504, 29.26082],
        [78.77487, 29.26097],
        [78.77469, 29.26111],
        [78.77451, 29.26125],
        [78.77433, 29.26138],
        [78.77415, 29.26152],
        [78.77397, 29.26165],
        [78.77378, 29.26178],
        [78.7736, 29.26207],
        [78.77381, 29.26229],
        [78.77399, 29.26254],
        [78.77393, 29.26278],
        [78.77373, 29.26284],
        [78.77353, 29.26292],
        [78.77328, 29.26308],
        [78.77303, 29.26324],
        [78.77279, 29.2634],
        [78.77254, 29.26357],
        [78.7723, 29.26374],
        [78.77206, 29.26391],
        [78.77182, 29.26408],
        [78.77158, 29.26425],
        [78.77122, 29.26449],
        [78.77086, 29.26489],
        [78.77091, 29.26517],
        [78.77115, 29.26536],
        [78.77142, 29.26552],
        [78.77148, 29.26572],
        [78.77121, 29.26588],
        [78.77096, 29.26603],
        [78.77071, 29.26617],
        [78.77046, 29.26631],
        [78.77026, 29.26639],
        [78.77006, 29.26659],
        [78.77017, 29.26686],
        [78.77042, 29.26719],
        [78.77067, 29.26752],
        [78.77092, 29.26784],
        [78.77118, 29.26817],
        [78.77143, 29.2685],
        [78.77168, 29.26882],
        [78.77194, 29.26915],
        [78.7722, 29.26947],
        [78.77245, 29.26979],
        [78.77258, 29.26996],
        [78.77269, 29.27015],
        [78.77278, 29.27034],
        [78.77284, 29.27054],
        [78.77287, 29.27075],
        [78.77289, 29.27097],
        [78.77287, 29.27118],
        [78.77284, 29.27139],
        [78.77273, 29.27167],
        [78.77257, 29.272],
        [78.77241, 29.27233],
        [78.77235, 29.27255],
        [78.77227, 29.27277],
        [78.77217, 29.27297],
        [78.77204, 29.27316],
        [78.77189, 29.27333],
        [78.77172, 29.27349],
        [78.77153, 29.27362],
        [78.77133, 29.27373],
        [78.77111, 29.27381],
        [78.77055, 29.27408],
        [78.76999, 29.27437],
        [78.76946, 29.27471],
        [78.76896, 29.27507],
        [78.76847, 29.27547],
        [78.76801, 29.27589],
        [78.76758, 29.27635],
        [78.76718, 29.27683],
        [78.76681, 29.27734],
        [78.76654, 29.2777],
        [78.76626, 29.27805],
        [78.76596, 29.27839],
        [78.76565, 29.27871],
        [78.76532, 29.27903],
        [78.76499, 29.27933],
        [78.76464, 29.27961],
        [78.76427, 29.27989],
        [78.7639, 29.28014],
        [78.76343, 29.28037],
        [78.76297, 29.28061],
        [78.7625, 29.28085],
        [78.76204, 29.2811],
        [78.76158, 29.28135],
        [78.76113, 29.2816],
        [78.76067, 29.28186],
        [78.76022, 29.28213],
        [78.75977, 29.28239],
        [78.75955, 29.28257],
        [78.75933, 29.28275],
        [78.7591, 29.28292],
        [78.75887, 29.28309],
        [78.75864, 29.28326],
        [78.75841, 29.28342],
        [78.75817, 29.28359],
        [78.75794, 29.28375],
        [78.75759, 29.28394],
        [78.75735, 29.28403],
        [78.75713, 29.28412],
        [78.75691, 29.28422],
        [78.75669, 29.28433],
        [78.75641, 29.28452],
        [78.75614, 29.2847],
        [78.75587, 29.2849],
        [78.7556, 29.2851],
        [78.75535, 29.2853],
        [78.75509, 29.28552],
        [78.75484, 29.28574],
        [78.7546, 29.28596],
        [78.75436, 29.28619],
        [78.75413, 29.28635],
        [78.7539, 29.28649],
        [78.75366, 29.28663],
        [78.75342, 29.28676],
        [78.75317, 29.28688],
        [78.75292, 29.28698],
        [78.75266, 29.28708],
        [78.7524, 29.28717],
        [78.75213, 29.28724],
        [78.75188, 29.28731],
        [78.75163, 29.28739],
        [78.75137, 29.28746],
        [78.75112, 29.28754],
        [78.75087, 29.28762],
        [78.75062, 29.28771],
        [78.75037, 29.28779],
        [78.75012, 29.28789],
        [78.74987, 29.28798],
        [78.74814, 29.2883],
        [78.74592, 29.28991],
        [78.74381, 29.29072],
        [78.74242, 29.29155],
        [78.73892, 29.29447],
        [78.73706, 29.29561],
        [78.7347, 29.29723],
        [78.73486, 29.29878],
        [78.7347, 29.29902],
        [78.73348, 29.29886],
        [78.73283, 29.29927],
        [78.73177, 29.29886],
        [78.73104, 29.2991],
        [78.73047, 29.29878],
        [78.72966, 29.29861],
        [78.72869, 29.29902],
        [78.7282, 29.29813],
        [78.72714, 29.29756],
        [78.72625, 29.29829],
        [78.72478, 29.29813],
        [78.72422, 29.29902],
        [78.72314, 29.29943],
        [78.72281, 29.30138],
        [78.72184, 29.30138],
        [78.72087, 29.30196],
        [78.72005, 29.30261],
        [78.71908, 29.30261],
        [78.71859, 29.3031],
        [78.71859, 29.30343],
        [78.71867, 29.30424],
        [78.719, 29.30472],
        [78.71892, 29.30554],
        [78.71867, 29.30586],
        [78.71892, 29.30635],
        [78.71989, 29.30602],
        [78.72046, 29.30538],
        [78.72054, 29.30456],
        [78.72135, 29.30448],
        [78.72225, 29.30375],
        [78.7233, 29.30456],
        [78.72525, 29.30578],
        [78.72664, 29.30546],
        [78.72761, 29.30521],
        [78.73102, 29.30318],
        [78.73216, 29.30318],
        [78.73314, 29.30286],
        [78.73428, 29.30245],
        [78.73509, 29.30286],
        [78.73517, 29.30448],
        [78.73558, 29.30537],
        [78.73509, 29.30619],
        [78.73468, 29.30635],
        [78.73379, 29.30643],
        [78.73346, 29.3074],
        [78.73257, 29.30781],
        [78.73224, 29.30992],
        [78.73165, 29.31211],
        [78.73182, 29.31359],
        [78.73223, 29.31407],
        [78.73247, 29.31456],
        [78.73239, 29.31521],
        [78.73215, 29.31578],
        [78.73215, 29.31659],
        [78.73255, 29.31756],
        [78.73385, 29.31765],
        [78.73458, 29.31781],
        [78.73523, 29.31797],
        [78.7358, 29.31821],
        [78.7358, 29.3187],
        [78.73548, 29.31911],
        [78.73458, 29.31968],
        [78.73418, 29.32041],
        [78.73377, 29.3213],
        [78.73385, 29.32187],
        [78.73434, 29.32179],
        [78.73475, 29.32179],
        [78.73548, 29.32162],
        [78.73613, 29.32154],
        [78.73645, 29.32138],
        [78.73694, 29.32106],
        [78.7371, 29.32089],
        [78.73759, 29.32089],
        [78.73783, 29.32081],
        [78.73848, 29.32073],
        [78.7393, 29.32089],
        [78.7397, 29.32089],
        [78.74011, 29.32065],
        [78.7406, 29.32065],
        [78.741, 29.32024],
        [78.74125, 29.31968],
        [78.74117, 29.31886],
        [78.74141, 29.3183],
        [78.74149, 29.31805],
        [78.74165, 29.317],
        [78.7406, 29.31643],
        [78.74068, 29.31602],
        [78.74279, 29.3161],
        [78.7436, 29.31651],
        [78.74442, 29.3174],
        [78.74531, 29.31846],
        [78.74645, 29.31813],
        [78.74831, 29.31802],
        [78.74852, 29.31791],
        [78.7487, 29.3178],
        [78.74904, 29.31768],
        [78.74925, 29.31761],
        [78.74958, 29.31764],
        [78.74978, 29.31776],
        [78.74994, 29.31807],
        [78.74996, 29.3184],
        [78.74984, 29.31869],
        [78.74966, 29.31897],
        [78.7495, 29.31924],
        [78.74935, 29.31952],
        [78.74921, 29.31981],
        [78.74914, 29.32002],
        [78.74909, 29.32022],
        [78.74906, 29.32043],
        [78.74903, 29.32064],
        [78.74902, 29.32085],
        [78.74902, 29.32106],
        [78.74904, 29.32127],
        [78.74907, 29.32148],
        [78.74911, 29.32169],
        [78.74919, 29.32194],
        [78.74926, 29.32218],
        [78.74933, 29.32244],
        [78.74939, 29.32269],
        [78.74945, 29.32294],
        [78.7495, 29.32319],
        [78.74955, 29.32345],
        [78.74959, 29.3237],
        [78.74965, 29.3241],
        [78.74986, 29.3243],
        [78.75165, 29.32545],
        [78.75294, 29.32644],
        [78.75324, 29.32669],
        [78.75351, 29.32696],
        [78.75371, 29.32723],
        [78.75382, 29.32751],
        [78.75384, 29.32782],
        [78.75379, 29.32812],
        [78.75367, 29.32839],
        [78.75352, 29.32862],
        [78.75338, 29.32885],
        [78.75324, 29.32908],
        [78.7531, 29.32932],
        [78.75301, 29.32958],
        [78.75301, 29.32987],
        [78.75305, 29.33016],
        [78.75315, 29.33044],
        [78.75329, 29.33069],
        [78.75339, 29.33089],
        [78.75341, 29.33111],
        [78.75349, 29.33136],
        [78.75385, 29.33145],
        [78.75426, 29.33152],
        [78.75467, 29.33159],
        [78.75508, 29.33165],
        [78.75549, 29.33169],
        [78.75596, 29.33177],
        [78.75643, 29.33186],
        [78.7569, 29.33194],
        [78.75736, 29.33203],
        [78.75783, 29.33211],
        [78.7583, 29.3322],
        [78.75877, 29.33229],
        [78.75923, 29.33238],
        [78.7597, 29.33248],
        [78.75992, 29.33256],
        [78.76015, 29.33264],
        [78.76037, 29.33273],
        [78.76059, 29.33282],
        [78.76081, 29.33291],
        [78.76103, 29.33301],
        [78.76124, 29.33311],
        [78.76146, 29.33321],
        [78.76167, 29.33332],
        [78.76194, 29.33342],
        [78.76221, 29.33353],
        [78.76247, 29.33365],
        [78.76273, 29.33379],
        [78.76298, 29.33393],
        [78.76322, 29.33409],
        [78.76346, 29.33426],
        [78.76369, 29.33443],
        [78.76393, 29.33464],
        [78.76408, 29.33486],
        [78.76408, 29.33507],
        [78.76411, 29.33528],
        [78.76419, 29.33548],
        [78.7643, 29.33566],
        [78.7645, 29.33585],
        [78.76478, 29.33602],
        [78.76508, 29.33616],
        [78.76537, 29.3363],
        [78.76562, 29.33652],
        [78.7658, 29.33669],
        [78.76597, 29.33688],
        [78.76611, 29.33708],
        [78.76624, 29.3373],
        [78.76638, 29.33746],
        [78.76658, 29.33718],
        [78.76673, 29.33685],
        [78.76687, 29.33653],
        [78.76703, 29.33621],
        [78.76719, 29.33589],
        [78.7673, 29.33571],
        [78.76744, 29.33555],
        [78.7676, 29.33541],
        [78.76778, 29.33529],
        [78.76808, 29.33508],
        [78.76829, 29.33492],
        [78.76851, 29.33477],
        [78.76873, 29.33463],
        [78.76896, 29.33449],
        [78.76919, 29.33435],
        [78.76942, 29.33423],
        [78.76966, 29.33411],
        [78.7699, 29.334],
        [78.77024, 29.33381],
        [78.77057, 29.33359],
        [78.77087, 29.33334],
        [78.77101, 29.33321],
        [78.77115, 29.33307],
        [78.77128, 29.33292],
        [78.77154, 29.33295],
        [78.77183, 29.33316],
        [78.77209, 29.33321],
        [78.7741, 29.33141],
        [78.77406, 29.33122],
        [78.7739, 29.33106],
        [78.77375, 29.3309],
        [78.77364, 29.33063],
        [78.77376, 29.33042],
        [78.77364, 29.33021],
        [78.77341, 29.33003],
        [78.77323, 29.32989],
        [78.77304, 29.32973],
        [78.77286, 29.32958],
        [78.77268, 29.32943],
        [78.7725, 29.32927],
        [78.77232, 29.32911],
        [78.77214, 29.32896],
        [78.77196, 29.3288],
        [78.77196, 29.32854],
        [78.77237, 29.32817],
        [78.77275, 29.32782],
        [78.77313, 29.32747],
        [78.77352, 29.32712],
        [78.7739, 29.32678],
        [78.77429, 29.32643],
        [78.77468, 29.32609],
        [78.77507, 29.32575],
        [78.77547, 29.32541],
        [78.77575, 29.32522],
        [78.77619, 29.32522],
        [78.77645, 29.32533],
        [78.77673, 29.32545],
        [78.77699, 29.32556],
        [78.77726, 29.32567],
        [78.77753, 29.32578],
        [78.7778, 29.32589],
        [78.77807, 29.326],
        [78.77834, 29.32611],
        [78.77867, 29.32624],
        [78.77889, 29.32596],
        [78.77902, 29.32565],
        [78.77915, 29.32534],
        [78.77929, 29.32504],
        [78.77944, 29.32474],
        [78.77965, 29.32475],
        [78.77984, 29.32485],
        [78.78002, 29.32495],
        [78.78021, 29.32505],
        [78.7804, 29.32515],
        [78.78061, 29.3253],
        [78.78087, 29.32548],
        [78.78115, 29.32563],
        [78.78144, 29.32575],
        [78.78174, 29.32583],
        [78.78216, 29.32587],
        [78.78259, 29.32589],
        [78.78301, 29.3259],
        [78.78344, 29.3259],
        [78.78386, 29.32588],
        [78.78429, 29.32585],
        [78.78471, 29.32581],
        [78.78513, 29.32575],
        [78.78555, 29.32568],
        [78.78589, 29.3258],
        [78.78605, 29.32604],
        [78.78621, 29.32628],
        [78.78635, 29.32655],
        [78.78663, 29.32667],
        [78.78694, 29.32658],
        [78.78727, 29.32648],
        [78.78779, 29.32646],
        [78.78805, 29.32671],
        [78.78813, 29.32702],
        [78.78837, 29.32718],
        [78.78863, 29.32705],
        [78.78905, 29.32712],
        [78.78928, 29.3273],
        [78.78948, 29.32752],
        [78.78965, 29.32776],
        [78.78978, 29.32803],
        [78.78988, 29.32831],
        [78.78999, 29.32856],
        [78.7901, 29.32881],
        [78.79021, 29.32906],
        [78.79032, 29.32931],
        [78.79042, 29.32956],
        [78.79052, 29.32981],
        [78.79062, 29.33007],
        [78.79071, 29.33033],
        [78.79089, 29.3307],
        [78.79113, 29.33054],
        [78.7913, 29.33043],
        [78.79147, 29.33033],
        [78.79166, 29.33023],
        [78.79196, 29.33033],
        [78.79218, 29.33042],
        [78.7924, 29.3303],
        [78.79262, 29.33016],
        [78.79282, 29.33],
        [78.79301, 29.32983],
        [78.79313, 29.32965],
        [78.7931, 29.32946],
        [78.79297, 29.32926],
        [78.79308, 29.32908],
        [78.79333, 29.32881],
        [78.79361, 29.32856],
        [78.79371, 29.32828],
        [78.79363, 29.32809],
        [78.79351, 29.3279],
        [78.79337, 29.32769],
        [78.79335, 29.32739],
        [78.79365, 29.32696],
        [78.79384, 29.32672],
        [78.79403, 29.32648],
        [78.79423, 29.32625],
        [78.79444, 29.32602],
        [78.79466, 29.32581],
        [78.79488, 29.32559],
        [78.7951, 29.32539],
        [78.79534, 29.32519],
        [78.7953, 29.325],
        [78.79515, 29.32477],
        [78.79498, 29.32448],
        [78.79458, 29.32393],
        [78.79429, 29.32352],
        [78.79401, 29.32311],
        [78.79374, 29.32268],
        [78.79349, 29.32225],
        [78.79324, 29.32181],
        [78.79301, 29.32137],
        [78.79279, 29.32092],
        [78.79258, 29.32046],
        [78.79225, 29.31992],
        [78.79193, 29.31937],
        [78.79161, 29.31883],
        [78.79129, 29.31828],
        [78.79097, 29.31773],
        [78.79065, 29.31719],
        [78.79033, 29.31664],
        [78.79002, 29.31609],
        [78.7897, 29.31554],
        [78.78964, 29.31535],
        [78.78974, 29.31518],
        [78.79024, 29.31491],
        [78.7907, 29.31467],
        [78.79115, 29.31444],
        [78.79161, 29.3142],
        [78.79206, 29.31395],
        [78.79252, 29.31371],
        [78.79297, 29.31347],
        [78.79343, 29.31323],
        [78.79388, 29.31298],
        [78.79426, 29.31281],
        [78.79463, 29.31262],
        [78.79501, 29.31244],
        [78.79538, 29.31225],
        [78.79575, 29.31205],
        [78.79611, 29.31185],
        [78.79647, 29.31164],
        [78.79683, 29.31143],
        [78.79719, 29.31121],
        [78.79743, 29.3113],
        [78.79759, 29.31179],
        [78.79776, 29.31229],
        [78.79793, 29.31278],
        [78.79811, 29.31328],
        [78.79828, 29.31377],
        [78.79845, 29.31427],
        [78.79863, 29.31476],
        [78.7988, 29.31525],
        [78.79898, 29.31574],
        [78.7991, 29.31604],
        [78.79921, 29.31634],
        [78.79932, 29.31664],
        [78.79943, 29.31694],
        [78.79954, 29.31723],
        [78.79965, 29.31753],
        [78.79976, 29.31783],
        [78.79987, 29.31813],
        [78.8, 29.31846],
        [78.80024, 29.31861],
        [78.8009, 29.3187],
        [78.80156, 29.31879],
        [78.80222, 29.31888],
        [78.80288, 29.31897],
        [78.80354, 29.31907],
        [78.8042, 29.31917],
        [78.80486, 29.31927],
        [78.80552, 29.31937],
        [78.80617, 29.31947],
        [78.8065, 29.31951],
        [78.80682, 29.31955],
        [78.80715, 29.3196],
        [78.80747, 29.31964],
        [78.8078, 29.31968],
        [78.80812, 29.31972],
        [78.80845, 29.31976],
        [78.80877, 29.3198],
        [78.80918, 29.32006],
        [78.80904, 29.32022],
        [78.80878, 29.32037],
        [78.80857, 29.32055],
        [78.80837, 29.32074],
        [78.80819, 29.32093],
        [78.808, 29.32114],
        [78.80783, 29.32135],
        [78.80767, 29.32156],
        [78.80751, 29.32179],
        [78.80737, 29.32202],
        [78.80723, 29.32225],
        [78.80701, 29.32252],
        [78.80677, 29.32277],
        [78.80653, 29.32302],
        [78.80628, 29.32326],
        [78.80602, 29.32349],
        [78.80575, 29.32371],
        [78.80547, 29.32392],
        [78.80519, 29.32412],
        [78.8049, 29.32431],
        [78.80469, 29.32441],
        [78.80449, 29.32452],
        [78.8043, 29.32465],
        [78.80412, 29.3248],
        [78.80395, 29.32496],
        [78.8038, 29.32513],
        [78.80366, 29.32531],
        [78.80353, 29.3255],
        [78.80342, 29.32571],
        [78.80335, 29.32622],
        [78.80328, 29.32673],
        [78.80322, 29.32724],
        [78.80317, 29.32775],
        [78.80312, 29.32826],
        [78.80308, 29.32878],
        [78.80305, 29.32929],
        [78.80303, 29.3298],
        [78.80302, 29.33038],
        [78.80299, 29.33065],
        [78.80285, 29.33088],
        [78.80262, 29.3311],
        [78.80239, 29.33131],
        [78.80216, 29.33153],
        [78.80193, 29.33174],
        [78.8017, 29.33195],
        [78.80147, 29.33216],
        [78.80123, 29.33236],
        [78.801, 29.33257],
        [78.80076, 29.33277],
        [78.80065, 29.33295],
        [78.80054, 29.33313],
        [78.80044, 29.3333],
        [78.80033, 29.33348],
        [78.80022, 29.33366],
        [78.80012, 29.33384],
        [78.80001, 29.33402],
        [78.79991, 29.3342],
        [78.79979, 29.33441],
        [78.79992, 29.33463],
        [78.8001, 29.33474],
        [78.80028, 29.33484],
        [78.80046, 29.33494],
        [78.80064, 29.33504],
        [78.80083, 29.33513],
        [78.80101, 29.33523],
        [78.8012, 29.33533],
        [78.80138, 29.33542],
        [78.80157, 29.33551],
        [78.80198, 29.33577],
        [78.8024, 29.33603],
        [78.80283, 29.33626],
        [78.80327, 29.33648],
        [78.80372, 29.33669],
        [78.80417, 29.33688],
        [78.80464, 29.33705],
        [78.8051, 29.3372],
        [78.80558, 29.33734],
        [78.80606, 29.33751],
        [78.80654, 29.33768],
        [78.80703, 29.33786],
        [78.80751, 29.33805],
        [78.80798, 29.33824],
        [78.80846, 29.33843],
        [78.80893, 29.33864],
        [78.8094, 29.33884],
        [78.80997, 29.3391],
        [78.81015, 29.3392],
        [78.81032, 29.33933],
        [78.81045, 29.33949],
        [78.81056, 29.33967],
        [78.81073, 29.33994],
        [78.81088, 29.3402],
        [78.81104, 29.34047],
        [78.8112, 29.34074],
        [78.81135, 29.34101],
        [78.81149, 29.34128],
        [78.81164, 29.34156],
        [78.81178, 29.34184],
        [78.81192, 29.34212],
        [78.81215, 29.34249],
        [78.81239, 29.34287],
        [78.81263, 29.34324],
        [78.81287, 29.34362],
        [78.81311, 29.34399],
        [78.81335, 29.34437],
        [78.81359, 29.34474],
        [78.81383, 29.34511],
        [78.81408, 29.34549],
        [78.81424, 29.3458],
        [78.81441, 29.34611],
        [78.81458, 29.34641],
        [78.81475, 29.34672],
        [78.81492, 29.34703],
        [78.8151, 29.34734],
        [78.81527, 29.34764],
        [78.81545, 29.34794],
        [78.81563, 29.34825],
        [78.81579, 29.34848],
        [78.81596, 29.3487],
        [78.81615, 29.3489],
        [78.81635, 29.3491],
        [78.81654, 29.34926],
        [78.81668, 29.34943],
        [78.81679, 29.34962],
        [78.81687, 29.34982],
        [78.81693, 29.35004],
        [78.81697, 29.35022],
        [78.81703, 29.3504],
        [78.8171, 29.35058],
        [78.81718, 29.35075],
        [78.81727, 29.35092],
        [78.81749, 29.35123],
        [78.81776, 29.3515],
        [78.81803, 29.35194],
        [78.81832, 29.35237],
        [78.81861, 29.35279],
        [78.81891, 29.35321],
        [78.81922, 29.35362],
        [78.81954, 29.35403],
        [78.81987, 29.35443],
        [78.8202, 29.35482],
        [78.82054, 29.35521],
        [78.82066, 29.35541],
        [78.82079, 29.35561],
        [78.82091, 29.3558],
        [78.82104, 29.356],
        [78.82117, 29.3562],
        [78.8213, 29.35639],
        [78.82144, 29.35659],
        [78.82157, 29.35678],
        [78.82171, 29.35697],
        [78.82181, 29.35716],
        [78.8219, 29.35736],
        [78.82197, 29.35756],
        [78.82203, 29.35777],
        [78.82203, 29.35805],
        [78.822, 29.3584],
        [78.82195, 29.35875],
        [78.82191, 29.35911],
        [78.82186, 29.35946],
        [78.8218, 29.35979],
        [78.82181, 29.36013],
        [78.8219, 29.36045],
        [78.82205, 29.36075],
        [78.82221, 29.36103],
        [78.82235, 29.3613],
        [78.82248, 29.36157],
        [78.82262, 29.36184],
        [78.82275, 29.36211],
        [78.8228, 29.36231],
        [78.82284, 29.3625],
        [78.82287, 29.36269],
        [78.8229, 29.36289],
        [78.82293, 29.36308],
        [78.82295, 29.36328],
        [78.82296, 29.36348],
        [78.82297, 29.36368],
        [78.82298, 29.36387],
        [78.82298, 29.36411],
        [78.82303, 29.36435],
        [78.8231, 29.36457],
        [78.82322, 29.36479],
        [78.82335, 29.36496],
        [78.82346, 29.36512],
        [78.82357, 29.36529],
        [78.82367, 29.36546],
        [78.82376, 29.36563],
        [78.82382, 29.36583],
        [78.8239, 29.36603],
        [78.82398, 29.36622],
        [78.82408, 29.3664],
        [78.82419, 29.36658],
        [78.82431, 29.36675],
        [78.82444, 29.36692],
        [78.82458, 29.36708],
        [78.82472, 29.36722],
        [78.82501, 29.36745],
        [78.82532, 29.36763],
        [78.82566, 29.36776],
        [78.82602, 29.36782],
        [78.82637, 29.36788],
        [78.82671, 29.36792],
        [78.82705, 29.3679],
        [78.82738, 29.36783],
        [78.8277, 29.36771],
        [78.82795, 29.36765],
        [78.82821, 29.36762],
        [78.82847, 29.36761],
        [78.82872, 29.36763],
        [78.82897, 29.36769],
        [78.82919, 29.36778],
        [78.8294, 29.36789],
        [78.8296, 29.36803],
        [78.82979, 29.36818],
        [78.83001, 29.36828],
        [78.83023, 29.36834],
        [78.83046, 29.36836],
        [78.83069, 29.36833],
        [78.83091, 29.36826],
        [78.83104, 29.36808],
        [78.831, 29.36786],
        [78.83083, 29.36768],
        [78.83059, 29.36757],
        [78.83032, 29.36746],
        [78.83004, 29.36734],
        [78.82975, 29.36723],
        [78.82947, 29.36712],
        [78.82923, 29.367],
        [78.82901, 29.36691],
        [78.82865, 29.36687],
        [78.82841, 29.3669],
        [78.82815, 29.36697],
        [78.82787, 29.36699],
        [78.82758, 29.36697],
        [78.82731, 29.3669],
        [78.82705, 29.36678],
        [78.82686, 29.36663],
        [78.82666, 29.3665],
        [78.82645, 29.36639],
        [78.82623, 29.3663],
        [78.82601, 29.36619],
        [78.82593, 29.36596],
        [78.82605, 29.3657],
        [78.82629, 29.36543],
        [78.82659, 29.36521],
        [78.82675, 29.36505],
        [78.82672, 29.36481],
        [78.82663, 29.36457],
        [78.82666, 29.3643],
        [78.82688, 29.36409],
        [78.82717, 29.36393],
        [78.82744, 29.36374],
        [78.82744, 29.36341],
        [78.82733, 29.36322],
        [78.8272, 29.36303],
        [78.82706, 29.36287],
        [78.82696, 29.36269],
        [78.82688, 29.3625],
        [78.82684, 29.3623],
        [78.82682, 29.36202],
        [78.82682, 29.36168],
        [78.82686, 29.36134],
        [78.82695, 29.361],
        [78.82707, 29.36068],
        [78.8271, 29.36048],
        [78.8271, 29.36027],
        [78.82707, 29.36007],
        [78.827, 29.35987],
        [78.82695, 29.35965],
        [78.82692, 29.3594],
        [78.82694, 29.35911],
        [78.82704, 29.35893],
        [78.82716, 29.35875],
        [78.8273, 29.3586],
        [78.82746, 29.35846],
        [78.82766, 29.35829],
        [78.82781, 29.35807],
        [78.82791, 29.35782],
        [78.82795, 29.35756],
        [78.82792, 29.35728],
        [78.82785, 29.357],
        [78.82773, 29.35673],
        [78.82757, 29.35648],
        [78.82738, 29.35626],
        [78.82717, 29.35601],
        [78.8272, 29.35567],
        [78.82735, 29.3554],
        [78.82728, 29.3551],
        [78.82708, 29.35488],
        [78.82711, 29.35465],
        [78.82742, 29.3545],
        [78.8277, 29.35437],
        [78.82787, 29.35427],
        [78.82809, 29.35412],
        [78.82835, 29.35394],
        [78.82861, 29.35379],
        [78.82878, 29.35365],
        [78.82889, 29.35347],
        [78.82899, 29.35329],
        [78.82923, 29.3531],
        [78.82933, 29.35293],
        [78.82941, 29.35275],
        [78.82947, 29.35256],
        [78.82952, 29.35238],
        [78.82958, 29.35217],
        [78.82973, 29.35196],
        [78.82991, 29.35179],
        [78.83013, 29.35168],
        [78.83037, 29.35161],
        [78.83059, 29.35156],
        [78.83081, 29.35153],
        [78.83103, 29.3515],
        [78.83125, 29.35149],
        [78.83195, 29.35142],
        [78.83252, 29.35132],
        [78.83309, 29.35117],
        [78.83365, 29.35099],
        [78.83419, 29.35077],
        [78.83471, 29.35052],
        [78.83522, 29.35022],
        [78.8357, 29.34989],
        [78.83616, 29.34954],
        [78.8366, 29.34924],
        [78.83702, 29.34892],
        [78.83742, 29.34858],
        [78.83781, 29.34823],
        [78.83818, 29.34786],
        [78.83853, 29.34747],
        [78.83887, 29.34707],
        [78.83919, 29.34665],
        [78.83949, 29.34621],
        [78.83961, 29.34602],
        [78.83975, 29.34584],
        [78.8399, 29.34567],
        [78.84006, 29.34551],
        [78.84024, 29.34537],
        [78.84042, 29.34524],
        [78.84062, 29.34512],
        [78.84083, 29.34502],
        [78.84104, 29.34494],
        [78.84129, 29.34489],
        [78.84155, 29.34485],
        [78.84181, 29.34484],
        [78.84207, 29.34484],
        [78.84232, 29.34486],
        [78.84258, 29.34491],
        [78.84283, 29.34497],
        [78.84307, 29.34505],
        [78.84331, 29.34516],
        [78.84377, 29.3452],
        [78.84423, 29.34525],
        [78.84469, 29.34531],
        [78.84514, 29.34537],
        [78.8456, 29.34544],
        [78.84605, 29.34552],
        [78.84651, 29.3456],
        [78.84696, 29.34569],
        [78.84741, 29.34578],
        [78.84781, 29.34585],
        [78.8482, 29.34594],
        [78.84859, 29.34605],
        [78.84896, 29.34619],
        [78.84933, 29.34635],
        [78.84969, 29.34653],
        [78.85004, 29.34672],
        [78.85038, 29.34695],
        [78.8507, 29.34719],
        [78.85097, 29.34743],
        [78.85126, 29.34765],
        [78.85157, 29.34785],
        [78.85189, 29.34802],
        [78.85223, 29.34816],
        [78.85258, 29.34827],
        [78.85293, 29.34836],
        [78.85329, 29.34841],
        [78.85366, 29.34844],
        [78.85393, 29.34843],
        [78.8542, 29.34844],
        [78.85447, 29.34844],
        [78.85474, 29.34846],
        [78.85501, 29.34847],
        [78.85529, 29.34849],
        [78.85556, 29.34852],
        [78.85583, 29.34855],
        [78.85621, 29.34863],
        [78.85641, 29.34877],
        [78.85653, 29.34898],
        [78.85654, 29.34922],
        [78.85646, 29.34945],
        [78.85636, 29.34961],
        [78.85612, 29.34992]
      ]
    ]
  }
}
