{
  "type": "Feature",
  "id": "UK-AC-66",
  "properties": {
    "stateName": "UTTARAKHAND",
    "stateCode": "UK",
    "districtName": "UDHAM SINGH NAGAR",
    "acNo": 66,
    "acName": "RUDRAPUR",
    "seatType": null,
    "pcNo": null,
    "pcName": null,
    "quality": "unverified",
    "sources": [
      "TBD"
    ]
  },
  "geometry": {
    "type": "Polygon",
    "coordinates": [
      [
        [79.41239, 29.05453],
        [79.41249, 29.05444],
        [79.41546, 29.05216],
        [79.41657, 29.05152],
        [79.41734, 29.05101],
        [79.41784, 29.05094],
        [79.42381, 29.05091],
        [79.42454, 29.05092],
        [79.42665, 29.04263],
        [79.43033, 29.04064],
        [79.43323, 29.03908],
        [79.43479, 29.03888],
        [79.44054, 29.0376],
        [79.44163, 29.0351],
        [79.43866, 29.02774],
        [79.43441, 29.01944],
        [79.4304, 29.01229],
        [79.43125, 29.00887],
        [79.4329, 29.00478],
        [79.4317, 28.99973],
        [79.42972, 28.99467],
        [79.42666, 28.99188],
        [79.42251, 28.98929],
        [79.42229, 28.98982],
        [79.42217, 28.99035],
        [79.42181, 28.98985],
        [79.42127, 28.98915],
        [79.42085, 28.98834],
        [79.42029, 28.98686],
        [79.41977, 28.98551],
        [79.4193, 28.984],
        [79.41921, 28.98329],
        [79.41927, 28.9798],
        [79.41932, 28.97748],
        [79.42018, 28.97497],
        [79.42055, 28.97336],
        [79.42149, 28.97174],
        [79.42121, 28.96943],
        [79.4208, 28.9669],
        [79.42129, 28.9657],
        [79.42581, 28.96375],
        [79.43066, 28.96211],
        [79.43528, 28.96098],
        [79.43828, 28.96012],
        [79.44042, 28.95754],
        [79.44022, 28.95716],
        [79.44006, 28.95686],
        [79.43924, 28.95592],
        [79.43846, 28.9548],
        [79.43826, 28.95436],
        [79.43826, 28.95391],
        [79.43845, 28.95346],
        [79.43853, 28.95329],
        [79.43579, 28.95225],
        [79.43294, 28.95128],
        [79.43017, 28.95022],
        [79.42836, 28.94954],
        [79.42562, 28.94808],
        [79.42408, 28.9473],
        [79.42054, 28.9455],
        [79.41595, 28.94301],
        [79.41593, 28.94312],
        [79.41581, 28.94342],
        [79.41577, 28.94368],
        [79.41586, 28.94396],
        [79.41548, 28.94447],
        [79.41367, 28.94635],
        [79.41076, 28.94925],
        [79.40972, 28.95031],
        [79.40816, 28.95206],
        [79.40778, 28.95221],
        [79.40695, 28.95238],
        [79.40661, 28.95239],
        [79.40625, 28.95229],
        [79.40561, 28.95163],
        [79.40553, 28.95137],
        [79.40567, 28.95102],
        [79.40566, 28.95073],
        [79.40583, 28.95062],
        [79.40608, 28.95073],
        [79.40634, 28.9508],
        [79.40641, 28.95052],
        [79.40649, 28.9502],
        [79.40614, 28.95006],
        [79.40572, 28.95001],
        [79.40458, 28.95051],
        [79.40434, 28.95044],
        [79.40414, 28.95018],
        [79.40422, 28.94991],
        [79.4044, 28.94981],
        [79.40464, 28.94961],
        [79.40464, 28.94937],
        [79.40434, 28.94933],
        [79.40412, 28.94944],
        [79.4038, 28.94989],
        [79.40347, 28.95002],
        [79.40294, 28.9501],
        [79.40272, 28.95],
        [79.40271, 28.94972],
        [79.40274, 28.94953],
        [79.40226, 28.9495],
        [79.40219, 28.9493],
        [79.40201, 28.94911],
        [79.40172, 28.94918],
        [79.40106, 28.94977],
        [79.40082, 28.94982],
        [79.40035, 28.94954],
        [79.39852, 28.94932],
        [79.39613, 28.94895],
        [79.39335, 28.94818],
        [79.39143, 28.94763],
        [79.39115, 28.94759],
        [79.39072, 28.94759],
        [79.39045, 28.94761],
        [79.38935, 28.94819],
        [79.38896, 28.94831],
        [79.38894, 28.94861],
        [79.38904, 28.9489],
        [79.38899, 28.94909],
        [79.38857, 28.94925],
        [79.38734, 28.94983],
        [79.38713, 28.95004],
        [79.38681, 28.95048],
        [79.3865, 28.95086],
        [79.3854, 28.95171],
        [79.38536, 28.95198],
        [79.38619, 28.95325],
        [79.38584, 28.95381],
        [79.38493, 28.9554],
        [79.38375, 28.95782],
        [79.38309, 28.95933],
        [79.3829, 28.96009],
        [79.38254, 28.96078],
        [79.38228, 28.96198],
        [79.38212, 28.96297],
        [79.38201, 28.9639],
        [79.3818, 28.96456],
        [79.38169, 28.96582],
        [79.38181, 28.96615],
        [79.382, 28.96664],
        [79.382, 28.96682],
        [79.38188, 28.96699],
        [79.38183, 28.96743],
        [79.38186, 28.96768],
        [79.38196, 28.96785],
        [79.38195, 28.96812],
        [79.38189, 28.96847],
        [79.38192, 28.96867],
        [79.3819, 28.96902],
        [79.38178, 28.96933],
        [79.38174, 28.96959],
        [79.38169, 28.96984],
        [79.38146, 28.97005],
        [79.38081, 28.97041],
        [79.37871, 28.97116],
        [79.3772, 28.97174],
        [79.37725, 28.97195],
        [79.37742, 28.97269],
        [79.37766, 28.97403],
        [79.37777, 28.97461],
        [79.37779, 28.97562],
        [79.37771, 28.97593],
        [79.37746, 28.97605],
        [79.37623, 28.97674],
        [79.37602, 28.97724],
        [79.37548, 28.97794],
        [79.37492, 28.97928],
        [79.37403, 28.98131],
        [79.37258, 28.98412],
        [79.37203, 28.98555],
        [79.37205, 28.9862],
        [79.3721, 28.98642],
        [79.37226, 28.98686],
        [79.37232, 28.98726],
        [79.37225, 28.98749],
        [79.37179, 28.98735],
        [79.37086, 28.98698],
        [79.37042, 28.98697],
        [79.37015, 28.98694],
        [79.36987, 28.98686],
        [79.36961, 28.98678],
        [79.3693, 28.9868],
        [79.36848, 28.9869],
        [79.36821, 28.98689],
        [79.36797, 28.98681],
        [79.36767, 28.98656],
        [79.36742, 28.98625],
        [79.36714, 28.98584],
        [79.36689, 28.98553],
        [79.36659, 28.98533],
        [79.36595, 28.98512],
        [79.36572, 28.98503],
        [79.36532, 28.98453],
        [79.36501, 28.98386],
        [79.36487, 28.98371],
        [79.36453, 28.98348],
        [79.36405, 28.98329],
        [79.36386, 28.98317],
        [79.36379, 28.98293],
        [79.36352, 28.98254],
        [79.36296, 28.98214],
        [79.36248, 28.98184],
        [79.36233, 28.98148],
        [79.3623, 28.98119],
        [79.36226, 28.98082],
        [79.36213, 28.98054],
        [79.36199, 28.97999],
        [79.36201, 28.97944],
        [79.36213, 28.97924],
        [79.36252, 28.97904],
        [79.36254, 28.97879],
        [79.36256, 28.97859],
        [79.36291, 28.97843],
        [79.36319, 28.97827],
        [79.36314, 28.97802],
        [79.36292, 28.97754],
        [79.36257, 28.97723],
        [79.36243, 28.97693],
        [79.36226, 28.97633],
        [79.36218, 28.97565],
        [79.36219, 28.97528],
        [79.36204, 28.97478],
        [79.36195, 28.97429],
        [79.36189, 28.97401],
        [79.36173, 28.97367],
        [79.36127, 28.97328],
        [79.36117, 28.9731],
        [79.36117, 28.9728],
        [79.36106, 28.97256],
        [79.36104, 28.97229],
        [79.36111, 28.97176],
        [79.36157, 28.97177],
        [79.36179, 28.97191],
        [79.3621, 28.97187],
        [79.36232, 28.97169],
        [79.36234, 28.97145],
        [79.3624, 28.97116],
        [79.36263, 28.97093],
        [79.36289, 28.97091],
        [79.36356, 28.97107],
        [79.36385, 28.97104],
        [79.36401, 28.97076],
        [79.36446, 28.97063],
        [79.36465, 28.97082],
        [79.36495, 28.9709],
        [79.36517, 28.9709],
        [79.3653, 28.97055],
        [79.36501, 28.97015],
        [79.36488, 28.97],
        [79.36486, 28.96977],
        [79.36523, 28.96961],
        [79.3654, 28.96947],
        [79.36508, 28.96927],
        [79.3649, 28.96905],
        [79.36488, 28.96879],
        [79.36486, 28.96845],
        [79.36476, 28.96824],
        [79.36345, 28.96822],
        [79.36045, 28.96799],
        [79.35756, 28.96784],
        [79.3566, 28.96785],
        [79.35617, 28.96789],
        [79.35514, 28.96832],
        [79.35257, 28.96938],
        [79.35004, 28.97027],
        [79.34917, 28.9705],
        [79.34829, 28.97054],
        [79.34758, 28.97075],
        [79.34699, 28.97079],
        [79.3453, 28.97089],
        [79.34399, 28.97117],
        [79.3417, 28.97162],
        [79.33952, 28.972],
        [79.33808, 28.97217],
        [79.33429, 28.97208],
        [79.32792, 28.97201],
        [79.32264, 28.97196],
        [79.32125, 28.97203],
        [79.32099, 28.97207],
        [79.32045, 28.97232],
        [79.31923, 28.97318],
        [79.31801, 28.97411],
        [79.31616, 28.97542],
        [79.3145, 28.97625],
        [79.31325, 28.97657],
        [79.31247, 28.97707],
        [79.31224, 28.9771],
        [79.31191, 28.97706],
        [79.3118, 28.9769],
        [79.3118, 28.97668],
        [79.31185, 28.9765],
        [79.31185, 28.97619],
        [79.31154, 28.97619],
        [79.31129, 28.97647],
        [79.31107, 28.97625],
        [79.31105, 28.97592],
        [79.31125, 28.97552],
        [79.31156, 28.9754],
        [79.31175, 28.97561],
        [79.31198, 28.97558],
        [79.31235, 28.97551],
        [79.31274, 28.97531],
        [79.31278, 28.97509],
        [79.31252, 28.97475],
        [79.3119, 28.97428],
        [79.31159, 28.97418],
        [79.31104, 28.97412],
        [79.31083, 28.97402],
        [79.31065, 28.97383],
        [79.31065, 28.97365],
        [79.31069, 28.97334],
        [79.31069, 28.97316],
        [79.31065, 28.97287],
        [79.31007, 28.97192],
        [79.31007, 28.97163],
        [79.31028, 28.97163],
        [79.31047, 28.97184],
        [79.31087, 28.97217],
        [79.31106, 28.97207],
        [79.31115, 28.97176],
        [79.31127, 28.97157],
        [79.31146, 28.97142],
        [79.31151, 28.97121],
        [79.31145, 28.97099],
        [79.31144, 28.97073],
        [79.31181, 28.97074],
        [79.31198, 28.97106],
        [79.31211, 28.97128],
        [79.31231, 28.97136],
        [79.31259, 28.97135],
        [79.31284, 28.97121],
        [79.31287, 28.97102],
        [79.31277, 28.97038],
        [79.31246, 28.96997],
        [79.31241, 28.96973],
        [79.31266, 28.96946],
        [79.31284, 28.96913],
        [79.31246, 28.969],
        [79.31188, 28.96922],
        [79.31174, 28.96941],
        [79.31152, 28.9699],
        [79.31127, 28.97007],
        [79.31102, 28.97006],
        [79.31086, 28.96991],
        [79.31076, 28.96963],
        [79.3106, 28.96934],
        [79.31015, 28.96928],
        [79.30988, 28.96905],
        [79.30993, 28.96882],
        [79.31042, 28.96845],
        [79.31047, 28.96818],
        [79.30989, 28.96792],
        [79.30955, 28.96778],
        [79.30933, 28.96763],
        [79.30895, 28.9676],
        [79.30868, 28.96747],
        [79.30845, 28.96741],
        [79.30828, 28.96762],
        [79.30797, 28.9679],
        [79.30777, 28.96787],
        [79.3076, 28.96776],
        [79.3074, 28.96682],
        [79.30708, 28.96666],
        [79.30631, 28.96715],
        [79.30462, 28.96857],
        [79.30254, 28.97068],
        [79.3007, 28.9719],
        [79.29887, 28.97285],
        [79.29722, 28.97344],
        [79.29643, 28.97359],
        [79.29538, 28.97379],
        [79.29479, 28.97383],
        [79.29421, 28.97378],
        [79.29319, 28.97371],
        [79.29272, 28.97373],
        [79.29221, 28.97393],
        [79.29127, 28.97447],
        [79.2893, 28.97608],
        [79.28784, 28.97721],
        [79.28507, 28.97878],
        [79.28149, 28.98033],
        [79.27884, 28.9815],
        [79.27546, 28.98338],
        [79.27069, 28.98599],
        [79.26616, 28.98852],
        [79.26407, 28.98973],
        [79.26154, 28.99113],
        [79.25936, 28.99221],
        [79.25829, 28.99303],
        [79.25754, 28.99379],
        [79.25718, 28.99431],
        [79.25573, 28.99613],
        [79.25535, 28.99659],
        [79.25475, 28.99744],
        [79.25369, 28.99843],
        [79.25285, 28.99904],
        [79.25241, 28.99921],
        [79.25171, 28.9995],
        [79.25141, 28.99974],
        [79.25078, 28.99999],
        [79.24987, 29.00106],
        [79.24911, 29.00184],
        [79.24844, 29.00247],
        [79.24778, 29.00285],
        [79.24744, 29.00324],
        [79.24739, 29.00359],
        [79.24746, 29.00379],
        [79.24766, 29.00416],
        [79.24827, 29.00497],
        [79.24846, 29.00509],
        [79.24852, 29.00517],
        [79.25273, 29.00468],
        [79.25407, 29.00466],
        [79.2554, 29.00491],
        [79.25706, 29.00531],
        [79.25753, 29.00556],
        [79.25789, 29.00576],
        [79.25812, 29.00586],
        [79.25865, 29.00593],
        [79.25955, 29.00599],
        [79.26071, 29.00618],
        [79.26177, 29.00641],
        [79.26392, 29.00678],
        [79.26587, 29.00724],
        [79.26838, 29.00811],
        [79.27089, 29.00945],
        [79.27269, 29.01037],
        [79.27329, 29.01056],
        [79.27324, 29.01073],
        [79.27325, 29.01095],
        [79.27347, 29.01143],
        [79.27406, 29.01265],
        [79.27482, 29.01364],
        [79.27535, 29.01456],
        [79.27571, 29.01547],
        [79.27585, 29.01657],
        [79.27584, 29.01813],
        [79.27578, 29.01957],
        [79.27567, 29.02083],
        [79.27553, 29.02192],
        [79.27529, 29.02277],
        [79.27515, 29.02313],
        [79.27485, 29.02346],
        [79.27461, 29.02394],
        [79.27445, 29.02453],
        [79.27435, 29.0249],
        [79.27421, 29.02557],
        [79.27409, 29.02589],
        [79.27391, 29.02609],
        [79.27364, 29.02628],
        [79.27344, 29.02636],
        [79.27293, 29.02644],
        [79.27224, 29.02641],
        [79.27169, 29.02625],
        [79.27066, 29.02597],
        [79.2691, 29.02578],
        [79.26715, 29.0256],
        [79.26569, 29.02546],
        [79.26475, 29.02552],
        [79.26445, 29.02561],
        [79.26421, 29.02574],
        [79.26404, 29.02591],
        [79.26387, 29.02627],
        [79.26375, 29.02682],
        [79.26367, 29.02761],
        [79.26341, 29.02927],
        [79.26325, 29.03037],
        [79.26325, 29.03104],
        [79.26333, 29.03177],
        [79.26353, 29.03273],
        [79.26374, 29.03321],
        [79.26384, 29.03342],
        [79.26434, 29.03433],
        [79.26529, 29.03579],
        [79.26573, 29.03633],
        [79.26614, 29.037],
        [79.26642, 29.03761],
        [79.26656, 29.03807],
        [79.26665, 29.03823],
        [79.26681, 29.03837],
        [79.26703, 29.03847],
        [79.26729, 29.03862],
        [79.26747, 29.03873],
        [79.26759, 29.03885],
        [79.26764, 29.03911],
        [79.2687, 29.03912],
        [79.27017, 29.03943],
        [79.27165, 29.03989],
        [79.27386, 29.04068],
        [79.27463, 29.04108],
        [79.27611, 29.04202],
        [79.27726, 29.04285],
        [79.27845, 29.04363],
        [79.27931, 29.04426],
        [79.28025, 29.0451],
        [79.28066, 29.04559],
        [79.28116, 29.04623],
        [79.28091, 29.04637],
        [79.28079, 29.04661],
        [79.28077, 29.04685],
        [79.28085, 29.04705],
        [79.28117, 29.04735],
        [79.28224, 29.04839],
        [79.28287, 29.04922],
        [79.2838, 29.05072],
        [79.28429, 29.05197],
        [79.2844, 29.05296],
        [79.28447, 29.05416],
        [79.28455, 29.05519],
        [79.2845, 29.0557],
        [79.2856, 29.05662],
        [79.28664, 29.05753],
        [79.28953, 29.06006],
        [79.29111, 29.06166],
        [79.29171, 29.06259],
        [79.29198, 29.06311],
        [79.29256, 29.06259],
        [79.29303, 29.06228],
        [79.29353, 29.06205],
        [79.29397, 29.06194],
        [79.29448, 29.0619],
        [79.2953, 29.06191],
        [79.29654, 29.06196],
        [79.29781, 29.06208],
        [79.2988, 29.06231],
        [79.30032, 29.06273],
        [79.30177, 29.06348],
        [79.30265, 29.06385],
        [79.30343, 29.06411],
        [79.30407, 29.06439],
        [79.30448, 29.06449],
        [79.30547, 29.06477],
        [79.30605, 29.0652],
        [79.30651, 29.06541],
        [79.30685, 29.06548],
        [79.30721, 29.06548],
        [79.30771, 29.06542],
        [79.30876, 29.06505],
        [79.31071, 29.06445],
        [79.31264, 29.06376],
        [79.31376, 29.06352],
        [79.31555, 29.06328],
        [79.31725, 29.06299],
        [79.31821, 29.0627],
        [79.31846, 29.06252],
        [79.31857, 29.06219],
        [79.31866, 29.06186],
        [79.31882, 29.06157],
        [79.31913, 29.06139],
        [79.31968, 29.06126],
        [79.32078, 29.06127],
        [79.32247, 29.06139],
        [79.32322, 29.06143],
        [79.3248, 29.06128],
        [79.32641, 29.06122],
        [79.3284, 29.06124],
        [79.32968, 29.06139],
        [79.33048, 29.06162],
        [79.33106, 29.0618],
        [79.33183, 29.06196],
        [79.33288, 29.06357],
        [79.33383, 29.06244],
        [79.33494, 29.06126],
        [79.33583, 29.05995],
        [79.33664, 29.05859],
        [79.33735, 29.05707],
        [79.33802, 29.05544],
        [79.33847, 29.05392],
        [79.33871, 29.05277],
        [79.33877, 29.05147],
        [79.33854, 29.04979],
        [79.33834, 29.04908],
        [79.34082, 29.04928],
        [79.34215, 29.0495],
        [79.34423, 29.0501],
        [79.34824, 29.0512],
        [79.35072, 29.05203],
        [79.35272, 29.05263],
        [79.35381, 29.05307],
        [79.35435, 29.05253],
        [79.35504, 29.0521],
        [79.35577, 29.05181],
        [79.35643, 29.05164],
        [79.35729, 29.05152],
        [79.35808, 29.0514],
        [79.35929, 29.05112],
        [79.36216, 29.05028],
        [79.3639, 29.04982],
        [79.36581, 29.04946],
        [79.36792, 29.04917],
        [79.37115, 29.04912],
        [79.37671, 29.0495],
        [79.3809, 29.04988],
        [79.38557, 29.05047],
        [79.38706, 29.04865],
        [79.3884, 29.04702],
        [79.39141, 29.04415],
        [79.39363, 29.04227],
        [79.39542, 29.04065],
        [79.39905, 29.04356],
        [79.40263, 29.04659],
        [79.40647, 29.04939],
        [79.41239, 29.05453]
      ]
    ]
  }
}
