{
  "type": "Feature",
  "id": "UK-AC-7",
  "properties": {
    "stateName": "UTTARAKHAND",
    "stateCode": "UK",
    "districtName": "RUDRAPRAYAG",
    "acNo": 7,
    "acName": "KEDARNATH",
    "seatType": null,
    "pcNo": null,
    "pcName": null,
    "quality": "unverified",
    "sources": [
      "TBD"
    ]
  },
  "geometry": {
    "type": "Polygon",
    "coordinates": [
      [
        [79.03173, 30.80659],
        [79.04415, 30.80542],
        [79.05055, 30.80291],
        [79.06039, 30.80039],
        [79.06565, 30.80005],
        [79.06639, 30.79781],
        [79.07153, 30.79403],
        [79.07828, 30.78569],
        [79.08995, 30.77632],
        [79.09281, 30.77547],
        [79.09965, 30.7756],
        [79.10796, 30.7736],
        [79.11752, 30.77367],
        [79.12558, 30.77093],
        [79.12758, 30.76926],
        [79.12846, 30.76626],
        [79.12842, 30.7612],
        [79.12958, 30.75613],
        [79.13324, 30.75182],
        [79.13842, 30.7497],
        [79.14162, 30.7497],
        [79.14672, 30.75219],
        [79.15435, 30.7541],
        [79.15965, 30.75641],
        [79.16569, 30.75688],
        [79.18757, 30.74897],
        [79.19536, 30.7431],
        [79.19857, 30.7351],
        [79.20746, 30.73839],
        [79.21569, 30.73955],
        [79.22818, 30.73641],
        [79.24764, 30.73296],
        [79.25783, 30.72376],
        [79.25996, 30.72341],
        [79.27348, 30.72475],
        [79.27747, 30.72604],
        [79.28828, 30.72307],
        [79.29485, 30.72026],
        [79.29868, 30.71653],
        [79.29957, 30.70804],
        [79.29995, 30.70603],
        [79.30153, 30.69764],
        [79.30136, 30.69133],
        [79.30359, 30.68878],
        [79.30584, 30.6834],
        [79.30482, 30.6781],
        [79.30674, 30.67454],
        [79.31289, 30.67128],
        [79.31553, 30.67156],
        [79.32146, 30.66976],
        [79.32805, 30.66349],
        [79.33188, 30.65848],
        [79.33548, 30.6573],
        [79.3396, 30.65668],
        [79.3502, 30.65143],
        [79.35436, 30.6445],
        [79.35572, 30.62751],
        [79.34885, 30.62657],
        [79.34739, 30.624],
        [79.34857, 30.61953],
        [79.34798, 30.61158],
        [79.3462, 30.6081],
        [79.34294, 30.60681],
        [79.34146, 30.6058],
        [79.34127, 30.60232],
        [79.33865, 30.5982],
        [79.3336, 30.59498],
        [79.32747, 30.59523],
        [79.31542, 30.59664],
        [79.31131, 30.59562],
        [79.30625, 30.59304],
        [79.30567, 30.58353],
        [79.30326, 30.58032],
        [79.3015, 30.57493],
        [79.30079, 30.56926],
        [79.29587, 30.56229],
        [79.29334, 30.56191],
        [79.28678, 30.56371],
        [79.28265, 30.56461],
        [79.27759, 30.56422],
        [79.27421, 30.56448],
        [79.27198, 30.56639],
        [79.26658, 30.56783],
        [79.26247, 30.56753],
        [79.25667, 30.56495],
        [79.25088, 30.56191],
        [79.24805, 30.55842],
        [79.24714, 30.5533],
        [79.24392, 30.54378],
        [79.24406, 30.53875],
        [79.24228, 30.53591],
        [79.22831, 30.52433],
        [79.22345, 30.50941],
        [79.2239, 30.50366],
        [79.22583, 30.49919],
        [79.22364, 30.49515],
        [79.22229, 30.49131],
        [79.21799, 30.48772],
        [79.21335, 30.4877],
        [79.20118, 30.48225],
        [79.19599, 30.47985],
        [79.19053, 30.47534],
        [79.18698, 30.46993],
        [79.18669, 30.46481],
        [79.18302, 30.46168],
        [79.17944, 30.46002],
        [79.17852, 30.45691],
        [79.17706, 30.45434],
        [79.17453, 30.45305],
        [79.1735, 30.45048],
        [79.17023, 30.44919],
        [79.16656, 30.44624],
        [79.16747, 30.43683],
        [79.17119, 30.43228],
        [79.1746, 30.42819],
        [79.17506, 30.42152],
        [79.17341, 30.41611],
        [79.16764, 30.41224],
        [79.16481, 30.40876],
        [79.16368, 30.40464],
        [79.16456, 30.39989],
        [79.16457, 30.39453],
        [79.16442, 30.38883],
        [79.16192, 30.38433],
        [79.15876, 30.3834],
        [79.15655, 30.38367],
        [79.1533, 30.38109],
        [79.14857, 30.37887],
        [79.14487, 30.3794],
        [79.14086, 30.38093],
        [79.14031, 30.38058],
        [79.13876, 30.37955],
        [79.13506, 30.38054],
        [79.13205, 30.38147],
        [79.12143, 30.38476],
        [79.11489, 30.38463],
        [79.10911, 30.38231],
        [79.10513, 30.37882],
        [79.1044, 30.37662],
        [79.10633, 30.37316],
        [79.10679, 30.36841],
        [79.10944, 30.36623],
        [79.11166, 30.36496],
        [79.11283, 30.36341],
        [79.11211, 30.36158],
        [79.11656, 30.35749],
        [79.11936, 30.35612],
        [79.12101, 30.35532],
        [79.12312, 30.35478],
        [79.12355, 30.35286],
        [79.12252, 30.35057],
        [79.12433, 30.34811],
        [79.1277, 30.3485],
        [79.13127, 30.35044],
        [79.13422, 30.35018],
        [79.13634, 30.34863],
        [79.13815, 30.34581],
        [79.13976, 30.34234],
        [79.13945, 30.3406],
        [79.14464, 30.33807],
        [79.14706, 30.33754],
        [79.14896, 30.33727],
        [79.15045, 30.335],
        [79.15152, 30.3329],
        [79.15416, 30.33227],
        [79.15712, 30.33174],
        [79.15893, 30.32882],
        [79.15896, 30.32507],
        [79.15686, 30.32342],
        [79.15539, 30.32185],
        [79.15317, 30.32367],
        [79.15242, 30.32495],
        [79.14947, 30.32493],
        [79.14854, 30.32237],
        [79.14795, 30.31697],
        [79.14514, 30.31156],
        [79.14444, 30.30589],
        [79.14531, 30.30242],
        [79.14849, 30.29933],
        [79.15987, 30.2992],
        [79.16388, 30.29858],
        [79.1679, 30.29668],
        [79.16728, 30.29476],
        [79.1617, 30.29382],
        [79.15706, 30.29434],
        [79.15337, 30.29524],
        [79.14684, 30.2942],
        [79.13856, 30.28775],
        [79.13276, 30.28864],
        [79.12284, 30.29132],
        [79.11883, 30.29194],
        [79.11379, 30.28963],
        [79.10982, 30.28513],
        [79.10922, 30.28073],
        [79.10387, 30.27659],
        [79.10388, 30.27558],
        [79.10569, 30.27303],
        [79.10644, 30.27158],
        [79.1072, 30.26829],
        [79.10586, 30.26362],
        [79.10454, 30.25757],
        [79.09742, 30.25214],
        [79.09399, 30.2449],
        [79.09193, 30.24251],
        [79.08898, 30.23911],
        [79.08691, 30.23498],
        [79.08335, 30.23112],
        [79.07938, 30.22726],
        [79.07836, 30.22341],
        [79.07786, 30.2193],
        [79.07717, 30.21974],
        [79.0758, 30.22009],
        [79.07072, 30.2201],
        [79.07032, 30.21983],
        [79.06954, 30.21737],
        [79.06899, 30.21713],
        [79.06829, 30.21732],
        [79.06691, 30.21702],
        [79.06412, 30.21642],
        [79.06264, 30.2154],
        [79.06148, 30.21485],
        [79.0608, 30.21519],
        [79.05984, 30.21615],
        [79.05929, 30.21598],
        [79.05604, 30.2157],
        [79.05436, 30.21602],
        [79.0533, 30.21595],
        [79.05214, 30.21553],
        [79.05118, 30.21471],
        [79.04904, 30.21393],
        [79.04467, 30.21422],
        [79.044, 30.21465],
        [79.04376, 30.2148],
        [79.0423, 30.21611],
        [79.04103, 30.21906],
        [79.03925, 30.22026],
        [79.03517, 30.22246],
        [79.03508, 30.22325],
        [79.03659, 30.22602],
        [79.0384, 30.22954],
        [79.03873, 30.23187],
        [79.03844, 30.23303],
        [79.03742, 30.2343],
        [79.03687, 30.23542],
        [79.03705, 30.23885],
        [79.03817, 30.24124],
        [79.03803, 30.24194],
        [79.03725, 30.24455],
        [79.0373, 30.24646],
        [79.03846, 30.24797],
        [79.04181, 30.24983],
        [79.04012, 30.25039],
        [79.04078, 30.25171],
        [79.04386, 30.25385],
        [79.0459, 30.25736],
        [79.0472, 30.26013],
        [79.05134, 30.26399],
        [79.05732, 30.26803],
        [79.06633, 30.27663],
        [79.07857, 30.28586],
        [79.08494, 30.29318],
        [79.08935, 30.29693],
        [79.09046, 30.29901],
        [79.08893, 30.29968],
        [79.07327, 30.29894],
        [79.06342, 30.30122],
        [79.05628, 30.30144],
        [79.0541, 30.30235],
        [79.05111, 30.30568],
        [79.0454, 30.30999],
        [79.04242, 30.31108],
        [79.03727, 30.31043],
        [79.03373, 30.30859],
        [79.03107, 30.30719],
        [79.02534, 30.30418],
        [79.02449, 30.30395],
        [79.01697, 30.30191],
        [79.01599, 30.30174],
        [79.0128, 30.30119],
        [79.01277, 30.30118],
        [79.00383, 30.29963],
        [79.00039, 30.30049],
        [79.00007, 30.30069],
        [78.99995, 30.3014],
        [78.99974, 30.30212],
        [78.99965, 30.30243],
        [78.99951, 30.30402],
        [78.99957, 30.30491],
        [78.99925, 30.30525],
        [78.99858, 30.3058],
        [78.99739, 30.30722],
        [78.99683, 30.30883],
        [78.99571, 30.30867],
        [78.9945, 30.30858],
        [78.99365, 30.30854],
        [78.99307, 30.30871],
        [78.99104, 30.31004],
        [78.98924, 30.30885],
        [78.98827, 30.30849],
        [78.98688, 30.30827],
        [78.98686, 30.3087],
        [78.98639, 30.31019],
        [78.98576, 30.31229],
        [78.98541, 30.31306],
        [78.98534, 30.31365],
        [78.98571, 30.31473],
        [78.98564, 30.31539],
        [78.98558, 30.31685],
        [78.98551, 30.31798],
        [78.98547, 30.31858],
        [78.98504, 30.32053],
        [78.98475, 30.32115],
        [78.98408, 30.32198],
        [78.98339, 30.32249],
        [78.98382, 30.32268],
        [78.98441, 30.32302],
        [78.98512, 30.32341],
        [78.98619, 30.32416],
        [78.98653, 30.32493],
        [78.98692, 30.32546],
        [78.98607, 30.3264],
        [78.98583, 30.32699],
        [78.98565, 30.32836],
        [78.98546, 30.32882],
        [78.98513, 30.329],
        [78.98343, 30.32972],
        [78.98209, 30.33018],
        [78.9808, 30.33024],
        [78.97866, 30.33015],
        [78.97865, 30.33065],
        [78.9783, 30.33185],
        [78.97827, 30.33202],
        [78.97811, 30.33292],
        [78.97808, 30.334],
        [78.97821, 30.33522],
        [78.97856, 30.33598],
        [78.97866, 30.33618],
        [78.97926, 30.33715],
        [78.97972, 30.33812],
        [78.98032, 30.33922],
        [78.98093, 30.34033],
        [78.98151, 30.34252],
        [78.98164, 30.34327],
        [78.9821, 30.34456],
        [78.98318, 30.34582],
        [78.98458, 30.34683],
        [78.9874, 30.34762],
        [78.98819, 30.34777],
        [78.99413, 30.34885],
        [78.99466, 30.34897],
        [78.9957, 30.34919],
        [78.9971, 30.35006],
        [78.99787, 30.35131],
        [78.99804, 30.35172],
        [78.9991, 30.3542],
        [78.99987, 30.35639],
        [79.00142, 30.35929],
        [79.00524, 30.36341],
        [79.0069, 30.3652],
        [79.00741, 30.36568],
        [79.00828, 30.36652],
        [79.00731, 30.36761],
        [79.00704, 30.36805],
        [79.00695, 30.36831],
        [79.00681, 30.36903],
        [79.00662, 30.36945],
        [79.00532, 30.37117],
        [79.00409, 30.37312],
        [79.00364, 30.37388],
        [79.0028, 30.37578],
        [79.00223, 30.37729],
        [79.00191, 30.37848],
        [79.00106, 30.38097],
        [79.00063, 30.38229],
        [79.00025, 30.38309],
        [78.99964, 30.38425],
        [78.99916, 30.38527],
        [78.99892, 30.38546],
        [78.99863, 30.38557],
        [79.00053, 30.38544],
        [79.00093, 30.38732],
        [79.00056, 30.39081],
        [79.00027, 30.39323],
        [79.00023, 30.39493],
        [79.00011, 30.39682],
        [79.00056, 30.39762],
        [79.0009, 30.39817],
        [79.00145, 30.39997],
        [79.00178, 30.40229],
        [79.00196, 30.40428],
        [79.00184, 30.40581],
        [79.00242, 30.40605],
        [79.00322, 30.40623],
        [79.00406, 30.40622],
        [79.00513, 30.40587],
        [79.00708, 30.40473],
        [79.00819, 30.4039],
        [79.00863, 30.40363],
        [79.00917, 30.40355],
        [79.01038, 30.40363],
        [79.01119, 30.40364],
        [79.012, 30.40353],
        [79.01307, 30.40301],
        [79.01493, 30.40186],
        [79.01653, 30.40409],
        [79.0167, 30.40433],
        [79.01693, 30.40465],
        [79.01983, 30.40868],
        [79.02144, 30.4108],
        [79.0223, 30.4114],
        [79.02354, 30.41195],
        [79.02411, 30.41214],
        [79.0245, 30.41223],
        [79.02507, 30.41226],
        [79.02575, 30.41229],
        [79.02642, 30.4124],
        [79.02686, 30.41245],
        [79.02739, 30.41179],
        [79.02781, 30.41094],
        [79.0297, 30.4126],
        [79.03113, 30.41423],
        [79.03241, 30.41601],
        [79.0332, 30.41733],
        [79.03351, 30.41848],
        [79.03361, 30.41954],
        [79.03361, 30.4201],
        [79.03278, 30.42019],
        [79.0321, 30.42049],
        [79.03172, 30.42069],
        [79.0311, 30.42278],
        [79.03085, 30.42468],
        [79.03059, 30.42786],
        [79.03061, 30.43086],
        [79.03035, 30.43256],
        [79.03055, 30.43498],
        [79.03121, 30.43766],
        [79.03181, 30.44071],
        [79.03063, 30.44134],
        [79.02937, 30.44186],
        [79.02811, 30.44213],
        [79.02695, 30.44265],
        [79.02356, 30.44461],
        [79.02326, 30.44478],
        [79.02122, 30.44591],
        [79.02005, 30.44635],
        [79.01909, 30.44655],
        [79.01841, 30.44661],
        [79.01745, 30.44665],
        [79.01687, 30.44646],
        [79.01639, 30.44635],
        [79.016, 30.44666],
        [79.0157, 30.44714],
        [79.01551, 30.44754],
        [79.01531, 30.44802],
        [79.01511, 30.44842],
        [79.01481, 30.4489],
        [79.01461, 30.44938],
        [79.01441, 30.44986],
        [79.0143, 30.45059],
        [79.01429, 30.45116],
        [79.01438, 30.45158],
        [79.01448, 30.45194],
        [79.01456, 30.45265],
        [79.01483, 30.45348],
        [79.01501, 30.45438],
        [79.01491, 30.45503],
        [79.01471, 30.45551],
        [79.0146, 30.456],
        [79.0145, 30.45648],
        [79.01439, 30.45705],
        [79.01466, 30.45837],
        [79.01464, 30.45976],
        [79.01453, 30.46032],
        [79.01452, 30.4613],
        [79.01459, 30.4627],
        [79.01467, 30.46368],
        [79.01476, 30.46409],
        [79.01561, 30.46519],
        [79.01598, 30.46586],
        [79.01616, 30.46669],
        [79.01624, 30.46743],
        [79.01622, 30.46873],
        [79.01601, 30.46954],
        [79.01561, 30.47042],
        [79.01483, 30.47112],
        [79.01376, 30.47189],
        [79.0124, 30.47265],
        [79.01152, 30.4731],
        [79.01104, 30.47332],
        [79.01055, 30.47354],
        [79.01006, 30.47401],
        [79.00975, 30.47444],
        [79.00957, 30.4748],
        [79.00946, 30.47537],
        [79.00946, 30.47578],
        [79.00945, 30.47627],
        [79.00973, 30.47661],
        [79.01011, 30.4772],
        [79.01075, 30.47902],
        [79.01111, 30.48043],
        [79.011, 30.48116],
        [79.0106, 30.48196],
        [79.01001, 30.48258],
        [79.00972, 30.48306],
        [79.0095, 30.48436],
        [79.00869, 30.48669],
        [79.00848, 30.48774],
        [79.00866, 30.48873],
        [79.00892, 30.49029],
        [79.00898, 30.49201],
        [79.00856, 30.49428],
        [79.00796, 30.49556],
        [79.00728, 30.49618],
        [79.00582, 30.49725],
        [79.00182, 30.50017],
        [78.99852, 30.50247],
        [78.99599, 30.50391],
        [78.99492, 30.505],
        [78.99442, 30.50604],
        [78.99411, 30.5075],
        [78.99396, 30.51092],
        [78.99451, 30.51266],
        [78.9958, 30.51574],
        [78.9971, 30.51841],
        [78.99954, 30.52187],
        [79.00057, 30.5233],
        [79.00245, 30.52592],
        [79.00366, 30.52794],
        [79.00383, 30.52933],
        [79.00381, 30.53023],
        [79.00352, 30.53079],
        [79.00293, 30.53125],
        [79.00187, 30.53186],
        [79.00051, 30.53277],
        [78.99973, 30.53363],
        [78.99932, 30.535],
        [78.99872, 30.53694],
        [78.99803, 30.53821],
        [78.99705, 30.53914],
        [78.99483, 30.54043],
        [78.99444, 30.54057],
        [78.99386, 30.54063],
        [78.99368, 30.54038],
        [78.9932, 30.54035],
        [78.99291, 30.54042],
        [78.99233, 30.5408],
        [78.99165, 30.54118],
        [78.99117, 30.5414],
        [78.9904, 30.54137],
        [78.98973, 30.54133],
        [78.98916, 30.54123],
        [78.98849, 30.54079],
        [78.98793, 30.54011],
        [78.98689, 30.53908],
        [78.98603, 30.53888],
        [78.98517, 30.53884],
        [78.98325, 30.53875],
        [78.98248, 30.53887],
        [78.98181, 30.53884],
        [78.98134, 30.53858],
        [78.98096, 30.53815],
        [78.98058, 30.53756],
        [78.9803, 30.53722],
        [78.98011, 30.53713],
        [78.97963, 30.53711],
        [78.97934, 30.53734],
        [78.97905, 30.53782],
        [78.9783, 30.54284],
        [78.97818, 30.54479],
        [78.97724, 30.5503],
        [78.97684, 30.55142],
        [78.97625, 30.55205],
        [78.97587, 30.55244],
        [78.97547, 30.55299],
        [78.97498, 30.55379],
        [78.97459, 30.55442],
        [78.97429, 30.55514],
        [78.97381, 30.55569],
        [78.97313, 30.55615],
        [78.97284, 30.55678],
        [78.97262, 30.55824],
        [78.9726, 30.56004],
        [78.9735, 30.56432],
        [78.97339, 30.56538],
        [78.9726, 30.56755],
        [78.97123, 30.56952],
        [78.97007, 30.57053],
        [78.9692, 30.57081],
        [78.96853, 30.57103],
        [78.96767, 30.57123],
        [78.96662, 30.57126],
        [78.96585, 30.57163],
        [78.96536, 30.57243],
        [78.96478, 30.57297],
        [78.96391, 30.57383],
        [78.96275, 30.57467],
        [78.96121, 30.57541],
        [78.96016, 30.57569],
        [78.95843, 30.57577],
        [78.95709, 30.5757],
        [78.95423, 30.57499],
        [78.95194, 30.57472],
        [78.94955, 30.57477],
        [78.94868, 30.57514],
        [78.94772, 30.57574],
        [78.94723, 30.57654],
        [78.94645, 30.57788],
        [78.94568, 30.57907],
        [78.945, 30.57969],
        [78.94414, 30.58022],
        [78.94337, 30.58051],
        [78.94231, 30.58078],
        [78.94164, 30.581],
        [78.94116, 30.58122],
        [78.94058, 30.58176],
        [78.93991, 30.58246],
        [78.93922, 30.5843],
        [78.93824, 30.58662],
        [78.93718, 30.58853],
        [78.9365, 30.58955],
        [78.93611, 30.59027],
        [78.93572, 30.59123],
        [78.93524, 30.5921],
        [78.93494, 30.59258],
        [78.93456, 30.59297],
        [78.93379, 30.59325],
        [78.93293, 30.59346],
        [78.93188, 30.59357],
        [78.93073, 30.59359],
        [78.92987, 30.5938],
        [78.92911, 30.59425],
        [78.92789, 30.59554],
        [78.92723, 30.59648],
        [78.9269, 30.5973],
        [78.92705, 30.59814],
        [78.92737, 30.59899],
        [78.92752, 30.60066],
        [78.92653, 30.60353],
        [78.92521, 30.60624],
        [78.92439, 30.60703],
        [78.92211, 30.60886],
        [78.92129, 30.60951],
        [78.91965, 30.61373],
        [78.91899, 30.61467],
        [78.91801, 30.61546],
        [78.91655, 30.61608],
        [78.91444, 30.6168],
        [78.91379, 30.61746],
        [78.9133, 30.61813],
        [78.91281, 30.6188],
        [78.912, 30.61932],
        [78.91086, 30.61981],
        [78.91021, 30.62047],
        [78.90972, 30.62114],
        [78.90939, 30.62182],
        [78.90891, 30.62221],
        [78.90761, 30.6227],
        [78.90494, 30.6231],
        [78.90496, 30.62311],
        [78.90563, 30.62342],
        [78.90606, 30.62385],
        [78.90628, 30.62421],
        [78.90658, 30.62486],
        [78.90721, 30.62633],
        [78.90785, 30.6274],
        [78.90935, 30.6295],
        [78.91027, 30.62986],
        [78.90979, 30.63013],
        [78.90939, 30.63065],
        [78.90851, 30.6318],
        [78.90791, 30.63289],
        [78.90773, 30.63327],
        [78.90771, 30.63367],
        [78.90773, 30.63401],
        [78.90789, 30.63542],
        [78.90809, 30.63718],
        [78.90834, 30.63915],
        [78.90809, 30.64171],
        [78.90789, 30.64326],
        [78.90753, 30.64408],
        [78.90712, 30.64519],
        [78.90703, 30.64552],
        [78.90703, 30.64577],
        [78.90705, 30.64611],
        [78.90715, 30.6467],
        [78.90728, 30.64753],
        [78.90741, 30.64936],
        [78.9075, 30.65015],
        [78.90742, 30.65069],
        [78.90724, 30.6512],
        [78.90623, 30.65268],
        [78.90598, 30.65361],
        [78.90593, 30.65412],
        [78.90604, 30.65532],
        [78.90616, 30.65584],
        [78.90629, 30.65618],
        [78.90645, 30.65631],
        [78.90712, 30.65684],
        [78.90724, 30.65706],
        [78.90735, 30.65731],
        [78.90741, 30.65764],
        [78.90739, 30.658],
        [78.90739, 30.65829],
        [78.9075, 30.65864],
        [78.90804, 30.65962],
        [78.90955, 30.66227],
        [78.91036, 30.66346],
        [78.91047, 30.66389],
        [78.91053, 30.66409],
        [78.91054, 30.66436],
        [78.90999, 30.66562],
        [78.90921, 30.66743],
        [78.9091, 30.66816],
        [78.90923, 30.66889],
        [78.90955, 30.66985],
        [78.91076, 30.6728],
        [78.91101, 30.67349],
        [78.91161, 30.67425],
        [78.91246, 30.6758],
        [78.91251, 30.67604],
        [78.91253, 30.67625],
        [78.91251, 30.67661],
        [78.91175, 30.67798],
        [78.91161, 30.67836],
        [78.91161, 30.679],
        [78.91163, 30.67978],
        [78.91172, 30.68213],
        [78.91172, 30.68464],
        [78.9117, 30.68752],
        [78.9117, 30.68779],
        [78.91145, 30.68829],
        [78.91087, 30.68958],
        [78.91071, 30.68973],
        [78.9108, 30.69007],
        [78.91098, 30.69032],
        [78.91246, 30.69212],
        [78.91284, 30.69239],
        [78.91343, 30.69271],
        [78.91455, 30.69327],
        [78.91527, 30.69374],
        [78.91606, 30.69487],
        [78.91653, 30.69577],
        [78.91666, 30.69595],
        [78.91675, 30.6962],
        [78.91673, 30.69672],
        [78.91653, 30.69854],
        [78.9166, 30.69989],
        [78.9166, 30.70024],
        [78.91657, 30.70047],
        [78.91641, 30.70074],
        [78.9163, 30.70094],
        [78.91639, 30.70126],
        [78.9166, 30.70141],
        [78.91705, 30.70162],
        [78.91829, 30.7034],
        [78.91996, 30.70572],
        [78.92025, 30.70657],
        [78.92115, 30.70805],
        [78.92247, 30.71024],
        [78.92306, 30.71164],
        [78.9238, 30.71276],
        [78.92389, 30.71299],
        [78.92389, 30.71324],
        [78.92386, 30.71373],
        [78.92389, 30.71427],
        [78.92404, 30.71486],
        [78.92451, 30.7154],
        [78.92502, 30.71604],
        [78.92702, 30.71763],
        [78.92941, 30.71912],
        [78.93085, 30.71981],
        [78.93159, 30.71995],
        [78.9338, 30.72001],
        [78.93784, 30.71993],
        [78.94036, 30.72013],
        [78.94195, 30.72033],
        [78.94373, 30.7208],
        [78.94479, 30.72145],
        [78.94721, 30.72333],
        [78.94862, 30.72459],
        [78.94865, 30.72477],
        [78.94867, 30.72531],
        [78.94883, 30.72637],
        [78.94956, 30.72819],
        [78.95082, 30.7302],
        [78.95152, 30.73139],
        [78.95181, 30.73254],
        [78.9519, 30.73297],
        [78.95208, 30.73312],
        [78.95237, 30.73312],
        [78.95288, 30.73294],
        [78.95356, 30.73274],
        [78.95392, 30.73274],
        [78.95503, 30.73303],
        [78.95825, 30.73397],
        [78.9602, 30.73498],
        [78.96044, 30.73507],
        [78.96078, 30.73512],
        [78.96105, 30.73512],
        [78.96179, 30.73476],
        [78.96432, 30.7335],
        [78.96769, 30.73222],
        [78.96882, 30.73191],
        [78.96949, 30.73157],
        [78.97044, 30.73099],
        [78.97124, 30.73074],
        [78.97203, 30.73056],
        [78.97295, 30.73054],
        [78.97402, 30.7307],
        [78.97622, 30.73121],
        [78.97741, 30.73188],
        [78.97806, 30.73267],
        [78.9784, 30.73279],
        [78.97894, 30.73294],
        [78.98085, 30.73339],
        [78.98335, 30.73386],
        [78.98403, 30.73391],
        [78.98481, 30.73391],
        [78.98503, 30.73387],
        [78.98526, 30.7338],
        [78.98585, 30.73362],
        [78.98693, 30.73285],
        [78.9878, 30.73236],
        [78.98888, 30.73213],
        [78.98996, 30.73195],
        [78.9909, 30.73175],
        [78.99115, 30.73171],
        [78.99144, 30.73175],
        [78.99184, 30.73182],
        [78.99254, 30.73211],
        [78.99411, 30.73281],
        [78.99504, 30.73348],
        [78.99513, 30.73384],
        [78.99515, 30.73409],
        [78.9951, 30.73472],
        [78.99494, 30.73661],
        [78.99519, 30.7385],
        [78.99535, 30.73887],
        [78.99553, 30.73911],
        [78.99575, 30.7394],
        [78.99622, 30.73985],
        [78.99645, 30.7401],
        [78.99672, 30.74048],
        [78.99744, 30.74188],
        [78.99632, 30.7443],
        [79.00148, 30.7494],
        [79.00763, 30.7498],
        [79.01677, 30.75307],
        [79.02003, 30.76309],
        [79.02506, 30.76731],
        [79.0219, 30.78204],
        [79.0275, 30.78977],
        [79.02701, 30.79472],
        [79.03173, 30.80659]
      ]
    ]
  }
}
