{
  "type": "Feature",
  "id": "TN-AC-121",
  "properties": {
    "stateName": "TAMIL NADU",
    "stateCode": "TN",
    "districtName": "COIMBATORE",
    "acNo": 121,
    "acName": "Singanallur",
    "seatType": null,
    "pcNo": 20,
    "pcName": "COIMBATORE",
    "quality": "unverified",
    "sources": [
      "TBD"
    ]
  },
  "geometry": {
    "type": "Polygon",
    "coordinates": [
      [
        [77.0537, 10.98841],
        [77.03694, 10.98449],
        [76.98201, 10.97193],
        [76.97834, 10.97861],
        [76.99057, 10.97935],
        [76.99366, 10.98699],
        [76.98666, 10.98936],
        [76.98629, 10.99553],
        [76.99272, 10.99546],
        [76.99436, 10.99012],
        [77.00449, 10.99577],
        [76.99166, 11.01497],
        [76.99123, 11.0223],
        [76.99049, 11.02858],
        [76.99693, 11.0349],
        [76.99579, 11.04286],
        [77.00929, 11.03864],
        [77.00825, 11.04572],
        [77.02967, 11.04678],
        [77.03502, 11.02664],
        [77.05107, 11.02627],
        [77.06086, 11.00152],
        [77.0537, 10.98841]
      ]
    ]
  }
}
