{
  "type": "Feature",
  "id": "TN-AC-128",
  "properties": {
    "stateName": "TAMIL NADU",
    "stateCode": "TN",
    "districtName": "DINDIGUL",
    "acNo": 128,
    "acName": "Oddanchatram",
    "seatType": null,
    "pcNo": 22,
    "pcName": "DINDIGUL",
    "quality": "unverified",
    "sources": [
      "TBD"
    ]
  },
  "geometry": {
    "type": "Polygon",
    "coordinates": [
      [
        [77.82784, 10.63442],
        [77.8352, 10.63303],
        [77.84734, 10.63894],
        [77.87221, 10.63205],
        [77.88409, 10.6284],
        [77.86917, 10.60015],
        [77.87205, 10.59051],
        [77.86511, 10.57979],
        [77.91478, 10.56674],
        [77.91922, 10.55662],
        [77.91452, 10.5446],
        [77.92505, 10.52926],
        [77.8986, 10.53312],
        [77.89191, 10.52343],
        [77.88454, 10.51938],
        [77.87902, 10.52402],
        [77.86078, 10.52706],
        [77.85246, 10.51615],
        [77.84718, 10.51883],
        [77.84551, 10.49276],
        [77.83965, 10.4799],
        [77.82538, 10.48442],
        [77.8104, 10.50059],
        [77.79708, 10.49734],
        [77.78464, 10.48587],
        [77.78055, 10.46289],
        [77.74941, 10.43915],
        [77.72177, 10.40777],
        [77.73096, 10.39526],
        [77.71892, 10.37082],
        [77.71431, 10.37205],
        [77.71131, 10.36672],
        [77.70445, 10.37074],
        [77.6953, 10.36753],
        [77.68277, 10.37854],
        [77.68801, 10.39216],
        [77.67769, 10.39739],
        [77.67905, 10.40454],
        [77.66863, 10.4076],
        [77.67467, 10.42401],
        [77.6663, 10.4311],
        [77.61825, 10.41598],
        [77.61035, 10.41751],
        [77.60378, 10.44144],
        [77.60535, 10.50959],
        [77.59914, 10.5168],
        [77.58588, 10.51724],
        [77.5822, 10.52316],
        [77.5728, 10.5239],
        [77.54239, 10.51728],
        [77.54385, 10.52199],
        [77.52989, 10.52247],
        [77.52628, 10.51836],
        [77.5046, 10.51596],
        [77.48753, 10.52306],
        [77.48031, 10.52197],
        [77.48027, 10.5053],
        [77.47093, 10.50673],
        [77.47018, 10.52047],
        [77.46412, 10.51692],
        [77.46441, 10.52177],
        [77.40525, 10.5235],
        [77.37817, 10.52589],
        [77.37305, 10.52992],
        [77.36807, 10.54715],
        [77.37832, 10.56322],
        [77.38772, 10.59625],
        [77.3961, 10.59807],
        [77.39443, 10.60528],
        [77.40153, 10.61356],
        [77.41235, 10.61732],
        [77.41765, 10.62582],
        [77.43211, 10.63167],
        [77.44617, 10.63019],
        [77.45362, 10.64029],
        [77.46585, 10.645],
        [77.47477, 10.64325],
        [77.48273, 10.64997],
        [77.50445, 10.64257],
        [77.50661, 10.62764],
        [77.51609, 10.61386],
        [77.50773, 10.61382],
        [77.50818, 10.60713],
        [77.54278, 10.61015],
        [77.5485, 10.63854],
        [77.57082, 10.65726],
        [77.58006, 10.67922],
        [77.58574, 10.68353],
        [77.59662, 10.67621],
        [77.6373, 10.66887],
        [77.65554, 10.67318],
        [77.6649, 10.71606],
        [77.68986, 10.73462],
        [77.7017, 10.73346],
        [77.7071, 10.7091],
        [77.70922, 10.68605],
        [77.69922, 10.66197],
        [77.71358, 10.64153],
        [77.72266, 10.64098],
        [77.7201, 10.6313],
        [77.73062, 10.6305],
        [77.74422, 10.63735],
        [77.75483, 10.65207],
        [77.75323, 10.66785],
        [77.76589, 10.67507],
        [77.76676, 10.67962],
        [77.79057, 10.68515],
        [77.80855, 10.68106],
        [77.8134, 10.67749],
        [77.81772, 10.68018],
        [77.81264, 10.64876],
        [77.82784, 10.63442]
      ]
    ]
  }
}
