{
  "type": "Feature",
  "id": "TN-AC-130",
  "properties": {
    "stateName": "TAMIL NADU",
    "stateCode": "TN",
    "districtName": "DINDIGUL",
    "acNo": 130,
    "acName": "Nilakkottai (SC)",
    "seatType": null,
    "pcNo": 22,
    "pcName": "DINDIGUL",
    "quality": "unverified",
    "sources": [
      "TBD"
    ]
  },
  "geometry": {
    "type": "Polygon",
    "coordinates": [
      [
        [77.93049, 10.19296],
        [77.93827, 10.19174],
        [77.93663, 10.14978],
        [77.94061, 10.14668],
        [77.9463, 10.15932],
        [77.94868, 10.14538],
        [77.95409, 10.13876],
        [77.94662, 10.13496],
        [77.95406, 10.13373],
        [77.95353, 10.13003],
        [77.93598, 10.10826],
        [77.93697, 10.09687],
        [77.94671, 10.09195],
        [77.91874, 10.08449],
        [77.91921, 10.07574],
        [77.91033, 10.07711],
        [77.90471, 10.07056],
        [77.89429, 10.07322],
        [77.87496, 10.06173],
        [77.86071, 10.07539],
        [77.83642, 10.07407],
        [77.82173, 10.06731],
        [77.80551, 10.06785],
        [77.78121, 10.05109],
        [77.76334, 10.05605],
        [77.75995, 10.04629],
        [77.75353, 10.04741],
        [77.71716, 10.01815],
        [77.71032, 10.02041],
        [77.71249, 10.02595],
        [77.7116, 10.03406],
        [77.70624, 10.03831],
        [77.71253, 10.04798],
        [77.70765, 10.06467],
        [77.70883, 10.08033],
        [77.70103, 10.08568],
        [77.69688, 10.08692],
        [77.70247, 10.10283],
        [77.69718, 10.10894],
        [77.66857, 10.12246],
        [77.66904, 10.12623],
        [77.67541, 10.1267],
        [77.67632, 10.14472],
        [77.69204, 10.14545],
        [77.69718, 10.13531],
        [77.7078, 10.12899],
        [77.71563, 10.12878],
        [77.72167, 10.13412],
        [77.72938, 10.13147],
        [77.7242, 10.13619],
        [77.72386, 10.14626],
        [77.72921, 10.15915],
        [77.71218, 10.17011],
        [77.70121, 10.19526],
        [77.70996, 10.20639],
        [77.70648, 10.21595],
        [77.70227, 10.21321],
        [77.70002, 10.22363],
        [77.70795, 10.22996],
        [77.71758, 10.22788],
        [77.74548, 10.20107],
        [77.76074, 10.21571],
        [77.78886, 10.20094],
        [77.80655, 10.20348],
        [77.81518, 10.22818],
        [77.80728, 10.22913],
        [77.8071, 10.24981],
        [77.8263, 10.2406],
        [77.83934, 10.24455],
        [77.84449, 10.24141],
        [77.84318, 10.23644],
        [77.85253, 10.23563],
        [77.86801, 10.26371],
        [77.86782, 10.28061],
        [77.87518, 10.28421],
        [77.88292, 10.28038],
        [77.88106, 10.27743],
        [77.88741, 10.27909],
        [77.88732, 10.27525],
        [77.89761, 10.27414],
        [77.89433, 10.25483],
        [77.91792, 10.24201],
        [77.91543, 10.22456],
        [77.92109, 10.21211],
        [77.93342, 10.20391],
        [77.93049, 10.19296]
      ]
    ]
  }
}
