{
  "type": "Feature",
  "id": "TN-AC-138",
  "properties": {
    "stateName": "TAMIL NADU",
    "stateCode": "TN",
    "districtName": "TIRUCHIRAPPALLI",
    "acNo": 138,
    "acName": "Manapparai",
    "seatType": null,
    "pcNo": 23,
    "pcName": "KARUR",
    "quality": "unverified",
    "sources": [
      "TBD"
    ]
  },
  "geometry": {
    "type": "Polygon",
    "coordinates": [
      [
        [78.31606, 10.70268],
        [78.31865, 10.7075],
        [78.32757, 10.7056],
        [78.33165, 10.70921],
        [78.3416, 10.70726],
        [78.34489, 10.72105],
        [78.37836, 10.72629],
        [78.37401, 10.71878],
        [78.39737, 10.68963],
        [78.38511, 10.658],
        [78.39026, 10.64749],
        [78.38719, 10.64094],
        [78.39347, 10.63024],
        [78.41004, 10.63571],
        [78.42089, 10.64904],
        [78.42343, 10.66289],
        [78.43319, 10.64677],
        [78.42815, 10.63382],
        [78.43203, 10.6203],
        [78.42432, 10.60726],
        [78.43277, 10.60739],
        [78.4415, 10.59131],
        [78.45716, 10.57897],
        [78.46502, 10.57742],
        [78.46399, 10.541],
        [78.484, 10.53996],
        [78.49013, 10.52702],
        [78.48638, 10.5181],
        [78.49079, 10.51678],
        [78.49063, 10.50954],
        [78.49699, 10.50708],
        [78.49309, 10.48892],
        [78.49666, 10.48536],
        [78.5189, 10.48351],
        [78.53645, 10.49549],
        [78.54171, 10.50925],
        [78.54, 10.51456],
        [78.53295, 10.51408],
        [78.53722, 10.5313],
        [78.5446, 10.5301],
        [78.55037, 10.51524],
        [78.56699, 10.51459],
        [78.56886, 10.52034],
        [78.58136, 10.5227],
        [78.58003, 10.50935],
        [78.57003, 10.48983],
        [78.58497, 10.48112],
        [78.5887, 10.47391],
        [78.58359, 10.44115],
        [78.57674, 10.44493],
        [78.56434, 10.44298],
        [78.56107, 10.43145],
        [78.56364, 10.42716],
        [78.55224, 10.42687],
        [78.55253, 10.43331],
        [78.52245, 10.43719],
        [78.51629, 10.40729],
        [78.52818, 10.40209],
        [78.52965, 10.3904],
        [78.52443, 10.37807],
        [78.51255, 10.3714],
        [78.50653, 10.37498],
        [78.50533, 10.37628],
        [78.50654, 10.38885],
        [78.49579, 10.38775],
        [78.49105, 10.38866],
        [78.49073, 10.39563],
        [78.46444, 10.40729],
        [78.44544, 10.4083],
        [78.43837, 10.38437],
        [78.44921, 10.37541],
        [78.43624, 10.36262],
        [78.41511, 10.36334],
        [78.40844, 10.35779],
        [78.39242, 10.35443],
        [78.39393, 10.34914],
        [78.40417, 10.34331],
        [78.39215, 10.31798],
        [78.37838, 10.31043],
        [78.37108, 10.30862],
        [78.37441, 10.30021],
        [78.36684, 10.30141],
        [78.36318, 10.29365],
        [78.33318, 10.30074],
        [78.33848, 10.32587],
        [78.31689, 10.34868],
        [78.29122, 10.36071],
        [78.28546, 10.37019],
        [78.27907, 10.37259],
        [78.27746, 10.38287],
        [78.28142, 10.39024],
        [78.2874, 10.39208],
        [78.28806, 10.40238],
        [78.30701, 10.41161],
        [78.30626, 10.42325],
        [78.31451, 10.43888],
        [78.29612, 10.4501],
        [78.25285, 10.46202],
        [78.24535, 10.4681],
        [78.23353, 10.47012],
        [78.22347, 10.46568],
        [78.21784, 10.46672],
        [78.21373, 10.47362],
        [78.20635, 10.47398],
        [78.19118, 10.5004],
        [78.17343, 10.5033],
        [78.17672, 10.51725],
        [78.18453, 10.5218],
        [78.18619, 10.52834],
        [78.21475, 10.53127],
        [78.21702, 10.54018],
        [78.22724, 10.5422],
        [78.24236, 10.54078],
        [78.23736, 10.532],
        [78.23984, 10.52896],
        [78.25332, 10.53669],
        [78.26767, 10.55257],
        [78.27167, 10.57067],
        [78.26239, 10.57929],
        [78.26061, 10.59755],
        [78.25595, 10.60168],
        [78.26322, 10.61571],
        [78.28274, 10.74591],
        [78.29199, 10.72157],
        [78.28926, 10.71259],
        [78.2928, 10.70189],
        [78.31606, 10.70268]
      ]
    ]
  }
}
