{
  "type": "Feature",
  "id": "TN-AC-169",
  "properties": {
    "stateName": "TAMIL NADU",
    "stateCode": "TN",
    "districtName": "THIRUVARUR",
    "acNo": 169,
    "acName": "Nannilam",
    "seatType": null,
    "pcNo": 29,
    "pcName": "NAGAPATTINAM (SC)",
    "quality": "unverified",
    "sources": [
      "TBD"
    ]
  },
  "geometry": {
    "type": "Polygon",
    "coordinates": [
      [
        [79.7198, 10.9523],
        [79.7324, 10.9512],
        [79.7345, 10.9576],
        [79.7373, 10.9525],
        [79.724, 10.9419],
        [79.72535, 10.94011],
        [79.72587, 10.93942],
        [79.7271, 10.9378],
        [79.723, 10.935],
        [79.7291, 10.9364],
        [79.7248, 10.929],
        [79.7429, 10.9243],
        [79.7449, 10.9146],
        [79.74493, 10.9146],
        [79.74493, 10.91458],
        [79.73666, 10.90979],
        [79.73537, 10.91751],
        [79.72526, 10.92141],
        [79.71964, 10.91864],
        [79.72028, 10.91321],
        [79.71622, 10.91324],
        [79.70401, 10.92503],
        [79.70271, 10.92021],
        [79.69622, 10.91897],
        [79.68097, 10.92782],
        [79.67989, 10.91389],
        [79.66821, 10.91382],
        [79.66522, 10.90021],
        [79.65444, 10.89247],
        [79.6537, 10.88542],
        [79.64989, 10.88629],
        [79.65217, 10.87477],
        [79.64693, 10.8745],
        [79.64698, 10.86927],
        [79.63648, 10.86864],
        [79.63889, 10.8608],
        [79.62748, 10.8659],
        [79.62557, 10.8599],
        [79.6458, 10.85081],
        [79.65419, 10.84024],
        [79.65321, 10.83484],
        [79.64826, 10.83406],
        [79.65133, 10.82377],
        [79.62968, 10.82237],
        [79.63214, 10.81563],
        [79.63614, 10.81614],
        [79.6371, 10.81088],
        [79.6209, 10.81074],
        [79.61254, 10.79873],
        [79.59933, 10.82133],
        [79.56961, 10.82925],
        [79.5719, 10.83536],
        [79.56641, 10.84184],
        [79.56021, 10.84134],
        [79.55452, 10.83373],
        [79.53412, 10.83307],
        [79.5288, 10.83937],
        [79.52051, 10.8396],
        [79.52489, 10.83287],
        [79.51823, 10.83124],
        [79.51794, 10.82753],
        [79.50566, 10.82517],
        [79.47414, 10.83208],
        [79.47382, 10.82443],
        [79.4631, 10.82261],
        [79.45743, 10.82651],
        [79.45369, 10.8221],
        [79.44732, 10.83106],
        [79.46427, 10.8071],
        [79.45101, 10.80442],
        [79.45614, 10.79044],
        [79.44948, 10.78921],
        [79.44755, 10.78241],
        [79.43864, 10.78502],
        [79.44112, 10.77881],
        [79.44055, 10.77548],
        [79.4172, 10.77468],
        [79.40438, 10.79058],
        [79.37653, 10.80399],
        [79.37282, 10.80177],
        [79.36892, 10.80784],
        [79.35618, 10.80578],
        [79.34948, 10.81128],
        [79.33728, 10.8097],
        [79.33121, 10.81425],
        [79.32465, 10.80981],
        [79.32557, 10.81568],
        [79.32064, 10.81899],
        [79.30245, 10.82413],
        [79.29542, 10.83273],
        [79.2874, 10.83294],
        [79.29211, 10.84469],
        [79.29094, 10.86334],
        [79.28631, 10.86923],
        [79.27097, 10.87347],
        [79.27009, 10.88378],
        [79.28329, 10.90647],
        [79.2819, 10.91082],
        [79.29068, 10.91047],
        [79.28607, 10.91639],
        [79.2915, 10.92346],
        [79.2885, 10.93599],
        [79.32369, 10.92465],
        [79.3311, 10.92174],
        [79.32779, 10.91657],
        [79.34559, 10.9104],
        [79.36075, 10.8979],
        [79.36933, 10.89742],
        [79.3683, 10.89405],
        [79.39269, 10.89599],
        [79.40127, 10.89266],
        [79.40576, 10.89295],
        [79.4123, 10.88362],
        [79.41628, 10.88627],
        [79.41657, 10.88193],
        [79.4343, 10.87684],
        [79.45676, 10.86362],
        [79.4662, 10.86478],
        [79.46469, 10.8691],
        [79.47191, 10.8726],
        [79.47596, 10.87262],
        [79.4777, 10.86732],
        [79.48566, 10.86923],
        [79.48388, 10.8791],
        [79.4882, 10.88943],
        [79.50607, 10.89356],
        [79.50628, 10.90398],
        [79.49259, 10.90578],
        [79.49345, 10.91651],
        [79.48422, 10.92098],
        [79.49968, 10.93263],
        [79.50125, 10.94153],
        [79.51425, 10.94156],
        [79.51857, 10.94621],
        [79.51499, 10.97082],
        [79.52973, 10.96915],
        [79.52812, 10.95952],
        [79.53223, 10.96115],
        [79.53287, 10.96821],
        [79.55337, 10.96749],
        [79.55631, 10.97471],
        [79.56318, 10.97687],
        [79.57433, 10.97074],
        [79.5771, 10.9825],
        [79.58513, 10.98332],
        [79.60327, 10.97172],
        [79.60441, 10.97651],
        [79.60785, 10.9757],
        [79.60394, 10.9825],
        [79.63253, 10.981],
        [79.63382, 11.00037],
        [79.64049, 11.00009],
        [79.64224, 11.0101],
        [79.67128, 11.01724],
        [79.70092, 11.01529],
        [79.70674, 11.00662],
        [79.71652, 11.0085],
        [79.72115, 10.99898],
        [79.72969, 10.99854],
        [79.73148, 10.9946],
        [79.7481, 10.99638],
        [79.74805, 10.99586],
        [79.74801, 10.99553],
        [79.7473, 10.9884],
        [79.7525, 10.9881],
        [79.7528, 10.9829],
        [79.7585, 10.9835],
        [79.7528, 10.977],
        [79.75412, 10.97345],
        [79.7547, 10.9719],
        [79.7594, 10.9722],
        [79.7627, 10.9621],
        [79.745, 10.9566],
        [79.7462, 10.9651],
        [79.7391, 10.9646],
        [79.7309, 10.9705],
        [79.7192, 10.9685],
        [79.7198, 10.9523]
      ]
    ]
  }
}
