{
  "type": "Feature",
  "id": "TN-AC-171",
  "properties": {
    "stateName": "TAMIL NADU",
    "stateCode": "TN",
    "districtName": "THANJAVUR",
    "acNo": 171,
    "acName": "Kumbakonam",
    "seatType": null,
    "pcNo": 28,
    "pcName": "MAYILADUTHURAI",
    "quality": "unverified",
    "sources": [
      "TBD"
    ]
  },
  "geometry": {
    "type": "Polygon",
    "coordinates": [
      [
        [79.41475, 11.04055],
        [79.41674, 11.02803],
        [79.40298, 11.02019],
        [79.40793, 11.01681],
        [79.41552, 11.02092],
        [79.41727, 11.01751],
        [79.41397, 11.01577],
        [79.41264, 10.99499],
        [79.40723, 10.98392],
        [79.40011, 10.98065],
        [79.4, 10.97523],
        [79.40557, 10.97673],
        [79.40545, 10.9672],
        [79.41901, 10.96813],
        [79.42245, 10.96436],
        [79.43215, 10.96924],
        [79.43987, 10.98011],
        [79.45155, 10.9828],
        [79.45429, 10.97964],
        [79.43982, 10.97257],
        [79.42936, 10.95797],
        [79.40913, 10.95114],
        [79.41315, 10.94384],
        [79.41178, 10.93518],
        [79.41919, 10.93203],
        [79.41892, 10.924],
        [79.41371, 10.92231],
        [79.41674, 10.91486],
        [79.41435, 10.89741],
        [79.40276, 10.90196],
        [79.40127, 10.89266],
        [79.39269, 10.89599],
        [79.3683, 10.89405],
        [79.36933, 10.89742],
        [79.36075, 10.8979],
        [79.34559, 10.9104],
        [79.32779, 10.91657],
        [79.3311, 10.92174],
        [79.32369, 10.92465],
        [79.35064, 10.92141],
        [79.35058, 10.93171],
        [79.33684, 10.93117],
        [79.33066, 10.93744],
        [79.35198, 10.94129],
        [79.35616, 10.94566],
        [79.35089, 10.94757],
        [79.35893, 10.9621],
        [79.35365, 10.96841],
        [79.36112, 10.9701],
        [79.36032, 10.97794],
        [79.35533, 10.98375],
        [79.34437, 10.98055],
        [79.33967, 10.97498],
        [79.33656, 10.97897],
        [79.32698, 10.9791],
        [79.32956, 10.98888],
        [79.32474, 10.99302],
        [79.32634, 11.0019],
        [79.31972, 11.00243],
        [79.31101, 11.01824],
        [79.34594, 11.0418],
        [79.39273, 11.06351],
        [79.39328, 11.05491],
        [79.39662, 11.05165],
        [79.41027, 11.06214],
        [79.41922, 11.05133],
        [79.41475, 11.04055]
      ]
    ]
  }
}
