{
  "type": "Feature",
  "id": "TN-AC-210",
  "properties": {
    "stateName": "TAMIL NADU",
    "stateCode": "TN",
    "districtName": "RAMANATHAPURAM",
    "acNo": 210,
    "acName": "Tiruvadanai",
    "seatType": null,
    "pcNo": 35,
    "pcName": "RAMANATHAPURAM",
    "quality": "unverified",
    "sources": [
      "TBD"
    ]
  },
  "geometry": {
    "type": "Polygon",
    "coordinates": [
      [
        [79.03105, 9.89377],
        [79.04545, 9.86087],
        [79.06062, 9.85973],
        [79.06926, 9.8516],
        [79.08877, 9.85839],
        [79.09924, 9.85731],
        [79.11346, 9.8469],
        [79.08406, 9.81803],
        [79.07869, 9.80051],
        [79.06955, 9.79312],
        [79.05897, 9.77304],
        [79.03728, 9.76289],
        [78.98026, 9.68964],
        [78.97033, 9.66509],
        [78.9709, 9.65579],
        [78.96387, 9.64064],
        [78.95927, 9.64206],
        [78.96, 9.6312],
        [78.93736, 9.60805],
        [78.92681, 9.58511],
        [78.91985, 9.52537],
        [78.91327, 9.50559],
        [78.91441, 9.49301],
        [78.90436, 9.49372],
        [78.8984, 9.48958],
        [78.90044, 9.46873],
        [78.92363, 9.42636],
        [78.98204, 9.36045],
        [78.96591, 9.33857],
        [78.90577, 9.36805],
        [78.88414, 9.36323],
        [78.88056, 9.35925],
        [78.88696, 9.35311],
        [78.88727, 9.34545],
        [78.87936, 9.32779],
        [78.88178, 9.32003],
        [78.86538, 9.31958],
        [78.8296, 9.33688],
        [78.83183, 9.35808],
        [78.84236, 9.35851],
        [78.84686, 9.38052],
        [78.84457, 9.38706],
        [78.83716, 9.39027],
        [78.81596, 9.37952],
        [78.81023, 9.38536],
        [78.806, 9.38415],
        [78.8076, 9.36465],
        [78.8111, 9.36345],
        [78.80183, 9.3582],
        [78.80002, 9.35045],
        [78.77366, 9.33544],
        [78.77339, 9.33181],
        [78.76279, 9.33464],
        [78.74623, 9.32595],
        [78.73639, 9.3309],
        [78.73387, 9.32793],
        [78.72248, 9.33614],
        [78.72261, 9.34031],
        [78.71648, 9.33758],
        [78.70785, 9.34495],
        [78.71205, 9.35184],
        [78.71161, 9.36708],
        [78.71872, 9.36521],
        [78.71916, 9.35928],
        [78.72303, 9.35818],
        [78.72785, 9.3634],
        [78.74313, 9.3668],
        [78.75242, 9.37793],
        [78.75751, 9.37768],
        [78.76677, 9.39289],
        [78.76232, 9.39927],
        [78.77685, 9.41633],
        [78.7722, 9.41871],
        [78.7752, 9.42951],
        [78.78797, 9.42889],
        [78.79507, 9.43905],
        [78.81973, 9.4297],
        [78.82121, 9.437],
        [78.81572, 9.43915],
        [78.81873, 9.45381],
        [78.83965, 9.45063],
        [78.84681, 9.47338],
        [78.84471, 9.47818],
        [78.82736, 9.48358],
        [78.82873, 9.49249],
        [78.84504, 9.51912],
        [78.85343, 9.51812],
        [78.85339, 9.53486],
        [78.84429, 9.53063],
        [78.8454, 9.54772],
        [78.82887, 9.56509],
        [78.82653, 9.57229],
        [78.83019, 9.57579],
        [78.82529, 9.58006],
        [78.81381, 9.57527],
        [78.80504, 9.57898],
        [78.82001, 9.59107],
        [78.81893, 9.59509],
        [78.82162, 9.61679],
        [78.79803, 9.62106],
        [78.79357, 9.62378],
        [78.79447, 9.63203],
        [78.78708, 9.63401],
        [78.79447, 9.63624],
        [78.79433, 9.6419],
        [78.78445, 9.65272],
        [78.78742, 9.66225],
        [78.79496, 9.66548],
        [78.79471, 9.67106],
        [78.78966, 9.67212],
        [78.79505, 9.67952],
        [78.78889, 9.6811],
        [78.79719, 9.68565],
        [78.79864, 9.69669],
        [78.79338, 9.69847],
        [78.79784, 9.70283],
        [78.7834, 9.70984],
        [78.78019, 9.71896],
        [78.75113, 9.71488],
        [78.74731, 9.7372],
        [78.73841, 9.75346],
        [78.76925, 9.77875],
        [78.77182, 9.77294],
        [78.77595, 9.77416],
        [78.78129, 9.80115],
        [78.79626, 9.7837],
        [78.83807, 9.7774],
        [78.81527, 9.74153],
        [78.82851, 9.72306],
        [78.83138, 9.73249],
        [78.84752, 9.74178],
        [78.85673, 9.75593],
        [78.88754, 9.7578],
        [78.89936, 9.78514],
        [78.89845, 9.79119],
        [78.88268, 9.80057],
        [78.88306, 9.81913],
        [78.87196, 9.86278],
        [78.8763, 9.87436],
        [78.88161, 9.88294],
        [78.90303, 9.88159],
        [78.90196, 9.90158],
        [78.92262, 9.92281],
        [78.95581, 9.92263],
        [78.96695, 9.93806],
        [78.98925, 9.94689],
        [78.98969, 9.94717],
        [79.01547, 9.90359],
        [79.02247, 9.90342],
        [79.03105, 9.89377]
      ]
    ]
  }
}
