{
  "type": "Feature",
  "id": "TN-AC-224",
  "properties": {
    "stateName": "TAMIL NADU",
    "stateCode": "TN",
    "districtName": "TIRUNELVELI",
    "acNo": 224,
    "acName": "Tirunelveli",
    "seatType": null,
    "pcNo": 38,
    "pcName": "TIRUNELVELI",
    "quality": "unverified",
    "sources": [
      "TBD"
    ]
  },
  "geometry": {
    "type": "Polygon",
    "coordinates": [
      [
        [77.6964, 8.92703],
        [77.73619, 8.92415],
        [77.73711, 8.93201],
        [77.74664, 8.93348],
        [77.74704, 8.92954],
        [77.76148, 8.92464],
        [77.7617, 8.88921],
        [77.77257, 8.88133],
        [77.78906, 8.88526],
        [77.81006, 8.8731],
        [77.81968, 8.8388],
        [77.80629, 8.83165],
        [77.8048, 8.81839],
        [77.80936, 8.80041],
        [77.80429, 8.78325],
        [77.76763, 8.77637],
        [77.74269, 8.75869],
        [77.73357, 8.74999],
        [77.73267, 8.74024],
        [77.72223, 8.7369],
        [77.70922, 8.71964],
        [77.69171, 8.71996],
        [77.69066, 8.71456],
        [77.68454, 8.71395],
        [77.67877, 8.70425],
        [77.66651, 8.71007],
        [77.65878, 8.70239],
        [77.65385, 8.69263],
        [77.65733, 8.68149],
        [77.63461, 8.69077],
        [77.60577, 8.69426],
        [77.59689, 8.68876],
        [77.5782, 8.70135],
        [77.56125, 8.7051],
        [77.56573, 8.71084],
        [77.56506, 8.71814],
        [77.55585, 8.74456],
        [77.56089, 8.75305],
        [77.56624, 8.75408],
        [77.56868, 8.76326],
        [77.56733, 8.77205],
        [77.56312, 8.77308],
        [77.55596, 8.78762],
        [77.57141, 8.78967],
        [77.56682, 8.80012],
        [77.57094, 8.81195],
        [77.57456, 8.80809],
        [77.57897, 8.82032],
        [77.58861, 8.82742],
        [77.59351, 8.87197],
        [77.58424, 8.87532],
        [77.57847, 8.87205],
        [77.57475, 8.87998],
        [77.56604, 8.87896],
        [77.5708, 8.89106],
        [77.56528, 8.89354],
        [77.56782, 8.89739],
        [77.56037, 8.91129],
        [77.58438, 8.90477],
        [77.5924, 8.90688],
        [77.5939, 8.94109],
        [77.59422, 8.9442],
        [77.60931, 8.93993],
        [77.61267, 8.92333],
        [77.61726, 8.93866],
        [77.62118, 8.93854],
        [77.61924, 8.94773],
        [77.62869, 8.94438],
        [77.63112, 8.94937],
        [77.65516, 8.95318],
        [77.65661, 8.93182],
        [77.6867, 8.91713],
        [77.6931, 8.91684],
        [77.6964, 8.92703]
      ]
    ]
  }
}
