{
  "type": "Feature",
  "id": "TN-AC-39",
  "properties": {
    "stateName": "TAMIL NADU",
    "stateCode": "TN",
    "districtName": "VELLORE",
    "acNo": 39,
    "acName": "Sholingur",
    "seatType": null,
    "pcNo": 7,
    "pcName": "ARAKKONAM",
    "quality": "unverified",
    "sources": [
      "TBD"
    ]
  },
  "geometry": {
    "type": "Polygon",
    "coordinates": [
      [
        [79.56283, 13.09786],
        [79.57398, 13.1013],
        [79.58073, 13.09616],
        [79.57954, 13.08949],
        [79.57157, 13.08331],
        [79.56982, 13.07234],
        [79.57729, 13.05372],
        [79.58422, 13.04793],
        [79.57183, 13.04702],
        [79.5563, 13.05463],
        [79.54785, 13.04449],
        [79.55097, 13.03721],
        [79.55932, 13.03608],
        [79.55911, 13.03001],
        [79.56962, 13.0266],
        [79.57406, 13.0159],
        [79.57812, 13.02946],
        [79.58166, 13.02747],
        [79.59408, 13.03395],
        [79.59393, 13.02532],
        [79.59999, 13.01584],
        [79.60973, 13.01076],
        [79.60827, 13.00069],
        [79.58763, 12.98533],
        [79.59252, 12.96921],
        [79.60177, 12.9715],
        [79.60767, 12.96621],
        [79.60433, 12.9838],
        [79.60524, 12.98863],
        [79.61117, 12.98736],
        [79.62109, 12.98353],
        [79.61847, 12.97873],
        [79.63158, 12.97007],
        [79.6363, 12.95937],
        [79.64958, 12.95747],
        [79.64872, 12.94943],
        [79.65893, 12.94934],
        [79.66198, 12.93038],
        [79.63681, 12.92454],
        [79.60391, 12.90754],
        [79.56826, 12.89911],
        [79.56481, 12.88709],
        [79.55795, 12.88402],
        [79.55855, 12.87252],
        [79.56596, 12.85867],
        [79.55989, 12.85277],
        [79.53646, 12.8629],
        [79.50896, 12.85717],
        [79.49979, 12.87266],
        [79.49771, 12.86915],
        [79.48981, 12.8711],
        [79.48872, 12.87596],
        [79.47873, 12.87162],
        [79.47285, 12.87426],
        [79.45475, 12.87738],
        [79.45626, 12.90331],
        [79.44443, 12.91006],
        [79.43869, 12.92798],
        [79.44645, 12.94924],
        [79.44385, 12.96378],
        [79.42223, 12.96962],
        [79.42102, 12.98542],
        [79.41267, 12.98907],
        [79.40579, 12.99913],
        [79.394, 12.99303],
        [79.39231, 12.96737],
        [79.3801, 12.96611],
        [79.36069, 12.9847],
        [79.35743, 12.97276],
        [79.35171, 12.97916],
        [79.35175, 12.98881],
        [79.33585, 13.00342],
        [79.32712, 13.0334],
        [79.32159, 13.03341],
        [79.32063, 13.04127],
        [79.30996, 13.039],
        [79.30748, 13.04351],
        [79.31086, 13.07475],
        [79.32336, 13.07162],
        [79.32236, 13.07813],
        [79.32992, 13.0728],
        [79.33493, 13.06041],
        [79.35148, 13.06246],
        [79.37925, 13.07542],
        [79.37933, 13.07996],
        [79.41708, 13.0846],
        [79.4153, 13.08941],
        [79.42287, 13.09716],
        [79.42028, 13.10372],
        [79.40428, 13.09984],
        [79.4017, 13.10406],
        [79.40415, 13.11496],
        [79.41343, 13.11901],
        [79.41132, 13.136],
        [79.41872, 13.15018],
        [79.43388, 13.13646],
        [79.43916, 13.12475],
        [79.45341, 13.12637],
        [79.45176, 13.12122],
        [79.42926, 13.11629],
        [79.43446, 13.11147],
        [79.44365, 13.1138],
        [79.45099, 13.09329],
        [79.46249, 13.09544],
        [79.46454, 13.10715],
        [79.47522, 13.10772],
        [79.47374, 13.12533],
        [79.47539, 13.13049],
        [79.48208, 13.12808],
        [79.48186, 13.13951],
        [79.49858, 13.13605],
        [79.52312, 13.14358],
        [79.52246, 13.1387],
        [79.55051, 13.13494],
        [79.5588, 13.11733],
        [79.55187, 13.10782],
        [79.55305, 13.10077],
        [79.56283, 13.09786]
      ]
    ]
  }
}
