{
  "type": "Feature",
  "id": "TN-AC-43",
  "properties": {
    "stateName": "TAMIL NADU",
    "stateCode": "TN",
    "districtName": "VELLORE",
    "acNo": 43,
    "acName": "Vellore",
    "seatType": null,
    "pcNo": 8,
    "pcName": "VELLORE",
    "quality": "unverified",
    "sources": [
      "TBD"
    ]
  },
  "geometry": {
    "type": "Polygon",
    "coordinates": [
      [
        [79.1914, 12.91216],
        [79.19459, 12.91507],
        [79.19393, 12.9081],
        [79.20102, 12.9038],
        [79.20605, 12.90344],
        [79.20979, 12.89488],
        [79.2044, 12.88943],
        [79.19646, 12.89376],
        [79.19288, 12.88304],
        [79.17918, 12.87953],
        [79.17746, 12.88482],
        [79.15461, 12.88409],
        [79.14873, 12.87906],
        [79.14686, 12.88264],
        [79.14292, 12.87896],
        [79.13038, 12.88175],
        [79.12796, 12.89276],
        [79.1218, 12.9022],
        [79.11283, 12.90256],
        [79.10825, 12.90118],
        [79.09998, 12.88533],
        [79.09384, 12.88602],
        [79.09209, 12.90693],
        [79.07807, 12.90472],
        [79.07709, 12.90911],
        [79.0697, 12.90996],
        [79.07098, 12.91347],
        [79.09021, 12.91409],
        [79.09246, 12.91852],
        [79.09251, 12.92552],
        [79.08526, 12.92786],
        [79.08127, 12.93739],
        [79.09387, 12.93549],
        [79.10072, 12.92457],
        [79.10912, 12.92528],
        [79.10998, 12.93581],
        [79.14855, 12.93984],
        [79.16949, 12.9539],
        [79.19913, 12.95118],
        [79.21799, 12.95398],
        [79.21649, 12.94266],
        [79.19094, 12.92765],
        [79.18931, 12.91663],
        [79.1914, 12.91216]
      ]
    ]
  }
}
