{
  "type": "Feature",
  "id": "TN-AC-45",
  "properties": {
    "stateName": "TAMIL NADU",
    "stateCode": "TN",
    "districtName": "VELLORE",
    "acNo": 45,
    "acName": "Kilvaithinankuppam(SC",
    "seatType": null,
    "pcNo": 8,
    "pcName": "VELLORE",
    "quality": "unverified",
    "sources": [
      "TBD"
    ]
  },
  "geometry": {
    "type": "Polygon",
    "coordinates": [
      [
        [78.9371, 13.03042],
        [78.9371, 13.0304],
        [78.9391, 13.0337],
        [78.9408, 13.0364],
        [78.94074, 13.03646],
        [78.9407, 13.0365],
        [78.9398, 13.0372],
        [78.9364, 13.04],
        [78.9291, 13.0458],
        [78.929, 13.0458],
        [78.922, 13.047],
        [78.9218, 13.047],
        [78.9176, 13.0437],
        [78.9175, 13.0436],
        [78.9075, 13.0466],
        [78.9037, 13.0477],
        [78.9126, 13.0659],
        [78.9193, 13.066],
        [78.9217, 13.0661],
        [78.9234, 13.0799],
        [78.9238, 13.0801],
        [78.92422, 13.08028],
        [78.9245, 13.0804],
        [78.92484, 13.08057],
        [78.9251, 13.0807],
        [78.9259, 13.081],
        [78.9275, 13.0818],
        [78.9369, 13.0796],
        [78.941, 13.0786],
        [78.9415, 13.0785],
        [78.9484, 13.0834],
        [78.9492, 13.084],
        [78.9497, 13.0834],
        [78.9506, 13.0822],
        [78.9554, 13.0758],
        [78.9621, 13.0787],
        [78.9703, 13.0747],
        [78.9723, 13.0838],
        [78.9873, 13.0856],
        [78.9889, 13.0858],
        [78.995, 13.0866],
        [79.0039, 13.0846],
        [79.005, 13.0831],
        [79.0054, 13.0826],
        [79.0094, 13.0773],
        [79.00945, 13.0773],
        [79.00947, 13.07726],
        [79.00948, 13.07726],
        [79.0095, 13.07723],
        [79.0095, 13.0772],
        [79.0369, 13.0705],
        [79.03695, 13.07045],
        [79.037, 13.0704],
        [79.038, 13.0647],
        [79.0386, 13.0616],
        [79.0387, 13.0612],
        [79.0387, 13.06114],
        [79.0387, 13.0611],
        [79.0482, 13.058],
        [79.0634, 13.0531],
        [79.0636, 13.053],
        [79.0633, 13.0468],
        [79.0629, 13.0406],
        [79.0631, 13.0404],
        [79.0738, 13.0316],
        [79.0784, 13.0278],
        [79.0809, 13.0257],
        [79.0843, 13.02578],
        [79.07524, 13.00331],
        [79.08157, 12.99879],
        [79.09306, 13.00003],
        [79.08659, 12.98463],
        [79.08981, 12.97325],
        [79.08228, 12.97156],
        [79.08164, 12.96217],
        [79.0747, 12.95957],
        [79.07162, 12.95196],
        [79.06137, 12.95153],
        [79.07068, 12.94409],
        [79.06671, 12.94248],
        [79.06385, 12.92938],
        [79.04121, 12.91946],
        [78.99859, 12.92958],
        [78.97151, 12.92932],
        [78.9692, 12.92428],
        [78.9162, 12.90772],
        [78.90307, 12.90916],
        [78.88722, 12.89462],
        [78.86469, 12.88586],
        [78.84871, 12.90735],
        [78.82599, 12.90753],
        [78.82289, 12.9136],
        [78.8163, 12.91528],
        [78.82084, 12.92557],
        [78.8175, 12.93185],
        [78.82116, 12.93264],
        [78.82404, 12.94383],
        [78.83424, 12.94447],
        [78.85063, 12.95358],
        [78.85231, 12.96605],
        [78.86234, 12.96506],
        [78.86253, 12.97031],
        [78.85382, 12.97367],
        [78.84978, 12.96934],
        [78.83898, 12.97001],
        [78.83552, 12.96379],
        [78.8322, 12.96562],
        [78.83382, 12.97488],
        [78.82567, 12.98154],
        [78.83196, 12.98476],
        [78.83621, 12.99452],
        [78.8296, 13.00216],
        [78.83108, 13.00666],
        [78.85147, 13.00365],
        [78.85322, 13.01395],
        [78.85837, 13.01779],
        [78.81406, 13.03328],
        [78.80706, 13.05779],
        [78.79435, 13.06669],
        [78.7932, 13.06637],
        [78.79318, 13.06637],
        [78.7932, 13.0664],
        [78.7935, 13.067],
        [78.7954, 13.0705],
        [78.7966, 13.0729],
        [78.7975, 13.0745],
        [78.7976, 13.0748],
        [78.7979, 13.07508],
        [78.79793, 13.07511],
        [78.79803, 13.0752],
        [78.79829, 13.07545],
        [78.7994, 13.0765],
        [78.79954, 13.0766],
        [78.7998, 13.0768],
        [78.8131, 13.0891],
        [78.8136, 13.089],
        [78.81361, 13.089],
        [78.81369, 13.089],
        [78.8139, 13.089],
        [78.8164, 13.0885],
        [78.8208, 13.0878],
        [78.8343, 13.0819],
        [78.8352, 13.0816],
        [78.8412, 13.0789],
        [78.8416, 13.0788],
        [78.84161, 13.07879],
        [78.842, 13.0786],
        [78.8611, 13.0837],
        [78.871, 13.0819],
        [78.8699, 13.0892],
        [78.8698, 13.0895],
        [78.8751, 13.0968],
        [78.8839, 13.0961],
        [78.8956, 13.0952],
        [78.89563, 13.0952],
        [78.8957, 13.0952],
        [78.8927, 13.0856],
        [78.89061, 13.07889],
        [78.8889, 13.0734],
        [78.8892, 13.0697],
        [78.8919, 13.0331],
        [78.8919, 13.03293],
        [78.8919, 13.0329],
        [78.9185, 13.0355],
        [78.9291, 13.0365],
        [78.9292, 13.0365],
        [78.9303, 13.0362],
        [78.9357, 13.0348],
        [78.9369, 13.0311],
        [78.9371, 13.0305],
        [78.9371, 13.03042]
      ]
    ]
  }
}
