{
  "type": "Feature",
  "id": "TN-AC-52",
  "properties": {
    "stateName": "TAMIL NADU",
    "stateCode": "TN",
    "districtName": "KRISHNAGIRI",
    "acNo": 52,
    "acName": "Bargur",
    "seatType": null,
    "pcNo": 9,
    "pcName": "KRISHNAGIRI",
    "quality": "unverified",
    "sources": [
      "TBD"
    ]
  },
  "geometry": {
    "type": "Polygon",
    "coordinates": [
      [
        [78.41525, 12.48234],
        [78.41794, 12.4797],
        [78.43395, 12.45564],
        [78.44215, 12.45052],
        [78.43601, 12.44473],
        [78.42612, 12.44469],
        [78.41604, 12.42631],
        [78.40986, 12.43646],
        [78.41089, 12.44356],
        [78.39157, 12.45204],
        [78.39011, 12.4436],
        [78.37675, 12.44228],
        [78.37598, 12.42867],
        [78.36859, 12.42767],
        [78.363, 12.4116],
        [78.3772, 12.40147],
        [78.38609, 12.40101],
        [78.40369, 12.37814],
        [78.38635, 12.36394],
        [78.38899, 12.35034],
        [78.38266, 12.31834],
        [78.36478, 12.31794],
        [78.35065, 12.31206],
        [78.33553, 12.31797],
        [78.33064, 12.30819],
        [78.32547, 12.29091],
        [78.35537, 12.27134],
        [78.34887, 12.25044],
        [78.32959, 12.2654],
        [78.31962, 12.25938],
        [78.29986, 12.27353],
        [78.27642, 12.26147],
        [78.26811, 12.26152],
        [78.26031, 12.27817],
        [78.26108, 12.29178],
        [78.2364, 12.30231],
        [78.23413, 12.31258],
        [78.22554, 12.31803],
        [78.23713, 12.32239],
        [78.24863, 12.31697],
        [78.25844, 12.33836],
        [78.24928, 12.34748],
        [78.24988, 12.37093],
        [78.23579, 12.37543],
        [78.23214, 12.3922],
        [78.22687, 12.39758],
        [78.24275, 12.41724],
        [78.24498, 12.41305],
        [78.26284, 12.41462],
        [78.25977, 12.42683],
        [78.25196, 12.42888],
        [78.25606, 12.4407],
        [78.24761, 12.45338],
        [78.25992, 12.46041],
        [78.26323, 12.47035],
        [78.26017, 12.48133],
        [78.24807, 12.49268],
        [78.2619, 12.52469],
        [78.25954, 12.54346],
        [78.26427, 12.54411],
        [78.28564, 12.57222],
        [78.28254, 12.58768],
        [78.28723, 12.61538],
        [78.29106, 12.64382],
        [78.30015, 12.64943],
        [78.29829, 12.65995],
        [78.30257, 12.66632],
        [78.30258, 12.66632],
        [78.3026, 12.6663],
        [78.3183, 12.662],
        [78.3273, 12.6538],
        [78.3322, 12.6493],
        [78.3436, 12.6488],
        [78.3714, 12.6272],
        [78.4125, 12.6269],
        [78.41257, 12.6269],
        [78.40668, 12.62011],
        [78.41039, 12.61362],
        [78.4073, 12.6022],
        [78.40978, 12.58763],
        [78.42117, 12.57023],
        [78.41301, 12.51727],
        [78.41924, 12.51371],
        [78.41525, 12.48234]
      ]
    ]
  }
}
