{
  "type": "Feature",
  "id": "TN-AC-71",
  "properties": {
    "stateName": "TAMIL NADU",
    "stateCode": "TN",
    "districtName": "VILUPPURAM",
    "acNo": 71,
    "acName": "Mailam",
    "seatType": null,
    "pcNo": 12,
    "pcName": "ARANI",
    "quality": "unverified",
    "sources": [
      "TBD"
    ]
  },
  "geometry": {
    "type": "Polygon",
    "coordinates": [
      [
        [79.43627, 12.39419],
        [79.4407, 12.38899],
        [79.44246, 12.39425],
        [79.44861, 12.3958],
        [79.45078, 12.37511],
        [79.46206, 12.37455],
        [79.4727, 12.36585],
        [79.48494, 12.37059],
        [79.48594, 12.37547],
        [79.49347, 12.37104],
        [79.48873, 12.35037],
        [79.49685, 12.34571],
        [79.50725, 12.34586],
        [79.51152, 12.35415],
        [79.51829, 12.353],
        [79.53077, 12.37014],
        [79.5464, 12.36342],
        [79.55819, 12.36455],
        [79.59763, 12.34788],
        [79.60233, 12.37235],
        [79.60965, 12.37822],
        [79.62077, 12.37423],
        [79.62338, 12.3652],
        [79.6185, 12.35384],
        [79.6214, 12.34953],
        [79.64227, 12.34492],
        [79.65652, 12.32621],
        [79.68293, 12.31601],
        [79.68593, 12.30615],
        [79.69929, 12.30792],
        [79.70884, 12.30286],
        [79.70497, 12.29529],
        [79.69106, 12.29703],
        [79.68599, 12.28881],
        [79.68471, 12.28184],
        [79.69286, 12.27143],
        [79.68117, 12.26903],
        [79.67963, 12.26116],
        [79.64082, 12.27029],
        [79.64015, 12.26208],
        [79.63177, 12.25284],
        [79.63292, 12.24008],
        [79.62101, 12.23552],
        [79.61221, 12.22554],
        [79.60709, 12.18773],
        [79.61797, 12.18626],
        [79.61124, 12.15592],
        [79.61534, 12.15121],
        [79.62424, 12.14909],
        [79.62962, 12.15934],
        [79.63826, 12.15973],
        [79.64573, 12.14863],
        [79.66602, 12.15041],
        [79.67225, 12.16344],
        [79.68261, 12.16686],
        [79.69062, 12.14242],
        [79.68117, 12.1368],
        [79.67198, 12.12108],
        [79.65458, 12.11937],
        [79.64785, 12.11433],
        [79.65106, 12.09389],
        [79.64483, 12.09097],
        [79.64618, 12.08341],
        [79.63314, 12.0571],
        [79.60287, 12.0632],
        [79.60017, 12.05985],
        [79.58796, 12.06032],
        [79.58444, 12.04447],
        [79.57239, 12.04666],
        [79.57773, 12.06654],
        [79.56754, 12.07209],
        [79.56802, 12.08101],
        [79.54389, 12.08342],
        [79.54445, 12.08785],
        [79.54033, 12.08854],
        [79.53206, 12.08351],
        [79.52464, 12.09046],
        [79.5204, 12.08947],
        [79.51592, 12.11802],
        [79.52595, 12.12833],
        [79.51835, 12.13941],
        [79.50875, 12.13906],
        [79.49818, 12.14724],
        [79.49096, 12.13706],
        [79.47816, 12.13666],
        [79.47702, 12.141],
        [79.47839, 12.14966],
        [79.47402, 12.15079],
        [79.4714, 12.13926],
        [79.45994, 12.14448],
        [79.44962, 12.13771],
        [79.43402, 12.14038],
        [79.44161, 12.15215],
        [79.42571, 12.16478],
        [79.41934, 12.20027],
        [79.40773, 12.20113],
        [79.41379, 12.20699],
        [79.40711, 12.21345],
        [79.41313, 12.22248],
        [79.41039, 12.22747],
        [79.43245, 12.23906],
        [79.42631, 12.27787],
        [79.41542, 12.29166],
        [79.40062, 12.29196],
        [79.3995, 12.30706],
        [79.39318, 12.31157],
        [79.41218, 12.34183],
        [79.40952, 12.34905],
        [79.41899, 12.36719],
        [79.41092, 12.37898],
        [79.41699, 12.40834],
        [79.42065, 12.41057],
        [79.42723, 12.40095],
        [79.43334, 12.41033],
        [79.43876, 12.40801],
        [79.43627, 12.39419]
      ]
    ]
  }
}
