{
  "type": "Feature",
  "id": "TN-AC-81",
  "properties": {
    "stateName": "TAMIL NADU",
    "stateCode": "TN",
    "districtName": "SALEM",
    "acNo": 81,
    "acName": "Gangavalli (SC)",
    "seatType": null,
    "pcNo": 14,
    "pcName": "KALLAKURICHI",
    "quality": "unverified",
    "sources": [
      "TBD"
    ]
  },
  "geometry": {
    "type": "Polygon",
    "coordinates": [
      [
        [78.79472, 11.65758],
        [78.79279, 11.65117],
        [78.77368, 11.63637],
        [78.78636, 11.64066],
        [78.78931, 11.62895],
        [78.7862, 11.61383],
        [78.77662, 11.6133],
        [78.77586, 11.60556],
        [78.81676, 11.59024],
        [78.82909, 11.57778],
        [78.81612, 11.56119],
        [78.8157, 11.54379],
        [78.83557, 11.53972],
        [78.83484, 11.53042],
        [78.84309, 11.52334],
        [78.83391, 11.50672],
        [78.81019, 11.508],
        [78.80968, 11.48276],
        [78.79829, 11.48263],
        [78.79619, 11.46159],
        [78.78995, 11.45756],
        [78.78926, 11.45412],
        [78.81907, 11.44047],
        [78.81835, 11.43294],
        [78.82268, 11.4281],
        [78.80613, 11.40205],
        [78.80133, 11.40268],
        [78.79893, 11.38606],
        [78.79268, 11.39057],
        [78.78894, 11.3876],
        [78.7562, 11.43743],
        [78.74348, 11.44352],
        [78.74141, 11.44972],
        [78.70321, 11.45634],
        [78.68019, 11.42988],
        [78.65107, 11.42197],
        [78.65022, 11.40844],
        [78.65655, 11.40147],
        [78.6581, 11.38081],
        [78.66349, 11.37418],
        [78.64214, 11.34323],
        [78.62395, 11.33606],
        [78.60466, 11.3384],
        [78.59308, 11.32791],
        [78.582, 11.32977],
        [78.57769, 11.31661],
        [78.56112, 11.31645],
        [78.55435, 11.3181],
        [78.55287, 11.32493],
        [78.55621, 11.32737],
        [78.55445, 11.35784],
        [78.54287, 11.36931],
        [78.52361, 11.3713],
        [78.51485, 11.38527],
        [78.50435, 11.37945],
        [78.50982, 11.39621],
        [78.49631, 11.40861],
        [78.48607, 11.40704],
        [78.48773, 11.41382],
        [78.48271, 11.41336],
        [78.48027, 11.40635],
        [78.45986, 11.40419],
        [78.42631, 11.38625],
        [78.44574, 11.40242],
        [78.44276, 11.4081],
        [78.44837, 11.42939],
        [78.45716, 11.43851],
        [78.44498, 11.43985],
        [78.43718, 11.46386],
        [78.4327, 11.46282],
        [78.42596, 11.47308],
        [78.43289, 11.47591],
        [78.43428, 11.49931],
        [78.43958, 11.49507],
        [78.45832, 11.50247],
        [78.46151, 11.49538],
        [78.46487, 11.50266],
        [78.47862, 11.50167],
        [78.47736, 11.48969],
        [78.48524, 11.48436],
        [78.49678, 11.4924],
        [78.48919, 11.47978],
        [78.49193, 11.47624],
        [78.50586, 11.47971],
        [78.52149, 11.47085],
        [78.53398, 11.47953],
        [78.55143, 11.48171],
        [78.55557, 11.46867],
        [78.54798, 11.45766],
        [78.56104, 11.45944],
        [78.57703, 11.47196],
        [78.58068, 11.46861],
        [78.58642, 11.47525],
        [78.59783, 11.47837],
        [78.60066, 11.47717],
        [78.59493, 11.46252],
        [78.60194, 11.46296],
        [78.61967, 11.48979],
        [78.61069, 11.4909],
        [78.60504, 11.48412],
        [78.59559, 11.48497],
        [78.59367, 11.49073],
        [78.58326, 11.49039],
        [78.57889, 11.49977],
        [78.58415, 11.50243],
        [78.57313, 11.50528],
        [78.57372, 11.51348],
        [78.60325, 11.52055],
        [78.62717, 11.50898],
        [78.64355, 11.5578],
        [78.65394, 11.56936],
        [78.65478, 11.57937],
        [78.66256, 11.5841],
        [78.64747, 11.60579],
        [78.64805, 11.63738],
        [78.66176, 11.64745],
        [78.68009, 11.64368],
        [78.67842, 11.66497],
        [78.68306, 11.6675],
        [78.6779, 11.66712],
        [78.67766, 11.67118],
        [78.68248, 11.68254],
        [78.69254, 11.68953],
        [78.70939, 11.68977],
        [78.7181, 11.68407],
        [78.73651, 11.69251],
        [78.74874, 11.69244],
        [78.78073, 11.70291],
        [78.8035, 11.68641],
        [78.80537, 11.66022],
        [78.79472, 11.65758]
      ]
    ]
  }
}
