{
  "type": "Feature",
  "id": "TN-AC-91",
  "properties": {
    "stateName": "TAMIL NADU",
    "stateCode": "TN",
    "districtName": "SALEM",
    "acNo": 91,
    "acName": "Veerapandi",
    "seatType": null,
    "pcNo": 15,
    "pcName": "SALEM",
    "quality": "unverified",
    "sources": [
      "TBD"
    ]
  },
  "geometry": {
    "type": "Polygon",
    "coordinates": [
      [
        [78.09484, 11.63751],
        [78.11382, 11.62132],
        [78.11902, 11.63243],
        [78.12583, 11.63662],
        [78.13569, 11.61627],
        [78.15485, 11.62428],
        [78.15706, 11.63143],
        [78.17546, 11.63094],
        [78.1774, 11.62375],
        [78.19082, 11.6252],
        [78.19625, 11.6307],
        [78.19832, 11.64258],
        [78.22455, 11.64969],
        [78.22077, 11.63444],
        [78.24089, 11.63236],
        [78.25794, 11.64035],
        [78.25907, 11.63413],
        [78.25297, 11.62352],
        [78.2714, 11.63151],
        [78.27662, 11.64055],
        [78.29676, 11.6368],
        [78.31218, 11.6242],
        [78.31804, 11.60622],
        [78.31802, 11.59886],
        [78.31278, 11.59653],
        [78.30973, 11.5879],
        [78.27188, 11.57874],
        [78.26428, 11.56706],
        [78.27703, 11.56585],
        [78.26385, 11.55914],
        [78.24315, 11.553],
        [78.23922, 11.55774],
        [78.2087, 11.56515],
        [78.20122, 11.55283],
        [78.18081, 11.55085],
        [78.17638, 11.5486],
        [78.17784, 11.54475],
        [78.16556, 11.54831],
        [78.15979, 11.53866],
        [78.14629, 11.53854],
        [78.13811, 11.54406],
        [78.13143, 11.53817],
        [78.11675, 11.54055],
        [78.10989, 11.55581],
        [78.10543, 11.55738],
        [78.09106, 11.54636],
        [78.08621, 11.54594],
        [78.08333, 11.5541],
        [78.07692, 11.54266],
        [78.07766, 11.52849],
        [78.07359, 11.52215],
        [78.06962, 11.52366],
        [78.07046, 11.52853],
        [78.06742, 11.52271],
        [78.06166, 11.5228],
        [78.05855, 11.51517],
        [78.05541, 11.52237],
        [78.05383, 11.51379],
        [78.0354, 11.52226],
        [78.03476, 11.5291],
        [78.0186, 11.52884],
        [78.02012, 11.55226],
        [78.00587, 11.55612],
        [78.01419, 11.58629],
        [77.99883, 11.59166],
        [77.99622, 11.60179],
        [77.99883, 11.61064],
        [78.01763, 11.60713],
        [78.02859, 11.62043],
        [78.02665, 11.62862],
        [78.00514, 11.64852],
        [78.01159, 11.65323],
        [78.01492, 11.66316],
        [78.02086, 11.65685],
        [78.02999, 11.65945],
        [78.03699, 11.68717],
        [78.03382, 11.68877],
        [78.04012, 11.69059],
        [78.04807, 11.69105],
        [78.05094, 11.67388],
        [78.0595, 11.67677],
        [78.06829, 11.67268],
        [78.0667, 11.66493],
        [78.07343, 11.66639],
        [78.07725, 11.65533],
        [78.08454, 11.6536],
        [78.07879, 11.65096],
        [78.08077, 11.64506],
        [78.09004, 11.64842],
        [78.09324, 11.66183],
        [78.10561, 11.66615],
        [78.11098, 11.65799],
        [78.10349, 11.65891],
        [78.10711, 11.654],
        [78.09669, 11.65255],
        [78.09484, 11.63751]
      ]
    ]
  }
}
