{
  "type": "Feature",
  "id": "DL-AC-19",
  "properties": {
    "stateName": "DELHI",
    "stateCode": "DL",
    "districtName": "CENTRAL",
    "acNo": 19,
    "acName": "SADAR BAZAR",
    "seatType": null,
    "pcNo": 1,
    "pcName": "CHANDNI CHOWK",
    "quality": "unverified",
    "sources": [
      "TBD"
    ]
  },
  "geometry": {
    "type": "Polygon",
    "coordinates": [
      [
        [77.18532, 28.67382],
        [77.18563, 28.67381],
        [77.18613, 28.67398],
        [77.1863, 28.67397],
        [77.1863, 28.67396],
        [77.18652, 28.67334],
        [77.1868, 28.67293],
        [77.18724, 28.67257],
        [77.18761, 28.67217],
        [77.18779, 28.67211],
        [77.18862, 28.67178],
        [77.18972, 28.67421],
        [77.19143, 28.67359],
        [77.1918, 28.67449],
        [77.19371, 28.67385],
        [77.1939, 28.67361],
        [77.19403, 28.67333],
        [77.1941, 28.67311],
        [77.19404, 28.67288],
        [77.19423, 28.67295],
        [77.19427, 28.6729],
        [77.19477, 28.67206],
        [77.1948, 28.67207],
        [77.19522, 28.67225],
        [77.19539, 28.6723],
        [77.19541, 28.67229],
        [77.19551, 28.67226],
        [77.19616, 28.67186],
        [77.19688, 28.67139],
        [77.19796, 28.6707],
        [77.19909, 28.66997],
        [77.19958, 28.6696],
        [77.19959, 28.66962],
        [77.20055, 28.6712],
        [77.20056, 28.67121],
        [77.2006, 28.67128],
        [77.20109, 28.67128],
        [77.20151, 28.67128],
        [77.20185, 28.67127],
        [77.20199, 28.67117],
        [77.20218, 28.67101],
        [77.20233, 28.67074],
        [77.20242, 28.67054],
        [77.20243, 28.67051],
        [77.20259, 28.67015],
        [77.20277, 28.66986],
        [77.20294, 28.66969],
        [77.20329, 28.66943],
        [77.20359, 28.66929],
        [77.20381, 28.66924],
        [77.20401, 28.66919],
        [77.20426, 28.66915],
        [77.20465, 28.66909],
        [77.20481, 28.66908],
        [77.2051, 28.66903],
        [77.20515, 28.66902],
        [77.20555, 28.66899],
        [77.20556, 28.66899],
        [77.20582, 28.66888],
        [77.20666, 28.66828],
        [77.20737, 28.66774],
        [77.20773, 28.66745],
        [77.20818, 28.66711],
        [77.2082, 28.6671],
        [77.20824, 28.66707],
        [77.20837, 28.66702],
        [77.20843, 28.66699],
        [77.20899, 28.6668],
        [77.20906, 28.66678],
        [77.20904, 28.66673],
        [77.20895, 28.66649],
        [77.20815, 28.66425],
        [77.20814, 28.6642],
        [77.20919, 28.66384],
        [77.20948, 28.66371],
        [77.21023, 28.66345],
        [77.21115, 28.66312],
        [77.21189, 28.66294],
        [77.2122, 28.66292],
        [77.21242, 28.66291],
        [77.21316, 28.66292],
        [77.21415, 28.66298],
        [77.21458, 28.66293],
        [77.21493, 28.66286],
        [77.21548, 28.66279],
        [77.21553, 28.66253],
        [77.21585, 28.66188],
        [77.21604, 28.66146],
        [77.21633, 28.66136],
        [77.21651, 28.66117],
        [77.21661, 28.66087],
        [77.21661, 28.66066],
        [77.21665, 28.65971],
        [77.21672, 28.65887],
        [77.21684, 28.65824],
        [77.21693, 28.65775],
        [77.21696, 28.65764],
        [77.21669, 28.65759],
        [77.21653, 28.65763],
        [77.21627, 28.65769],
        [77.21599, 28.6577],
        [77.21575, 28.65774],
        [77.21539, 28.65778],
        [77.21498, 28.65786],
        [77.21448, 28.65799],
        [77.21355, 28.65825],
        [77.21273, 28.65848],
        [77.21226, 28.65697],
        [77.21224, 28.65691],
        [77.21213, 28.65697],
        [77.21203, 28.65697],
        [77.21191, 28.657],
        [77.21174, 28.65704],
        [77.21147, 28.65715],
        [77.21129, 28.65727],
        [77.21101, 28.65742],
        [77.21079, 28.65753],
        [77.21079, 28.65753],
        [77.21079, 28.65753],
        [77.21073, 28.65753],
        [77.21063, 28.65759],
        [77.21054, 28.65762],
        [77.21042, 28.65765],
        [77.21023, 28.6577],
        [77.21012, 28.65775],
        [77.21002, 28.65779],
        [77.20994, 28.65783],
        [77.20989, 28.65785],
        [77.20983, 28.65788],
        [77.20976, 28.65791],
        [77.20966, 28.65794],
        [77.20954, 28.65797],
        [77.20948, 28.658],
        [77.20939, 28.65806],
        [77.2093, 28.6581],
        [77.2092, 28.65818],
        [77.20906, 28.65825],
        [77.20896, 28.65831],
        [77.20884, 28.65836],
        [77.20873, 28.6584],
        [77.20864, 28.65843],
        [77.20857, 28.65846],
        [77.20848, 28.6585],
        [77.20843, 28.65853],
        [77.20832, 28.65857],
        [77.20819, 28.65863],
        [77.20808, 28.65869],
        [77.20797, 28.65874],
        [77.20783, 28.65882],
        [77.20768, 28.65889],
        [77.20755, 28.65896],
        [77.20744, 28.65902],
        [77.2073, 28.6591],
        [77.20711, 28.65915],
        [77.20687, 28.6592],
        [77.2066, 28.65926],
        [77.2062, 28.65935],
        [77.20621, 28.65939],
        [77.20626, 28.65964],
        [77.20631, 28.6599],
        [77.20634, 28.66017],
        [77.20645, 28.66044],
        [77.20604, 28.66056],
        [77.20543, 28.66076],
        [77.20488, 28.66091],
        [77.20439, 28.66105],
        [77.20431, 28.66107],
        [77.20449, 28.66121],
        [77.20481, 28.66148],
        [77.205, 28.66171],
        [77.20507, 28.66184],
        [77.20528, 28.66234],
        [77.20537, 28.66258],
        [77.2042, 28.6626],
        [77.20328, 28.66263],
        [77.2018, 28.66267],
        [77.20057, 28.66267],
        [77.19964, 28.66273],
        [77.19898, 28.66273],
        [77.19852, 28.66268],
        [77.19816, 28.66288],
        [77.19808, 28.66293],
        [77.19793, 28.66289],
        [77.19672, 28.66232],
        [77.19589, 28.66201],
        [77.19525, 28.66188],
        [77.19494, 28.66182],
        [77.1943, 28.6618],
        [77.19407, 28.66182],
        [77.19288, 28.66202],
        [77.19201, 28.6623],
        [77.1915, 28.66146],
        [77.1912, 28.66149],
        [77.1907, 28.66152],
        [77.19019, 28.66158],
        [77.18981, 28.6616],
        [77.18941, 28.66165],
        [77.18893, 28.66179],
        [77.18702, 28.66226],
        [77.18606, 28.66247],
        [77.18499, 28.66279],
        [77.18495, 28.6628],
        [77.1835, 28.66341],
        [77.18301, 28.66371],
        [77.18235, 28.66393],
        [77.18169, 28.66412],
        [77.18077, 28.6644],
        [77.18072, 28.6643],
        [77.18066, 28.66419],
        [77.18056, 28.66393],
        [77.18055, 28.66386],
        [77.18053, 28.66375],
        [77.18053, 28.66373],
        [77.18052, 28.66365],
        [77.18052, 28.66357],
        [77.18071, 28.66352],
        [77.1809, 28.66346],
        [77.18117, 28.66336],
        [77.18104, 28.66332],
        [77.18093, 28.66328],
        [77.18075, 28.66321],
        [77.18062, 28.66315],
        [77.18062, 28.66315],
        [77.18062, 28.66315],
        [77.18057, 28.66307],
        [77.18055, 28.66298],
        [77.18057, 28.66292],
        [77.18069, 28.66264],
        [77.1807, 28.66261],
        [77.18078, 28.66239],
        [77.18091, 28.66191],
        [77.181, 28.6616],
        [77.18115, 28.66114],
        [77.1812, 28.66073],
        [77.18122, 28.66057],
        [77.18116, 28.66038],
        [77.18104, 28.66028],
        [77.18099, 28.66024],
        [77.1809, 28.66022],
        [77.18073, 28.66017],
        [77.18049, 28.66012],
        [77.18016, 28.66012],
        [77.17992, 28.66012],
        [77.17987, 28.66012],
        [77.17977, 28.66],
        [77.17977, 28.65998],
        [77.17976, 28.65974],
        [77.17976, 28.65962],
        [77.17974, 28.6592],
        [77.1797, 28.65883],
        [77.17968, 28.65879],
        [77.17965, 28.65874],
        [77.1795, 28.65869],
        [77.1793, 28.65861],
        [77.17898, 28.65858],
        [77.17867, 28.65857],
        [77.17819, 28.65859],
        [77.17767, 28.65861],
        [77.1772, 28.65864],
        [77.17719, 28.65864],
        [77.17717, 28.65838],
        [77.17712, 28.65742],
        [77.17709, 28.65742],
        [77.17676, 28.65741],
        [77.17599, 28.65739],
        [77.17564, 28.65743],
        [77.17557, 28.65762],
        [77.17527, 28.6577],
        [77.17521, 28.65797],
        [77.17403, 28.65797],
        [77.17379, 28.65755],
        [77.17304, 28.65766],
        [77.17298, 28.6581],
        [77.17312, 28.65842],
        [77.17315, 28.65849],
        [77.17307, 28.65854],
        [77.17268, 28.65875],
        [77.17267, 28.65875],
        [77.17267, 28.65875],
        [77.17267, 28.65875],
        [77.17266, 28.65875],
        [77.1725, 28.65879],
        [77.17237, 28.65881],
        [77.17227, 28.65882],
        [77.17173, 28.65893],
        [77.17131, 28.65908],
        [77.17119, 28.65912],
        [77.17115, 28.65913],
        [77.17085, 28.65923],
        [77.17063, 28.65933],
        [77.17048, 28.6594],
        [77.17016, 28.65953],
        [77.16995, 28.65961],
        [77.16986, 28.65964],
        [77.16997, 28.65984],
        [77.1702, 28.66019],
        [77.17031, 28.66033],
        [77.17029, 28.66048],
        [77.17025, 28.66059],
        [77.17029, 28.66068],
        [77.17036, 28.66072],
        [77.17049, 28.66096],
        [77.17061, 28.6611],
        [77.17064, 28.66117],
        [77.17063, 28.66129],
        [77.17061, 28.66143],
        [77.17059, 28.6615],
        [77.17061, 28.6616],
        [77.17063, 28.66169],
        [77.17068, 28.66175],
        [77.17075, 28.66177],
        [77.17079, 28.66177],
        [77.17084, 28.66196],
        [77.17083, 28.66207],
        [77.17075, 28.66218],
        [77.17065, 28.66231],
        [77.17064, 28.66239],
        [77.17063, 28.66245],
        [77.17035, 28.66256],
        [77.17018, 28.66264],
        [77.16998, 28.66306],
        [77.1698, 28.66383],
        [77.16968, 28.66387],
        [77.16986, 28.66478],
        [77.16993, 28.66499],
        [77.16976, 28.66516],
        [77.16963, 28.66532],
        [77.16957, 28.66552],
        [77.16961, 28.66622],
        [77.16964, 28.66658],
        [77.16976, 28.66662],
        [77.17002, 28.66673],
        [77.17023, 28.66677],
        [77.17058, 28.66685],
        [77.17165, 28.6669],
        [77.17265, 28.66683],
        [77.17314, 28.66679],
        [77.17316, 28.66679],
        [77.17338, 28.66671],
        [77.17354, 28.66665],
        [77.17383, 28.66658],
        [77.17448, 28.66639],
        [77.17576, 28.66602],
        [77.17594, 28.66597],
        [77.17603, 28.66619],
        [77.17604, 28.66625],
        [77.17604, 28.66635],
        [77.17593, 28.6665],
        [77.17586, 28.66675],
        [77.17588, 28.66711],
        [77.17557, 28.66719],
        [77.17538, 28.66694],
        [77.17359, 28.66749],
        [77.17332, 28.66682],
        [77.17256, 28.66705],
        [77.17169, 28.66734],
        [77.17109, 28.66754],
        [77.17052, 28.66775],
        [77.17011, 28.66791],
        [77.16996, 28.66796],
        [77.16991, 28.66798],
        [77.16716, 28.66902],
        [77.16375, 28.67042],
        [77.15949, 28.67211],
        [77.15949, 28.67212],
        [77.15954, 28.67215],
        [77.15954, 28.67215],
        [77.15959, 28.67218],
        [77.15981, 28.67231],
        [77.16053, 28.67257],
        [77.16109, 28.67276],
        [77.16192, 28.67296],
        [77.16306, 28.67329],
        [77.16406, 28.67355],
        [77.16471, 28.67385],
        [77.16539, 28.6742],
        [77.16589, 28.67456],
        [77.16693, 28.6753],
        [77.16766, 28.67576],
        [77.16794, 28.67589],
        [77.16802, 28.67593],
        [77.16814, 28.67599],
        [77.16858, 28.67611],
        [77.16922, 28.67632],
        [77.16942, 28.67638],
        [77.16952, 28.67643],
        [77.17055, 28.6769],
        [77.17138, 28.6772],
        [77.17197, 28.67737],
        [77.17263, 28.67753],
        [77.17389, 28.67757],
        [77.17506, 28.67762],
        [77.17545, 28.67766],
        [77.17568, 28.67768],
        [77.1765, 28.67786],
        [77.17662, 28.6779],
        [77.17668, 28.67792],
        [77.17694, 28.67802],
        [77.17702, 28.67806],
        [77.17855, 28.6786],
        [77.1801, 28.67907],
        [77.18011, 28.67907],
        [77.18013, 28.67908],
        [77.18127, 28.6794],
        [77.18253, 28.67974],
        [77.1827, 28.6798],
        [77.18294, 28.67865],
        [77.1834, 28.67825],
        [77.18366, 28.67777],
        [77.18362, 28.67723],
        [77.18327, 28.67673],
        [77.1829, 28.67547],
        [77.1846, 28.67482],
        [77.18444, 28.67445],
        [77.18528, 28.67419],
        [77.18532, 28.67382]
      ]
    ]
  }
}
