{
  "type": "Feature",
  "id": "DL-AC-26",
  "properties": {
    "stateName": "DELHI",
    "stateCode": "DL",
    "districtName": "WEST",
    "acNo": 26,
    "acName": "MADIPUR",
    "seatType": null,
    "pcNo": 6,
    "pcName": "WEST DELHI",
    "quality": "unverified",
    "sources": [
      "TBD"
    ]
  },
  "geometry": {
    "type": "Polygon",
    "coordinates": [
      [
        [77.11219, 28.66777],
        [77.11446, 28.66743],
        [77.11534, 28.6709],
        [77.11281, 28.67139],
        [77.11288, 28.67177],
        [77.11316, 28.67331],
        [77.11346, 28.67501],
        [77.11371, 28.67646],
        [77.11384, 28.6771],
        [77.11407, 28.67708],
        [77.11425, 28.67706],
        [77.11479, 28.677],
        [77.11557, 28.67689],
        [77.1174, 28.67666],
        [77.1188, 28.67647],
        [77.11882, 28.67647],
        [77.11882, 28.67646],
        [77.11988, 28.67632],
        [77.1212, 28.67615],
        [77.12213, 28.67603],
        [77.12359, 28.67583],
        [77.12475, 28.67568],
        [77.12557, 28.67557],
        [77.12701, 28.67538],
        [77.12772, 28.67529],
        [77.12874, 28.67515],
        [77.12918, 28.6751],
        [77.1297, 28.67504],
        [77.13028, 28.67496],
        [77.13161, 28.67479],
        [77.13265, 28.67466],
        [77.13376, 28.67453],
        [77.13383, 28.67452],
        [77.13456, 28.67442],
        [77.13459, 28.67442],
        [77.13475, 28.67439],
        [77.13487, 28.67438],
        [77.13496, 28.67436],
        [77.13511, 28.67434],
        [77.13525, 28.67432],
        [77.13547, 28.67429],
        [77.13565, 28.67427],
        [77.13601, 28.67422],
        [77.13628, 28.67419],
        [77.13634, 28.67418],
        [77.13769, 28.67406],
        [77.1392, 28.67388],
        [77.14004, 28.67377],
        [77.1401, 28.67376],
        [77.13974, 28.67286],
        [77.13951, 28.67229],
        [77.13933, 28.67188],
        [77.13912, 28.67139],
        [77.13897, 28.67101],
        [77.13881, 28.67069],
        [77.13863, 28.67039],
        [77.13841, 28.67007],
        [77.13822, 28.66983],
        [77.13801, 28.66959],
        [77.1377, 28.66929],
        [77.1376, 28.6692],
        [77.1375, 28.6691],
        [77.13725, 28.66888],
        [77.13687, 28.66857],
        [77.13646, 28.66823],
        [77.13645, 28.66823],
        [77.13658, 28.66814],
        [77.1367, 28.66805],
        [77.13682, 28.66797],
        [77.13696, 28.66787],
        [77.13701, 28.66783],
        [77.13717, 28.66772],
        [77.13786, 28.66722],
        [77.13548, 28.66538],
        [77.13469, 28.66483],
        [77.13213, 28.66284],
        [77.13049, 28.66163],
        [77.12993, 28.66128],
        [77.13049, 28.66085],
        [77.13115, 28.66041],
        [77.13156, 28.66005],
        [77.13188, 28.65974],
        [77.1322, 28.65944],
        [77.13246, 28.65914],
        [77.13173, 28.65846],
        [77.13204, 28.65812],
        [77.13191, 28.65794],
        [77.13192, 28.65789],
        [77.13241, 28.65801],
        [77.13268, 28.65813],
        [77.13296, 28.65824],
        [77.13319, 28.65834],
        [77.13328, 28.65841],
        [77.13342, 28.65854],
        [77.1335, 28.65866],
        [77.13359, 28.65918],
        [77.13377, 28.66037],
        [77.13407, 28.66026],
        [77.13455, 28.66001],
        [77.13523, 28.65966],
        [77.13603, 28.65928],
        [77.1368, 28.65878],
        [77.13697, 28.65878],
        [77.13778, 28.6584],
        [77.13738, 28.65778],
        [77.13686, 28.65698],
        [77.13626, 28.65608],
        [77.13586, 28.65551],
        [77.13567, 28.65518],
        [77.13546, 28.65492],
        [77.13528, 28.65478],
        [77.1345, 28.65403],
        [77.13438, 28.6539],
        [77.13445, 28.6536],
        [77.13442, 28.65351],
        [77.13442, 28.65349],
        [77.13287, 28.65305],
        [77.13159, 28.65274],
        [77.13052, 28.65247],
        [77.13005, 28.65236],
        [77.12967, 28.65226],
        [77.129, 28.6521],
        [77.12808, 28.65186],
        [77.12773, 28.65173],
        [77.12722, 28.65152],
        [77.12682, 28.65127],
        [77.12638, 28.651],
        [77.12602, 28.65079],
        [77.1256, 28.65055],
        [77.12504, 28.65025],
        [77.12473, 28.65005],
        [77.12431, 28.64986],
        [77.12404, 28.64971],
        [77.12328, 28.64928],
        [77.12243, 28.64889],
        [77.12157, 28.64859],
        [77.12101, 28.64838],
        [77.12023, 28.64807],
        [77.11905, 28.6476],
        [77.1187, 28.64745],
        [77.11835, 28.64725],
        [77.11799, 28.64703],
        [77.11736, 28.64664],
        [77.11698, 28.64642],
        [77.11663, 28.64689],
        [77.11625, 28.64731],
        [77.11593, 28.64773],
        [77.11563, 28.64816],
        [77.11536, 28.64856],
        [77.11513, 28.64887],
        [77.11487, 28.6492],
        [77.11462, 28.64952],
        [77.1143, 28.64994],
        [77.11366, 28.65061],
        [77.11332, 28.65096],
        [77.11311, 28.65118],
        [77.11288, 28.65146],
        [77.11255, 28.65189],
        [77.11224, 28.65236],
        [77.11204, 28.65273],
        [77.11187, 28.65304],
        [77.11151, 28.65295],
        [77.11094, 28.6528],
        [77.11015, 28.65267],
        [77.10988, 28.65263],
        [77.10988, 28.65263],
        [77.10942, 28.65257],
        [77.10937, 28.65256],
        [77.10931, 28.65255],
        [77.10926, 28.6529],
        [77.10917, 28.65346],
        [77.10908, 28.65405],
        [77.109, 28.65483],
        [77.10888, 28.65635],
        [77.10883, 28.65686],
        [77.10875, 28.65768],
        [77.10869, 28.65839],
        [77.10869, 28.65864],
        [77.10868, 28.65893],
        [77.10871, 28.65938],
        [77.10876, 28.65993],
        [77.10881, 28.66035],
        [77.10883, 28.66067],
        [77.1089, 28.66066],
        [77.10895, 28.66065],
        [77.1117, 28.66065],
        [77.11334, 28.66098],
        [77.11385, 28.66108],
        [77.1139, 28.6611],
        [77.11514, 28.66165],
        [77.11539, 28.66176],
        [77.11542, 28.66176],
        [77.11637, 28.66191],
        [77.11644, 28.66192],
        [77.11672, 28.66329],
        [77.11508, 28.66352],
        [77.11519, 28.66412],
        [77.1153, 28.66494],
        [77.11526, 28.66496],
        [77.11473, 28.66503],
        [77.11314, 28.66526],
        [77.11241, 28.66535],
        [77.11179, 28.66543],
        [77.1118, 28.66549],
        [77.11193, 28.66623],
        [77.11217, 28.66762],
        [77.11219, 28.66777]
      ]
    ]
  }
}
