{
  "type": "Feature",
  "id": "DL-AC-29",
  "properties": {
    "stateName": "DELHI",
    "stateCode": "DL",
    "districtName": "WEST",
    "acNo": 29,
    "acName": "TILAK NAGAR",
    "seatType": null,
    "pcNo": 6,
    "pcName": "WEST DELHI",
    "quality": "unverified",
    "sources": [
      "TBD"
    ]
  },
  "geometry": {
    "type": "Polygon",
    "coordinates": [
      [
        [77.09962, 28.6577],
        [77.09962, 28.65766],
        [77.0996, 28.65766],
        [77.09955, 28.65766],
        [77.09908, 28.65767],
        [77.09908, 28.65753],
        [77.09908, 28.65714],
        [77.09908, 28.65702],
        [77.09908, 28.65697],
        [77.09909, 28.65657],
        [77.09909, 28.65657],
        [77.09915, 28.65647],
        [77.0995, 28.65587],
        [77.09955, 28.65579],
        [77.09962, 28.65568],
        [77.09966, 28.65561],
        [77.09974, 28.65548],
        [77.09973, 28.65527],
        [77.09972, 28.65507],
        [77.09972, 28.65502],
        [77.09972, 28.65494],
        [77.09971, 28.65479],
        [77.09971, 28.65474],
        [77.0997, 28.65444],
        [77.09947, 28.65396],
        [77.09922, 28.65358],
        [77.09922, 28.65358],
        [77.0992, 28.65355],
        [77.09918, 28.65352],
        [77.099, 28.65324],
        [77.099, 28.65324],
        [77.09898, 28.65322],
        [77.09886, 28.6531],
        [77.09879, 28.65302],
        [77.09879, 28.65302],
        [77.0987, 28.65299],
        [77.09862, 28.65297],
        [77.09822, 28.65286],
        [77.09755, 28.65267],
        [77.09753, 28.65266],
        [77.09744, 28.65263],
        [77.09614, 28.65222],
        [77.09596, 28.65217],
        [77.09582, 28.65214],
        [77.09565, 28.65213],
        [77.09562, 28.65213],
        [77.09555, 28.65213],
        [77.09528, 28.65211],
        [77.09489, 28.65206],
        [77.09409, 28.65196],
        [77.09392, 28.6485],
        [77.09385, 28.64806],
        [77.09215, 28.64568],
        [77.09231, 28.6455],
        [77.09466, 28.64446],
        [77.09593, 28.64444],
        [77.09592, 28.64431],
        [77.09586, 28.64351],
        [77.09608, 28.64351],
        [77.09605, 28.64266],
        [77.09604, 28.64259],
        [77.09602, 28.64233],
        [77.09599, 28.64195],
        [77.09601, 28.64174],
        [77.09601, 28.64174],
        [77.09603, 28.64159],
        [77.09649, 28.64133],
        [77.09719, 28.64094],
        [77.09788, 28.64051],
        [77.09823, 28.64036],
        [77.09859, 28.64039],
        [77.09909, 28.64052],
        [77.0999, 28.64085],
        [77.10027, 28.64101],
        [77.10104, 28.64128],
        [77.10125, 28.64133],
        [77.10207, 28.64164],
        [77.1024, 28.64177],
        [77.10258, 28.64137],
        [77.1028, 28.64145],
        [77.10296, 28.6411],
        [77.10313, 28.64075],
        [77.10422, 28.64113],
        [77.10423, 28.64113],
        [77.10424, 28.64114],
        [77.10425, 28.64111],
        [77.10425, 28.64111],
        [77.10463, 28.64026],
        [77.10528, 28.64051],
        [77.10564, 28.64066],
        [77.10565, 28.64066],
        [77.10589, 28.64076],
        [77.10598, 28.6408],
        [77.10719, 28.64133],
        [77.10764, 28.64154],
        [77.10776, 28.64159],
        [77.10776, 28.64158],
        [77.10776, 28.64157],
        [77.10778, 28.64151],
        [77.10781, 28.64139],
        [77.10777, 28.64098],
        [77.10777, 28.6409],
        [77.10777, 28.64084],
        [77.10777, 28.64084],
        [77.10776, 28.64051],
        [77.10775, 28.64004],
        [77.10774, 28.63969],
        [77.10773, 28.6395],
        [77.10773, 28.63928],
        [77.10771, 28.63867],
        [77.1077, 28.63747],
        [77.10601, 28.63741],
        [77.1058, 28.63738],
        [77.1058, 28.63715],
        [77.10579, 28.63662],
        [77.10579, 28.63655],
        [77.10581, 28.63615],
        [77.10581, 28.63575],
        [77.10569, 28.63544],
        [77.10563, 28.63534],
        [77.1054, 28.63501],
        [77.10521, 28.63475],
        [77.10516, 28.63468],
        [77.10484, 28.6345],
        [77.10474, 28.63449],
        [77.10404, 28.63444],
        [77.10389, 28.63444],
        [77.10337, 28.63443],
        [77.10332, 28.63443],
        [77.10331, 28.63443],
        [77.1033, 28.63443],
        [77.10263, 28.63442],
        [77.10205, 28.63441],
        [77.10176, 28.6344],
        [77.10134, 28.63439],
        [77.10133, 28.63439],
        [77.10065, 28.63438],
        [77.10022, 28.63439],
        [77.09983, 28.6344],
        [77.099, 28.63437],
        [77.09855, 28.63436],
        [77.09819, 28.63435],
        [77.09816, 28.63435],
        [77.09812, 28.63435],
        [77.09807, 28.63435],
        [77.098, 28.63435],
        [77.09796, 28.63435],
        [77.09759, 28.63435],
        [77.09753, 28.63435],
        [77.09753, 28.63435],
        [77.09753, 28.63435],
        [77.09739, 28.63436],
        [77.09736, 28.63444],
        [77.09711, 28.63506],
        [77.09708, 28.63513],
        [77.09706, 28.63517],
        [77.09693, 28.63548],
        [77.09681, 28.63576],
        [77.09673, 28.63595],
        [77.09662, 28.63619],
        [77.09661, 28.63621],
        [77.0965, 28.63643],
        [77.09647, 28.6365],
        [77.09636, 28.6367],
        [77.09634, 28.63674],
        [77.09633, 28.63677],
        [77.09633, 28.63677],
        [77.09633, 28.63677],
        [77.09584, 28.6366],
        [77.09545, 28.63646],
        [77.09419, 28.63602],
        [77.09335, 28.63569],
        [77.09333, 28.63568],
        [77.09329, 28.63566],
        [77.09302, 28.63552],
        [77.09258, 28.63529],
        [77.09197, 28.63499],
        [77.09193, 28.63501],
        [77.09166, 28.63486],
        [77.09126, 28.63472],
        [77.09091, 28.63464],
        [77.09032, 28.63452],
        [77.08968, 28.63435],
        [77.08948, 28.63428],
        [77.08815, 28.6338],
        [77.08812, 28.63379],
        [77.08709, 28.63342],
        [77.08636, 28.63313],
        [77.08597, 28.63298],
        [77.08525, 28.6327],
        [77.08512, 28.63264],
        [77.08379, 28.63211],
        [77.08364, 28.63205],
        [77.08288, 28.63172],
        [77.08197, 28.63132],
        [77.08197, 28.63132],
        [77.08199, 28.63129],
        [77.08199, 28.63129],
        [77.08199, 28.63129],
        [77.08193, 28.63127],
        [77.08193, 28.63127],
        [77.08192, 28.63129],
        [77.08096, 28.63094],
        [77.08056, 28.63079],
        [77.07978, 28.6305],
        [77.0796, 28.63042],
        [77.07911, 28.63022],
        [77.07879, 28.63008],
        [77.07873, 28.63005],
        [77.07869, 28.63004],
        [77.07853, 28.62996],
        [77.0783, 28.62986],
        [77.0777, 28.6296],
        [77.07714, 28.6294],
        [77.07711, 28.62939],
        [77.077, 28.62935],
        [77.07586, 28.62887],
        [77.07511, 28.62856],
        [77.07498, 28.62851],
        [77.0744, 28.62828],
        [77.07438, 28.62827],
        [77.07428, 28.62823],
        [77.07333, 28.62789],
        [77.07278, 28.62769],
        [77.07094, 28.62698],
        [77.07047, 28.6268],
        [77.07043, 28.62678],
        [77.07021, 28.62669],
        [77.07012, 28.62684],
        [77.06852, 28.62997],
        [77.06759, 28.62963],
        [77.06747, 28.62993],
        [77.06746, 28.6309],
        [77.06587, 28.63103],
        [77.06572, 28.62946],
        [77.06501, 28.62915],
        [77.06372, 28.6317],
        [77.06226, 28.63467],
        [77.06439, 28.63548],
        [77.06547, 28.63541],
        [77.06611, 28.63446],
        [77.066, 28.63278],
        [77.06874, 28.63258],
        [77.06871, 28.6318],
        [77.07307, 28.63148],
        [77.07354, 28.63143],
        [77.07398, 28.63149],
        [77.07439, 28.63165],
        [77.07559, 28.63237],
        [77.07651, 28.63299],
        [77.07686, 28.63606],
        [77.07847, 28.63593],
        [77.07825, 28.63389],
        [77.07951, 28.63373],
        [77.08085, 28.63364],
        [77.08068, 28.6344],
        [77.08064, 28.63487],
        [77.0807, 28.63554],
        [77.08085, 28.63639],
        [77.08108, 28.63713],
        [77.08132, 28.63782],
        [77.08143, 28.63816],
        [77.08106, 28.63828],
        [77.08073, 28.6384],
        [77.08044, 28.63847],
        [77.08022, 28.63851],
        [77.08017, 28.63852],
        [77.08006, 28.63854],
        [77.08002, 28.63854],
        [77.07937, 28.63855],
        [77.0793, 28.63855],
        [77.079, 28.63856],
        [77.079, 28.63856],
        [77.07898, 28.63856],
        [77.07892, 28.63856],
        [77.07884, 28.63856],
        [77.07808, 28.63858],
        [77.07714, 28.63859],
        [77.07679, 28.63858],
        [77.07625, 28.63859],
        [77.07625, 28.63862],
        [77.07628, 28.63911],
        [77.0763, 28.63945],
        [77.07632, 28.63967],
        [77.07631, 28.63967],
        [77.07626, 28.63968],
        [77.07621, 28.63975],
        [77.07621, 28.63986],
        [77.07622, 28.64036],
        [77.07619, 28.64036],
        [77.07556, 28.64036],
        [77.07553, 28.64036],
        [77.07527, 28.64036],
        [77.075, 28.64036],
        [77.07409, 28.64037],
        [77.07382, 28.64036],
        [77.07382, 28.64038],
        [77.07382, 28.64041],
        [77.07384, 28.64091],
        [77.07385, 28.64127],
        [77.07385, 28.64129],
        [77.07385, 28.6413],
        [77.07385, 28.64166],
        [77.07386, 28.64204],
        [77.07389, 28.64294],
        [77.07396, 28.64293],
        [77.07398, 28.64294],
        [77.07398, 28.64295],
        [77.07399, 28.64347],
        [77.07399, 28.64349],
        [77.074, 28.64396],
        [77.07402, 28.6446],
        [77.07247, 28.6447],
        [77.07212, 28.64512],
        [77.07261, 28.64547],
        [77.07367, 28.64648],
        [77.07357, 28.64657],
        [77.07344, 28.64668],
        [77.07318, 28.64692],
        [77.07295, 28.6471],
        [77.0724, 28.64758],
        [77.07202, 28.64797],
        [77.07192, 28.64807],
        [77.07183, 28.64813],
        [77.07181, 28.64815],
        [77.07123, 28.64864],
        [77.07122, 28.64865],
        [77.07101, 28.64883],
        [77.07101, 28.64884],
        [77.07145, 28.64923],
        [77.07182, 28.64957],
        [77.07233, 28.65006],
        [77.07281, 28.65051],
        [77.07313, 28.65082],
        [77.07335, 28.65104],
        [77.07386, 28.65157],
        [77.07409, 28.6518],
        [77.07436, 28.65212],
        [77.07479, 28.65262],
        [77.0749, 28.65272],
        [77.07572, 28.65343],
        [77.0761, 28.65376],
        [77.07689, 28.65433],
        [77.07726, 28.65459],
        [77.07739, 28.65468],
        [77.07755, 28.65476],
        [77.0777, 28.65483],
        [77.07824, 28.6551],
        [77.07857, 28.65526],
        [77.07889, 28.65541],
        [77.07957, 28.65575],
        [77.07958, 28.65575],
        [77.07975, 28.65587],
        [77.08061, 28.65646],
        [77.08062, 28.65647],
        [77.08062, 28.65647],
        [77.08126, 28.65626],
        [77.08189, 28.65606],
        [77.08296, 28.65606],
        [77.08443, 28.65606],
        [77.08546, 28.65575],
        [77.08548, 28.65574],
        [77.08602, 28.65558],
        [77.0865, 28.65541],
        [77.08751, 28.65505],
        [77.0878, 28.65495],
        [77.08797, 28.65486],
        [77.08832, 28.65467],
        [77.08874, 28.65445],
        [77.0888, 28.65442],
        [77.08882, 28.65442],
        [77.08911, 28.65434],
        [77.09028, 28.6545],
        [77.09084, 28.65468],
        [77.09111, 28.65477],
        [77.09161, 28.65496],
        [77.09218, 28.65518],
        [77.09283, 28.65554],
        [77.09297, 28.65563],
        [77.09312, 28.65572],
        [77.09377, 28.65614],
        [77.0942, 28.65667],
        [77.09455, 28.65708],
        [77.09504, 28.65759],
        [77.0953, 28.65785],
        [77.09583, 28.65838],
        [77.09591, 28.65846],
        [77.0962, 28.65867],
        [77.09867, 28.66059],
        [77.09888, 28.66063],
        [77.09921, 28.6607],
        [77.09931, 28.66018],
        [77.09932, 28.66012],
        [77.09936, 28.65988],
        [77.0994, 28.65964],
        [77.0994, 28.65961],
        [77.09948, 28.65913],
        [77.09966, 28.65831],
        [77.09965, 28.65812],
        [77.09964, 28.65796],
        [77.09963, 28.65784],
        [77.09962, 28.65773],
        [77.09962, 28.6577]
      ]
    ]
  }
}
