{
  "type": "Feature",
  "id": "DL-AC-31",
  "properties": {
    "stateName": "DELHI",
    "stateCode": "DL",
    "districtName": "WEST",
    "acNo": 31,
    "acName": "VIKASPURI",
    "seatType": null,
    "pcNo": 6,
    "pcName": "WEST DELHI",
    "quality": "unverified",
    "sources": [
      "TBD"
    ]
  },
  "geometry": {
    "type": "Polygon",
    "coordinates": [
      [
        [77.07367, 28.64648],
        [77.07261, 28.64547],
        [77.07212, 28.64512],
        [77.07247, 28.6447],
        [77.07402, 28.6446],
        [77.074, 28.64396],
        [77.07399, 28.64349],
        [77.07399, 28.64347],
        [77.07398, 28.64295],
        [77.07398, 28.64294],
        [77.07396, 28.64293],
        [77.07389, 28.64294],
        [77.07386, 28.64204],
        [77.07385, 28.64166],
        [77.07385, 28.6413],
        [77.07385, 28.64129],
        [77.07385, 28.64127],
        [77.07384, 28.64091],
        [77.07382, 28.64041],
        [77.07382, 28.64038],
        [77.07382, 28.64036],
        [77.07409, 28.64037],
        [77.075, 28.64036],
        [77.07527, 28.64036],
        [77.07553, 28.64036],
        [77.07556, 28.64036],
        [77.07619, 28.64036],
        [77.07622, 28.64036],
        [77.07621, 28.63986],
        [77.07621, 28.63975],
        [77.07626, 28.63968],
        [77.07631, 28.63967],
        [77.07632, 28.63967],
        [77.0763, 28.63945],
        [77.07628, 28.63911],
        [77.07625, 28.63862],
        [77.07625, 28.63859],
        [77.07679, 28.63858],
        [77.07714, 28.63859],
        [77.07808, 28.63858],
        [77.07884, 28.63856],
        [77.07892, 28.63856],
        [77.07898, 28.63856],
        [77.079, 28.63856],
        [77.079, 28.63856],
        [77.0793, 28.63855],
        [77.07937, 28.63855],
        [77.08002, 28.63854],
        [77.08006, 28.63854],
        [77.08017, 28.63852],
        [77.08022, 28.63851],
        [77.08044, 28.63847],
        [77.08073, 28.6384],
        [77.08106, 28.63828],
        [77.08143, 28.63816],
        [77.08132, 28.63782],
        [77.08108, 28.63713],
        [77.08085, 28.63639],
        [77.0807, 28.63554],
        [77.08064, 28.63487],
        [77.08068, 28.6344],
        [77.08085, 28.63364],
        [77.07951, 28.63373],
        [77.07825, 28.63389],
        [77.07847, 28.63593],
        [77.07686, 28.63606],
        [77.07651, 28.63299],
        [77.07559, 28.63237],
        [77.07439, 28.63165],
        [77.07398, 28.63149],
        [77.07354, 28.63143],
        [77.07307, 28.63148],
        [77.06871, 28.6318],
        [77.06874, 28.63258],
        [77.066, 28.63278],
        [77.06611, 28.63446],
        [77.06547, 28.63541],
        [77.06439, 28.63548],
        [77.06226, 28.63467],
        [77.06372, 28.6317],
        [77.06501, 28.62915],
        [77.06572, 28.62946],
        [77.06587, 28.63103],
        [77.06746, 28.6309],
        [77.06747, 28.62993],
        [77.06759, 28.62963],
        [77.06852, 28.62997],
        [77.07012, 28.62684],
        [77.07021, 28.62669],
        [77.07021, 28.62669],
        [77.06917, 28.62629],
        [77.06882, 28.62615],
        [77.06863, 28.62608],
        [77.0686, 28.62606],
        [77.06836, 28.62595],
        [77.06829, 28.62591],
        [77.0678, 28.62573],
        [77.06769, 28.62569],
        [77.06759, 28.62565],
        [77.0673, 28.62555],
        [77.06712, 28.62548],
        [77.06605, 28.62508],
        [77.06565, 28.62492],
        [77.06556, 28.62489],
        [77.06513, 28.62473],
        [77.06496, 28.62467],
        [77.06411, 28.62431],
        [77.06374, 28.62416],
        [77.06347, 28.62405],
        [77.06311, 28.62389],
        [77.06292, 28.62382],
        [77.06275, 28.62375],
        [77.06223, 28.62356],
        [77.06191, 28.62344],
        [77.06189, 28.62343],
        [77.0616, 28.62331],
        [77.06125, 28.62318],
        [77.06094, 28.62307],
        [77.06028, 28.62284],
        [77.06023, 28.62282],
        [77.0595, 28.62257],
        [77.05918, 28.62249],
        [77.05878, 28.62239],
        [77.05874, 28.62238],
        [77.05861, 28.62234],
        [77.05801, 28.62219],
        [77.05792, 28.62217],
        [77.05747, 28.62205],
        [77.05734, 28.62202],
        [77.05702, 28.62196],
        [77.05669, 28.62189],
        [77.05664, 28.62324],
        [77.05584, 28.62373],
        [77.05411, 28.62377],
        [77.05415, 28.6249],
        [77.05323, 28.62496],
        [77.05326, 28.62608],
        [77.05454, 28.62609],
        [77.05465, 28.62845],
        [77.05154, 28.62852],
        [77.05175, 28.62875],
        [77.0523, 28.62932],
        [77.05188, 28.62938],
        [77.0519, 28.6299],
        [77.0499, 28.62994],
        [77.04978, 28.62887],
        [77.04985, 28.62738],
        [77.04999, 28.62585],
        [77.0501, 28.62474],
        [77.0498, 28.6247],
        [77.04966, 28.62468],
        [77.04964, 28.62468],
        [77.0493, 28.62462],
        [77.04897, 28.62459],
        [77.04865, 28.62455],
        [77.04855, 28.62459],
        [77.04848, 28.62464],
        [77.04845, 28.62465],
        [77.04844, 28.62466],
        [77.04819, 28.6248],
        [77.04796, 28.62494],
        [77.04798, 28.62504],
        [77.04801, 28.6251],
        [77.04808, 28.62523],
        [77.04779, 28.62535],
        [77.04761, 28.62543],
        [77.04755, 28.62546],
        [77.04751, 28.62548],
        [77.04746, 28.62552],
        [77.0474, 28.62555],
        [77.04733, 28.62558],
        [77.0473, 28.62561],
        [77.04721, 28.62571],
        [77.04703, 28.62571],
        [77.0469, 28.62573],
        [77.04671, 28.62582],
        [77.04649, 28.62588],
        [77.04619, 28.62591],
        [77.04589, 28.62593],
        [77.04561, 28.62597],
        [77.04529, 28.62599],
        [77.04514, 28.62601],
        [77.04514, 28.62601],
        [77.04476, 28.62604],
        [77.04443, 28.62608],
        [77.04415, 28.62612],
        [77.04405, 28.62613],
        [77.04384, 28.62614],
        [77.04377, 28.62614],
        [77.04375, 28.62865],
        [77.04401, 28.62944],
        [77.0441, 28.6299],
        [77.04395, 28.6304],
        [77.03956, 28.63048],
        [77.03965, 28.63121],
        [77.03201, 28.63136],
        [77.03199, 28.62982],
        [77.03138, 28.63023],
        [77.03045, 28.6309],
        [77.02978, 28.63145],
        [77.0289, 28.63238],
        [77.02737, 28.634],
        [77.02722, 28.63418],
        [77.02714, 28.63425],
        [77.02697, 28.63437],
        [77.02676, 28.63441],
        [77.02649, 28.63444],
        [77.02628, 28.63444],
        [77.0261, 28.63443],
        [77.02595, 28.63441],
        [77.02571, 28.63436],
        [77.02526, 28.6344],
        [77.02474, 28.6344],
        [77.02429, 28.63439],
        [77.02458, 28.63335],
        [77.02421, 28.63239],
        [77.0238, 28.63169],
        [77.02284, 28.63048],
        [77.02221, 28.62954],
        [77.02184, 28.62899],
        [77.02168, 28.62787],
        [77.02157, 28.6276],
        [77.02143, 28.62694],
        [77.02153, 28.62665],
        [77.02129, 28.62658],
        [77.02086, 28.62661],
        [77.02022, 28.62666],
        [77.0196, 28.62683],
        [77.01898, 28.62704],
        [77.01786, 28.6272],
        [77.01632, 28.62716],
        [77.0153, 28.62654],
        [77.01523, 28.62716],
        [77.01519, 28.62826],
        [77.01436, 28.62828],
        [77.01273, 28.62829],
        [77.01141, 28.62831],
        [77.01143, 28.6294],
        [77.01146, 28.63194],
        [77.01155, 28.63625],
        [77.01164, 28.63978],
        [77.00993, 28.6398],
        [77.0083, 28.63868],
        [77.00825, 28.63872],
        [77.00809, 28.63957],
        [77.00775, 28.63957],
        [77.00771, 28.63964],
        [77.00769, 28.63982],
        [77.00683, 28.63983],
        [77.00691, 28.64251],
        [77.00758, 28.64249],
        [77.00825, 28.64249],
        [77.00827, 28.64294],
        [77.00832, 28.64537],
        [77.00842, 28.65151],
        [77.00435, 28.65296],
        [77.00364, 28.65257],
        [77.00372, 28.65661],
        [77.00413, 28.65696],
        [77.00732, 28.65942],
        [77.00852, 28.65943],
        [77.01185, 28.65939],
        [77.01189, 28.66349],
        [77.01126, 28.66359],
        [77.01127, 28.66582],
        [77.01468, 28.6659],
        [77.01464, 28.66469],
        [77.01614, 28.66466],
        [77.01606, 28.66293],
        [77.01671, 28.66299],
        [77.0168, 28.66201],
        [77.01819, 28.66206],
        [77.0182, 28.66251],
        [77.01942, 28.66254],
        [77.01943, 28.66303],
        [77.0208, 28.66304],
        [77.0215, 28.66304],
        [77.02155, 28.66569],
        [77.02228, 28.66569],
        [77.02229, 28.66585],
        [77.02259, 28.666],
        [77.02261, 28.66626],
        [77.02295, 28.66627],
        [77.0252, 28.66623],
        [77.0245, 28.66469],
        [77.02451, 28.66457],
        [77.02706, 28.66457],
        [77.02703, 28.66404],
        [77.02839, 28.664],
        [77.02835, 28.66241],
        [77.02902, 28.6624],
        [77.03031, 28.66236],
        [77.03018, 28.66126],
        [77.03063, 28.66126],
        [77.03061, 28.66088],
        [77.03079, 28.6607],
        [77.03355, 28.66068],
        [77.03558, 28.66064],
        [77.03637, 28.66062],
        [77.03878, 28.66061],
        [77.0399, 28.66055],
        [77.04037, 28.66084],
        [77.0412, 28.66125],
        [77.04271, 28.66203],
        [77.04199, 28.66218],
        [77.04146, 28.66241],
        [77.04094, 28.66318],
        [77.04074, 28.66432],
        [77.04269, 28.66429],
        [77.04285, 28.66401],
        [77.04495, 28.6649],
        [77.0468, 28.66207],
        [77.04779, 28.66209],
        [77.04827, 28.66209],
        [77.04929, 28.66201],
        [77.05095, 28.66304],
        [77.05165, 28.66362],
        [77.05225, 28.6641],
        [77.05227, 28.66163],
        [77.05221, 28.66117],
        [77.05241, 28.66116],
        [77.0524, 28.66032],
        [77.05239, 28.65964],
        [77.0523, 28.65909],
        [77.05162, 28.65817],
        [77.05084, 28.65702],
        [77.04911, 28.6546],
        [77.04823, 28.65344],
        [77.04806, 28.65336],
        [77.04777, 28.65337],
        [77.04739, 28.65338],
        [77.04704, 28.6534],
        [77.04679, 28.65334],
        [77.04678, 28.65327],
        [77.04676, 28.65287],
        [77.04676, 28.65287],
        [77.04676, 28.65269],
        [77.04676, 28.65211],
        [77.04675, 28.6513],
        [77.04819, 28.65134],
        [77.04927, 28.6512],
        [77.05015, 28.651],
        [77.05158, 28.65061],
        [77.05265, 28.65003],
        [77.0531, 28.64959],
        [77.05311, 28.64958],
        [77.05362, 28.6491],
        [77.05453, 28.6484],
        [77.05531, 28.64781],
        [77.05621, 28.64696],
        [77.05659, 28.64656],
        [77.05709, 28.64561],
        [77.05731, 28.6448],
        [77.05752, 28.644],
        [77.05716, 28.64193],
        [77.05707, 28.64045],
        [77.05751, 28.63938],
        [77.0584, 28.63872],
        [77.05908, 28.63906],
        [77.0604, 28.64004],
        [77.06241, 28.6414],
        [77.0643, 28.64287],
        [77.06555, 28.644],
        [77.06786, 28.64606],
        [77.06976, 28.6477],
        [77.07101, 28.64883],
        [77.07122, 28.64865],
        [77.07123, 28.64864],
        [77.07181, 28.64815],
        [77.07183, 28.64813],
        [77.07192, 28.64807],
        [77.07202, 28.64797],
        [77.0724, 28.64758],
        [77.07295, 28.6471],
        [77.07318, 28.64692],
        [77.07344, 28.64668],
        [77.07357, 28.64657],
        [77.07367, 28.64648]
      ]
    ]
  }
}
