{
  "type": "Feature",
  "id": "DL-AC-34",
  "properties": {
    "stateName": "DELHI",
    "stateCode": "DL",
    "districtName": "SOUTH-WEST",
    "acNo": 34,
    "acName": "MATIALA",
    "seatType": null,
    "pcNo": 6,
    "pcName": "WEST DELHI",
    "quality": "unverified",
    "sources": [
      "TBD"
    ]
  },
  "geometry": {
    "type": "Polygon",
    "coordinates": [
      [
        [76.99298, 28.6126],
        [76.99309, 28.61264],
        [76.99546, 28.61279],
        [76.99637, 28.61313],
        [76.99865, 28.61361],
        [76.9995, 28.6136],
        [76.99956, 28.61782],
        [76.99901, 28.618],
        [76.999, 28.61829],
        [76.99643, 28.61903],
        [76.99352, 28.61903],
        [76.99331, 28.61908],
        [76.99334, 28.6203],
        [76.99027, 28.62213],
        [76.98941, 28.62287],
        [76.99055, 28.62375],
        [76.99253, 28.6254],
        [76.99254, 28.62541],
        [76.99268, 28.62554],
        [76.99331, 28.62604],
        [76.99351, 28.62619],
        [76.99387, 28.6265],
        [76.99411, 28.62668],
        [76.9946, 28.62705],
        [76.99488, 28.62725],
        [76.99507, 28.62738],
        [76.99531, 28.62754],
        [76.99554, 28.62768],
        [76.99576, 28.62782],
        [76.99602, 28.62798],
        [76.99618, 28.62809],
        [76.99669, 28.62843],
        [76.99702, 28.62866],
        [76.99729, 28.62885],
        [76.99752, 28.629],
        [76.99768, 28.62914],
        [76.99779, 28.62922],
        [76.99793, 28.62933],
        [76.99811, 28.62949],
        [76.99842, 28.62976],
        [76.99858, 28.62989],
        [76.99888, 28.63015],
        [76.99912, 28.63036],
        [76.99937, 28.63059],
        [76.99967, 28.63087],
        [76.9999, 28.63108],
        [76.99991, 28.63107],
        [76.99995, 28.63086],
        [77.00001, 28.63064],
        [77.00015, 28.63034],
        [77.00023, 28.63017],
        [77.00048, 28.6297],
        [77.0008, 28.62906],
        [77.00109, 28.62836],
        [77.00129, 28.62785],
        [77.00142, 28.62752],
        [77.0016, 28.62726],
        [77.00178, 28.62706],
        [77.00199, 28.62682],
        [77.00267, 28.62618],
        [77.00308, 28.62588],
        [77.00377, 28.62541],
        [77.00435, 28.62506],
        [77.00532, 28.62463],
        [77.00656, 28.6243],
        [77.00739, 28.62442],
        [77.01076, 28.62529],
        [77.01262, 28.6255],
        [77.01462, 28.62612],
        [77.0153, 28.62654],
        [77.01632, 28.62716],
        [77.01786, 28.6272],
        [77.01898, 28.62704],
        [77.0196, 28.62683],
        [77.02022, 28.62666],
        [77.02086, 28.62661],
        [77.02129, 28.62658],
        [77.02153, 28.62665],
        [77.02143, 28.62694],
        [77.02157, 28.6276],
        [77.02168, 28.62787],
        [77.02184, 28.62899],
        [77.02221, 28.62954],
        [77.02259, 28.62792],
        [77.02263, 28.62641],
        [77.02249, 28.62437],
        [77.02279, 28.62316],
        [77.02239, 28.62184],
        [77.02363, 28.62162],
        [77.02471, 28.6216],
        [77.02467, 28.62092],
        [77.02579, 28.62089],
        [77.02704, 28.62084],
        [77.02798, 28.62078],
        [77.028, 28.62147],
        [77.02864, 28.62145],
        [77.02861, 28.62026],
        [77.02938, 28.62024],
        [77.03057, 28.62029],
        [77.03112, 28.619],
        [77.03152, 28.61902],
        [77.03161, 28.61863],
        [77.03161, 28.61862],
        [77.03176, 28.61804],
        [77.03184, 28.6177],
        [77.03212, 28.61769],
        [77.03219, 28.61769],
        [77.03236, 28.61757],
        [77.0326, 28.61742],
        [77.03292, 28.61722],
        [77.03342, 28.6169],
        [77.0336, 28.61678],
        [77.03382, 28.61666],
        [77.03393, 28.61657],
        [77.03401, 28.61649],
        [77.03451, 28.61598],
        [77.03452, 28.61556],
        [77.03666, 28.61551],
        [77.0367, 28.61596],
        [77.03726, 28.61599],
        [77.03729, 28.6165],
        [77.0373, 28.61669],
        [77.0373, 28.61671],
        [77.0373, 28.61684],
        [77.03732, 28.61684],
        [77.03732, 28.61684],
        [77.03732, 28.61808],
        [77.03755, 28.61809],
        [77.03758, 28.61817],
        [77.03999, 28.6181],
        [77.04, 28.61707],
        [77.04, 28.61707],
        [77.04025, 28.61707],
        [77.04066, 28.61707],
        [77.04085, 28.61707],
        [77.04108, 28.61707],
        [77.04126, 28.61706],
        [77.04146, 28.61707],
        [77.04167, 28.61707],
        [77.04192, 28.61707],
        [77.042, 28.61707],
        [77.04215, 28.61707],
        [77.04215, 28.61668],
        [77.04214, 28.6162],
        [77.04214, 28.6161],
        [77.04219, 28.61592],
        [77.04229, 28.61578],
        [77.04243, 28.6156],
        [77.04268, 28.61543],
        [77.04295, 28.61522],
        [77.04328, 28.61494],
        [77.04361, 28.61466],
        [77.04389, 28.61447],
        [77.0442, 28.61437],
        [77.0446, 28.61436],
        [77.04474, 28.61435],
        [77.04474, 28.61462],
        [77.04475, 28.61543],
        [77.04502, 28.61542],
        [77.04548, 28.61542],
        [77.04612, 28.61541],
        [77.04648, 28.6154],
        [77.04685, 28.61539],
        [77.04684, 28.61514],
        [77.04684, 28.61472],
        [77.04773, 28.61473],
        [77.04948, 28.61473],
        [77.05059, 28.61471],
        [77.05059, 28.61471],
        [77.05056, 28.61344],
        [77.05054, 28.6129],
        [77.0501, 28.61289],
        [77.05006, 28.61132],
        [77.05095, 28.61134],
        [77.05094, 28.61145],
        [77.05384, 28.61145],
        [77.05389, 28.61131],
        [77.05434, 28.61137],
        [77.0558, 28.61132],
        [77.05579, 28.61065],
        [77.05686, 28.61066],
        [77.05684, 28.60952],
        [77.05685, 28.60883],
        [77.05354, 28.60904],
        [77.05353, 28.60977],
        [77.05349, 28.61072],
        [77.04976, 28.61079],
        [77.04973, 28.60936],
        [77.04877, 28.60925],
        [77.04877, 28.60924],
        [77.04877, 28.60922],
        [77.04874, 28.60867],
        [77.04816, 28.60867],
        [77.04815, 28.60834],
        [77.04805, 28.60823],
        [77.04808, 28.60756],
        [77.05158, 28.60754],
        [77.05319, 28.60587],
        [77.0528, 28.60487],
        [77.05283, 28.60486],
        [77.05282, 28.60484],
        [77.05364, 28.60459],
        [77.05429, 28.60433],
        [77.05516, 28.60387],
        [77.05568, 28.60358],
        [77.05645, 28.60307],
        [77.05677, 28.60286],
        [77.05742, 28.60242],
        [77.06016, 28.60054],
        [77.06206, 28.59933],
        [77.06299, 28.5987],
        [77.06334, 28.59849],
        [77.0636, 28.59831],
        [77.0648, 28.59748],
        [77.06509, 28.59728],
        [77.06519, 28.59721],
        [77.06535, 28.59716],
        [77.06541, 28.59714],
        [77.06571, 28.59702],
        [77.06834, 28.59609],
        [77.07037, 28.59538],
        [77.07124, 28.59508],
        [77.07133, 28.59503],
        [77.07138, 28.59501],
        [77.07179, 28.5948],
        [77.07184, 28.59478],
        [77.0718, 28.59466],
        [77.07166, 28.59424],
        [77.07158, 28.59407],
        [77.07139, 28.59363],
        [77.07121, 28.59329],
        [77.07109, 28.59306],
        [77.07085, 28.59269],
        [77.07066, 28.59233],
        [77.07052, 28.59217],
        [77.07046, 28.59211],
        [77.0702, 28.59178],
        [77.06998, 28.59155],
        [77.06935, 28.5908],
        [77.06757, 28.58869],
        [77.0673, 28.58837],
        [77.06662, 28.58756],
        [77.06453, 28.58518],
        [77.06098, 28.58097],
        [77.05769, 28.57716],
        [77.06246, 28.57386],
        [77.06548, 28.57187],
        [77.06657, 28.57122],
        [77.06684, 28.56843],
        [77.06669, 28.5657],
        [77.0662, 28.56333],
        [77.06411, 28.55881],
        [77.06329, 28.55949],
        [77.05914, 28.55471],
        [77.05824, 28.55364],
        [77.05308, 28.55702],
        [77.05301, 28.5572],
        [77.05297, 28.55715],
        [77.05085, 28.55838],
        [77.05051, 28.55792],
        [77.04855, 28.55869],
        [77.04861, 28.56062],
        [77.04487, 28.56066],
        [77.04449, 28.56064],
        [77.04426, 28.56047],
        [77.04393, 28.56071],
        [77.04428, 28.5615],
        [77.03933, 28.56303],
        [77.03979, 28.56684],
        [77.0295, 28.56795],
        [77.02871, 28.56659],
        [77.02789, 28.56556],
        [77.02554, 28.56298],
        [77.02445, 28.56102],
        [77.02414, 28.56035],
        [77.02401, 28.56006],
        [77.02345, 28.55883],
        [77.02293, 28.55769],
        [77.02233, 28.55657],
        [77.02181, 28.55574],
        [77.02176, 28.55566],
        [77.02081, 28.5548],
        [77.02039, 28.55459],
        [77.01852, 28.55338],
        [77.01606, 28.55134],
        [77.01476, 28.54924],
        [77.01355, 28.547],
        [77.01188, 28.54538],
        [77.01052, 28.54459],
        [77.00888, 28.54407],
        [77.00854, 28.54386],
        [77.00834, 28.54339],
        [77.00785, 28.54222],
        [77.00728, 28.5412],
        [77.00696, 28.5403],
        [77.00683, 28.54017],
        [77.00603, 28.53973],
        [77.00533, 28.53943],
        [77.00516, 28.53935],
        [77.00506, 28.5393],
        [77.00497, 28.53925],
        [77.00487, 28.53919],
        [77.00463, 28.53888],
        [77.00366, 28.5372],
        [77.00292, 28.5357],
        [77.00193, 28.53402],
        [77.00164, 28.53377],
        [77.00161, 28.53375],
        [77.0016, 28.53375],
        [77.00148, 28.53361],
        [77.0014, 28.53344],
        [77.00135, 28.53326],
        [77.00133, 28.53296],
        [77.00137, 28.53264],
        [77.00136, 28.53257],
        [77.00136, 28.53255],
        [77.00135, 28.5323],
        [77.00131, 28.53202],
        [77.00124, 28.53176],
        [77.00118, 28.53153],
        [77.00118, 28.53146],
        [77.00119, 28.53144],
        [77.0012, 28.53142],
        [77.00146, 28.53127],
        [77.00148, 28.53126],
        [77.00152, 28.53124],
        [77.00169, 28.53109],
        [77.0017, 28.53109],
        [77.00179, 28.53103],
        [77.00192, 28.53096],
        [77.00215, 28.53082],
        [77.00248, 28.53062],
        [77.00269, 28.53049],
        [77.00285, 28.53042],
        [77.00295, 28.5304],
        [77.003, 28.53035],
        [77.00319, 28.53015],
        [77.00348, 28.52985],
        [77.00377, 28.52956],
        [77.0039, 28.52948],
        [77.0041, 28.52937],
        [77.00424, 28.52929],
        [77.00436, 28.52916],
        [77.0045, 28.52908],
        [77.00492, 28.52886],
        [77.00497, 28.52883],
        [77.00518, 28.5287],
        [77.00567, 28.52848],
        [77.00577, 28.52843],
        [77.00619, 28.52822],
        [77.00663, 28.52798],
        [77.00709, 28.52776],
        [77.00732, 28.52762],
        [77.00755, 28.52747],
        [77.00784, 28.5273],
        [77.00795, 28.52723],
        [77.00804, 28.52717],
        [77.00812, 28.52711],
        [77.00813, 28.52708],
        [77.00818, 28.52704],
        [77.00823, 28.52701],
        [77.0083, 28.52697],
        [77.00835, 28.52695],
        [77.00838, 28.52694],
        [77.00842, 28.52692],
        [77.00846, 28.5269],
        [77.00856, 28.52685],
        [77.00871, 28.52679],
        [77.00884, 28.52676],
        [77.00898, 28.52673],
        [77.00903, 28.52673],
        [77.00915, 28.52673],
        [77.0092, 28.52672],
        [77.00939, 28.52667],
        [77.00948, 28.52664],
        [77.00953, 28.52662],
        [77.0096, 28.52656],
        [77.00962, 28.52653],
        [77.00966, 28.52648],
        [77.00981, 28.52642],
        [77.00989, 28.52633],
        [77.01006, 28.52614],
        [77.01017, 28.52599],
        [77.01023, 28.52592],
        [77.01029, 28.52583],
        [77.01045, 28.52568],
        [77.01065, 28.52554],
        [77.01081, 28.52546],
        [77.01112, 28.52534],
        [77.01119, 28.52532],
        [77.01142, 28.52528],
        [77.01151, 28.52526],
        [77.01177, 28.52517],
        [77.01192, 28.52514],
        [77.01193, 28.52514],
        [77.01202, 28.52514],
        [77.01215, 28.52509],
        [77.01224, 28.52506],
        [77.01231, 28.52505],
        [77.01243, 28.52501],
        [77.01247, 28.52499],
        [77.01252, 28.52496],
        [77.01262, 28.52492],
        [77.01273, 28.52489],
        [77.01286, 28.52484],
        [77.01294, 28.52481],
        [77.01299, 28.52478],
        [77.01304, 28.52475],
        [77.01317, 28.5247],
        [77.01335, 28.52465],
        [77.0135, 28.52461],
        [77.01363, 28.52457],
        [77.01376, 28.52454],
        [77.01384, 28.52453],
        [77.01391, 28.52452],
        [77.01399, 28.52451],
        [77.01406, 28.52448],
        [77.01415, 28.52445],
        [77.01425, 28.52439],
        [77.0143, 28.52437],
        [77.0144, 28.52431],
        [77.01447, 28.52427],
        [77.01451, 28.52424],
        [77.01459, 28.52418],
        [77.0147, 28.5241],
        [77.01481, 28.52401],
        [77.0149, 28.52393],
        [77.01507, 28.52379],
        [77.01517, 28.5237],
        [77.01527, 28.5236],
        [77.01533, 28.52353],
        [77.01541, 28.52345],
        [77.0156, 28.52328],
        [77.01576, 28.52313],
        [77.01598, 28.52292],
        [77.0161, 28.52281],
        [77.01611, 28.5228],
        [77.01619, 28.52272],
        [77.01622, 28.52269],
        [77.01625, 28.52264],
        [77.01625, 28.52263],
        [77.01627, 28.52261],
        [77.01644, 28.52241],
        [77.01645, 28.52237],
        [77.01645, 28.52237],
        [77.01648, 28.52227],
        [77.01649, 28.52225],
        [77.01651, 28.52221],
        [77.01654, 28.52216],
        [77.01656, 28.52212],
        [77.0166, 28.52209],
        [77.01662, 28.52205],
        [77.01663, 28.52203],
        [77.01667, 28.52198],
        [77.0167, 28.52194],
        [77.01674, 28.52189],
        [77.01681, 28.52179],
        [77.01687, 28.5217],
        [77.01688, 28.52167],
        [77.01691, 28.52162],
        [77.01694, 28.52155],
        [77.01694, 28.52151],
        [77.01694, 28.52147],
        [77.01694, 28.52136],
        [77.01695, 28.52127],
        [77.01696, 28.5212],
        [77.01696, 28.52104],
        [77.01695, 28.52101],
        [77.01694, 28.52093],
        [77.01673, 28.52074],
        [77.01652, 28.52055],
        [77.01632, 28.52038],
        [77.01617, 28.52025],
        [77.016, 28.5201],
        [77.01577, 28.51989],
        [77.01559, 28.51971],
        [77.01533, 28.51947],
        [77.01488, 28.51905],
        [77.01471, 28.51891],
        [77.01448, 28.51878],
        [77.01442, 28.5187],
        [77.01422, 28.51853],
        [77.0141, 28.51847],
        [77.01386, 28.51824],
        [77.01363, 28.51804],
        [77.01329, 28.51778],
        [77.01316, 28.51765],
        [77.01283, 28.51734],
        [77.01265, 28.51719],
        [77.01265, 28.51719],
        [77.01265, 28.51719],
        [77.01264, 28.51718],
        [77.01252, 28.51706],
        [77.01251, 28.51705],
        [77.01192, 28.51645],
        [77.01187, 28.51643],
        [77.01178, 28.51634],
        [77.01137, 28.51592],
        [77.01074, 28.5153],
        [77.0105, 28.51505],
        [77.01049, 28.51465],
        [77.00999, 28.51466],
        [77.00999, 28.51466],
        [77.00982, 28.51472],
        [77.00895, 28.51499],
        [77.00815, 28.51525],
        [77.00774, 28.51536],
        [77.00736, 28.51546],
        [77.00719, 28.5155],
        [77.00678, 28.5156],
        [77.00644, 28.51569],
        [77.00613, 28.5158],
        [77.00583, 28.5159],
        [77.00556, 28.51601],
        [77.00544, 28.51606],
        [77.00527, 28.51616],
        [77.00512, 28.51624],
        [77.00498, 28.5163],
        [77.0048, 28.51637],
        [77.00462, 28.51645],
        [77.00443, 28.51654],
        [77.00418, 28.51669],
        [77.00401, 28.51677],
        [77.00386, 28.51684],
        [77.00365, 28.51692],
        [77.00338, 28.51703],
        [77.00301, 28.51718],
        [77.00276, 28.51726],
        [77.0027, 28.51729],
        [77.00233, 28.51738],
        [77.00188, 28.51748],
        [77.00142, 28.51759],
        [77.00135, 28.51762],
        [77.00084, 28.51773],
        [77.00069, 28.51775],
        [77.00035, 28.51776],
        [77.00015, 28.51781],
        [77.00004, 28.51786],
        [77.00004, 28.51786],
        [76.99999, 28.51788],
        [76.99999, 28.51788],
        [76.99978, 28.51797],
        [76.99939, 28.51819],
        [76.99912, 28.51838],
        [76.99911, 28.51839],
        [76.99897, 28.51845],
        [76.99871, 28.51859],
        [76.99867, 28.5186],
        [76.99865, 28.51862],
        [76.99808, 28.51891],
        [76.99767, 28.51911],
        [76.99761, 28.51915],
        [76.99741, 28.51928],
        [76.99725, 28.51937],
        [76.99704, 28.51948],
        [76.99702, 28.51949],
        [76.99683, 28.5196],
        [76.99681, 28.5196],
        [76.99676, 28.51955],
        [76.99662, 28.51937],
        [76.99654, 28.51925],
        [76.9965, 28.51919],
        [76.99649, 28.51917],
        [76.99648, 28.51916],
        [76.99638, 28.51901],
        [76.99636, 28.51894],
        [76.99635, 28.51893],
        [76.99626, 28.51865],
        [76.9961, 28.51823],
        [76.99609, 28.51821],
        [76.99609, 28.5182],
        [76.99608, 28.51819],
        [76.996, 28.51795],
        [76.996, 28.51794],
        [76.99599, 28.51792],
        [76.99595, 28.51787],
        [76.99587, 28.51775],
        [76.99575, 28.51753],
        [76.99557, 28.51716],
        [76.99546, 28.51699],
        [76.99546, 28.51699],
        [76.99535, 28.51703],
        [76.99522, 28.51708],
        [76.99498, 28.51719],
        [76.99484, 28.51728],
        [76.99469, 28.51743],
        [76.99452, 28.5176],
        [76.99452, 28.5176],
        [76.99449, 28.51756],
        [76.9942, 28.51719],
        [76.99414, 28.51709],
        [76.99395, 28.51686],
        [76.9938, 28.51666],
        [76.99371, 28.51649],
        [76.9936, 28.51635],
        [76.99341, 28.5161],
        [76.99312, 28.51574],
        [76.99312, 28.51574],
        [76.99296, 28.51576],
        [76.99296, 28.51576],
        [76.99289, 28.5156],
        [76.9928, 28.51547],
        [76.99256, 28.5151],
        [76.99236, 28.51483],
        [76.9923, 28.51471],
        [76.99183, 28.51423],
        [76.99167, 28.51411],
        [76.99151, 28.51398],
        [76.99133, 28.51385],
        [76.99118, 28.51364],
        [76.99108, 28.51349],
        [76.991, 28.51347],
        [76.991, 28.51347],
        [76.99093, 28.51349],
        [76.99083, 28.51355],
        [76.99078, 28.51357],
        [76.99069, 28.51363],
        [76.99056, 28.5137],
        [76.99033, 28.5138],
        [76.99022, 28.51384],
        [76.99013, 28.51386],
        [76.99002, 28.51389],
        [76.9899, 28.51395],
        [76.98979, 28.51398],
        [76.98967, 28.51401],
        [76.98946, 28.51408],
        [76.98927, 28.51416],
        [76.98913, 28.51424],
        [76.98902, 28.51433],
        [76.98895, 28.51434],
        [76.98879, 28.51443],
        [76.98823, 28.51472],
        [76.98764, 28.515],
        [76.9873, 28.51516],
        [76.98695, 28.5153],
        [76.98648, 28.51547],
        [76.98614, 28.51559],
        [76.98589, 28.51571],
        [76.98552, 28.51591],
        [76.98503, 28.51617],
        [76.98451, 28.51644],
        [76.98401, 28.51669],
        [76.98362, 28.51689],
        [76.98342, 28.51697],
        [76.98336, 28.51698],
        [76.98326, 28.51705],
        [76.98311, 28.51715],
        [76.98295, 28.5173],
        [76.98272, 28.51756],
        [76.98231, 28.51798],
        [76.98187, 28.51844],
        [76.9816, 28.51869],
        [76.98147, 28.51885],
        [76.9811, 28.51916],
        [76.98089, 28.51932],
        [76.98075, 28.5194],
        [76.9805, 28.5196],
        [76.98028, 28.51978],
        [76.98002, 28.51998],
        [76.9796, 28.52029],
        [76.97931, 28.52053],
        [76.97898, 28.52076],
        [76.97872, 28.52095],
        [76.97846, 28.52113],
        [76.97846, 28.52113],
        [76.97835, 28.52106],
        [76.97822, 28.52088],
        [76.978, 28.5207],
        [76.97778, 28.52045],
        [76.97722, 28.51984],
        [76.97676, 28.51931],
        [76.97652, 28.51904],
        [76.9765, 28.51902],
        [76.97642, 28.51891],
        [76.97634, 28.5188],
        [76.97632, 28.51878],
        [76.97632, 28.51875],
        [76.97626, 28.51872],
        [76.9762, 28.51868],
        [76.97597, 28.51861],
        [76.97577, 28.51859],
        [76.97566, 28.51856],
        [76.97421, 28.51769],
        [76.97402, 28.51753],
        [76.97382, 28.51734],
        [76.97378, 28.51728],
        [76.97374, 28.51723],
        [76.97369, 28.51716],
        [76.97362, 28.51707],
        [76.97353, 28.51697],
        [76.97352, 28.51696],
        [76.97345, 28.51692],
        [76.97338, 28.51688],
        [76.97297, 28.51665],
        [76.97229, 28.51627],
        [76.97227, 28.51626],
        [76.972, 28.51614],
        [76.97194, 28.51611],
        [76.97176, 28.516],
        [76.9717, 28.51596],
        [76.9716, 28.51593],
        [76.97145, 28.51585],
        [76.97108, 28.51559],
        [76.97098, 28.51553],
        [76.97095, 28.51551],
        [76.97065, 28.5153],
        [76.97054, 28.51521],
        [76.97042, 28.51513],
        [76.97042, 28.51513],
        [76.97038, 28.5151],
        [76.97033, 28.5151],
        [76.97027, 28.5151],
        [76.9702, 28.51511],
        [76.9702, 28.51511],
        [76.97015, 28.51513],
        [76.97014, 28.51514],
        [76.97011, 28.51514],
        [76.97, 28.51515],
        [76.96938, 28.51472],
        [76.9687, 28.51427],
        [76.96784, 28.51389],
        [76.96707, 28.51363],
        [76.96705, 28.51362],
        [76.96705, 28.51362],
        [76.96705, 28.51362],
        [76.96703, 28.51362],
        [76.96699, 28.51361],
        [76.96673, 28.51351],
        [76.96643, 28.51339],
        [76.96605, 28.51322],
        [76.96594, 28.51317],
        [76.96575, 28.51312],
        [76.96549, 28.51302],
        [76.96523, 28.51291],
        [76.96521, 28.5129],
        [76.96517, 28.51289],
        [76.96441, 28.51235],
        [76.9636, 28.51179],
        [76.96354, 28.51178],
        [76.96225, 28.51096],
        [76.96118, 28.51025],
        [76.96046, 28.50969],
        [76.96025, 28.50952],
        [76.96024, 28.50952],
        [76.96022, 28.5095],
        [76.96021, 28.50949],
        [76.9601, 28.50941],
        [76.96007, 28.50939],
        [76.96002, 28.50935],
        [76.95983, 28.5092],
        [76.95974, 28.50913],
        [76.95954, 28.50901],
        [76.95937, 28.50889],
        [76.95913, 28.50869],
        [76.95898, 28.50856],
        [76.95897, 28.50856],
        [76.9586, 28.50831],
        [76.95777, 28.50769],
        [76.95777, 28.50768],
        [76.95759, 28.50755],
        [76.95733, 28.50734],
        [76.95709, 28.50718],
        [76.95663, 28.50683],
        [76.95655, 28.50676],
        [76.95651, 28.50672],
        [76.95647, 28.5067],
        [76.95636, 28.50665],
        [76.95629, 28.50658],
        [76.95625, 28.50656],
        [76.9561, 28.50647],
        [76.95597, 28.50637],
        [76.9559, 28.50632],
        [76.95572, 28.50617],
        [76.95555, 28.50607],
        [76.95553, 28.50604],
        [76.95499, 28.50565],
        [76.95492, 28.50563],
        [76.95477, 28.50552],
        [76.95447, 28.50538],
        [76.95447, 28.50538],
        [76.954, 28.50516],
        [76.95399, 28.50516],
        [76.95399, 28.50516],
        [76.95363, 28.50499],
        [76.95363, 28.50499],
        [76.95357, 28.50496],
        [76.95356, 28.50496],
        [76.95352, 28.50494],
        [76.9532, 28.5048],
        [76.95224, 28.50466],
        [76.9513, 28.5046],
        [76.94902, 28.50451],
        [76.94902, 28.50451],
        [76.94889, 28.50452],
        [76.94889, 28.50452],
        [76.94854, 28.50452],
        [76.94853, 28.50452],
        [76.94813, 28.50454],
        [76.94813, 28.50454],
        [76.94795, 28.50453],
        [76.94786, 28.50453],
        [76.94776, 28.50453],
        [76.94768, 28.50452],
        [76.94768, 28.50452],
        [76.94759, 28.50454],
        [76.94759, 28.50454],
        [76.94713, 28.50453],
        [76.94704, 28.50451],
        [76.94704, 28.50451],
        [76.94697, 28.50452],
        [76.94688, 28.50453],
        [76.94688, 28.50453],
        [76.94661, 28.50452],
        [76.9464, 28.50451],
        [76.94633, 28.5045],
        [76.94633, 28.5045],
        [76.9462, 28.50452],
        [76.94603, 28.50452],
        [76.94603, 28.50452],
        [76.94586, 28.50452],
        [76.94577, 28.50451],
        [76.94568, 28.50451],
        [76.94557, 28.5045],
        [76.94524, 28.5045],
        [76.94471, 28.50447],
        [76.94452, 28.50445],
        [76.94384, 28.50439],
        [76.9435, 28.50439],
        [76.9435, 28.50439],
        [76.9433, 28.50443],
        [76.94322, 28.50443],
        [76.94241, 28.5048],
        [76.94057, 28.5057],
        [76.94057, 28.5057],
        [76.94048, 28.50575],
        [76.93893, 28.50672],
        [76.93892, 28.50672],
        [76.93889, 28.50674],
        [76.93869, 28.50692],
        [76.93814, 28.5073],
        [76.9376, 28.5076],
        [76.93715, 28.50789],
        [76.93672, 28.50822],
        [76.93623, 28.50857],
        [76.93562, 28.50898],
        [76.9349, 28.50953],
        [76.93477, 28.50959],
        [76.9346, 28.50973],
        [76.93442, 28.50989],
        [76.93424, 28.51003],
        [76.93418, 28.51005],
        [76.93413, 28.51007],
        [76.93404, 28.51009],
        [76.93389, 28.5101],
        [76.93336, 28.5101],
        [76.93296, 28.51011],
        [76.93258, 28.51011],
        [76.93258, 28.51011],
        [76.93258, 28.51011],
        [76.93247, 28.51009],
        [76.9321, 28.5101],
        [76.93178, 28.51014],
        [76.9309, 28.51023],
        [76.9308, 28.51024],
        [76.93075, 28.51024],
        [76.93074, 28.51024],
        [76.93031, 28.51029],
        [76.92984, 28.51034],
        [76.92984, 28.51034],
        [76.92981, 28.51035],
        [76.92933, 28.5104],
        [76.92858, 28.51047],
        [76.92818, 28.51052],
        [76.92763, 28.51058],
        [76.92762, 28.51058],
        [76.92753, 28.51043],
        [76.92748, 28.51038],
        [76.92737, 28.51025],
        [76.92723, 28.51008],
        [76.9271, 28.50995],
        [76.92698, 28.50983],
        [76.9268, 28.5097],
        [76.92656, 28.50953],
        [76.92628, 28.50934],
        [76.92598, 28.50918],
        [76.92586, 28.50909],
        [76.92577, 28.50902],
        [76.92568, 28.50897],
        [76.92557, 28.5089],
        [76.92535, 28.50876],
        [76.92501, 28.50856],
        [76.92471, 28.50836],
        [76.92449, 28.50824],
        [76.92413, 28.50802],
        [76.92383, 28.50785],
        [76.92337, 28.50766],
        [76.92307, 28.50752],
        [76.92285, 28.50744],
        [76.92241, 28.5073],
        [76.92197, 28.50718],
        [76.92188, 28.50716],
        [76.92169, 28.50709],
        [76.92147, 28.50703],
        [76.92134, 28.50701],
        [76.92127, 28.50699],
        [76.92121, 28.50698],
        [76.92115, 28.50697],
        [76.92106, 28.50695],
        [76.921, 28.50694],
        [76.92089, 28.50692],
        [76.92079, 28.50689],
        [76.92076, 28.50689],
        [76.92075, 28.50689],
        [76.92075, 28.5069],
        [76.92075, 28.50691],
        [76.92073, 28.50697],
        [76.92071, 28.50701],
        [76.9207, 28.50702],
        [76.92065, 28.5071],
        [76.92062, 28.50714],
        [76.92046, 28.50734],
        [76.92037, 28.50743],
        [76.92032, 28.5075],
        [76.92031, 28.50754],
        [76.92026, 28.50759],
        [76.92018, 28.50766],
        [76.9201, 28.50771],
        [76.92, 28.50777],
        [76.91995, 28.50782],
        [76.91991, 28.50789],
        [76.91979, 28.50809],
        [76.91965, 28.5083],
        [76.91957, 28.50841],
        [76.91947, 28.50854],
        [76.91937, 28.50862],
        [76.9193, 28.50869],
        [76.91919, 28.50876],
        [76.91905, 28.50886],
        [76.91888, 28.50898],
        [76.91863, 28.50916],
        [76.91849, 28.50926],
        [76.91823, 28.50946],
        [76.91789, 28.50969],
        [76.91743, 28.51002],
        [76.91715, 28.51021],
        [76.91697, 28.51032],
        [76.91675, 28.51047],
        [76.91662, 28.51054],
        [76.91649, 28.5106],
        [76.91617, 28.51075],
        [76.91594, 28.51085],
        [76.91566, 28.51098],
        [76.91558, 28.51103],
        [76.91546, 28.5111],
        [76.91512, 28.51125],
        [76.91492, 28.51133],
        [76.9147, 28.5114],
        [76.91444, 28.51148],
        [76.91424, 28.51156],
        [76.91409, 28.51162],
        [76.91393, 28.51167],
        [76.91386, 28.51168],
        [76.91376, 28.51173],
        [76.91365, 28.51179],
        [76.91352, 28.51183],
        [76.91331, 28.51189],
        [76.91328, 28.51191],
        [76.91307, 28.51197],
        [76.91295, 28.51201],
        [76.91295, 28.51201],
        [76.91272, 28.5121],
        [76.9123, 28.51222],
        [76.91228, 28.51222],
        [76.91228, 28.51222],
        [76.91227, 28.51223],
        [76.91225, 28.51227],
        [76.91216, 28.51231],
        [76.91211, 28.51232],
        [76.91199, 28.51232],
        [76.91199, 28.51232],
        [76.91199, 28.51232],
        [76.91193, 28.51232],
        [76.91186, 28.5123],
        [76.91174, 28.51227],
        [76.91159, 28.51225],
        [76.91146, 28.51224],
        [76.91131, 28.51224],
        [76.91115, 28.51222],
        [76.91111, 28.5122],
        [76.91104, 28.5122],
        [76.91098, 28.51219],
        [76.91098, 28.51219],
        [76.91092, 28.51219],
        [76.91091, 28.51219],
        [76.91087, 28.51218],
        [76.9108, 28.51216],
        [76.9108, 28.51216],
        [76.9107, 28.51217],
        [76.9107, 28.51217],
        [76.91067, 28.51216],
        [76.91064, 28.51216],
        [76.91061, 28.51215],
        [76.9104, 28.51214],
        [76.91016, 28.51213],
        [76.91016, 28.51213],
        [76.91007, 28.51217],
        [76.90963, 28.51242],
        [76.90939, 28.51254],
        [76.90932, 28.51258],
        [76.90911, 28.5127],
        [76.90885, 28.51284],
        [76.90862, 28.51297],
        [76.90837, 28.5131],
        [76.90806, 28.51328],
        [76.90791, 28.51338],
        [76.90787, 28.51338],
        [76.90787, 28.51338],
        [76.90767, 28.51327],
        [76.90744, 28.51314],
        [76.90725, 28.51304],
        [76.9072, 28.51302],
        [76.90705, 28.51294],
        [76.90688, 28.51282],
        [76.90662, 28.51265],
        [76.90645, 28.51254],
        [76.90633, 28.51244],
        [76.90604, 28.5122],
        [76.90591, 28.51207],
        [76.90578, 28.51197],
        [76.9056, 28.51176],
        [76.90549, 28.51166],
        [76.90526, 28.51141],
        [76.90504, 28.51117],
        [76.90485, 28.51095],
        [76.90474, 28.51083],
        [76.90456, 28.51064],
        [76.90441, 28.5105],
        [76.90421, 28.51034],
        [76.90405, 28.5102],
        [76.9039, 28.51003],
        [76.90379, 28.5099],
        [76.90371, 28.5098],
        [76.90352, 28.50963],
        [76.90327, 28.50946],
        [76.903, 28.50923],
        [76.90284, 28.5091],
        [76.90274, 28.50903],
        [76.90267, 28.50901],
        [76.90265, 28.509],
        [76.90265, 28.509],
        [76.90235, 28.50915],
        [76.90223, 28.50921],
        [76.90207, 28.5093],
        [76.90181, 28.50937],
        [76.90147, 28.50946],
        [76.90134, 28.50949],
        [76.90093, 28.50954],
        [76.90014, 28.50966],
        [76.89995, 28.50968],
        [76.89994, 28.50968],
        [76.89971, 28.50954],
        [76.8995, 28.50941],
        [76.89934, 28.50934],
        [76.89918, 28.50926],
        [76.89883, 28.50912],
        [76.89856, 28.50901],
        [76.8983, 28.50889],
        [76.89821, 28.50878],
        [76.89813, 28.50869],
        [76.89811, 28.50866],
        [76.8981, 28.50865],
        [76.89808, 28.50864],
        [76.89806, 28.50863],
        [76.89801, 28.50854],
        [76.89772, 28.50809],
        [76.89763, 28.50794],
        [76.89762, 28.50791],
        [76.89761, 28.50789],
        [76.89757, 28.50786],
        [76.89751, 28.50778],
        [76.8974, 28.5077],
        [76.8974, 28.5077],
        [76.89721, 28.50755],
        [76.8971, 28.5074],
        [76.89679, 28.50698],
        [76.89677, 28.50695],
        [76.89673, 28.50689],
        [76.89667, 28.5068],
        [76.89665, 28.50677],
        [76.89637, 28.50634],
        [76.89636, 28.50632],
        [76.89607, 28.50589],
        [76.89596, 28.50569],
        [76.89596, 28.50568],
        [76.89596, 28.50568],
        [76.89595, 28.50567],
        [76.8959, 28.50563],
        [76.89589, 28.50563],
        [76.89587, 28.5056],
        [76.89584, 28.50554],
        [76.89578, 28.50541],
        [76.89578, 28.5054],
        [76.89574, 28.50533],
        [76.89564, 28.50519],
        [76.8955, 28.505],
        [76.89538, 28.50484],
        [76.89524, 28.50466],
        [76.89521, 28.50462],
        [76.8952, 28.50461],
        [76.89507, 28.50446],
        [76.89499, 28.50436],
        [76.89492, 28.50427],
        [76.89487, 28.5042],
        [76.89476, 28.504],
        [76.89472, 28.50393],
        [76.8946, 28.50376],
        [76.89448, 28.50363],
        [76.89447, 28.50363],
        [76.8944, 28.50353],
        [76.89437, 28.50349],
        [76.8943, 28.50339],
        [76.89426, 28.50334],
        [76.89421, 28.50329],
        [76.89413, 28.50323],
        [76.89408, 28.50317],
        [76.89404, 28.50313],
        [76.89399, 28.50307],
        [76.8939, 28.50294],
        [76.89383, 28.50283],
        [76.89367, 28.50259],
        [76.89354, 28.50237],
        [76.89341, 28.50215],
        [76.89337, 28.50209],
        [76.8932, 28.50188],
        [76.893, 28.50156],
        [76.89297, 28.50151],
        [76.8929, 28.50139],
        [76.89289, 28.50138],
        [76.89289, 28.50138],
        [76.89283, 28.50125],
        [76.89277, 28.50115],
        [76.89275, 28.50113],
        [76.89274, 28.50111],
        [76.89274, 28.50111],
        [76.89273, 28.5011],
        [76.89269, 28.50108],
        [76.89267, 28.50106],
        [76.89253, 28.50098],
        [76.89251, 28.50097],
        [76.89237, 28.50089],
        [76.89226, 28.50084],
        [76.89219, 28.50081],
        [76.89214, 28.50079],
        [76.89207, 28.50078],
        [76.89195, 28.50077],
        [76.89191, 28.50077],
        [76.89182, 28.50077],
        [76.89167, 28.50078],
        [76.89164, 28.50078],
        [76.89151, 28.50078],
        [76.89134, 28.50079],
        [76.8913, 28.5008],
        [76.89128, 28.5008],
        [76.89121, 28.5008],
        [76.89117, 28.5008],
        [76.89114, 28.50081],
        [76.89106, 28.50081],
        [76.89095, 28.50083],
        [76.89091, 28.50083],
        [76.89075, 28.50085],
        [76.89074, 28.50086],
        [76.89062, 28.50087],
        [76.89046, 28.50088],
        [76.89019, 28.50092],
        [76.89, 28.50093],
        [76.89, 28.50093],
        [76.88968, 28.50097],
        [76.88886, 28.50108],
        [76.88851, 28.5011],
        [76.88826, 28.50113],
        [76.88769, 28.50116],
        [76.88752, 28.50118],
        [76.88752, 28.50118],
        [76.88741, 28.50117],
        [76.88741, 28.50117],
        [76.88733, 28.50117],
        [76.88733, 28.50117],
        [76.88701, 28.50118],
        [76.887, 28.50118],
        [76.88673, 28.50119],
        [76.88649, 28.5012],
        [76.8863, 28.50121],
        [76.8859, 28.50123],
        [76.8859, 28.50123],
        [76.8855, 28.50123],
        [76.8855, 28.50123],
        [76.88549, 28.50123],
        [76.88549, 28.50123],
        [76.88549, 28.50123],
        [76.88548, 28.50124],
        [76.88548, 28.50126],
        [76.88548, 28.50126],
        [76.8855, 28.5013],
        [76.88552, 28.50134],
        [76.88599, 28.50239],
        [76.886, 28.50243],
        [76.88599, 28.50245],
        [76.88598, 28.50246],
        [76.88596, 28.50247],
        [76.88587, 28.50249],
        [76.88573, 28.50255],
        [76.88539, 28.50271],
        [76.88528, 28.50276],
        [76.88515, 28.50281],
        [76.88505, 28.50283],
        [76.88499, 28.50283],
        [76.88499, 28.50283],
        [76.88481, 28.50288],
        [76.88466, 28.50292],
        [76.88451, 28.50295],
        [76.88442, 28.50298],
        [76.88436, 28.50301],
        [76.88428, 28.50304],
        [76.88418, 28.50309],
        [76.88407, 28.50315],
        [76.88394, 28.50322],
        [76.88369, 28.50338],
        [76.88349, 28.5035],
        [76.88338, 28.50356],
        [76.88325, 28.50363],
        [76.88324, 28.50364],
        [76.88311, 28.50373],
        [76.88282, 28.50392],
        [76.88253, 28.50412],
        [76.88217, 28.5044],
        [76.88192, 28.50458],
        [76.8819, 28.50459],
        [76.8819, 28.50459],
        [76.88189, 28.50459],
        [76.88167, 28.5045],
        [76.88167, 28.5045],
        [76.88165, 28.5045],
        [76.88164, 28.5045],
        [76.88163, 28.50452],
        [76.88157, 28.50459],
        [76.88143, 28.5047],
        [76.88107, 28.50505],
        [76.88067, 28.50544],
        [76.88058, 28.50556],
        [76.88056, 28.5056],
        [76.88056, 28.50568],
        [76.88057, 28.50584],
        [76.88061, 28.50604],
        [76.88068, 28.50626],
        [76.88076, 28.50645],
        [76.88085, 28.50665],
        [76.88091, 28.50694],
        [76.88104, 28.50749],
        [76.88104, 28.50778],
        [76.88111, 28.508],
        [76.88116, 28.50826],
        [76.8812, 28.50843],
        [76.8813, 28.50874],
        [76.88132, 28.50884],
        [76.88136, 28.50892],
        [76.88141, 28.50908],
        [76.88146, 28.50928],
        [76.88151, 28.50941],
        [76.88156, 28.50956],
        [76.88164, 28.50972],
        [76.88174, 28.50986],
        [76.88184, 28.51007],
        [76.88202, 28.51039],
        [76.88238, 28.51097],
        [76.8826, 28.5113],
        [76.88294, 28.51182],
        [76.88312, 28.51209],
        [76.88333, 28.51242],
        [76.88346, 28.51268],
        [76.88356, 28.5129],
        [76.88381, 28.51337],
        [76.88397, 28.51366],
        [76.88409, 28.51391],
        [76.8841, 28.51394],
        [76.88419, 28.51409],
        [76.88437, 28.51454],
        [76.88457, 28.51503],
        [76.88464, 28.51516],
        [76.88467, 28.51521],
        [76.88479, 28.5156],
        [76.88489, 28.51592],
        [76.88492, 28.51606],
        [76.88497, 28.51624],
        [76.88502, 28.51634],
        [76.88519, 28.5166],
        [76.8853, 28.51675],
        [76.88535, 28.51685],
        [76.88536, 28.51689],
        [76.88536, 28.51692],
        [76.88535, 28.51693],
        [76.88534, 28.51694],
        [76.88534, 28.51695],
        [76.88533, 28.51695],
        [76.88532, 28.51697],
        [76.88531, 28.51698],
        [76.88531, 28.51698],
        [76.88531, 28.517],
        [76.88535, 28.51707],
        [76.88547, 28.51724],
        [76.88576, 28.5177],
        [76.88615, 28.51828],
        [76.88664, 28.51909],
        [76.88691, 28.51953],
        [76.88696, 28.51962],
        [76.88696, 28.51962],
        [76.88704, 28.51976],
        [76.88704, 28.51977],
        [76.88707, 28.51984],
        [76.88708, 28.51988],
        [76.88712, 28.51999],
        [76.88716, 28.52012],
        [76.88718, 28.52019],
        [76.88718, 28.52024],
        [76.88715, 28.52029],
        [76.88712, 28.52033],
        [76.88706, 28.52038],
        [76.88677, 28.52052],
        [76.88644, 28.52067],
        [76.88626, 28.52073],
        [76.88605, 28.52081],
        [76.88581, 28.52085],
        [76.88565, 28.5209],
        [76.88542, 28.52095],
        [76.88528, 28.52099],
        [76.88516, 28.521],
        [76.88504, 28.52104],
        [76.88493, 28.52108],
        [76.88463, 28.52121],
        [76.88437, 28.52134],
        [76.884, 28.52151],
        [76.88372, 28.52163],
        [76.88348, 28.52172],
        [76.88324, 28.52183],
        [76.88302, 28.52191],
        [76.88288, 28.52198],
        [76.88264, 28.52208],
        [76.88252, 28.52214],
        [76.88245, 28.52216],
        [76.88238, 28.52219],
        [76.88229, 28.52222],
        [76.88206, 28.52234],
        [76.8817, 28.52255],
        [76.88148, 28.52266],
        [76.88124, 28.52277],
        [76.88097, 28.52289],
        [76.88077, 28.523],
        [76.88038, 28.52322],
        [76.88025, 28.52333],
        [76.88012, 28.5234],
        [76.87995, 28.52351],
        [76.87981, 28.52358],
        [76.8795, 28.52374],
        [76.87846, 28.52419],
        [76.87838, 28.52423],
        [76.87826, 28.52428],
        [76.87822, 28.52431],
        [76.87814, 28.52434],
        [76.87803, 28.5244],
        [76.87795, 28.52444],
        [76.87787, 28.52448],
        [76.87762, 28.52459],
        [76.87748, 28.52465],
        [76.87737, 28.5247],
        [76.8773, 28.52472],
        [76.87729, 28.52472],
        [76.87728, 28.52473],
        [76.87721, 28.52477],
        [76.87721, 28.52477],
        [76.87716, 28.5248],
        [76.87715, 28.52481],
        [76.87702, 28.52494],
        [76.87701, 28.52495],
        [76.87701, 28.52495],
        [76.87701, 28.52495],
        [76.87697, 28.52498],
        [76.87696, 28.52499],
        [76.87682, 28.52515],
        [76.87671, 28.52529],
        [76.87671, 28.5253],
        [76.87669, 28.52533],
        [76.87665, 28.5254],
        [76.87661, 28.52545],
        [76.87657, 28.52552],
        [76.87654, 28.52556],
        [76.87653, 28.52557],
        [76.87651, 28.52561],
        [76.8764, 28.52575],
        [76.87635, 28.52583],
        [76.87626, 28.52599],
        [76.87619, 28.52612],
        [76.87618, 28.52617],
        [76.87615, 28.5262],
        [76.87606, 28.52632],
        [76.87596, 28.52642],
        [76.87589, 28.52653],
        [76.87577, 28.52666],
        [76.87549, 28.52698],
        [76.87537, 28.52711],
        [76.87519, 28.52732],
        [76.8749, 28.52771],
        [76.87475, 28.52798],
        [76.87461, 28.5282],
        [76.87453, 28.5283],
        [76.87446, 28.5284],
        [76.87436, 28.52854],
        [76.87433, 28.5286],
        [76.87431, 28.52865],
        [76.87428, 28.52875],
        [76.87424, 28.52893],
        [76.87421, 28.52899],
        [76.87418, 28.52903],
        [76.87415, 28.52906],
        [76.87413, 28.52907],
        [76.8741, 28.52908],
        [76.87406, 28.52908],
        [76.874, 28.52908],
        [76.87394, 28.52909],
        [76.87391, 28.52911],
        [76.87385, 28.52917],
        [76.87379, 28.52925],
        [76.87372, 28.52931],
        [76.87367, 28.52939],
        [76.87363, 28.52944],
        [76.8736, 28.52949],
        [76.87359, 28.52952],
        [76.8736, 28.52958],
        [76.87358, 28.52964],
        [76.87357, 28.52968],
        [76.87355, 28.52971],
        [76.8735, 28.52976],
        [76.87347, 28.52979],
        [76.87345, 28.52982],
        [76.87342, 28.52988],
        [76.8734, 28.52993],
        [76.8734, 28.52998],
        [76.8734, 28.53001],
        [76.87341, 28.53005],
        [76.87345, 28.53014],
        [76.8735, 28.53025],
        [76.87362, 28.53054],
        [76.87448, 28.53059],
        [76.87498, 28.53053],
        [76.87494, 28.5313],
        [76.87509, 28.53161],
        [76.87469, 28.53191],
        [76.87467, 28.5324],
        [76.8747, 28.53287],
        [76.87478, 28.53312],
        [76.87484, 28.5334],
        [76.87485, 28.53377],
        [76.8749, 28.53404],
        [76.87501, 28.5342],
        [76.87512, 28.53432],
        [76.87528, 28.53435],
        [76.87547, 28.53431],
        [76.87579, 28.53466],
        [76.87621, 28.53543],
        [76.87632, 28.53553],
        [76.8764, 28.53577],
        [76.87628, 28.53792],
        [76.88009, 28.53952],
        [76.88059, 28.53932],
        [76.88284, 28.5379],
        [76.88286, 28.54051],
        [76.88459, 28.54055],
        [76.88466, 28.54181],
        [76.88413, 28.54201],
        [76.88441, 28.54256],
        [76.88479, 28.54225],
        [76.8857, 28.54362],
        [76.88598, 28.54353],
        [76.88604, 28.5454],
        [76.88605, 28.54642],
        [76.8861, 28.54763],
        [76.89085, 28.54755],
        [76.89088, 28.54793],
        [76.89228, 28.54791],
        [76.89229, 28.54812],
        [76.89231, 28.54916],
        [76.89297, 28.54922],
        [76.89313, 28.54921],
        [76.8937, 28.54924],
        [76.894, 28.54909],
        [76.89411, 28.54904],
        [76.89463, 28.54882],
        [76.89513, 28.54858],
        [76.89554, 28.54838],
        [76.89624, 28.54816],
        [76.8967, 28.54802],
        [76.89697, 28.54796],
        [76.89719, 28.5479],
        [76.8973, 28.54784],
        [76.89747, 28.54786],
        [76.89813, 28.54759],
        [76.89871, 28.54735],
        [76.89904, 28.54738],
        [76.89921, 28.54752],
        [76.89981, 28.54766],
        [76.90023, 28.54773],
        [76.90119, 28.54757],
        [76.90192, 28.54734],
        [76.90189, 28.54768],
        [76.90189, 28.54809],
        [76.90191, 28.54834],
        [76.90194, 28.54855],
        [76.90322, 28.54857],
        [76.90325, 28.54907],
        [76.90325, 28.54974],
        [76.90325, 28.5502],
        [76.90326, 28.55069],
        [76.9041, 28.55071],
        [76.90468, 28.55071],
        [76.90469, 28.55237],
        [76.90472, 28.55401],
        [76.90473, 28.55563],
        [76.90333, 28.55562],
        [76.90269, 28.55562],
        [76.90268, 28.5581],
        [76.90692, 28.55803],
        [76.90745, 28.55802],
        [76.91635, 28.55611],
        [76.91843, 28.55573],
        [76.91842, 28.55653],
        [76.91973, 28.55627],
        [76.92123, 28.55597],
        [76.92248, 28.55552],
        [76.92285, 28.55611],
        [76.9233, 28.55737],
        [76.92353, 28.55784],
        [76.92372, 28.55815],
        [76.92428, 28.55873],
        [76.92479, 28.5594],
        [76.92623, 28.56094],
        [76.9269, 28.56188],
        [76.92796, 28.56299],
        [76.92919, 28.56396],
        [76.92987, 28.56447],
        [76.93023, 28.56504],
        [76.93305, 28.56505],
        [76.93723, 28.565],
        [76.93753, 28.56557],
        [76.94293, 28.56549],
        [76.94508, 28.56552],
        [76.94641, 28.56702],
        [76.94537, 28.56837],
        [76.94605, 28.56901],
        [76.94648, 28.56966],
        [76.94665, 28.57032],
        [76.94662, 28.57071],
        [76.9464, 28.57091],
        [76.9461, 28.57111],
        [76.94612, 28.57137],
        [76.94653, 28.5724],
        [76.94673, 28.57334],
        [76.94675, 28.57361],
        [76.94335, 28.57366],
        [76.94337, 28.57582],
        [76.9427, 28.57582],
        [76.94274, 28.57528],
        [76.93779, 28.57533],
        [76.93828, 28.57672],
        [76.93897, 28.57917],
        [76.93724, 28.57921],
        [76.9374, 28.58081],
        [76.93462, 28.58087],
        [76.93469, 28.58517],
        [76.93587, 28.58514],
        [76.93603, 28.58613],
        [76.93666, 28.5861],
        [76.93668, 28.58619],
        [76.93669, 28.58673],
        [76.93739, 28.58675],
        [76.93743, 28.58696],
        [76.93896, 28.58695],
        [76.93892, 28.5875],
        [76.93948, 28.58752],
        [76.93948, 28.58787],
        [76.9408, 28.58781],
        [76.94085, 28.58764],
        [76.94155, 28.58759],
        [76.94153, 28.58726],
        [76.94291, 28.58729],
        [76.9449, 28.58723],
        [76.94498, 28.58887],
        [76.94707, 28.58883],
        [76.94712, 28.59101],
        [76.94844, 28.59102],
        [76.94846, 28.59207],
        [76.94847, 28.59277],
        [76.94914, 28.59248],
        [76.94919, 28.59526],
        [76.94934, 28.59577],
        [76.95054, 28.59523],
        [76.95106, 28.595],
        [76.9533, 28.59364],
        [76.9538, 28.59303],
        [76.95497, 28.5922],
        [76.95536, 28.59216],
        [76.95532, 28.59145],
        [76.9553, 28.59091],
        [76.95662, 28.59088],
        [76.95869, 28.59088],
        [76.95873, 28.59141],
        [76.95942, 28.59139],
        [76.95938, 28.59089],
        [76.96109, 28.59082],
        [76.96188, 28.59194],
        [76.96357, 28.59133],
        [76.96354, 28.59047],
        [76.96488, 28.59039],
        [76.96487, 28.5895],
        [76.96626, 28.58945],
        [76.96603, 28.5888],
        [76.96756, 28.58846],
        [76.96757, 28.58747],
        [76.96796, 28.58745],
        [76.96894, 28.58702],
        [76.96896, 28.58651],
        [76.9695, 28.58647],
        [76.96978, 28.58697],
        [76.97064, 28.58854],
        [76.9714, 28.58939],
        [76.97253, 28.59014],
        [76.9747, 28.59099],
        [76.97649, 28.59154],
        [76.97669, 28.59159],
        [76.97858, 28.59218],
        [76.97857, 28.59219],
        [76.97856, 28.59221],
        [76.97859, 28.59234],
        [76.97897, 28.59313],
        [76.97908, 28.59336],
        [76.97946, 28.59418],
        [76.97949, 28.59425],
        [76.97968, 28.59465],
        [76.97978, 28.59489],
        [76.97983, 28.59501],
        [76.97984, 28.59501],
        [76.98135, 28.59495],
        [76.9833, 28.59494],
        [76.9834, 28.59488],
        [76.9835, 28.59478],
        [76.9835, 28.59574],
        [76.98351, 28.59603],
        [76.98391, 28.596],
        [76.98426, 28.59598],
        [76.98484, 28.59598],
        [76.98554, 28.59597],
        [76.98553, 28.59625],
        [76.98564, 28.59628],
        [76.98605, 28.59628],
        [76.98657, 28.59628],
        [76.98691, 28.59627],
        [76.98706, 28.59627],
        [76.98789, 28.59626],
        [76.98833, 28.59625],
        [76.98869, 28.59625],
        [76.98879, 28.59625],
        [76.9897, 28.59623],
        [76.99008, 28.59625],
        [76.9903, 28.59636],
        [76.99043, 28.59642],
        [76.99039, 28.59649],
        [76.9903, 28.59665],
        [76.99026, 28.59673],
        [76.99015, 28.59695],
        [76.99007, 28.59717],
        [76.99, 28.59741],
        [76.9899, 28.59764],
        [76.98973, 28.59809],
        [76.98966, 28.59824],
        [76.98948, 28.59871],
        [76.98946, 28.59876],
        [76.99024, 28.59879],
        [76.99106, 28.59878],
        [76.99225, 28.59875],
        [76.99295, 28.59873],
        [76.99367, 28.5987],
        [76.99452, 28.59867],
        [76.99452, 28.59872],
        [76.99451, 28.59888],
        [76.99451, 28.59898],
        [76.99451, 28.59951],
        [76.99451, 28.59958],
        [76.99451, 28.59974],
        [76.99448, 28.60023],
        [76.99624, 28.60019],
        [76.99756, 28.60018],
        [76.9986, 28.60017],
        [76.9987, 28.60017],
        [76.99905, 28.60015],
        [76.99936, 28.60016],
        [76.99991, 28.60017],
        [77.0003, 28.60015],
        [77.00075, 28.60013],
        [77.00091, 28.60013],
        [77.00091, 28.60012],
        [77.00093, 28.60012],
        [77.00091, 28.59977],
        [77.00135, 28.59975],
        [77.00135, 28.59997],
        [77.00236, 28.59995],
        [77.00288, 28.59993],
        [77.00288, 28.59992],
        [77.00288, 28.59969],
        [77.00294, 28.59969],
        [77.00336, 28.59969],
        [77.00337, 28.59976],
        [77.00337, 28.59999],
        [77.00337, 28.60006],
        [77.00336, 28.60013],
        [77.00339, 28.60077],
        [77.00416, 28.60076],
        [77.00581, 28.60074],
        [77.00679, 28.60074],
        [77.00786, 28.60074],
        [77.00892, 28.60072],
        [77.00898, 28.60072],
        [77.00902, 28.60081],
        [77.00936, 28.60077],
        [77.00955, 28.60072],
        [77.00963, 28.60072],
        [77.00963, 28.60069],
        [77.00963, 28.60067],
        [77.00964, 28.6006],
        [77.01021, 28.60055],
        [77.01154, 28.6005],
        [77.01198, 28.60049],
        [77.01237, 28.60053],
        [77.01342, 28.60053],
        [77.01451, 28.60063],
        [77.01435, 28.60082],
        [77.01384, 28.60146],
        [77.01266, 28.60239],
        [77.01141, 28.60338],
        [77.01072, 28.60446],
        [77.01047, 28.6052],
        [77.0104, 28.60593],
        [77.01041, 28.60602],
        [77.00986, 28.60603],
        [77.00965, 28.60604],
        [77.00908, 28.60607],
        [77.00874, 28.60613],
        [77.00836, 28.60618],
        [77.00819, 28.60619],
        [77.00804, 28.60621],
        [77.00774, 28.60623],
        [77.00746, 28.60624],
        [77.00698, 28.60625],
        [77.00668, 28.60625],
        [77.00668, 28.60625],
        [77.00588, 28.6063],
        [77.00504, 28.60632],
        [77.0044, 28.60632],
        [77.00355, 28.60635],
        [77.00317, 28.60636],
        [77.00261, 28.6064],
        [77.00202, 28.60651],
        [77.00166, 28.60658],
        [77.00144, 28.60663],
        [77.00122, 28.6067],
        [77.00122, 28.60671],
        [77.00062, 28.60687],
        [77.00023, 28.607],
        [77.00011, 28.60702],
        [76.99994, 28.60708],
        [76.99955, 28.60719],
        [76.99896, 28.60737],
        [76.99856, 28.60749],
        [76.99812, 28.60762],
        [76.99755, 28.60779],
        [76.99755, 28.60779],
        [76.99731, 28.60787],
        [76.99689, 28.60806],
        [76.99651, 28.60825],
        [76.99634, 28.60833],
        [76.99594, 28.6085],
        [76.99567, 28.6086],
        [76.99475, 28.6089],
        [76.99401, 28.60915],
        [76.99361, 28.60929],
        [76.99339, 28.60936],
        [76.99344, 28.61012],
        [76.99346, 28.61058],
        [76.99348, 28.61105],
        [76.99288, 28.61105],
        [76.99295, 28.6114],
        [76.99313, 28.61216],
        [76.99295, 28.61218],
        [76.99306, 28.61261],
        [76.99298, 28.6126]
      ]
    ]
  }
}
