{
  "type": "Feature",
  "id": "DL-AC-35",
  "properties": {
    "stateName": "DELHI",
    "stateCode": "DL",
    "districtName": "SOUTH-WEST",
    "acNo": 35,
    "acName": "NAJAFGARH",
    "seatType": null,
    "pcNo": 6,
    "pcName": "WEST DELHI",
    "quality": "unverified",
    "sources": [
      "TBD"
    ]
  },
  "geometry": {
    "type": "Polygon",
    "coordinates": [
      [
        [76.94981, 28.66967],
        [76.94988, 28.66965],
        [76.94988, 28.66965],
        [76.94992, 28.66964],
        [76.95004, 28.66963],
        [76.95012, 28.66962],
        [76.95017, 28.6696],
        [76.95026, 28.66957],
        [76.95036, 28.66953],
        [76.95042, 28.66951],
        [76.95052, 28.66948],
        [76.95061, 28.66946],
        [76.9507, 28.66944],
        [76.95075, 28.66944],
        [76.95075, 28.66944],
        [76.95082, 28.66944],
        [76.95083, 28.66944],
        [76.95091, 28.66943],
        [76.951, 28.66943],
        [76.951, 28.66943],
        [76.95111, 28.66944],
        [76.95123, 28.66946],
        [76.95137, 28.66948],
        [76.9515, 28.6695],
        [76.95164, 28.66951],
        [76.9518, 28.66951],
        [76.9518, 28.66951],
        [76.95193, 28.66951],
        [76.95205, 28.6695],
        [76.95219, 28.66949],
        [76.95231, 28.66949],
        [76.95231, 28.66949],
        [76.95242, 28.66949],
        [76.95242, 28.66949],
        [76.95244, 28.66946],
        [76.95245, 28.66945],
        [76.95247, 28.66944],
        [76.95251, 28.66944],
        [76.95257, 28.66943],
        [76.9526, 28.66943],
        [76.95268, 28.6694],
        [76.95279, 28.66935],
        [76.95301, 28.66926],
        [76.95325, 28.66916],
        [76.95336, 28.66912],
        [76.95343, 28.6691],
        [76.95354, 28.66905],
        [76.95363, 28.66902],
        [76.95369, 28.66899],
        [76.95365, 28.66873],
        [76.95362, 28.66836],
        [76.9536, 28.66819],
        [76.95355, 28.668],
        [76.95352, 28.66784],
        [76.95347, 28.66774],
        [76.95341, 28.66766],
        [76.95338, 28.66761],
        [76.95336, 28.6675],
        [76.95336, 28.66743],
        [76.95341, 28.66736],
        [76.95352, 28.66728],
        [76.95352, 28.66728],
        [76.95353, 28.66728],
        [76.95354, 28.66726],
        [76.95375, 28.66715],
        [76.95389, 28.66706],
        [76.9541, 28.66694],
        [76.95435, 28.66676],
        [76.95646, 28.66557],
        [76.95801, 28.6648],
        [76.96288, 28.66143],
        [76.96325, 28.66115],
        [76.96342, 28.65991],
        [76.96408, 28.65956],
        [76.96442, 28.65938],
        [76.9648, 28.65916],
        [76.96515, 28.65896],
        [76.96535, 28.65884],
        [76.96549, 28.6588],
        [76.96585, 28.65868],
        [76.96606, 28.65864],
        [76.96636, 28.65857],
        [76.96651, 28.65853],
        [76.96675, 28.65846],
        [76.96699, 28.65841],
        [76.96738, 28.65833],
        [76.96755, 28.65829],
        [76.96776, 28.65822],
        [76.96815, 28.65812],
        [76.96859, 28.65799],
        [76.96886, 28.65792],
        [76.96913, 28.65784],
        [76.96927, 28.6578],
        [76.96943, 28.65779],
        [76.96966, 28.65778],
        [76.96993, 28.65776],
        [76.97013, 28.65775],
        [76.9703, 28.65772],
        [76.97045, 28.6577],
        [76.97062, 28.65765],
        [76.97084, 28.65758],
        [76.97106, 28.65752],
        [76.97126, 28.65746],
        [76.97144, 28.65742],
        [76.97162, 28.65739],
        [76.9718, 28.65734],
        [76.97205, 28.65729],
        [76.97229, 28.65719],
        [76.97248, 28.65711],
        [76.97273, 28.65702],
        [76.97292, 28.65692],
        [76.9732, 28.65686],
        [76.97346, 28.65681],
        [76.97371, 28.65677],
        [76.97393, 28.65677],
        [76.97418, 28.65678],
        [76.97443, 28.6568],
        [76.97474, 28.65682],
        [76.97501, 28.65683],
        [76.97521, 28.65683],
        [76.97559, 28.6568],
        [76.97568, 28.65679],
        [76.97574, 28.65686],
        [76.97575, 28.65691],
        [76.97578, 28.65696],
        [76.97583, 28.65697],
        [76.97591, 28.65697],
        [76.97596, 28.65719],
        [76.97706, 28.65712],
        [76.97752, 28.65694],
        [76.97819, 28.65639],
        [76.9786, 28.65578],
        [76.97907, 28.65487],
        [76.97939, 28.65445],
        [76.97997, 28.65397],
        [76.98194, 28.65205],
        [76.98302, 28.65127],
        [76.98388, 28.65065],
        [76.98434, 28.65003],
        [76.98475, 28.64937],
        [76.99054, 28.64924],
        [76.99053, 28.64844],
        [76.99055, 28.64722],
        [76.99049, 28.64683],
        [76.99042, 28.64657],
        [76.99127, 28.64721],
        [76.99239, 28.64804],
        [76.99246, 28.64976],
        [76.99464, 28.64969],
        [76.99683, 28.65134],
        [76.99815, 28.6503],
        [76.9995, 28.6496],
        [77.00212, 28.65144],
        [77.00364, 28.65257],
        [77.00435, 28.65296],
        [77.00842, 28.65151],
        [77.00832, 28.64537],
        [77.00827, 28.64294],
        [77.00825, 28.64249],
        [77.00758, 28.64249],
        [77.00691, 28.64251],
        [77.00683, 28.63983],
        [77.00769, 28.63982],
        [77.00771, 28.63964],
        [77.00775, 28.63957],
        [77.00809, 28.63957],
        [77.00825, 28.63872],
        [77.0083, 28.63868],
        [77.00993, 28.6398],
        [77.01164, 28.63978],
        [77.01155, 28.63625],
        [77.01146, 28.63194],
        [77.01143, 28.6294],
        [77.01141, 28.62831],
        [77.01273, 28.62829],
        [77.01436, 28.62828],
        [77.01519, 28.62826],
        [77.01523, 28.62716],
        [77.0153, 28.62654],
        [77.01462, 28.62612],
        [77.01262, 28.6255],
        [77.01076, 28.62529],
        [77.00739, 28.62442],
        [77.00656, 28.6243],
        [77.00532, 28.62463],
        [77.00435, 28.62506],
        [77.00377, 28.62541],
        [77.00308, 28.62588],
        [77.00267, 28.62618],
        [77.00199, 28.62682],
        [77.00178, 28.62706],
        [77.0016, 28.62726],
        [77.00142, 28.62752],
        [77.00129, 28.62785],
        [77.00109, 28.62836],
        [77.0008, 28.62906],
        [77.00048, 28.6297],
        [77.00023, 28.63017],
        [77.00015, 28.63034],
        [77.00001, 28.63064],
        [76.99995, 28.63086],
        [76.99991, 28.63107],
        [76.9999, 28.63108],
        [76.99967, 28.63087],
        [76.99937, 28.63059],
        [76.99912, 28.63036],
        [76.99888, 28.63015],
        [76.99858, 28.62989],
        [76.99842, 28.62976],
        [76.99811, 28.62949],
        [76.99793, 28.62933],
        [76.99779, 28.62922],
        [76.99768, 28.62914],
        [76.99752, 28.629],
        [76.99729, 28.62885],
        [76.99702, 28.62866],
        [76.99669, 28.62843],
        [76.99618, 28.62809],
        [76.99602, 28.62798],
        [76.99576, 28.62782],
        [76.99554, 28.62768],
        [76.99531, 28.62754],
        [76.99507, 28.62738],
        [76.99488, 28.62725],
        [76.9946, 28.62705],
        [76.99411, 28.62668],
        [76.99387, 28.6265],
        [76.99351, 28.62619],
        [76.99331, 28.62604],
        [76.99268, 28.62554],
        [76.99254, 28.62541],
        [76.99253, 28.6254],
        [76.99055, 28.62375],
        [76.98941, 28.62287],
        [76.99027, 28.62213],
        [76.99334, 28.6203],
        [76.99331, 28.61908],
        [76.99352, 28.61903],
        [76.99643, 28.61903],
        [76.999, 28.61829],
        [76.99901, 28.618],
        [76.99956, 28.61782],
        [76.9995, 28.6136],
        [76.99865, 28.61361],
        [76.99637, 28.61313],
        [76.99546, 28.61279],
        [76.99309, 28.61264],
        [76.99298, 28.6126],
        [76.99306, 28.61261],
        [76.99295, 28.61218],
        [76.99313, 28.61216],
        [76.99295, 28.6114],
        [76.99288, 28.61105],
        [76.99348, 28.61105],
        [76.99346, 28.61058],
        [76.99344, 28.61012],
        [76.99339, 28.60936],
        [76.99361, 28.60929],
        [76.99401, 28.60915],
        [76.99475, 28.6089],
        [76.99567, 28.6086],
        [76.99594, 28.6085],
        [76.99634, 28.60833],
        [76.99651, 28.60825],
        [76.99689, 28.60806],
        [76.99731, 28.60787],
        [76.99755, 28.60779],
        [76.99755, 28.60779],
        [76.99812, 28.60762],
        [76.99856, 28.60749],
        [76.99896, 28.60737],
        [76.99955, 28.60719],
        [76.99994, 28.60708],
        [77.00011, 28.60702],
        [77.00023, 28.607],
        [77.00062, 28.60687],
        [77.00122, 28.60671],
        [77.00122, 28.6067],
        [77.00144, 28.60663],
        [77.00166, 28.60658],
        [77.00202, 28.60651],
        [77.00261, 28.6064],
        [77.00317, 28.60636],
        [77.00355, 28.60635],
        [77.0044, 28.60632],
        [77.00504, 28.60632],
        [77.00588, 28.6063],
        [77.00668, 28.60625],
        [77.00668, 28.60625],
        [77.00698, 28.60625],
        [77.00746, 28.60624],
        [77.00774, 28.60623],
        [77.00804, 28.60621],
        [77.00819, 28.60619],
        [77.00836, 28.60618],
        [77.00874, 28.60613],
        [77.00908, 28.60607],
        [77.00965, 28.60604],
        [77.00986, 28.60603],
        [77.01041, 28.60602],
        [77.0104, 28.60593],
        [77.01047, 28.6052],
        [77.01072, 28.60446],
        [77.01141, 28.60338],
        [77.01266, 28.60239],
        [77.01384, 28.60146],
        [77.01435, 28.60082],
        [77.01451, 28.60063],
        [77.01342, 28.60053],
        [77.01237, 28.60053],
        [77.01198, 28.60049],
        [77.01154, 28.6005],
        [77.01021, 28.60055],
        [77.00964, 28.6006],
        [77.00963, 28.60067],
        [77.00963, 28.60069],
        [77.00963, 28.60072],
        [77.00955, 28.60072],
        [77.00936, 28.60077],
        [77.00902, 28.60081],
        [77.00898, 28.60072],
        [77.00892, 28.60072],
        [77.00786, 28.60074],
        [77.00679, 28.60074],
        [77.00581, 28.60074],
        [77.00416, 28.60076],
        [77.00339, 28.60077],
        [77.00336, 28.60013],
        [77.00337, 28.60006],
        [77.00337, 28.59999],
        [77.00337, 28.59976],
        [77.00336, 28.59969],
        [77.00294, 28.59969],
        [77.00288, 28.59969],
        [77.00288, 28.59992],
        [77.00288, 28.59993],
        [77.00236, 28.59995],
        [77.00135, 28.59997],
        [77.00135, 28.59975],
        [77.00091, 28.59977],
        [77.00093, 28.60012],
        [77.00091, 28.60012],
        [77.00091, 28.60013],
        [77.00075, 28.60013],
        [77.0003, 28.60015],
        [76.99991, 28.60017],
        [76.99936, 28.60016],
        [76.99905, 28.60015],
        [76.9987, 28.60017],
        [76.9986, 28.60017],
        [76.99756, 28.60018],
        [76.99624, 28.60019],
        [76.99448, 28.60023],
        [76.99451, 28.59974],
        [76.99451, 28.59958],
        [76.99451, 28.59951],
        [76.99451, 28.59898],
        [76.99451, 28.59888],
        [76.99452, 28.59872],
        [76.99452, 28.59867],
        [76.99367, 28.5987],
        [76.99295, 28.59873],
        [76.99225, 28.59875],
        [76.99106, 28.59878],
        [76.99024, 28.59879],
        [76.98946, 28.59876],
        [76.98948, 28.59871],
        [76.98966, 28.59824],
        [76.98973, 28.59809],
        [76.9899, 28.59764],
        [76.99, 28.59741],
        [76.99007, 28.59717],
        [76.99015, 28.59695],
        [76.99026, 28.59673],
        [76.9903, 28.59665],
        [76.99039, 28.59649],
        [76.99043, 28.59642],
        [76.9903, 28.59636],
        [76.99008, 28.59625],
        [76.9897, 28.59623],
        [76.98879, 28.59625],
        [76.98869, 28.59625],
        [76.98833, 28.59625],
        [76.98789, 28.59626],
        [76.98706, 28.59627],
        [76.98691, 28.59627],
        [76.98657, 28.59628],
        [76.98605, 28.59628],
        [76.98564, 28.59628],
        [76.98553, 28.59625],
        [76.98554, 28.59597],
        [76.98484, 28.59598],
        [76.98426, 28.59598],
        [76.98391, 28.596],
        [76.98351, 28.59603],
        [76.9835, 28.59574],
        [76.9835, 28.59478],
        [76.9834, 28.59488],
        [76.9833, 28.59494],
        [76.98135, 28.59495],
        [76.97984, 28.59501],
        [76.97983, 28.59501],
        [76.97978, 28.59489],
        [76.97968, 28.59465],
        [76.97949, 28.59425],
        [76.97946, 28.59418],
        [76.97908, 28.59336],
        [76.97897, 28.59313],
        [76.97859, 28.59234],
        [76.97856, 28.59221],
        [76.97857, 28.59219],
        [76.97858, 28.59218],
        [76.97669, 28.59159],
        [76.97649, 28.59154],
        [76.9747, 28.59099],
        [76.97253, 28.59014],
        [76.9714, 28.58939],
        [76.97064, 28.58854],
        [76.96978, 28.58697],
        [76.9695, 28.58647],
        [76.96896, 28.58651],
        [76.96894, 28.58702],
        [76.96796, 28.58745],
        [76.96757, 28.58747],
        [76.96756, 28.58846],
        [76.96603, 28.5888],
        [76.96626, 28.58945],
        [76.96487, 28.5895],
        [76.96488, 28.59039],
        [76.96354, 28.59047],
        [76.96357, 28.59133],
        [76.96188, 28.59194],
        [76.96109, 28.59082],
        [76.95938, 28.59089],
        [76.95942, 28.59139],
        [76.95873, 28.59141],
        [76.95869, 28.59088],
        [76.95662, 28.59088],
        [76.9553, 28.59091],
        [76.95532, 28.59145],
        [76.95536, 28.59216],
        [76.95497, 28.5922],
        [76.9538, 28.59303],
        [76.9533, 28.59364],
        [76.95106, 28.595],
        [76.95054, 28.59523],
        [76.94934, 28.59577],
        [76.94919, 28.59526],
        [76.94914, 28.59248],
        [76.94847, 28.59277],
        [76.94846, 28.59207],
        [76.94844, 28.59102],
        [76.94712, 28.59101],
        [76.94707, 28.58883],
        [76.94498, 28.58887],
        [76.9449, 28.58723],
        [76.94291, 28.58729],
        [76.94153, 28.58726],
        [76.94155, 28.58759],
        [76.94085, 28.58764],
        [76.9408, 28.58781],
        [76.93948, 28.58787],
        [76.93948, 28.58752],
        [76.93892, 28.5875],
        [76.93896, 28.58695],
        [76.93743, 28.58696],
        [76.93739, 28.58675],
        [76.93669, 28.58673],
        [76.93668, 28.58619],
        [76.93666, 28.5861],
        [76.93603, 28.58613],
        [76.93587, 28.58514],
        [76.93469, 28.58517],
        [76.93462, 28.58087],
        [76.9374, 28.58081],
        [76.93724, 28.57921],
        [76.93897, 28.57917],
        [76.93828, 28.57672],
        [76.93779, 28.57533],
        [76.94274, 28.57528],
        [76.9427, 28.57582],
        [76.94337, 28.57582],
        [76.94335, 28.57366],
        [76.94675, 28.57361],
        [76.94673, 28.57334],
        [76.94653, 28.5724],
        [76.94612, 28.57137],
        [76.9461, 28.57111],
        [76.9464, 28.57091],
        [76.94662, 28.57071],
        [76.94665, 28.57032],
        [76.94648, 28.56966],
        [76.94605, 28.56901],
        [76.94537, 28.56837],
        [76.94641, 28.56702],
        [76.94508, 28.56552],
        [76.94293, 28.56549],
        [76.93753, 28.56557],
        [76.93723, 28.565],
        [76.93305, 28.56505],
        [76.93023, 28.56504],
        [76.92987, 28.56447],
        [76.92919, 28.56396],
        [76.92796, 28.56299],
        [76.9269, 28.56188],
        [76.92623, 28.56094],
        [76.92479, 28.5594],
        [76.92428, 28.55873],
        [76.92372, 28.55815],
        [76.92353, 28.55784],
        [76.9233, 28.55737],
        [76.92285, 28.55611],
        [76.92248, 28.55552],
        [76.92123, 28.55597],
        [76.91973, 28.55627],
        [76.91842, 28.55653],
        [76.91843, 28.55573],
        [76.91635, 28.55611],
        [76.90745, 28.55802],
        [76.90692, 28.55803],
        [76.90268, 28.5581],
        [76.90269, 28.55562],
        [76.90333, 28.55562],
        [76.90473, 28.55563],
        [76.90472, 28.55401],
        [76.90469, 28.55237],
        [76.90468, 28.55071],
        [76.9041, 28.55071],
        [76.90326, 28.55069],
        [76.90325, 28.5502],
        [76.90325, 28.54974],
        [76.90325, 28.54907],
        [76.90322, 28.54857],
        [76.90194, 28.54855],
        [76.90191, 28.54834],
        [76.90189, 28.54809],
        [76.90189, 28.54768],
        [76.90192, 28.54734],
        [76.90119, 28.54757],
        [76.90023, 28.54773],
        [76.89981, 28.54766],
        [76.89921, 28.54752],
        [76.89904, 28.54738],
        [76.89871, 28.54735],
        [76.89813, 28.54759],
        [76.89747, 28.54786],
        [76.8973, 28.54784],
        [76.89719, 28.5479],
        [76.89697, 28.54796],
        [76.8967, 28.54802],
        [76.89624, 28.54816],
        [76.89554, 28.54838],
        [76.89513, 28.54858],
        [76.89463, 28.54882],
        [76.89411, 28.54904],
        [76.894, 28.54909],
        [76.8937, 28.54924],
        [76.89313, 28.54921],
        [76.89297, 28.54922],
        [76.89231, 28.54916],
        [76.89229, 28.54812],
        [76.89228, 28.54791],
        [76.89088, 28.54793],
        [76.89085, 28.54755],
        [76.8861, 28.54763],
        [76.88605, 28.54642],
        [76.88604, 28.5454],
        [76.88598, 28.54353],
        [76.8857, 28.54362],
        [76.88479, 28.54225],
        [76.88441, 28.54256],
        [76.88413, 28.54201],
        [76.88466, 28.54181],
        [76.88459, 28.54055],
        [76.88286, 28.54051],
        [76.88284, 28.5379],
        [76.88059, 28.53932],
        [76.88009, 28.53952],
        [76.87628, 28.53792],
        [76.8764, 28.53577],
        [76.87632, 28.53553],
        [76.87621, 28.53543],
        [76.87579, 28.53466],
        [76.87547, 28.53431],
        [76.87528, 28.53435],
        [76.87512, 28.53432],
        [76.87501, 28.5342],
        [76.8749, 28.53404],
        [76.87485, 28.53377],
        [76.87484, 28.5334],
        [76.87478, 28.53312],
        [76.8747, 28.53287],
        [76.87467, 28.5324],
        [76.87469, 28.53191],
        [76.87509, 28.53161],
        [76.87494, 28.5313],
        [76.87498, 28.53053],
        [76.87448, 28.53059],
        [76.87362, 28.53054],
        [76.87362, 28.53055],
        [76.87362, 28.53056],
        [76.87362, 28.53058],
        [76.87361, 28.53059],
        [76.8736, 28.5306],
        [76.87357, 28.53061],
        [76.87351, 28.53064],
        [76.87347, 28.53066],
        [76.87343, 28.53069],
        [76.87337, 28.53071],
        [76.87331, 28.53073],
        [76.87322, 28.53076],
        [76.87314, 28.53077],
        [76.87309, 28.53079],
        [76.87304, 28.53079],
        [76.87297, 28.5308],
        [76.8729, 28.5308],
        [76.87284, 28.5308],
        [76.87279, 28.5308],
        [76.87268, 28.53083],
        [76.87258, 28.53086],
        [76.87253, 28.53088],
        [76.87249, 28.53089],
        [76.87247, 28.5309],
        [76.87247, 28.53091],
        [76.87247, 28.53092],
        [76.87249, 28.53096],
        [76.87255, 28.53109],
        [76.87266, 28.53137],
        [76.87274, 28.53154],
        [76.87285, 28.53177],
        [76.87287, 28.5318],
        [76.8729, 28.53186],
        [76.87299, 28.53205],
        [76.8732, 28.53249],
        [76.87322, 28.53255],
        [76.87322, 28.53256],
        [76.8732, 28.53257],
        [76.87312, 28.53261],
        [76.87292, 28.53269],
        [76.87282, 28.53273],
        [76.87272, 28.53277],
        [76.87271, 28.53278],
        [76.87271, 28.5328],
        [76.87284, 28.53307],
        [76.87284, 28.53309],
        [76.87284, 28.5331],
        [76.8728, 28.53313],
        [76.87241, 28.53329],
        [76.87225, 28.53335],
        [76.87222, 28.53337],
        [76.87216, 28.53338],
        [76.87213, 28.53337],
        [76.87209, 28.53336],
        [76.87187, 28.5332],
        [76.87185, 28.53322],
        [76.87176, 28.53326],
        [76.87162, 28.53333],
        [76.87151, 28.53338],
        [76.87081, 28.53373],
        [76.87045, 28.53391],
        [76.87032, 28.53389],
        [76.87025, 28.53389],
        [76.8701, 28.5339],
        [76.87001, 28.53392],
        [76.86995, 28.53395],
        [76.8699, 28.53396],
        [76.86982, 28.53396],
        [76.86974, 28.53399],
        [76.86956, 28.53406],
        [76.86948, 28.53409],
        [76.86935, 28.53413],
        [76.8693, 28.53416],
        [76.86923, 28.5342],
        [76.86917, 28.53423],
        [76.86913, 28.53427],
        [76.86907, 28.53437],
        [76.86899, 28.5345],
        [76.86894, 28.53455],
        [76.86889, 28.5346],
        [76.86872, 28.53471],
        [76.86869, 28.53476],
        [76.86868, 28.53478],
        [76.86869, 28.53482],
        [76.86879, 28.53498],
        [76.86885, 28.53505],
        [76.86893, 28.53515],
        [76.86893, 28.53519],
        [76.86891, 28.53522],
        [76.86888, 28.53525],
        [76.86849, 28.53547],
        [76.86803, 28.53569],
        [76.86785, 28.53579],
        [76.86773, 28.53584],
        [76.86767, 28.53589],
        [76.86751, 28.536],
        [76.86746, 28.53604],
        [76.86744, 28.53608],
        [76.86742, 28.53613],
        [76.86741, 28.5362],
        [76.8674, 28.53635],
        [76.86737, 28.53654],
        [76.86734, 28.5367],
        [76.86732, 28.5368],
        [76.8673, 28.53692],
        [76.86727, 28.53709],
        [76.86724, 28.53719],
        [76.86722, 28.53723],
        [76.86721, 28.53732],
        [76.86721, 28.53739],
        [76.86719, 28.53751],
        [76.86716, 28.53768],
        [76.8671, 28.5379],
        [76.86698, 28.5383],
        [76.86692, 28.53854],
        [76.8669, 28.53863],
        [76.86687, 28.53873],
        [76.86685, 28.53883],
        [76.8668, 28.53897],
        [76.86673, 28.53916],
        [76.86672, 28.53921],
        [76.86671, 28.53926],
        [76.86672, 28.53934],
        [76.86672, 28.53936],
        [76.86671, 28.5394],
        [76.86668, 28.53949],
        [76.86665, 28.53958],
        [76.86662, 28.53968],
        [76.86659, 28.53974],
        [76.86656, 28.53979],
        [76.86654, 28.53982],
        [76.86651, 28.53988],
        [76.86649, 28.53994],
        [76.86643, 28.54022],
        [76.86637, 28.54045],
        [76.86629, 28.5408],
        [76.86625, 28.54099],
        [76.86622, 28.54112],
        [76.8662, 28.54121],
        [76.86617, 28.54128],
        [76.86613, 28.54137],
        [76.86608, 28.54146],
        [76.86603, 28.54154],
        [76.86585, 28.54178],
        [76.86565, 28.54206],
        [76.86559, 28.54217],
        [76.86553, 28.54227],
        [76.86548, 28.54233],
        [76.86547, 28.54236],
        [76.86547, 28.5424],
        [76.86548, 28.54248],
        [76.86548, 28.5425],
        [76.86548, 28.54252],
        [76.8655, 28.54257],
        [76.86551, 28.54262],
        [76.86552, 28.54269],
        [76.86552, 28.54272],
        [76.86549, 28.54275],
        [76.86544, 28.5428],
        [76.86535, 28.54288],
        [76.86513, 28.54308],
        [76.86495, 28.54323],
        [76.86475, 28.54339],
        [76.86455, 28.54356],
        [76.86451, 28.54359],
        [76.86445, 28.54363],
        [76.86439, 28.54366],
        [76.86424, 28.54374],
        [76.86406, 28.54383],
        [76.86394, 28.54389],
        [76.86372, 28.54402],
        [76.86309, 28.54441],
        [76.86276, 28.54462],
        [76.86259, 28.54468],
        [76.86238, 28.54478],
        [76.862, 28.54498],
        [76.86188, 28.54507],
        [76.8616, 28.54525],
        [76.86139, 28.54536],
        [76.86132, 28.54539],
        [76.86116, 28.54543],
        [76.86095, 28.54549],
        [76.86078, 28.54557],
        [76.86062, 28.54565],
        [76.86034, 28.54575],
        [76.86023, 28.54578],
        [76.85997, 28.54583],
        [76.85962, 28.54588],
        [76.85917, 28.54599],
        [76.85877, 28.5461],
        [76.85857, 28.54617],
        [76.85836, 28.54624],
        [76.85774, 28.5465],
        [76.85757, 28.54656],
        [76.85715, 28.54667],
        [76.85633, 28.54697],
        [76.85596, 28.54709],
        [76.85561, 28.54717],
        [76.85405, 28.54747],
        [76.85312, 28.54773],
        [76.85226, 28.54804],
        [76.85184, 28.54814],
        [76.85123, 28.54836],
        [76.85025, 28.54863],
        [76.84968, 28.54873],
        [76.84946, 28.54876],
        [76.84902, 28.54884],
        [76.84865, 28.54893],
        [76.84831, 28.54905],
        [76.84802, 28.54908],
        [76.84766, 28.54914],
        [76.84706, 28.54933],
        [76.84666, 28.54945],
        [76.84651, 28.5495],
        [76.84624, 28.54958],
        [76.84605, 28.54971],
        [76.846, 28.54978],
        [76.84598, 28.54988],
        [76.84583, 28.55001],
        [76.84566, 28.55014],
        [76.84538, 28.55029],
        [76.84517, 28.55035],
        [76.84519, 28.55077],
        [76.84522, 28.55138],
        [76.84508, 28.55207],
        [76.84507, 28.55216],
        [76.84506, 28.5522],
        [76.84503, 28.55225],
        [76.84497, 28.55233],
        [76.8449, 28.5524],
        [76.84482, 28.55245],
        [76.8448, 28.5525],
        [76.84477, 28.55254],
        [76.84476, 28.55261],
        [76.84472, 28.55275],
        [76.84466, 28.55288],
        [76.8446, 28.55296],
        [76.8445, 28.553],
        [76.84445, 28.55302],
        [76.84436, 28.55306],
        [76.84431, 28.55311],
        [76.84428, 28.55323],
        [76.8442, 28.55337],
        [76.84413, 28.55351],
        [76.84407, 28.5536],
        [76.84396, 28.55373],
        [76.84384, 28.55387],
        [76.84379, 28.55396],
        [76.84375, 28.5541],
        [76.84373, 28.5542],
        [76.8437, 28.55429],
        [76.84365, 28.55437],
        [76.84337, 28.55461],
        [76.84319, 28.55482],
        [76.84316, 28.55489],
        [76.84311, 28.55495],
        [76.84305, 28.55516],
        [76.84301, 28.5554],
        [76.84302, 28.55547],
        [76.84302, 28.55553],
        [76.84301, 28.55557],
        [76.84296, 28.55561],
        [76.84295, 28.55562],
        [76.84283, 28.55566],
        [76.84274, 28.5557],
        [76.84268, 28.55573],
        [76.84262, 28.55576],
        [76.84256, 28.55581],
        [76.8425, 28.55589],
        [76.84245, 28.55597],
        [76.84242, 28.55609],
        [76.84242, 28.55611],
        [76.84235, 28.55624],
        [76.84231, 28.5563],
        [76.84228, 28.55634],
        [76.84226, 28.55646],
        [76.84225, 28.55659],
        [76.84224, 28.55676],
        [76.84225, 28.55694],
        [76.84226, 28.55698],
        [76.84226, 28.55698],
        [76.84214, 28.55695],
        [76.84205, 28.55693],
        [76.84205, 28.55693],
        [76.84205, 28.55726],
        [76.84208, 28.55756],
        [76.84213, 28.5578],
        [76.84216, 28.55808],
        [76.84207, 28.55871],
        [76.84192, 28.55959],
        [76.84188, 28.55998],
        [76.84185, 28.56038],
        [76.84184, 28.56064],
        [76.84189, 28.56093],
        [76.84209, 28.56179],
        [76.84223, 28.56226],
        [76.84232, 28.56266],
        [76.8423, 28.56276],
        [76.84219, 28.563],
        [76.842, 28.56348],
        [76.84187, 28.56394],
        [76.84179, 28.56412],
        [76.84171, 28.56438],
        [76.84161, 28.56487],
        [76.8415, 28.56529],
        [76.84142, 28.56562],
        [76.84133, 28.56615],
        [76.8412, 28.56669],
        [76.84106, 28.56696],
        [76.84101, 28.56712],
        [76.84084, 28.56778],
        [76.84069, 28.56817],
        [76.84052, 28.56857],
        [76.84041, 28.5688],
        [76.84038, 28.56891],
        [76.8403, 28.56927],
        [76.84024, 28.56943],
        [76.84017, 28.56955],
        [76.84019, 28.56991],
        [76.84023, 28.57087],
        [76.84022, 28.57119],
        [76.84017, 28.57144],
        [76.84008, 28.57158],
        [76.83987, 28.57179],
        [76.83946, 28.57222],
        [76.83932, 28.57239],
        [76.83909, 28.57262],
        [76.83891, 28.57279],
        [76.83891, 28.57279],
        [76.8389, 28.5728],
        [76.83892, 28.57299],
        [76.83892, 28.57331],
        [76.8389, 28.57337],
        [76.8389, 28.57338],
        [76.8389, 28.57339],
        [76.8389, 28.57339],
        [76.8389, 28.5734],
        [76.83889, 28.5734],
        [76.83889, 28.5734],
        [76.83887, 28.57345],
        [76.83881, 28.57353],
        [76.83881, 28.57353],
        [76.83878, 28.5736],
        [76.83878, 28.5736],
        [76.83878, 28.5738],
        [76.83886, 28.57407],
        [76.8389, 28.5742],
        [76.83894, 28.5743],
        [76.83901, 28.57508],
        [76.83904, 28.57558],
        [76.83907, 28.57619],
        [76.83907, 28.57659],
        [76.83904, 28.57714],
        [76.839, 28.5775],
        [76.83899, 28.57794],
        [76.83907, 28.57855],
        [76.83915, 28.57928],
        [76.83919, 28.57982],
        [76.83923, 28.58006],
        [76.83924, 28.58036],
        [76.83922, 28.5804],
        [76.83926, 28.5809],
        [76.83927, 28.58133],
        [76.8394, 28.58257],
        [76.83941, 28.58266],
        [76.83941, 28.58266],
        [76.83946, 28.58269],
        [76.83946, 28.58269],
        [76.83985, 28.58268],
        [76.84009, 28.58268],
        [76.84041, 28.58269],
        [76.84067, 28.58274],
        [76.84086, 28.58281],
        [76.84113, 28.58289],
        [76.84134, 28.58293],
        [76.84138, 28.58294],
        [76.84152, 28.58303],
        [76.84165, 28.58311],
        [76.84188, 28.58322],
        [76.84202, 28.58329],
        [76.84208, 28.58335],
        [76.84208, 28.58335],
        [76.84217, 28.58339],
        [76.84259, 28.58353],
        [76.84334, 28.58382],
        [76.84414, 28.58413],
        [76.84435, 28.58419],
        [76.84451, 28.58423],
        [76.84466, 28.58426],
        [76.84467, 28.58427],
        [76.84486, 28.58433],
        [76.84512, 28.58443],
        [76.84525, 28.58447],
        [76.84535, 28.58449],
        [76.84541, 28.58451],
        [76.84548, 28.58453],
        [76.84586, 28.58463],
        [76.84606, 28.58467],
        [76.8462, 28.5847],
        [76.84654, 28.58471],
        [76.84683, 28.58472],
        [76.8472, 28.58472],
        [76.8474, 28.58473],
        [76.84787, 28.58476],
        [76.84817, 28.58477],
        [76.84841, 28.58477],
        [76.84851, 28.58477],
        [76.84867, 28.58478],
        [76.84887, 28.58481],
        [76.84923, 28.58485],
        [76.84943, 28.58487],
        [76.84964, 28.5849],
        [76.84966, 28.5849],
        [76.84995, 28.58493],
        [76.85005, 28.58494],
        [76.85033, 28.58496],
        [76.85035, 28.58496],
        [76.8505, 28.58497],
        [76.85057, 28.58497],
        [76.85068, 28.58498],
        [76.85091, 28.58502],
        [76.85138, 28.5851],
        [76.85189, 28.58517],
        [76.85237, 28.58521],
        [76.85294, 28.58528],
        [76.85314, 28.5853],
        [76.85339, 28.58531],
        [76.85366, 28.58532],
        [76.85391, 28.58534],
        [76.85437, 28.58534],
        [76.85465, 28.58534],
        [76.85472, 28.58534],
        [76.85502, 28.58532],
        [76.85516, 28.5853],
        [76.85537, 28.58529],
        [76.85546, 28.58528],
        [76.85585, 28.58524],
        [76.856, 28.58522],
        [76.85627, 28.58519],
        [76.85651, 28.58517],
        [76.85665, 28.58518],
        [76.85674, 28.58518],
        [76.85684, 28.58519],
        [76.85688, 28.5852],
        [76.85692, 28.5852],
        [76.85693, 28.58521],
        [76.857, 28.58522],
        [76.85709, 28.58521],
        [76.8572, 28.5852],
        [76.85739, 28.58516],
        [76.85767, 28.5851],
        [76.85786, 28.58507],
        [76.85803, 28.58504],
        [76.8582, 28.58501],
        [76.85841, 28.58499],
        [76.85856, 28.58498],
        [76.8587, 28.58498],
        [76.85914, 28.58497],
        [76.85932, 28.58498],
        [76.85953, 28.585],
        [76.85964, 28.58502],
        [76.85969, 28.58503],
        [76.85983, 28.58505],
        [76.85998, 28.58506],
        [76.86025, 28.58507],
        [76.86043, 28.58507],
        [76.86058, 28.58506],
        [76.86061, 28.58506],
        [76.8608, 28.58505],
        [76.86098, 28.58504],
        [76.86119, 28.58506],
        [76.86146, 28.5851],
        [76.86151, 28.58511],
        [76.8618, 28.58515],
        [76.862, 28.58519],
        [76.8624, 28.58525],
        [76.86276, 28.58529],
        [76.86294, 28.5853],
        [76.86309, 28.58529],
        [76.86323, 28.58527],
        [76.8634, 28.58524],
        [76.86342, 28.58524],
        [76.86343, 28.58524],
        [76.86345, 28.58526],
        [76.86348, 28.58529],
        [76.86359, 28.58558],
        [76.86362, 28.58562],
        [76.86363, 28.58563],
        [76.86369, 28.58563],
        [76.86385, 28.58562],
        [76.8643, 28.58555],
        [76.86446, 28.58554],
        [76.86448, 28.58554],
        [76.86449, 28.58556],
        [76.8645, 28.58559],
        [76.86453, 28.58575],
        [76.86458, 28.58598],
        [76.8646, 28.58607],
        [76.8646, 28.5861],
        [76.86462, 28.58614],
        [76.86469, 28.58633],
        [76.86475, 28.58649],
        [76.8648, 28.58663],
        [76.86483, 28.58669],
        [76.86486, 28.58676],
        [76.86488, 28.58683],
        [76.86493, 28.58691],
        [76.86493, 28.58692],
        [76.86495, 28.58695],
        [76.86498, 28.58699],
        [76.86505, 28.58711],
        [76.86511, 28.58719],
        [76.86522, 28.58733],
        [76.86528, 28.58741],
        [76.86542, 28.58756],
        [76.8655, 28.58765],
        [76.86559, 28.58775],
        [76.86574, 28.58792],
        [76.86578, 28.58795],
        [76.86586, 28.58807],
        [76.86589, 28.58813],
        [76.86592, 28.58821],
        [76.86595, 28.58827],
        [76.86598, 28.58833],
        [76.86601, 28.58836],
        [76.86603, 28.58838],
        [76.86614, 28.58843],
        [76.86641, 28.58857],
        [76.86648, 28.58862],
        [76.86657, 28.5887],
        [76.86657, 28.58871],
        [76.86661, 28.58874],
        [76.86669, 28.5888],
        [76.86678, 28.58888],
        [76.86685, 28.58895],
        [76.8669, 28.589],
        [76.86692, 28.58905],
        [76.86697, 28.58914],
        [76.86702, 28.58923],
        [76.86707, 28.58935],
        [76.86713, 28.58944],
        [76.86719, 28.58953],
        [76.86724, 28.58961],
        [76.86732, 28.58974],
        [76.8674, 28.58986],
        [76.86748, 28.59],
        [76.86753, 28.59008],
        [76.86764, 28.59024],
        [76.86773, 28.5904],
        [76.86779, 28.59051],
        [76.86784, 28.59061],
        [76.86798, 28.59091],
        [76.86805, 28.59104],
        [76.86806, 28.59107],
        [76.86811, 28.59119],
        [76.86815, 28.59131],
        [76.86818, 28.5914],
        [76.86819, 28.59144],
        [76.86822, 28.59163],
        [76.86825, 28.59183],
        [76.86827, 28.59192],
        [76.86828, 28.59197],
        [76.8683, 28.59206],
        [76.86832, 28.59212],
        [76.86834, 28.59217],
        [76.86835, 28.5922],
        [76.86837, 28.59227],
        [76.8684, 28.59233],
        [76.86841, 28.59234],
        [76.86843, 28.59238],
        [76.86847, 28.59245],
        [76.8685, 28.5925],
        [76.86853, 28.59255],
        [76.86855, 28.59259],
        [76.86859, 28.59265],
        [76.86865, 28.59274],
        [76.86868, 28.5928],
        [76.86872, 28.59289],
        [76.86877, 28.59303],
        [76.86882, 28.59316],
        [76.86889, 28.5935],
        [76.86891, 28.59355],
        [76.86895, 28.5937],
        [76.86906, 28.59403],
        [76.86909, 28.59411],
        [76.86914, 28.59424],
        [76.86924, 28.5945],
        [76.86934, 28.59474],
        [76.86945, 28.59502],
        [76.86951, 28.59518],
        [76.86957, 28.59538],
        [76.86961, 28.59552],
        [76.86967, 28.59569],
        [76.86975, 28.59593],
        [76.86981, 28.59612],
        [76.86987, 28.59634],
        [76.86995, 28.59653],
        [76.87002, 28.59674],
        [76.87008, 28.59693],
        [76.87015, 28.59715],
        [76.87021, 28.59729],
        [76.87027, 28.59749],
        [76.8703, 28.5976],
        [76.87031, 28.59768],
        [76.87033, 28.59799],
        [76.87037, 28.59833],
        [76.8704, 28.59851],
        [76.87042, 28.59864],
        [76.87047, 28.59885],
        [76.87053, 28.59915],
        [76.87058, 28.59937],
        [76.87065, 28.59966],
        [76.87072, 28.59992],
        [76.87083, 28.60032],
        [76.87088, 28.6005],
        [76.87097, 28.6008],
        [76.87106, 28.60111],
        [76.8711, 28.60127],
        [76.87116, 28.60141],
        [76.87118, 28.6015],
        [76.87131, 28.60194],
        [76.87135, 28.60206],
        [76.87141, 28.60224],
        [76.87145, 28.60235],
        [76.87149, 28.60243],
        [76.87155, 28.60254],
        [76.8717, 28.60278],
        [76.87176, 28.60289],
        [76.87181, 28.60296],
        [76.87192, 28.60305],
        [76.87194, 28.60306],
        [76.87198, 28.60308],
        [76.872, 28.60308],
        [76.87202, 28.60308],
        [76.87205, 28.60306],
        [76.87208, 28.60305],
        [76.87211, 28.60305],
        [76.87214, 28.60306],
        [76.87218, 28.60309],
        [76.87226, 28.60316],
        [76.87236, 28.60326],
        [76.87244, 28.60332],
        [76.87255, 28.60341],
        [76.87264, 28.60349],
        [76.87289, 28.60375],
        [76.87311, 28.60398],
        [76.87344, 28.6043],
        [76.87362, 28.60448],
        [76.87392, 28.60479],
        [76.87399, 28.60486],
        [76.8741, 28.60495],
        [76.87414, 28.60498],
        [76.8742, 28.605],
        [76.87429, 28.60504],
        [76.87432, 28.60506],
        [76.87434, 28.60508],
        [76.8745, 28.60524],
        [76.87459, 28.60532],
        [76.87471, 28.60541],
        [76.87485, 28.60552],
        [76.87503, 28.60564],
        [76.87522, 28.60577],
        [76.8753, 28.6058],
        [76.87538, 28.60583],
        [76.87551, 28.60599],
        [76.87567, 28.60625],
        [76.87589, 28.60662],
        [76.87613, 28.6069],
        [76.87632, 28.60712],
        [76.87663, 28.60744],
        [76.87693, 28.60773],
        [76.87711, 28.60792],
        [76.8773, 28.60819],
        [76.87751, 28.60848],
        [76.87772, 28.60878],
        [76.87794, 28.60906],
        [76.87818, 28.6094],
        [76.8783, 28.60962],
        [76.87866, 28.61045],
        [76.87961, 28.61268],
        [76.87977, 28.61301],
        [76.88014, 28.61395],
        [76.88016, 28.61398],
        [76.88035, 28.6144],
        [76.88036, 28.61444],
        [76.88039, 28.61448],
        [76.88051, 28.6148],
        [76.88074, 28.61531],
        [76.881, 28.61607],
        [76.88152, 28.6176],
        [76.88158, 28.6179],
        [76.88159, 28.61791],
        [76.88161, 28.61798],
        [76.88161, 28.61804],
        [76.8816, 28.61808],
        [76.88159, 28.61814],
        [76.8816, 28.61818],
        [76.88164, 28.61833],
        [76.88171, 28.61861],
        [76.88177, 28.6187],
        [76.88214, 28.61929],
        [76.88253, 28.61994],
        [76.88269, 28.62027],
        [76.8828, 28.6206],
        [76.88315, 28.62162],
        [76.88343, 28.62216],
        [76.88343, 28.62218],
        [76.88374, 28.62278],
        [76.88389, 28.62294],
        [76.88399, 28.62304],
        [76.88404, 28.62314],
        [76.88405, 28.6232],
        [76.88406, 28.62338],
        [76.88408, 28.6236],
        [76.88407, 28.62364],
        [76.88408, 28.62368],
        [76.88407, 28.6237],
        [76.88404, 28.62378],
        [76.88404, 28.62378],
        [76.88403, 28.6238],
        [76.88396, 28.62385],
        [76.8839, 28.62388],
        [76.88387, 28.6239],
        [76.88384, 28.62393],
        [76.88383, 28.62396],
        [76.88382, 28.624],
        [76.88381, 28.62404],
        [76.88382, 28.62409],
        [76.88382, 28.62413],
        [76.88384, 28.62418],
        [76.88389, 28.62428],
        [76.88396, 28.62446],
        [76.88399, 28.62453],
        [76.884, 28.62459],
        [76.88403, 28.62467],
        [76.88404, 28.62477],
        [76.88404, 28.62491],
        [76.88407, 28.62514],
        [76.88417, 28.62542],
        [76.88421, 28.62557],
        [76.88418, 28.62585],
        [76.8842, 28.62597],
        [76.88451, 28.62665],
        [76.88468, 28.62707],
        [76.88473, 28.62724],
        [76.88479, 28.62735],
        [76.88482, 28.62745],
        [76.8851, 28.62814],
        [76.88538, 28.62852],
        [76.8855, 28.62867],
        [76.88562, 28.62884],
        [76.88573, 28.62901],
        [76.88597, 28.62946],
        [76.88622, 28.62988],
        [76.88664, 28.6306],
        [76.88665, 28.63063],
        [76.88665, 28.63063],
        [76.88667, 28.63063],
        [76.88688, 28.63059],
        [76.88718, 28.63053],
        [76.88726, 28.63051],
        [76.88728, 28.63051],
        [76.88728, 28.63068],
        [76.88729, 28.63093],
        [76.88732, 28.631],
        [76.88736, 28.63106],
        [76.8874, 28.63111],
        [76.88773, 28.63132],
        [76.88782, 28.63138],
        [76.88794, 28.63147],
        [76.88811, 28.63164],
        [76.88814, 28.63167],
        [76.88816, 28.63169],
        [76.88831, 28.63188],
        [76.88836, 28.63194],
        [76.88839, 28.63198],
        [76.88841, 28.63197],
        [76.88842, 28.63197],
        [76.88843, 28.63197],
        [76.88852, 28.63197],
        [76.88858, 28.63196],
        [76.88871, 28.63195],
        [76.88888, 28.63193],
        [76.88904, 28.63194],
        [76.88916, 28.63194],
        [76.8892, 28.63194],
        [76.88923, 28.63194],
        [76.88936, 28.63195],
        [76.88938, 28.63195],
        [76.8894, 28.63197],
        [76.88943, 28.63199],
        [76.88944, 28.63199],
        [76.88955, 28.63199],
        [76.88957, 28.63199],
        [76.89006, 28.63194],
        [76.89063, 28.63186],
        [76.89075, 28.63184],
        [76.89099, 28.63174],
        [76.89111, 28.63171],
        [76.89129, 28.63164],
        [76.89171, 28.63152],
        [76.8919, 28.63148],
        [76.89191, 28.63149],
        [76.89231, 28.63151],
        [76.89252, 28.63152],
        [76.89258, 28.63152],
        [76.89267, 28.63152],
        [76.89271, 28.63153],
        [76.89279, 28.63154],
        [76.89284, 28.63155],
        [76.89285, 28.63155],
        [76.89286, 28.63155],
        [76.89296, 28.63153],
        [76.89302, 28.6315],
        [76.89377, 28.63118],
        [76.89457, 28.63083],
        [76.89493, 28.63065],
        [76.89536, 28.63039],
        [76.89588, 28.63008],
        [76.89605, 28.62998],
        [76.89606, 28.62998],
        [76.89622, 28.62986],
        [76.89645, 28.6297],
        [76.89658, 28.6296],
        [76.89676, 28.62947],
        [76.89695, 28.62933],
        [76.89756, 28.62892],
        [76.89822, 28.62842],
        [76.89831, 28.62834],
        [76.89857, 28.62811],
        [76.89875, 28.62793],
        [76.89917, 28.62757],
        [76.89942, 28.62731],
        [76.89945, 28.62728],
        [76.89947, 28.62727],
        [76.8995, 28.62727],
        [76.89953, 28.62728],
        [76.89955, 28.62729],
        [76.89962, 28.62732],
        [76.89962, 28.62732],
        [76.89965, 28.62732],
        [76.90018, 28.62699],
        [76.90026, 28.62694],
        [76.90027, 28.62694],
        [76.90041, 28.62687],
        [76.90068, 28.62674],
        [76.90112, 28.62652],
        [76.90118, 28.62649],
        [76.90146, 28.62634],
        [76.90152, 28.62633],
        [76.9017, 28.62629],
        [76.90197, 28.62623],
        [76.90212, 28.62619],
        [76.90236, 28.62609],
        [76.90272, 28.62591],
        [76.9028, 28.62586],
        [76.90294, 28.62579],
        [76.90294, 28.62578],
        [76.90296, 28.62577],
        [76.90331, 28.62558],
        [76.90396, 28.62521],
        [76.90409, 28.62515],
        [76.90429, 28.62502],
        [76.90495, 28.6246],
        [76.90496, 28.6246],
        [76.90503, 28.62456],
        [76.90507, 28.62454],
        [76.9053, 28.6244],
        [76.9053, 28.6244],
        [76.9055, 28.62426],
        [76.90576, 28.62407],
        [76.90598, 28.62393],
        [76.90623, 28.62379],
        [76.90645, 28.62367],
        [76.90658, 28.62361],
        [76.90659, 28.62361],
        [76.9066, 28.62361],
        [76.90662, 28.62365],
        [76.90673, 28.62382],
        [76.90687, 28.62406],
        [76.90701, 28.62431],
        [76.90702, 28.62433],
        [76.90717, 28.6247],
        [76.90736, 28.62523],
        [76.90737, 28.62524],
        [76.90737, 28.62524],
        [76.90738, 28.62528],
        [76.90754, 28.62564],
        [76.90756, 28.62567],
        [76.90759, 28.62568],
        [76.90765, 28.62567],
        [76.90765, 28.62567],
        [76.90767, 28.62567],
        [76.90773, 28.62567],
        [76.90775, 28.6257],
        [76.90775, 28.62574],
        [76.90775, 28.62575],
        [76.90776, 28.62575],
        [76.90776, 28.62575],
        [76.90776, 28.62576],
        [76.90776, 28.62577],
        [76.90778, 28.6258],
        [76.90783, 28.62591],
        [76.9079, 28.62601],
        [76.90795, 28.62608],
        [76.908, 28.62617],
        [76.90803, 28.62623],
        [76.90803, 28.62623],
        [76.90804, 28.62623],
        [76.90809, 28.62628],
        [76.90815, 28.62637],
        [76.90819, 28.62642],
        [76.90828, 28.62652],
        [76.90831, 28.62654],
        [76.90832, 28.62655],
        [76.90838, 28.62665],
        [76.90848, 28.62678],
        [76.90848, 28.62679],
        [76.90853, 28.62687],
        [76.90856, 28.62692],
        [76.90861, 28.62697],
        [76.9087, 28.62703],
        [76.90872, 28.62705],
        [76.90872, 28.62705],
        [76.90872, 28.62706],
        [76.90874, 28.62707],
        [76.90887, 28.62723],
        [76.90902, 28.62742],
        [76.90924, 28.62763],
        [76.90968, 28.62813],
        [76.91007, 28.62853],
        [76.91066, 28.62903],
        [76.91134, 28.62972],
        [76.91164, 28.62999],
        [76.91244, 28.63066],
        [76.91259, 28.6308],
        [76.91311, 28.63118],
        [76.91366, 28.63165],
        [76.91396, 28.63194],
        [76.91408, 28.63207],
        [76.91419, 28.6322],
        [76.9142, 28.6322],
        [76.9147, 28.63212],
        [76.91499, 28.63208],
        [76.91551, 28.632],
        [76.91625, 28.63184],
        [76.91657, 28.63181],
        [76.91658, 28.63181],
        [76.91699, 28.63181],
        [76.91721, 28.63182],
        [76.91721, 28.63182],
        [76.91746, 28.63182],
        [76.91804, 28.63172],
        [76.91826, 28.63168],
        [76.91866, 28.63161],
        [76.91867, 28.6316],
        [76.91906, 28.63153],
        [76.91929, 28.63149],
        [76.91961, 28.63137],
        [76.92011, 28.63117],
        [76.92011, 28.63117],
        [76.92035, 28.63108],
        [76.92061, 28.63099],
        [76.92077, 28.6309],
        [76.92095, 28.63075],
        [76.92139, 28.63036],
        [76.92189, 28.62989],
        [76.92206, 28.62974],
        [76.92233, 28.62949],
        [76.92238, 28.62944],
        [76.92238, 28.62943],
        [76.92255, 28.62924],
        [76.92274, 28.62902],
        [76.92277, 28.62899],
        [76.92301, 28.62876],
        [76.92341, 28.62844],
        [76.92378, 28.62813],
        [76.92383, 28.62809],
        [76.92392, 28.62802],
        [76.92401, 28.62791],
        [76.92401, 28.6279],
        [76.92418, 28.62771],
        [76.92445, 28.62736],
        [76.92489, 28.62682],
        [76.92524, 28.62636],
        [76.92533, 28.62627],
        [76.92533, 28.62627],
        [76.92575, 28.62576],
        [76.92581, 28.62568],
        [76.92594, 28.62548],
        [76.92595, 28.62546],
        [76.92619, 28.62516],
        [76.92628, 28.62503],
        [76.92645, 28.62477],
        [76.92668, 28.62449],
        [76.92697, 28.62413],
        [76.927, 28.62409],
        [76.92706, 28.62402],
        [76.92719, 28.62386],
        [76.92721, 28.62383],
        [76.92735, 28.62367],
        [76.92736, 28.62366],
        [76.92737, 28.62365],
        [76.92749, 28.62353],
        [76.92749, 28.62352],
        [76.92759, 28.62343],
        [76.92765, 28.62337],
        [76.92771, 28.62333],
        [76.92776, 28.62329],
        [76.92782, 28.62323],
        [76.92789, 28.62313],
        [76.92795, 28.62305],
        [76.928, 28.62301],
        [76.92814, 28.62294],
        [76.92819, 28.62292],
        [76.92831, 28.62283],
        [76.92855, 28.62269],
        [76.92861, 28.62265],
        [76.9292, 28.62225],
        [76.92966, 28.62193],
        [76.92973, 28.62187],
        [76.92982, 28.6218],
        [76.92987, 28.62175],
        [76.9299, 28.62171],
        [76.93043, 28.62137],
        [76.93067, 28.62124],
        [76.93067, 28.62124],
        [76.93084, 28.62111],
        [76.93089, 28.62108],
        [76.93102, 28.62099],
        [76.93149, 28.62067],
        [76.9315, 28.62066],
        [76.93156, 28.62064],
        [76.93174, 28.62052],
        [76.93192, 28.62038],
        [76.93199, 28.62033],
        [76.93204, 28.62029],
        [76.93208, 28.62025],
        [76.9322, 28.62015],
        [76.93228, 28.62008],
        [76.93237, 28.62002],
        [76.93241, 28.61999],
        [76.93249, 28.61993],
        [76.93256, 28.61988],
        [76.93263, 28.61981],
        [76.9327, 28.61974],
        [76.93274, 28.61969],
        [76.9329, 28.61956],
        [76.93345, 28.61913],
        [76.93374, 28.61895],
        [76.93387, 28.61889],
        [76.93388, 28.61889],
        [76.93391, 28.61888],
        [76.934, 28.61886],
        [76.93406, 28.61885],
        [76.93406, 28.61885],
        [76.93407, 28.61885],
        [76.93417, 28.61882],
        [76.93427, 28.61878],
        [76.93435, 28.61874],
        [76.93439, 28.61873],
        [76.9344, 28.61872],
        [76.93442, 28.61871],
        [76.93442, 28.6187],
        [76.93448, 28.61866],
        [76.93451, 28.61865],
        [76.93459, 28.61861],
        [76.93467, 28.61858],
        [76.93481, 28.61851],
        [76.93491, 28.61845],
        [76.93501, 28.61837],
        [76.93501, 28.61837],
        [76.93506, 28.61834],
        [76.93508, 28.61833],
        [76.93511, 28.61832],
        [76.93513, 28.61833],
        [76.93516, 28.61833],
        [76.93521, 28.61837],
        [76.93523, 28.61839],
        [76.93535, 28.61867],
        [76.93551, 28.61895],
        [76.93552, 28.61897],
        [76.9356, 28.61909],
        [76.93589, 28.61949],
        [76.93598, 28.61961],
        [76.93598, 28.61961],
        [76.93599, 28.61961],
        [76.93611, 28.61977],
        [76.9362, 28.61989],
        [76.93627, 28.61999],
        [76.9363, 28.62002],
        [76.93632, 28.62005],
        [76.93663, 28.62041],
        [76.93667, 28.62046],
        [76.93682, 28.62072],
        [76.93705, 28.62106],
        [76.93741, 28.62145],
        [76.93769, 28.62175],
        [76.93813, 28.62217],
        [76.93857, 28.62253],
        [76.93902, 28.62289],
        [76.93931, 28.62315],
        [76.93936, 28.62322],
        [76.93937, 28.62323],
        [76.93945, 28.62337],
        [76.93957, 28.62354],
        [76.93976, 28.6238],
        [76.9399, 28.62399],
        [76.94003, 28.62413],
        [76.94028, 28.62438],
        [76.94028, 28.62438],
        [76.9403, 28.6244],
        [76.94082, 28.62507],
        [76.9409, 28.62516],
        [76.94108, 28.62543],
        [76.94115, 28.62552],
        [76.94115, 28.62552],
        [76.94116, 28.62553],
        [76.94129, 28.62569],
        [76.94134, 28.62573],
        [76.94172, 28.62621],
        [76.9419, 28.62644],
        [76.94209, 28.62665],
        [76.9423, 28.62691],
        [76.94236, 28.62699],
        [76.94236, 28.62701],
        [76.94236, 28.62701],
        [76.94247, 28.62736],
        [76.94271, 28.62801],
        [76.94279, 28.62814],
        [76.94287, 28.62843],
        [76.94294, 28.62869],
        [76.94302, 28.62919],
        [76.94307, 28.62948],
        [76.94307, 28.6295],
        [76.94309, 28.62958],
        [76.9431, 28.6296],
        [76.94313, 28.62967],
        [76.9432, 28.62978],
        [76.94325, 28.6299],
        [76.94334, 28.63018],
        [76.94353, 28.63069],
        [76.9436, 28.63091],
        [76.9437, 28.63125],
        [76.94377, 28.63138],
        [76.9439, 28.63172],
        [76.94409, 28.6321],
        [76.94424, 28.63247],
        [76.94431, 28.63273],
        [76.94432, 28.63274],
        [76.94436, 28.63286],
        [76.9444, 28.63296],
        [76.9444, 28.63297],
        [76.94441, 28.63297],
        [76.94443, 28.63302],
        [76.94445, 28.63309],
        [76.94445, 28.6331],
        [76.94445, 28.6331],
        [76.94445, 28.6331],
        [76.94445, 28.63311],
        [76.94444, 28.63311],
        [76.94441, 28.63311],
        [76.94439, 28.63311],
        [76.94438, 28.63312],
        [76.94436, 28.63312],
        [76.94434, 28.63313],
        [76.94432, 28.63313],
        [76.94429, 28.63314],
        [76.94428, 28.63315],
        [76.94427, 28.63315],
        [76.94416, 28.63318],
        [76.94406, 28.63321],
        [76.94396, 28.63325],
        [76.94385, 28.63328],
        [76.9437, 28.63333],
        [76.94358, 28.63337],
        [76.94339, 28.63342],
        [76.9432, 28.63348],
        [76.94299, 28.63356],
        [76.94288, 28.63361],
        [76.94268, 28.6337],
        [76.94247, 28.6338],
        [76.94228, 28.6339],
        [76.9422, 28.63395],
        [76.942, 28.63405],
        [76.94177, 28.63415],
        [76.9415, 28.63425],
        [76.94128, 28.63434],
        [76.94103, 28.63446],
        [76.94062, 28.63467],
        [76.94061, 28.63467],
        [76.9404, 28.6348],
        [76.94017, 28.63494],
        [76.93995, 28.63504],
        [76.93966, 28.63518],
        [76.93924, 28.63543],
        [76.93887, 28.6357],
        [76.93863, 28.63585],
        [76.93845, 28.63596],
        [76.93823, 28.63608],
        [76.9381, 28.63619],
        [76.93779, 28.63644],
        [76.93753, 28.63664],
        [76.93748, 28.6367],
        [76.9374, 28.63676],
        [76.93734, 28.63682],
        [76.93717, 28.63701],
        [76.93701, 28.63714],
        [76.9369, 28.63723],
        [76.93682, 28.63726],
        [76.93677, 28.6373],
        [76.93668, 28.63737],
        [76.93644, 28.63765],
        [76.93633, 28.63777],
        [76.93609, 28.63804],
        [76.93595, 28.63817],
        [76.93587, 28.63825],
        [76.93575, 28.63835],
        [76.93559, 28.63845],
        [76.93544, 28.63856],
        [76.93531, 28.63867],
        [76.9352, 28.63878],
        [76.93508, 28.63892],
        [76.935, 28.63905],
        [76.93494, 28.63912],
        [76.93472, 28.63934],
        [76.93444, 28.63962],
        [76.93432, 28.63974],
        [76.93402, 28.64001],
        [76.93385, 28.64018],
        [76.93371, 28.64032],
        [76.9333, 28.64068],
        [76.93285, 28.64104],
        [76.93262, 28.64122],
        [76.93233, 28.64142],
        [76.93204, 28.64164],
        [76.93185, 28.64178],
        [76.93175, 28.64188],
        [76.93161, 28.64203],
        [76.93139, 28.64225],
        [76.93108, 28.6426],
        [76.93089, 28.64281],
        [76.93077, 28.64293],
        [76.93072, 28.64303],
        [76.93064, 28.64322],
        [76.93057, 28.64343],
        [76.9305, 28.64354],
        [76.93025, 28.64394],
        [76.93001, 28.6443],
        [76.92979, 28.6447],
        [76.9295, 28.64507],
        [76.92936, 28.6452],
        [76.9292, 28.64531],
        [76.92903, 28.64545],
        [76.92872, 28.64568],
        [76.92865, 28.64575],
        [76.92855, 28.64588],
        [76.92843, 28.64608],
        [76.92839, 28.6462],
        [76.92821, 28.64651],
        [76.92812, 28.64665],
        [76.92803, 28.64676],
        [76.92794, 28.64684],
        [76.92783, 28.64694],
        [76.9276, 28.64713],
        [76.92744, 28.64728],
        [76.92718, 28.64757],
        [76.92693, 28.64781],
        [76.92676, 28.64798],
        [76.92667, 28.64805],
        [76.92652, 28.64815],
        [76.92636, 28.64824],
        [76.92627, 28.64829],
        [76.92617, 28.64836],
        [76.92604, 28.64845],
        [76.92584, 28.64859],
        [76.92568, 28.64868],
        [76.92553, 28.64877],
        [76.92542, 28.64886],
        [76.92529, 28.64898],
        [76.92515, 28.64912],
        [76.92497, 28.64929],
        [76.92489, 28.64943],
        [76.92487, 28.64955],
        [76.92489, 28.64961],
        [76.92501, 28.64993],
        [76.92507, 28.65009],
        [76.92511, 28.65014],
        [76.92522, 28.65035],
        [76.92535, 28.65063],
        [76.92549, 28.65084],
        [76.92568, 28.65119],
        [76.92575, 28.65124],
        [76.92592, 28.65148],
        [76.92612, 28.65179],
        [76.92645, 28.65229],
        [76.92656, 28.65245],
        [76.92676, 28.65273],
        [76.92677, 28.65273],
        [76.92691, 28.65294],
        [76.92716, 28.65337],
        [76.92732, 28.65361],
        [76.92733, 28.65363],
        [76.92741, 28.65374],
        [76.9275, 28.65386],
        [76.92768, 28.65411],
        [76.92795, 28.65447],
        [76.92816, 28.6548],
        [76.92819, 28.65485],
        [76.92828, 28.65497],
        [76.92857, 28.6554],
        [76.92863, 28.65551],
        [76.92867, 28.65558],
        [76.92869, 28.65564],
        [76.92872, 28.65571],
        [76.92875, 28.65581],
        [76.92879, 28.65594],
        [76.92884, 28.65608],
        [76.92889, 28.6562],
        [76.92899, 28.65638],
        [76.92906, 28.65648],
        [76.92911, 28.65654],
        [76.92915, 28.65659],
        [76.9292, 28.65662],
        [76.92926, 28.65664],
        [76.9293, 28.65668],
        [76.92938, 28.65681],
        [76.92949, 28.65697],
        [76.92961, 28.65716],
        [76.9297, 28.65729],
        [76.92983, 28.65745],
        [76.92994, 28.65758],
        [76.93002, 28.65767],
        [76.93006, 28.65771],
        [76.93012, 28.65779],
        [76.9302, 28.65795],
        [76.93032, 28.65814],
        [76.93037, 28.65821],
        [76.93043, 28.6583],
        [76.93051, 28.6584],
        [76.9306, 28.65853],
        [76.9307, 28.65866],
        [76.93081, 28.65877],
        [76.9309, 28.65889],
        [76.93096, 28.65896],
        [76.93101, 28.65903],
        [76.93107, 28.65912],
        [76.93113, 28.65923],
        [76.93117, 28.65933],
        [76.93122, 28.65945],
        [76.93132, 28.65969],
        [76.93141, 28.65994],
        [76.93148, 28.66011],
        [76.93153, 28.66025],
        [76.93157, 28.66038],
        [76.93162, 28.66054],
        [76.93163, 28.66058],
        [76.93168, 28.66065],
        [76.93177, 28.66081],
        [76.93185, 28.66094],
        [76.93196, 28.66107],
        [76.93207, 28.6612],
        [76.93215, 28.66129],
        [76.9322, 28.66136],
        [76.93225, 28.66145],
        [76.93236, 28.66166],
        [76.93242, 28.66179],
        [76.93249, 28.66194],
        [76.93254, 28.66208],
        [76.93259, 28.66223],
        [76.93263, 28.66237],
        [76.93264, 28.66246],
        [76.93267, 28.66262],
        [76.93276, 28.66293],
        [76.93279, 28.66305],
        [76.93279, 28.66309],
        [76.93281, 28.66314],
        [76.93283, 28.66322],
        [76.93286, 28.66336],
        [76.93289, 28.66354],
        [76.93293, 28.66363],
        [76.933, 28.6639],
        [76.93309, 28.66417],
        [76.93313, 28.66427],
        [76.93314, 28.66435],
        [76.93314, 28.66458],
        [76.93314, 28.66471],
        [76.93314, 28.66482],
        [76.93316, 28.66495],
        [76.93317, 28.66501],
        [76.93319, 28.6651],
        [76.93323, 28.66519],
        [76.9333, 28.66534],
        [76.93337, 28.66547],
        [76.93347, 28.66564],
        [76.93351, 28.6657],
        [76.93358, 28.66578],
        [76.93367, 28.66591],
        [76.93385, 28.66614],
        [76.93418, 28.66655],
        [76.93439, 28.66684],
        [76.93448, 28.66693],
        [76.9345, 28.66694],
        [76.9345, 28.66695],
        [76.93454, 28.66697],
        [76.93455, 28.66698],
        [76.93455, 28.66698],
        [76.93457, 28.66701],
        [76.93458, 28.66701],
        [76.9346, 28.66704],
        [76.93464, 28.66709],
        [76.93466, 28.66712],
        [76.93473, 28.66719],
        [76.93481, 28.66729],
        [76.93489, 28.66736],
        [76.93501, 28.66744],
        [76.93509, 28.6675],
        [76.93514, 28.66752],
        [76.9352, 28.66755],
        [76.93531, 28.66761],
        [76.93537, 28.66764],
        [76.9355, 28.6677],
        [76.93564, 28.66774],
        [76.93577, 28.66777],
        [76.93585, 28.66778],
        [76.9359, 28.66778],
        [76.9359, 28.66778],
        [76.93598, 28.66777],
        [76.93598, 28.66777],
        [76.93605, 28.66777],
        [76.93616, 28.66779],
        [76.93625, 28.6678],
        [76.93642, 28.66781],
        [76.93656, 28.66782],
        [76.93664, 28.66782],
        [76.93664, 28.66782],
        [76.93671, 28.66781],
        [76.93682, 28.6678],
        [76.93699, 28.66779],
        [76.93711, 28.66779],
        [76.93711, 28.66779],
        [76.93722, 28.66779],
        [76.93733, 28.6678],
        [76.93756, 28.66782],
        [76.9377, 28.66784],
        [76.93784, 28.66785],
        [76.93796, 28.66787],
        [76.9381, 28.6679],
        [76.93823, 28.66792],
        [76.93828, 28.66793],
        [76.93844, 28.66794],
        [76.93862, 28.66795],
        [76.93869, 28.66795],
        [76.93876, 28.66795],
        [76.93877, 28.66795],
        [76.93879, 28.66795],
        [76.93893, 28.66796],
        [76.93906, 28.66797],
        [76.93919, 28.66798],
        [76.9393, 28.668],
        [76.93936, 28.66801],
        [76.93936, 28.66801],
        [76.93949, 28.66803],
        [76.94006, 28.6681],
        [76.94041, 28.66814],
        [76.94083, 28.66818],
        [76.94106, 28.66817],
        [76.9412, 28.66817],
        [76.94131, 28.66814],
        [76.94136, 28.66813],
        [76.9414, 28.66812],
        [76.94141, 28.66812],
        [76.94149, 28.66812],
        [76.94156, 28.66813],
        [76.9416, 28.66813],
        [76.94164, 28.66815],
        [76.94168, 28.66817],
        [76.94173, 28.66819],
        [76.94176, 28.6682],
        [76.94181, 28.6682],
        [76.94186, 28.6682],
        [76.94186, 28.6682],
        [76.94198, 28.6682],
        [76.94198, 28.6682],
        [76.94216, 28.6682],
        [76.94216, 28.6682],
        [76.94234, 28.66819],
        [76.94244, 28.6682],
        [76.94244, 28.6682],
        [76.94253, 28.66819],
        [76.94257, 28.66818],
        [76.9426, 28.66818],
        [76.94264, 28.66816],
        [76.94271, 28.66814],
        [76.94276, 28.66812],
        [76.94281, 28.6681],
        [76.94286, 28.66808],
        [76.9429, 28.66807],
        [76.94293, 28.66806],
        [76.94293, 28.66806],
        [76.94296, 28.66807],
        [76.94298, 28.66808],
        [76.94302, 28.66811],
        [76.94307, 28.66815],
        [76.94315, 28.66822],
        [76.94321, 28.66829],
        [76.94324, 28.66832],
        [76.94329, 28.66838],
        [76.94336, 28.66844],
        [76.94343, 28.66851],
        [76.94354, 28.66861],
        [76.94365, 28.66872],
        [76.9437, 28.66876],
        [76.94373, 28.66878],
        [76.94383, 28.66884],
        [76.94392, 28.6689],
        [76.94403, 28.66895],
        [76.94412, 28.669],
        [76.94423, 28.66904],
        [76.94433, 28.66908],
        [76.94447, 28.66915],
        [76.94461, 28.66919],
        [76.94473, 28.66922],
        [76.94481, 28.66923],
        [76.94496, 28.66925],
        [76.94515, 28.66925],
        [76.94527, 28.66926],
        [76.94538, 28.66927],
        [76.94562, 28.66932],
        [76.94579, 28.66937],
        [76.94598, 28.66942],
        [76.94612, 28.66944],
        [76.94624, 28.66946],
        [76.94636, 28.66949],
        [76.94652, 28.66952],
        [76.9467, 28.66956],
        [76.94683, 28.66958],
        [76.94699, 28.6696],
        [76.94708, 28.66962],
        [76.94721, 28.66963],
        [76.94736, 28.66967],
        [76.94751, 28.66971],
        [76.94761, 28.66976],
        [76.94766, 28.66978],
        [76.94776, 28.66981],
        [76.94786, 28.66984],
        [76.94797, 28.66987],
        [76.94808, 28.66991],
        [76.9482, 28.66994],
        [76.94828, 28.66995],
        [76.94841, 28.66995],
        [76.94854, 28.66995],
        [76.94854, 28.66995],
        [76.94872, 28.66992],
        [76.94886, 28.6699],
        [76.94921, 28.66982],
        [76.94938, 28.66978],
        [76.94958, 28.66974],
        [76.94972, 28.6697],
        [76.94981, 28.66967]
      ]
    ]
  }
}
