{
  "type": "Feature",
  "id": "DL-AC-47",
  "properties": {
    "stateName": "DELHI",
    "stateCode": "DL",
    "districtName": "SOUTH",
    "acNo": 47,
    "acName": "DEOLI",
    "seatType": null,
    "pcNo": 7,
    "pcName": "SOUTH DELHI",
    "quality": "unverified",
    "sources": [
      "TBD"
    ]
  },
  "geometry": {
    "type": "Polygon",
    "coordinates": [
      [
        [77.23595, 28.53136],
        [77.23628, 28.53123],
        [77.23666, 28.53124],
        [77.23735, 28.53091],
        [77.23832, 28.53038],
        [77.23862, 28.53006],
        [77.23869, 28.52986],
        [77.23865, 28.52959],
        [77.23881, 28.52945],
        [77.23937, 28.52929],
        [77.24025, 28.52908],
        [77.24055, 28.52901],
        [77.24097, 28.52912],
        [77.24136, 28.52909],
        [77.24167, 28.52894],
        [77.24198, 28.5286],
        [77.24239, 28.52828],
        [77.24273, 28.52813],
        [77.24292, 28.52789],
        [77.24312, 28.52739],
        [77.24339, 28.52708],
        [77.24375, 28.52678],
        [77.24397, 28.52674],
        [77.24458, 28.52677],
        [77.24532, 28.52676],
        [77.24566, 28.52682],
        [77.24611, 28.52611],
        [77.2463, 28.52583],
        [77.24668, 28.52555],
        [77.24696, 28.52548],
        [77.24745, 28.52534],
        [77.24775, 28.52512],
        [77.24814, 28.52477],
        [77.24833, 28.52449],
        [77.24882, 28.5241],
        [77.24904, 28.52387],
        [77.24924, 28.52353],
        [77.24955, 28.52327],
        [77.25045, 28.5227],
        [77.25145, 28.52215],
        [77.25174, 28.52199],
        [77.25118, 28.52159],
        [77.2501, 28.5207],
        [77.25003, 28.52059],
        [77.24994, 28.52053],
        [77.24985, 28.52047],
        [77.24992, 28.52047],
        [77.25, 28.52047],
        [77.25011, 28.52043],
        [77.25021, 28.52033],
        [77.25025, 28.52023],
        [77.25014, 28.5202],
        [77.24993, 28.52006],
        [77.2498, 28.51994],
        [77.24964, 28.5199],
        [77.24939, 28.51984],
        [77.24916, 28.51984],
        [77.24854, 28.51963],
        [77.24831, 28.51954],
        [77.24823, 28.51942],
        [77.24813, 28.51925],
        [77.24802, 28.51916],
        [77.24738, 28.51909],
        [77.24698, 28.51908],
        [77.24684, 28.51914],
        [77.2467, 28.51908],
        [77.24663, 28.51893],
        [77.24631, 28.51838],
        [77.24615, 28.51828],
        [77.24601, 28.51825],
        [77.24589, 28.51831],
        [77.24576, 28.51833],
        [77.24561, 28.51824],
        [77.24529, 28.51799],
        [77.24516, 28.51788],
        [77.24503, 28.51766],
        [77.24498, 28.51746],
        [77.24501, 28.51698],
        [77.2445, 28.51667],
        [77.24374, 28.51618],
        [77.24247, 28.51576],
        [77.24247, 28.5148],
        [77.24242, 28.51481],
        [77.24241, 28.51416],
        [77.24241, 28.51403],
        [77.24086, 28.51407],
        [77.24084, 28.51259],
        [77.24089, 28.51255],
        [77.244, 28.51219],
        [77.24359, 28.51133],
        [77.24345, 28.511],
        [77.24317, 28.51031],
        [77.24298, 28.50975],
        [77.24264, 28.50899],
        [77.24237, 28.50826],
        [77.24224, 28.50779],
        [77.24195, 28.50674],
        [77.24209, 28.50577],
        [77.24215, 28.5054],
        [77.24223, 28.50472],
        [77.24226, 28.50447],
        [77.24249, 28.50369],
        [77.24268, 28.50296],
        [77.24266, 28.50227],
        [77.24274, 28.50211],
        [77.24286, 28.50123],
        [77.24308, 28.50047],
        [77.24344, 28.50049],
        [77.24349, 28.49967],
        [77.2436, 28.49947],
        [77.24372, 28.49851],
        [77.24368, 28.49666],
        [77.24357, 28.49592],
        [77.2436, 28.49579],
        [77.24351, 28.49538],
        [77.24341, 28.4952],
        [77.24333, 28.49492],
        [77.24293, 28.49355],
        [77.24266, 28.4931],
        [77.24228, 28.49241],
        [77.24216, 28.49223],
        [77.24212, 28.49224],
        [77.2419, 28.49273],
        [77.24174, 28.49286],
        [77.24141, 28.493],
        [77.24113, 28.49307],
        [77.23983, 28.49294],
        [77.23926, 28.4929],
        [77.23926, 28.49254],
        [77.23926, 28.49241],
        [77.23922, 28.49231],
        [77.23941, 28.49142],
        [77.23943, 28.49137],
        [77.23907, 28.49128],
        [77.23912, 28.49101],
        [77.2392, 28.49077],
        [77.23931, 28.49061],
        [77.23942, 28.49051],
        [77.23915, 28.49024],
        [77.23891, 28.48993],
        [77.23866, 28.48954],
        [77.23819, 28.48844],
        [77.23809, 28.48819],
        [77.23767, 28.48804],
        [77.23733, 28.4881],
        [77.23332, 28.48731],
        [77.23342, 28.48704],
        [77.23329, 28.48665],
        [77.23313, 28.48621],
        [77.23292, 28.48604],
        [77.23285, 28.4858],
        [77.23265, 28.48568],
        [77.2323, 28.48568],
        [77.23188, 28.48575],
        [77.23149, 28.486],
        [77.23108, 28.4864],
        [77.23055, 28.48668],
        [77.23018, 28.48678],
        [77.23011, 28.48693],
        [77.22995, 28.48722],
        [77.22973, 28.48734],
        [77.22943, 28.48726],
        [77.22909, 28.48704],
        [77.22877, 28.48656],
        [77.22844, 28.48602],
        [77.22802, 28.48547],
        [77.22755, 28.48523],
        [77.22506, 28.48384],
        [77.22518, 28.48266],
        [77.22781, 28.47598],
        [77.22605, 28.47542],
        [77.21921, 28.47327],
        [77.21769, 28.47532],
        [77.21691, 28.47542],
        [77.21638, 28.4755],
        [77.21594, 28.47645],
        [77.21561, 28.47706],
        [77.21526, 28.47773],
        [77.21475, 28.47836],
        [77.21447, 28.47833],
        [77.21404, 28.47823],
        [77.21348, 28.47826],
        [77.21323, 28.47809],
        [77.21279, 28.478],
        [77.21256, 28.47803],
        [77.21232, 28.47814],
        [77.21192, 28.47827],
        [77.21165, 28.47837],
        [77.21111, 28.47828],
        [77.21095, 28.47821],
        [77.21049, 28.47783],
        [77.21025, 28.47798],
        [77.20997, 28.47781],
        [77.20969, 28.47768],
        [77.20931, 28.47779],
        [77.20894, 28.47796],
        [77.20859, 28.47807],
        [77.20819, 28.47798],
        [77.20714, 28.47711],
        [77.20733, 28.47885],
        [77.20835, 28.47866],
        [77.20841, 28.47872],
        [77.2087, 28.47912],
        [77.20912, 28.47982],
        [77.20924, 28.48007],
        [77.20932, 28.48033],
        [77.20958, 28.48076],
        [77.2101, 28.48053],
        [77.211, 28.48111],
        [77.21128, 28.48168],
        [77.21202, 28.4811],
        [77.21263, 28.48071],
        [77.2129, 28.4808],
        [77.21301, 28.48089],
        [77.21314, 28.48104],
        [77.21354, 28.48121],
        [77.21417, 28.48148],
        [77.21425, 28.48159],
        [77.21428, 28.48166],
        [77.21435, 28.48174],
        [77.2145, 28.48192],
        [77.21465, 28.48202],
        [77.21485, 28.48211],
        [77.21508, 28.48223],
        [77.21506, 28.4824],
        [77.2151, 28.4825],
        [77.21512, 28.48261],
        [77.21518, 28.48313],
        [77.21518, 28.48335],
        [77.21512, 28.48348],
        [77.21514, 28.48367],
        [77.21524, 28.48384],
        [77.21543, 28.48402],
        [77.21584, 28.48405],
        [77.21638, 28.48417],
        [77.21667, 28.48427],
        [77.217, 28.48428],
        [77.21726, 28.48427],
        [77.21751, 28.48423],
        [77.21783, 28.48413],
        [77.21798, 28.48407],
        [77.21811, 28.48405],
        [77.21819, 28.48412],
        [77.21819, 28.48423],
        [77.21823, 28.4844],
        [77.2182, 28.48457],
        [77.21823, 28.48495],
        [77.22178, 28.48778],
        [77.22169, 28.48879],
        [77.22168, 28.48907],
        [77.22197, 28.48906],
        [77.22197, 28.49038],
        [77.22283, 28.49039],
        [77.22288, 28.49254],
        [77.2229, 28.49418],
        [77.22152, 28.4942],
        [77.22159, 28.49584],
        [77.22129, 28.49587],
        [77.22131, 28.49641],
        [77.2219, 28.49642],
        [77.22194, 28.4974],
        [77.22026, 28.49742],
        [77.22027, 28.49903],
        [77.22034, 28.49907],
        [77.22048, 28.49916],
        [77.22071, 28.49931],
        [77.22092, 28.49944],
        [77.22112, 28.4995],
        [77.22135, 28.49953],
        [77.22152, 28.49955],
        [77.22158, 28.49955],
        [77.22158, 28.50039],
        [77.22158, 28.50073],
        [77.22365, 28.50076],
        [77.22366, 28.50098],
        [77.22437, 28.50097],
        [77.22438, 28.50122],
        [77.22439, 28.50122],
        [77.22438, 28.50124],
        [77.22439, 28.50147],
        [77.22442, 28.50196],
        [77.22451, 28.50195],
        [77.22453, 28.50206],
        [77.22457, 28.5027],
        [77.22521, 28.50271],
        [77.22523, 28.50292],
        [77.22589, 28.50289],
        [77.22588, 28.50246],
        [77.22618, 28.50234],
        [77.22618, 28.50235],
        [77.22618, 28.50235],
        [77.22728, 28.50201],
        [77.22751, 28.50203],
        [77.22775, 28.50199],
        [77.22784, 28.50195],
        [77.22845, 28.50195],
        [77.22866, 28.50217],
        [77.2292, 28.50205],
        [77.22944, 28.5022],
        [77.22973, 28.50217],
        [77.22987, 28.50229],
        [77.22992, 28.5024],
        [77.23006, 28.5023],
        [77.23037, 28.5022],
        [77.23051, 28.50238],
        [77.23057, 28.50253],
        [77.23062, 28.50272],
        [77.23074, 28.50274],
        [77.23086, 28.50274],
        [77.23127, 28.50235],
        [77.23163, 28.50222],
        [77.23174, 28.50264],
        [77.23191, 28.50302],
        [77.23165, 28.5031],
        [77.23225, 28.50341],
        [77.23261, 28.50355],
        [77.23265, 28.50476],
        [77.23331, 28.50474],
        [77.23331, 28.50497],
        [77.23361, 28.50501],
        [77.2336, 28.50527],
        [77.23348, 28.50582],
        [77.23405, 28.50614],
        [77.23485, 28.50613],
        [77.23515, 28.50608],
        [77.23518, 28.50608],
        [77.23519, 28.50611],
        [77.23526, 28.50646],
        [77.23533, 28.50673],
        [77.23512, 28.50678],
        [77.23515, 28.50686],
        [77.23517, 28.50704],
        [77.23521, 28.50728],
        [77.23517, 28.50729],
        [77.2351, 28.5073],
        [77.23503, 28.50734],
        [77.23493, 28.50739],
        [77.23473, 28.50741],
        [77.23448, 28.50742],
        [77.23418, 28.50743],
        [77.23419, 28.50763],
        [77.2342, 28.50781],
        [77.23392, 28.50782],
        [77.23354, 28.50782],
        [77.23354, 28.50791],
        [77.23355, 28.50816],
        [77.23355, 28.50818],
        [77.23357, 28.50818],
        [77.23365, 28.50818],
        [77.23373, 28.50817],
        [77.23373, 28.50821],
        [77.23374, 28.50823],
        [77.23374, 28.50827],
        [77.23375, 28.50831],
        [77.23375, 28.50833],
        [77.23376, 28.50836],
        [77.23376, 28.50846],
        [77.23379, 28.5086],
        [77.23393, 28.50881],
        [77.23408, 28.50903],
        [77.23414, 28.50914],
        [77.23416, 28.50917],
        [77.23416, 28.50917],
        [77.23417, 28.50917],
        [77.23426, 28.50918],
        [77.23438, 28.50921],
        [77.23454, 28.50927],
        [77.23467, 28.50932],
        [77.2347, 28.50944],
        [77.23476, 28.5095],
        [77.2348, 28.50974],
        [77.23497, 28.51025],
        [77.23499, 28.51032],
        [77.23504, 28.51049],
        [77.23507, 28.51063],
        [77.23511, 28.51074],
        [77.23511, 28.51074],
        [77.23511, 28.51075],
        [77.23511, 28.51076],
        [77.23525, 28.51073],
        [77.23525, 28.51071],
        [77.23533, 28.51069],
        [77.23537, 28.51068],
        [77.23542, 28.51068],
        [77.23552, 28.51066],
        [77.2356, 28.51065],
        [77.23572, 28.51062],
        [77.2358, 28.5106],
        [77.23594, 28.51057],
        [77.23603, 28.51055],
        [77.23604, 28.51055],
        [77.23626, 28.51154],
        [77.23589, 28.51164],
        [77.23601, 28.51228],
        [77.23661, 28.51218],
        [77.23677, 28.51213],
        [77.23716, 28.51204],
        [77.23717, 28.51204],
        [77.23735, 28.51272],
        [77.23815, 28.51258],
        [77.23823, 28.51295],
        [77.23823, 28.51296],
        [77.23825, 28.51301],
        [77.23828, 28.51337],
        [77.23829, 28.5145],
        [77.23818, 28.5145],
        [77.23818, 28.51571],
        [77.23818, 28.51628],
        [77.23784, 28.51653],
        [77.23835, 28.51701],
        [77.23827, 28.51708],
        [77.23792, 28.51736],
        [77.23796, 28.51739],
        [77.23816, 28.51758],
        [77.23836, 28.51777],
        [77.23861, 28.51802],
        [77.23868, 28.51809],
        [77.23889, 28.5183],
        [77.23976, 28.51837],
        [77.24027, 28.51968],
        [77.2405, 28.51991],
        [77.24055, 28.5201],
        [77.2406, 28.52045],
        [77.24061, 28.52069],
        [77.24058, 28.52084],
        [77.2406, 28.52093],
        [77.24059, 28.52096],
        [77.24048, 28.52108],
        [77.24025, 28.52135],
        [77.24001, 28.52159],
        [77.23964, 28.52198],
        [77.23899, 28.52269],
        [77.23881, 28.52288],
        [77.23875, 28.52295],
        [77.23845, 28.52327],
        [77.23798, 28.52379],
        [77.23766, 28.52417],
        [77.23703, 28.52374],
        [77.23668, 28.52351],
        [77.23635, 28.52327],
        [77.2361, 28.5231],
        [77.23594, 28.52303],
        [77.23554, 28.52305],
        [77.23516, 28.52306],
        [77.23483, 28.52307],
        [77.234, 28.5231],
        [77.23391, 28.52311],
        [77.23355, 28.52312],
        [77.23337, 28.52313],
        [77.23295, 28.52314],
        [77.23255, 28.52316],
        [77.23244, 28.52316],
        [77.23237, 28.52317],
        [77.23224, 28.52317],
        [77.23199, 28.52323],
        [77.23142, 28.52343],
        [77.23103, 28.52357],
        [77.23102, 28.52357],
        [77.23071, 28.52368],
        [77.23046, 28.52377],
        [77.23011, 28.5239],
        [77.22987, 28.52396],
        [77.23001, 28.52432],
        [77.23012, 28.52456],
        [77.23036, 28.52513],
        [77.23044, 28.52534],
        [77.23063, 28.52576],
        [77.23082, 28.52618],
        [77.23105, 28.52681],
        [77.23124, 28.52729],
        [77.23144, 28.52777],
        [77.23161, 28.52825],
        [77.23181, 28.52881],
        [77.23182, 28.52885],
        [77.23186, 28.52895],
        [77.23187, 28.52902],
        [77.2319, 28.52945],
        [77.23193, 28.53023],
        [77.23195, 28.53113],
        [77.23196, 28.53129],
        [77.23196, 28.53131],
        [77.23196, 28.53145],
        [77.23197, 28.53184],
        [77.23199, 28.53248],
        [77.23202, 28.533],
        [77.23202, 28.53306],
        [77.23485, 28.533],
        [77.23527, 28.53274],
        [77.23572, 28.53231],
        [77.23583, 28.5321],
        [77.23586, 28.53165],
        [77.23595, 28.53136]
      ]
    ]
  }
}
