{
  "type": "Feature",
  "id": "DL-AC-55",
  "properties": {
    "stateName": "DELHI",
    "stateCode": "DL",
    "districtName": "EAST",
    "acNo": 55,
    "acName": "TRILOKPURI",
    "seatType": null,
    "pcNo": 3,
    "pcName": "EAST DELHI",
    "quality": "unverified",
    "sources": [
      "TBD"
    ]
  },
  "geometry": {
    "type": "Polygon",
    "coordinates": [
      [
        [77.31808, 28.61251],
        [77.31786, 28.61227],
        [77.31786, 28.61227],
        [77.31706, 28.61136],
        [77.31688, 28.61115],
        [77.31613, 28.61029],
        [77.31607, 28.61023],
        [77.31544, 28.60956],
        [77.31467, 28.60868],
        [77.3142, 28.60814],
        [77.31363, 28.60749],
        [77.31306, 28.60682],
        [77.31295, 28.6067],
        [77.3125, 28.60618],
        [77.312, 28.60559],
        [77.31188, 28.60545],
        [77.31147, 28.60495],
        [77.31125, 28.60465],
        [77.31098, 28.60436],
        [77.31081, 28.60418],
        [77.31067, 28.60403],
        [77.31041, 28.60375],
        [77.30961, 28.60279],
        [77.30956, 28.60272],
        [77.30952, 28.60268],
        [77.30878, 28.60182],
        [77.30846, 28.60148],
        [77.30797, 28.60098],
        [77.30795, 28.60095],
        [77.30771, 28.60066],
        [77.30758, 28.6005],
        [77.30745, 28.60036],
        [77.30728, 28.60014],
        [77.3078, 28.59981],
        [77.30783, 28.5998],
        [77.30922, 28.59862],
        [77.30968, 28.59822],
        [77.31003, 28.5979],
        [77.31016, 28.59778],
        [77.31021, 28.59773],
        [77.31055, 28.59721],
        [77.31081, 28.59683],
        [77.31115, 28.59631],
        [77.31135, 28.59599],
        [77.31172, 28.59547],
        [77.31203, 28.59499],
        [77.31217, 28.59479],
        [77.31228, 28.59462],
        [77.31227, 28.59461],
        [77.31228, 28.59458],
        [77.31237, 28.59444],
        [77.31237, 28.59444],
        [77.3124, 28.5944],
        [77.31236, 28.59438],
        [77.31236, 28.59438],
        [77.31223, 28.59431],
        [77.31221, 28.5943],
        [77.31224, 28.59426],
        [77.31222, 28.59423],
        [77.31215, 28.59412],
        [77.31213, 28.59404],
        [77.31208, 28.59401],
        [77.31203, 28.59386],
        [77.31204, 28.59384],
        [77.31206, 28.59382],
        [77.31206, 28.59382],
        [77.31205, 28.59382],
        [77.31203, 28.59379],
        [77.31198, 28.59374],
        [77.31196, 28.59371],
        [77.31182, 28.59357],
        [77.31182, 28.59357],
        [77.31171, 28.59346],
        [77.31151, 28.59325],
        [77.31146, 28.59317],
        [77.31124, 28.59281],
        [77.31117, 28.59267],
        [77.31116, 28.59266],
        [77.31115, 28.59258],
        [77.31115, 28.5922],
        [77.31115, 28.59207],
        [77.31116, 28.59199],
        [77.31114, 28.59193],
        [77.31088, 28.5916],
        [77.31067, 28.59131],
        [77.31059, 28.59121],
        [77.31029, 28.59083],
        [77.31026, 28.59077],
        [77.30982, 28.5903],
        [77.30945, 28.58988],
        [77.30901, 28.58947],
        [77.30872, 28.58922],
        [77.3086, 28.58915],
        [77.30858, 28.58913],
        [77.30785, 28.58843],
        [77.30751, 28.58811],
        [77.30733, 28.58795],
        [77.30717, 28.58783],
        [77.30689, 28.58758],
        [77.30674, 28.58746],
        [77.30647, 28.58727],
        [77.30616, 28.58703],
        [77.30579, 28.58673],
        [77.30541, 28.58643],
        [77.30501, 28.58611],
        [77.30457, 28.58577],
        [77.30417, 28.58532],
        [77.30392, 28.58551],
        [77.30373, 28.58561],
        [77.30313, 28.58589],
        [77.30254, 28.58611],
        [77.30187, 28.58623],
        [77.3008, 28.58623],
        [77.3004, 28.58626],
        [77.30015, 28.58628],
        [77.29988, 28.58626],
        [77.29989, 28.58659],
        [77.29975, 28.58723],
        [77.29961, 28.58792],
        [77.29962, 28.58827],
        [77.29988, 28.58869],
        [77.30075, 28.58963],
        [77.30276, 28.59194],
        [77.30292, 28.5921],
        [77.30111, 28.59317],
        [77.30107, 28.59318],
        [77.30084, 28.59329],
        [77.30046, 28.59347],
        [77.30017, 28.59362],
        [77.30002, 28.59372],
        [77.29979, 28.59387],
        [77.2996, 28.59402],
        [77.29954, 28.59409],
        [77.29949, 28.59416],
        [77.29946, 28.59424],
        [77.29937, 28.59465],
        [77.29937, 28.59467],
        [77.29917, 28.59465],
        [77.29833, 28.59448],
        [77.29791, 28.59438],
        [77.29766, 28.59429],
        [77.29683, 28.59397],
        [77.29646, 28.59382],
        [77.29556, 28.59567],
        [77.29482, 28.59714],
        [77.2949, 28.59717],
        [77.29442, 28.59823],
        [77.29518, 28.59853],
        [77.29509, 28.59867],
        [77.29429, 28.59969],
        [77.2943, 28.59992],
        [77.29418, 28.60006],
        [77.29376, 28.60063],
        [77.29339, 28.60114],
        [77.29334, 28.60128],
        [77.29336, 28.60134],
        [77.29347, 28.60145],
        [77.29367, 28.60163],
        [77.29418, 28.60224],
        [77.29454, 28.60261],
        [77.29483, 28.60291],
        [77.29496, 28.60302],
        [77.29509, 28.60306],
        [77.2952, 28.60305],
        [77.29526, 28.6031],
        [77.29557, 28.60327],
        [77.29639, 28.6038],
        [77.29704, 28.60421],
        [77.29719, 28.60398],
        [77.29741, 28.60354],
        [77.2978, 28.60267],
        [77.29826, 28.60173],
        [77.29854, 28.60118],
        [77.29906, 28.6001],
        [77.29919, 28.59976],
        [77.29927, 28.59959],
        [77.29928, 28.59957],
        [77.29937, 28.59936],
        [77.29956, 28.59895],
        [77.29973, 28.59872],
        [77.2999, 28.5986],
        [77.30037, 28.59836],
        [77.3009, 28.59809],
        [77.3013, 28.59796],
        [77.30139, 28.59786],
        [77.30184, 28.59768],
        [77.30158, 28.59743],
        [77.30176, 28.59721],
        [77.3015, 28.59697],
        [77.30125, 28.59677],
        [77.30107, 28.59659],
        [77.30125, 28.59648],
        [77.30146, 28.59629],
        [77.30155, 28.59624],
        [77.30179, 28.59611],
        [77.30168, 28.59596],
        [77.30202, 28.59577],
        [77.30193, 28.59563],
        [77.30187, 28.59558],
        [77.30179, 28.59551],
        [77.30208, 28.59525],
        [77.30245, 28.59497],
        [77.30274, 28.59475],
        [77.30334, 28.59552],
        [77.30396, 28.59627],
        [77.3047, 28.5972],
        [77.3047, 28.5972],
        [77.30471, 28.59721],
        [77.30475, 28.59724],
        [77.30538, 28.59795],
        [77.30603, 28.5987],
        [77.3059, 28.59911],
        [77.30549, 28.60013],
        [77.30523, 28.60082],
        [77.30497, 28.6015],
        [77.30458, 28.6025],
        [77.3042, 28.60352],
        [77.30385, 28.60441],
        [77.30334, 28.60574],
        [77.30286, 28.60705],
        [77.3027, 28.60701],
        [77.3022, 28.60686],
        [77.30199, 28.6068],
        [77.30162, 28.60668],
        [77.30157, 28.60667],
        [77.30156, 28.60666],
        [77.30154, 28.60666],
        [77.30096, 28.60648],
        [77.30019, 28.60624],
        [77.30032, 28.60588],
        [77.29945, 28.60558],
        [77.29925, 28.60596],
        [77.29885, 28.60583],
        [77.29847, 28.60571],
        [77.2967, 28.60519],
        [77.29667, 28.60518],
        [77.29665, 28.60517],
        [77.29664, 28.60517],
        [77.29664, 28.60517],
        [77.29661, 28.60516],
        [77.29656, 28.60533],
        [77.2964, 28.60571],
        [77.29618, 28.60633],
        [77.29594, 28.60688],
        [77.29578, 28.60736],
        [77.2956, 28.60784],
        [77.29531, 28.60855],
        [77.29527, 28.60865],
        [77.29506, 28.6092],
        [77.29503, 28.60941],
        [77.29533, 28.60957],
        [77.29597, 28.60975],
        [77.29637, 28.6099],
        [77.29648, 28.61],
        [77.29631, 28.61034],
        [77.29619, 28.61053],
        [77.29563, 28.61118],
        [77.29528, 28.61152],
        [77.29444, 28.6119],
        [77.29402, 28.61208],
        [77.29386, 28.61221],
        [77.29367, 28.61256],
        [77.29348, 28.61306],
        [77.29328, 28.61343],
        [77.29313, 28.6138],
        [77.29316, 28.61385],
        [77.29317, 28.61388],
        [77.29317, 28.61389],
        [77.29325, 28.61387],
        [77.29345, 28.61377],
        [77.29373, 28.61364],
        [77.29388, 28.61357],
        [77.29408, 28.61352],
        [77.29432, 28.61347],
        [77.29471, 28.6134],
        [77.29503, 28.61334],
        [77.29559, 28.61326],
        [77.29573, 28.61323],
        [77.29629, 28.61313],
        [77.29653, 28.61308],
        [77.29715, 28.61296],
        [77.29752, 28.61289],
        [77.29785, 28.61284],
        [77.29795, 28.61283],
        [77.29803, 28.61283],
        [77.29813, 28.61284],
        [77.29833, 28.6129],
        [77.29876, 28.61308],
        [77.29901, 28.61317],
        [77.29927, 28.61327],
        [77.2995, 28.61334],
        [77.29969, 28.6134],
        [77.29984, 28.61344],
        [77.29996, 28.61346],
        [77.30014, 28.61348],
        [77.3003, 28.61348],
        [77.30047, 28.61347],
        [77.30063, 28.61346],
        [77.30077, 28.61344],
        [77.30091, 28.61342],
        [77.30102, 28.61338],
        [77.30139, 28.61326],
        [77.3018, 28.61314],
        [77.30209, 28.61308],
        [77.30244, 28.61298],
        [77.30272, 28.61292],
        [77.30291, 28.6129],
        [77.30311, 28.61287],
        [77.30342, 28.61286],
        [77.30376, 28.61284],
        [77.30399, 28.61284],
        [77.30427, 28.61284],
        [77.30454, 28.61283],
        [77.30491, 28.61281],
        [77.30526, 28.61279],
        [77.30542, 28.61278],
        [77.30581, 28.61275],
        [77.30625, 28.61272],
        [77.30674, 28.61268],
        [77.30715, 28.61266],
        [77.30744, 28.61265],
        [77.30746, 28.61266],
        [77.30756, 28.61268],
        [77.30765, 28.61271],
        [77.30796, 28.61277],
        [77.30816, 28.61277],
        [77.30825, 28.61278],
        [77.30866, 28.61271],
        [77.30902, 28.61265],
        [77.30931, 28.61263],
        [77.30967, 28.61261],
        [77.31005, 28.61262],
        [77.31073, 28.61265],
        [77.31142, 28.61271],
        [77.31144, 28.61272],
        [77.3116, 28.61276],
        [77.31293, 28.61292],
        [77.31362, 28.61302],
        [77.31435, 28.61311],
        [77.31517, 28.61319],
        [77.31572, 28.61329],
        [77.31631, 28.61344],
        [77.3171, 28.61362],
        [77.31783, 28.61381],
        [77.31813, 28.61389],
        [77.31824, 28.61395],
        [77.31833, 28.61401],
        [77.31853, 28.6142],
        [77.31895, 28.6146],
        [77.31929, 28.61492],
        [77.31931, 28.61501],
        [77.31931, 28.61502],
        [77.31931, 28.61502],
        [77.31932, 28.61516],
        [77.31932, 28.61537],
        [77.31935, 28.61552],
        [77.31987, 28.61516],
        [77.32025, 28.61494],
        [77.32021, 28.61489],
        [77.31971, 28.6144],
        [77.31913, 28.61374],
        [77.31808, 28.61251]
      ]
    ]
  }
}
