{
  "type": "Feature",
  "id": "TS-AC-117",
  "properties": {
    "stateName": "TELANGANA",
    "stateCode": "TS",
    "districtName": "KHAMMAM",
    "acNo": 117,
    "acName": "ASWARAOPETA (ST)",
    "seatType": null,
    "pcNo": null,
    "pcName": null,
    "quality": "unverified",
    "sources": [
      "TBD"
    ]
  },
  "geometry": {
    "type": "Polygon",
    "coordinates": [
      [
        [80.9962, 17.191],
        [80.99586, 17.19106],
        [80.9956, 17.1911],
        [80.99448, 17.19156],
        [80.9939, 17.1918],
        [80.99341, 17.19201],
        [80.9932, 17.1921],
        [80.9917, 17.1928],
        [80.9886, 17.194],
        [80.9871, 17.19466],
        [80.9861, 17.1951],
        [80.9834, 17.196],
        [80.9827, 17.196],
        [80.98266, 17.19596],
        [80.9826, 17.1959],
        [80.982, 17.1957],
        [80.98196, 17.19572],
        [80.9812, 17.1961],
        [80.9806, 17.1968],
        [80.9796, 17.1975],
        [80.979, 17.1978],
        [80.97856, 17.19805],
        [80.9778, 17.1985],
        [80.9774, 17.1986],
        [80.97731, 17.19863],
        [80.9765, 17.1989],
        [80.97624, 17.19929],
        [80.9761, 17.1995],
        [80.9756, 17.2],
        [80.9756, 17.2],
        [80.9751, 17.2003],
        [80.97454, 17.20051],
        [80.9743, 17.2006],
        [80.9736, 17.2006],
        [80.97247, 17.20044],
        [80.97221, 17.20041],
        [80.97194, 17.20056],
        [80.9714, 17.2009],
        [80.97086, 17.20099],
        [80.97076, 17.20101],
        [80.97054, 17.20085],
        [80.97052, 17.20081],
        [80.9705, 17.2008],
        [80.97041, 17.20061],
        [80.97, 17.1998],
        [80.9694, 17.1988],
        [80.96907, 17.1986],
        [80.96896, 17.19854],
        [80.9689, 17.1985],
        [80.9689, 17.1985],
        [80.9688, 17.1985],
        [80.9681, 17.1986],
        [80.96781, 17.19889],
        [80.9678, 17.1989],
        [80.9677, 17.1991],
        [80.96768, 17.19912],
        [80.9676, 17.1992],
        [80.9676, 17.1995],
        [80.9676, 17.1996],
        [80.96765, 17.1998],
        [80.9677, 17.2],
        [80.9678, 17.2009],
        [80.9683, 17.2024],
        [80.9682, 17.2027],
        [80.96817, 17.20271],
        [80.9679, 17.2028],
        [80.9678, 17.2028],
        [80.9661, 17.2033],
        [80.96596, 17.2033],
        [80.96591, 17.20331],
        [80.96518, 17.2033],
        [80.9644, 17.2033],
        [80.9632, 17.2035],
        [80.96238, 17.20372],
        [80.9617, 17.2039],
        [80.9605, 17.2042],
        [80.96015, 17.20438],
        [80.9593, 17.2048],
        [80.9574, 17.206],
        [80.95644, 17.20675],
        [80.956, 17.2071],
        [80.9548, 17.208],
        [80.95437, 17.20833],
        [80.9539, 17.2087],
        [80.95353, 17.20891],
        [80.9532, 17.2091],
        [80.9524, 17.2101],
        [80.95201, 17.21061],
        [80.9518, 17.2109],
        [80.9513, 17.2114],
        [80.9501, 17.2126],
        [80.94988, 17.21276],
        [80.9491, 17.2133],
        [80.94887, 17.21343],
        [80.9484, 17.2137],
        [80.9476, 17.2142],
        [80.9469, 17.2151],
        [80.94633, 17.2158],
        [80.946, 17.2162],
        [80.94551, 17.21664],
        [80.945, 17.2171],
        [80.94351, 17.21771],
        [80.94329, 17.21781],
        [80.9415, 17.219],
        [80.9406, 17.2193],
        [80.93851, 17.21965],
        [80.93816, 17.21971],
        [80.93804, 17.21972],
        [80.9372, 17.2198],
        [80.9356, 17.2199],
        [80.9343, 17.2197],
        [80.93381, 17.21973],
        [80.9325, 17.2198],
        [80.93235, 17.21985],
        [80.9322, 17.2199],
        [80.9311, 17.22],
        [80.9303, 17.22],
        [80.92979, 17.22],
        [80.9293, 17.22],
        [80.9285, 17.2202],
        [80.9277, 17.2203],
        [80.92726, 17.2203],
        [80.9261, 17.2203],
        [80.9258, 17.2203],
        [80.9253, 17.2201],
        [80.92516, 17.22003],
        [80.9247, 17.2198],
        [80.92422, 17.2198],
        [80.9241, 17.2198],
        [80.9237, 17.2198],
        [80.9233, 17.2198],
        [80.92318, 17.2198],
        [80.9227, 17.2198],
        [80.9224, 17.2198],
        [80.92208, 17.21972],
        [80.922, 17.2197],
        [80.9217, 17.2195],
        [80.92143, 17.21933],
        [80.92118, 17.21921],
        [80.9209, 17.2191],
        [80.9206, 17.2191],
        [80.92046, 17.21915],
        [80.92031, 17.21924],
        [80.92007, 17.21931],
        [80.9199, 17.2194],
        [80.9193, 17.2195],
        [80.91908, 17.21981],
        [80.91892, 17.22004],
        [80.91794, 17.22003],
        [80.91777, 17.22006],
        [80.91754, 17.22013],
        [80.91698, 17.22026],
        [80.91697, 17.22026],
        [80.91642, 17.22037],
        [80.91572, 17.22048],
        [80.91547, 17.22053],
        [80.91531, 17.22054],
        [80.91522, 17.22054],
        [80.9148, 17.22051],
        [80.91465, 17.22047],
        [80.91444, 17.22049],
        [80.91431, 17.22048],
        [80.91316, 17.22038],
        [80.91307, 17.22039],
        [80.91285, 17.2203],
        [80.91257, 17.22032],
        [80.91166, 17.22038],
        [80.91153, 17.22041],
        [80.9114, 17.22041],
        [80.91, 17.22047],
        [80.90978, 17.22041],
        [80.90974, 17.2204],
        [80.90889, 17.22018],
        [80.90869, 17.22018],
        [80.90855, 17.2202],
        [80.90829, 17.22022],
        [80.90819, 17.22024],
        [80.90803, 17.22018],
        [80.90734, 17.22012],
        [80.90714, 17.22013],
        [80.90695, 17.22012],
        [80.9066, 17.22013],
        [80.90503, 17.22018],
        [80.90488, 17.2202],
        [80.90473, 17.22022],
        [80.90471, 17.22022],
        [80.90456, 17.22023],
        [80.90444, 17.22024],
        [80.9043, 17.22023],
        [80.90392, 17.22027],
        [80.90349, 17.2203],
        [80.903, 17.22035],
        [80.90281, 17.22035],
        [80.90259, 17.22037],
        [80.90244, 17.22038],
        [80.90234, 17.2204],
        [80.90219, 17.22042],
        [80.90163, 17.22048],
        [80.90149, 17.22048],
        [80.90138, 17.2205],
        [80.9011, 17.22055],
        [80.90091, 17.22058],
        [80.90057, 17.22063],
        [80.90042, 17.22064],
        [80.90029, 17.22065],
        [80.90013, 17.22069],
        [80.89999, 17.2207],
        [80.89986, 17.22071],
        [80.8995, 17.22077],
        [80.89937, 17.22081],
        [80.8992, 17.22078],
        [80.89896, 17.22082],
        [80.89875, 17.22082],
        [80.89871, 17.22082],
        [80.89804, 17.22088],
        [80.8976, 17.22092],
        [80.89651, 17.22101],
        [80.89547, 17.22144],
        [80.89415, 17.22199],
        [80.89326, 17.22221],
        [80.89341, 17.22257],
        [80.89365, 17.22319],
        [80.89266, 17.22329],
        [80.89192, 17.22336],
        [80.89191, 17.22343],
        [80.89136, 17.22388],
        [80.89069, 17.22442],
        [80.8906, 17.22449],
        [80.88995, 17.22509],
        [80.88939, 17.2256],
        [80.8892, 17.22577],
        [80.8888, 17.22614],
        [80.88877, 17.22617],
        [80.88788, 17.22698],
        [80.88781, 17.22704],
        [80.88773, 17.22718],
        [80.88759, 17.22729],
        [80.88669, 17.22802],
        [80.88555, 17.22894],
        [80.88531, 17.22919],
        [80.88522, 17.22945],
        [80.88521, 17.22946],
        [80.8851, 17.22956],
        [80.88468, 17.22967],
        [80.8846, 17.22971],
        [80.88439, 17.22981],
        [80.88329, 17.22996],
        [80.88324, 17.22996],
        [80.88327, 17.22975],
        [80.88328, 17.22972],
        [80.88303, 17.22975],
        [80.883, 17.22976],
        [80.88273, 17.22984],
        [80.88266, 17.22985],
        [80.88232, 17.22992],
        [80.88181, 17.22999],
        [80.8818, 17.23004],
        [80.88184, 17.23025],
        [80.88202, 17.23063],
        [80.88137, 17.23092],
        [80.88137, 17.23093],
        [80.8809, 17.23107],
        [80.87998, 17.23138],
        [80.87974, 17.23151],
        [80.87942, 17.23167],
        [80.87894, 17.23191],
        [80.87893, 17.23192],
        [80.87846, 17.23183],
        [80.87809, 17.23193],
        [80.87791, 17.23197],
        [80.87788, 17.232],
        [80.87783, 17.23204],
        [80.87743, 17.23219],
        [80.87673, 17.23245],
        [80.8767, 17.23247],
        [80.87628, 17.23246],
        [80.87612, 17.23268],
        [80.87593, 17.23303],
        [80.87594, 17.23307],
        [80.87597, 17.2332],
        [80.87583, 17.23322],
        [80.8755, 17.23327],
        [80.8756, 17.23299],
        [80.87529, 17.23303],
        [80.87471, 17.23311],
        [80.87446, 17.23314],
        [80.87444, 17.23314],
        [80.87439, 17.23313],
        [80.87353, 17.23338],
        [80.87331, 17.23344],
        [80.8729, 17.23356],
        [80.87285, 17.2334],
        [80.87263, 17.23344],
        [80.87235, 17.23289],
        [80.87227, 17.23276],
        [80.87201, 17.23227],
        [80.87128, 17.2324],
        [80.87124, 17.2324],
        [80.87049, 17.23238],
        [80.86934, 17.23234],
        [80.86835, 17.23234],
        [80.86837, 17.23238],
        [80.86846, 17.23257],
        [80.86791, 17.23282],
        [80.86779, 17.23282],
        [80.86778, 17.23342],
        [80.86735, 17.23363],
        [80.86659, 17.2339],
        [80.8661, 17.23425],
        [80.86477, 17.2352],
        [80.86484, 17.23529],
        [80.86501, 17.23578],
        [80.86501, 17.23581],
        [80.865, 17.23605],
        [80.86501, 17.2361],
        [80.86518, 17.23686],
        [80.86523, 17.23706],
        [80.86527, 17.2372],
        [80.86533, 17.23746],
        [80.86538, 17.23764],
        [80.86539, 17.23765],
        [80.8655, 17.2384],
        [80.86554, 17.23864],
        [80.86554, 17.23869],
        [80.86552, 17.23881],
        [80.86563, 17.23921],
        [80.86564, 17.23926],
        [80.86565, 17.23932],
        [80.86572, 17.23992],
        [80.86574, 17.24001],
        [80.86574, 17.24005],
        [80.86574, 17.24009],
        [80.86575, 17.24013],
        [80.86583, 17.24101],
        [80.86586, 17.24119],
        [80.86598, 17.24216],
        [80.86624, 17.24271],
        [80.86647, 17.24341],
        [80.86671, 17.24415],
        [80.86678, 17.24439],
        [80.86712, 17.24541],
        [80.86729, 17.24582],
        [80.86735, 17.24595],
        [80.86739, 17.24605],
        [80.86744, 17.24615],
        [80.86754, 17.24634],
        [80.86752, 17.24687],
        [80.86752, 17.24693],
        [80.86755, 17.24787],
        [80.86751, 17.24815],
        [80.86737, 17.24907],
        [80.86736, 17.24913],
        [80.86742, 17.25011],
        [80.86749, 17.25066],
        [80.86754, 17.25082],
        [80.86776, 17.2515],
        [80.86793, 17.2522],
        [80.86798, 17.25239],
        [80.86795, 17.25276],
        [80.86818, 17.25334],
        [80.86812, 17.2538],
        [80.86818, 17.2542],
        [80.86824, 17.25448],
        [80.86828, 17.25473],
        [80.86829, 17.25481],
        [80.8683, 17.25487],
        [80.86818, 17.25495],
        [80.86839, 17.25559],
        [80.86889, 17.25664],
        [80.86897, 17.25683],
        [80.86942, 17.25755],
        [80.86977, 17.25811],
        [80.86986, 17.25822],
        [80.86991, 17.25831],
        [80.87059, 17.25937],
        [80.87095, 17.26005],
        [80.87092, 17.26022],
        [80.87102, 17.26038],
        [80.87152, 17.26115],
        [80.87159, 17.26128],
        [80.87168, 17.2614],
        [80.87319, 17.26362],
        [80.87371, 17.26457],
        [80.8738, 17.26472],
        [80.87392, 17.26485],
        [80.87447, 17.26588],
        [80.87468, 17.26623],
        [80.87469, 17.26621],
        [80.87485, 17.26649],
        [80.87489, 17.26662],
        [80.87482, 17.2671],
        [80.8747, 17.26796],
        [80.87459, 17.26925],
        [80.87459, 17.26958],
        [80.87376, 17.27026],
        [80.87336, 17.271],
        [80.87326, 17.27146],
        [80.8729, 17.27275],
        [80.87257, 17.2741],
        [80.87202, 17.27563],
        [80.87193, 17.27608],
        [80.87168, 17.27702],
        [80.87143, 17.27782],
        [80.87126, 17.2787],
        [80.87036, 17.27963],
        [80.87018, 17.27988],
        [80.86968, 17.28099],
        [80.86947, 17.28146],
        [80.86927, 17.28253],
        [80.86915, 17.28298],
        [80.86947, 17.28473],
        [80.86939, 17.2849],
        [80.86943, 17.28564],
        [80.86949, 17.28628],
        [80.86954, 17.28686],
        [80.86957, 17.28701],
        [80.86957, 17.28724],
        [80.86961, 17.28767],
        [80.86963, 17.28796],
        [80.86972, 17.28866],
        [80.86987, 17.28955],
        [80.86993, 17.28997],
        [80.86998, 17.29038],
        [80.87016, 17.2917],
        [80.87047, 17.29333],
        [80.87057, 17.29408],
        [80.87055, 17.29583],
        [80.87058, 17.29607],
        [80.87075, 17.29778],
        [80.87077, 17.29806],
        [80.87101, 17.30073],
        [80.87117, 17.30233],
        [80.8713, 17.30351],
        [80.87136, 17.30428],
        [80.87139, 17.3047],
        [80.87141, 17.3052],
        [80.87158, 17.30835],
        [80.87172, 17.31167],
        [80.87185, 17.31367],
        [80.87205, 17.31708],
        [80.87215, 17.31919],
        [80.87235, 17.32059],
        [80.87259, 17.32211],
        [80.87148, 17.32313],
        [80.87123, 17.32347],
        [80.87028, 17.32835],
        [80.86885, 17.33569],
        [80.86749, 17.35418],
        [80.86629, 17.35486],
        [80.86334, 17.35475],
        [80.86222, 17.35681],
        [80.85957, 17.36214],
        [80.85402, 17.36935],
        [80.85097, 17.37426],
        [80.84998, 17.37584],
        [80.84982, 17.37611],
        [80.84929, 17.37697],
        [80.84902, 17.37735],
        [80.84837, 17.37695],
        [80.84867, 17.37463],
        [80.84891, 17.37275],
        [80.84902, 17.37203],
        [80.84962, 17.36792],
        [80.85046, 17.3626],
        [80.85131, 17.35646],
        [80.85143, 17.35462],
        [80.84441, 17.35446],
        [80.83997, 17.35434],
        [80.82992, 17.35414],
        [80.82705, 17.35115],
        [80.82272, 17.34717],
        [80.82107, 17.34574],
        [80.81537, 17.34066],
        [80.81257, 17.33858],
        [80.81178, 17.33792],
        [80.81161, 17.33781],
        [80.81119, 17.33751],
        [80.81117, 17.3375],
        [80.8111, 17.33745],
        [80.81015, 17.33687],
        [80.80929, 17.33631],
        [80.80902, 17.33613],
        [80.80787, 17.33541],
        [80.80704, 17.33487],
        [80.80486, 17.3353],
        [80.80299, 17.33578],
        [80.80268, 17.33584],
        [80.80068, 17.336],
        [80.79993, 17.33606],
        [80.79989, 17.33607],
        [80.79987, 17.33607],
        [80.79906, 17.33613],
        [80.79905, 17.33613],
        [80.79821, 17.33619],
        [80.79819, 17.33619],
        [80.79731, 17.33625],
        [80.79729, 17.33626],
        [80.79635, 17.33633],
        [80.79589, 17.33635],
        [80.79533, 17.33639],
        [80.79434, 17.33644],
        [80.79332, 17.33648],
        [80.79054, 17.33655],
        [80.78739, 17.3367],
        [80.78633, 17.33674],
        [80.78621, 17.33647],
        [80.78566, 17.33537],
        [80.78531, 17.33467],
        [80.78513, 17.33429],
        [80.7846, 17.33337],
        [80.78457, 17.33332],
        [80.78419, 17.3323],
        [80.78414, 17.33216],
        [80.78405, 17.33191],
        [80.784, 17.33175],
        [80.78393, 17.33166],
        [80.78361, 17.33115],
        [80.78368, 17.33074],
        [80.7837, 17.33066],
        [80.78374, 17.33022],
        [80.78383, 17.32949],
        [80.78386, 17.32937],
        [80.78393, 17.32916],
        [80.78375, 17.3283],
        [80.78371, 17.32817],
        [80.78359, 17.32762],
        [80.78353, 17.32739],
        [80.78332, 17.32643],
        [80.78318, 17.32587],
        [80.78317, 17.32583],
        [80.7829, 17.32476],
        [80.78282, 17.32444],
        [80.7827, 17.32402],
        [80.78256, 17.32343],
        [80.78249, 17.32313],
        [80.78256, 17.32292],
        [80.78217, 17.32222],
        [80.78216, 17.3222],
        [80.78209, 17.32202],
        [80.78028, 17.31767],
        [80.77873, 17.31421],
        [80.77781, 17.31228],
        [80.77628, 17.30929],
        [80.77487, 17.30728],
        [80.77334, 17.30635],
        [80.77324, 17.30467],
        [80.77271, 17.30541],
        [80.76913, 17.30764],
        [80.76136, 17.31296],
        [80.75441, 17.31759],
        [80.75355, 17.31812],
        [80.74893, 17.32099],
        [80.74526, 17.31584],
        [80.74324, 17.31285],
        [80.7408, 17.30923],
        [80.73702, 17.30489],
        [80.72717, 17.30889],
        [80.71946, 17.30887],
        [80.71942, 17.30886],
        [80.71829, 17.30886],
        [80.71721, 17.30885],
        [80.71407, 17.30739],
        [80.71113, 17.30603],
        [80.71053, 17.30589],
        [80.7092, 17.30537],
        [80.70871, 17.30517],
        [80.70842, 17.30535],
        [80.70814, 17.30544],
        [80.70802, 17.30527],
        [80.70798, 17.30514],
        [80.70788, 17.3048],
        [80.70786, 17.3047],
        [80.70774, 17.30442],
        [80.70765, 17.30421],
        [80.70756, 17.30409],
        [80.70753, 17.30397],
        [80.7075, 17.3039],
        [80.70736, 17.30356],
        [80.70732, 17.30348],
        [80.70731, 17.30346],
        [80.7073, 17.30342],
        [80.70729, 17.3034],
        [80.70728, 17.30336],
        [80.70727, 17.30333],
        [80.70724, 17.30324],
        [80.7072, 17.3031],
        [80.70718, 17.30278],
        [80.70718, 17.30269],
        [80.70704, 17.30263],
        [80.707, 17.30261],
        [80.70698, 17.30258],
        [80.7069, 17.3024],
        [80.70688, 17.30233],
        [80.70668, 17.30196],
        [80.70652, 17.30172],
        [80.70649, 17.30168],
        [80.70621, 17.30127],
        [80.70643, 17.30092],
        [80.7061, 17.29988],
        [80.70598, 17.29923],
        [80.7054, 17.29914],
        [80.70537, 17.29904],
        [80.70534, 17.29895],
        [80.7053, 17.29885],
        [80.70521, 17.29862],
        [80.70519, 17.29852],
        [80.70512, 17.29828],
        [80.70497, 17.29775],
        [80.70491, 17.29726],
        [80.70433, 17.29647],
        [80.7043, 17.29643],
        [80.70368, 17.29547],
        [80.70293, 17.29551],
        [80.70241, 17.29438],
        [80.70205, 17.29382],
        [80.70151, 17.29302],
        [80.69988, 17.2914],
        [80.69864, 17.2902],
        [80.69655, 17.2881],
        [80.69513, 17.28666],
        [80.69457, 17.28655],
        [80.69455, 17.28654],
        [80.69403, 17.28643],
        [80.68848, 17.28577],
        [80.68847, 17.28578],
        [80.68843, 17.2858],
        [80.68657, 17.28688],
        [80.68603, 17.28724],
        [80.68597, 17.2876],
        [80.6849, 17.28803],
        [80.68339, 17.28919],
        [80.67946, 17.29234],
        [80.67529, 17.29544],
        [80.67104, 17.29855],
        [80.67019, 17.29917],
        [80.66752, 17.30112],
        [80.66705, 17.30071],
        [80.66613, 17.30125],
        [80.65015, 17.30976],
        [80.64987, 17.31039],
        [80.64877, 17.3123],
        [80.64777, 17.31409],
        [80.64653, 17.31633],
        [80.64548, 17.3182],
        [80.64424, 17.32057],
        [80.64212, 17.31998],
        [80.63952, 17.31926],
        [80.63664, 17.31844],
        [80.63393, 17.31764],
        [80.63215, 17.31712],
        [80.63014, 17.31649],
        [80.62549, 17.3197],
        [80.62531, 17.32013],
        [80.62408, 17.3219],
        [80.62292, 17.32373],
        [80.62207, 17.32471],
        [80.62048, 17.3269],
        [80.61713, 17.33173],
        [80.6153, 17.33429],
        [80.61267, 17.33771],
        [80.61029, 17.34088],
        [80.60712, 17.34528],
        [80.60357, 17.35021],
        [80.60313, 17.34871],
        [80.60248, 17.34671],
        [80.60211, 17.3456],
        [80.60145, 17.3453],
        [80.59915, 17.34441],
        [80.59902, 17.34431],
        [80.59601, 17.34326],
        [80.59319, 17.34214],
        [80.59193, 17.34167],
        [80.59181, 17.34165],
        [80.58834, 17.34034],
        [80.58785, 17.34021],
        [80.58499, 17.33907],
        [80.58144, 17.3377],
        [80.57881, 17.33663],
        [80.57806, 17.3363],
        [80.57573, 17.33535],
        [80.57474, 17.3319],
        [80.57373, 17.32799],
        [80.57331, 17.32666],
        [80.56803, 17.32745],
        [80.56275, 17.32827],
        [80.55703, 17.3293],
        [80.55661, 17.33323],
        [80.55649, 17.33438],
        [80.55631, 17.33702],
        [80.55626, 17.33796],
        [80.5562, 17.33857],
        [80.55618, 17.33918],
        [80.55616, 17.33952],
        [80.55613, 17.34009],
        [80.55614, 17.3411],
        [80.55615, 17.34195],
        [80.55615, 17.3425],
        [80.55616, 17.34311],
        [80.55617, 17.34386],
        [80.55617, 17.34398],
        [80.55617, 17.34445],
        [80.55618, 17.34522],
        [80.55618, 17.34557],
        [80.55619, 17.34579],
        [80.55619, 17.34582],
        [80.55619, 17.34622],
        [80.5562, 17.34736],
        [80.55621, 17.34787],
        [80.55623, 17.34974],
        [80.55624, 17.35133],
        [80.55626, 17.35294],
        [80.55626, 17.35358],
        [80.55625, 17.35475],
        [80.55614, 17.36123],
        [80.5561, 17.36407],
        [80.55626, 17.36645],
        [80.55638, 17.36811],
        [80.55699, 17.36867],
        [80.55775, 17.36936],
        [80.55937, 17.37075],
        [80.56066, 17.3719],
        [80.56097, 17.3722],
        [80.56155, 17.37276],
        [80.56303, 17.37419],
        [80.56309, 17.37425],
        [80.56354, 17.37468],
        [80.56378, 17.37491],
        [80.56372, 17.37505],
        [80.56433, 17.37555],
        [80.56443, 17.37563],
        [80.56488, 17.37739],
        [80.56503, 17.37797],
        [80.56554, 17.37996],
        [80.56557, 17.38005],
        [80.56619, 17.38248],
        [80.56621, 17.38255],
        [80.56629, 17.38286],
        [80.56684, 17.38491],
        [80.56691, 17.38516],
        [80.56727, 17.38648],
        [80.56733, 17.38671],
        [80.56726, 17.3867],
        [80.56731, 17.38683],
        [80.5674, 17.38711],
        [80.56767, 17.38785],
        [80.56788, 17.38844],
        [80.56801, 17.38877],
        [80.56804, 17.38884],
        [80.56827, 17.38943],
        [80.56842, 17.3898],
        [80.56844, 17.38986],
        [80.56829, 17.3899],
        [80.56808, 17.38997],
        [80.56829, 17.39093],
        [80.56833, 17.3911],
        [80.56847, 17.39222],
        [80.56878, 17.39441],
        [80.5688, 17.39483],
        [80.56885, 17.39506],
        [80.5689, 17.39528],
        [80.56897, 17.39563],
        [80.56903, 17.39602],
        [80.56908, 17.39634],
        [80.56932, 17.39777],
        [80.56937, 17.39811],
        [80.56956, 17.39932],
        [80.57004, 17.40206],
        [80.57034, 17.40355],
        [80.57038, 17.40378],
        [80.57083, 17.40625],
        [80.57118, 17.41163],
        [80.57125, 17.41274],
        [80.57142, 17.41535],
        [80.57137, 17.42157],
        [80.57113, 17.42844],
        [80.57001, 17.43731],
        [80.56987, 17.43842],
        [80.56985, 17.43853],
        [80.57134, 17.43866],
        [80.57529, 17.43898],
        [80.57626, 17.43854],
        [80.57738, 17.43806],
        [80.57857, 17.43755],
        [80.58048, 17.43703],
        [80.5819, 17.43664],
        [80.58448, 17.43598],
        [80.58493, 17.43575],
        [80.58563, 17.4354],
        [80.5887, 17.43387],
        [80.58917, 17.43397],
        [80.58953, 17.43404],
        [80.58974, 17.43408],
        [80.58972, 17.43415],
        [80.5894, 17.43586],
        [80.5895, 17.43752],
        [80.5895, 17.43784],
        [80.58969, 17.43945],
        [80.58973, 17.43998],
        [80.58983, 17.44106],
        [80.58988, 17.44145],
        [80.58993, 17.44173],
        [80.58996, 17.44194],
        [80.59001, 17.44222],
        [80.59006, 17.44259],
        [80.5902, 17.44364],
        [80.59046, 17.44538],
        [80.59058, 17.44614],
        [80.59067, 17.4467],
        [80.59081, 17.44759],
        [80.59082, 17.4477],
        [80.59083, 17.44776],
        [80.59103, 17.44882],
        [80.59104, 17.44888],
        [80.59113, 17.4495],
        [80.59118, 17.44984],
        [80.59112, 17.44985],
        [80.59092, 17.44988],
        [80.59089, 17.44998],
        [80.5904, 17.4514],
        [80.59035, 17.45151],
        [80.58963, 17.45341],
        [80.59002, 17.45361],
        [80.59004, 17.45362],
        [80.59158, 17.45366],
        [80.5923, 17.45323],
        [80.59406, 17.45307],
        [80.59445, 17.45299],
        [80.59557, 17.4527],
        [80.59649, 17.45358],
        [80.5969, 17.45395],
        [80.59768, 17.45375],
        [80.59831, 17.45359],
        [80.59742, 17.45182],
        [80.59734, 17.45166],
        [80.59722, 17.4514],
        [80.59702, 17.45097],
        [80.59722, 17.45104],
        [80.59741, 17.45112],
        [80.59841, 17.45148],
        [80.60083, 17.4523],
        [80.60111, 17.45218],
        [80.60133, 17.45208],
        [80.60256, 17.45153],
        [80.60325, 17.45122],
        [80.60569, 17.44998],
        [80.60748, 17.44903],
        [80.60822, 17.44865],
        [80.60832, 17.4486],
        [80.60936, 17.44806],
        [80.60984, 17.44801],
        [80.61046, 17.44793],
        [80.61048, 17.44793],
        [80.61112, 17.44787],
        [80.61304, 17.44773],
        [80.61414, 17.44761],
        [80.61499, 17.44751],
        [80.61655, 17.4473],
        [80.61825, 17.44707],
        [80.61898, 17.44695],
        [80.62122, 17.44659],
        [80.62227, 17.4464],
        [80.62289, 17.44625],
        [80.62298, 17.44413],
        [80.62302, 17.4432],
        [80.62308, 17.44189],
        [80.62308, 17.44072],
        [80.62313, 17.43943],
        [80.62321, 17.43728],
        [80.62324, 17.43566],
        [80.62362, 17.43344],
        [80.6258, 17.43355],
        [80.62776, 17.43364],
        [80.629, 17.43369],
        [80.63692, 17.43075],
        [80.63725, 17.43226],
        [80.63796, 17.43555],
        [80.63827, 17.43701],
        [80.64064, 17.43626],
        [80.6445, 17.43504],
        [80.64892, 17.43359],
        [80.65263, 17.43225],
        [80.65591, 17.43096],
        [80.65806, 17.43013],
        [80.65923, 17.42964],
        [80.65948, 17.42954],
        [80.66206, 17.42865],
        [80.66282, 17.42844],
        [80.66676, 17.42706],
        [80.66997, 17.42595],
        [80.67247, 17.42514],
        [80.6732, 17.42434],
        [80.67331, 17.42423],
        [80.67394, 17.42333],
        [80.67449, 17.42234],
        [80.67522, 17.42125],
        [80.67594, 17.42006],
        [80.67607, 17.41973],
        [80.67662, 17.41886],
        [80.6768, 17.41863],
        [80.67771, 17.41702],
        [80.67872, 17.41508],
        [80.68026, 17.4166],
        [80.68044, 17.41652],
        [80.68118, 17.41787],
        [80.6812, 17.41791],
        [80.68732, 17.41608],
        [80.69527, 17.4136],
        [80.69608, 17.40286],
        [80.71562, 17.40526],
        [80.73017, 17.39767],
        [80.73926, 17.39753],
        [80.73383, 17.41033],
        [80.73383, 17.41037],
        [80.73516, 17.42067],
        [80.73615, 17.4276],
        [80.73597, 17.43528],
        [80.73596, 17.443],
        [80.7361, 17.44644],
        [80.73652, 17.45399],
        [80.72915, 17.45249],
        [80.72619, 17.45189],
        [80.71562, 17.44974],
        [80.71096, 17.44869],
        [80.71074, 17.45132],
        [80.70653, 17.50283],
        [80.7065, 17.50318],
        [80.70591, 17.5105],
        [80.70585, 17.51121],
        [80.70563, 17.51384],
        [80.70589, 17.5144],
        [80.7062, 17.51483],
        [80.70669, 17.51554],
        [80.70676, 17.51565],
        [80.70699, 17.51603],
        [80.70738, 17.51666],
        [80.70764, 17.51708],
        [80.70778, 17.51722],
        [80.708, 17.51794],
        [80.70811, 17.51812],
        [80.70831, 17.51854],
        [80.70827, 17.51935],
        [80.70842, 17.52014],
        [80.70849, 17.52118],
        [80.70876, 17.52509],
        [80.70888, 17.52676],
        [80.70891, 17.5271],
        [80.70904, 17.52877],
        [80.70923, 17.53074],
        [80.70928, 17.53112],
        [80.70937, 17.53233],
        [80.70953, 17.53368],
        [80.70962, 17.53475],
        [80.70964, 17.53481],
        [80.70968, 17.53495],
        [80.70974, 17.53536],
        [80.70982, 17.53622],
        [80.7099, 17.53667],
        [80.70995, 17.53697],
        [80.70999, 17.53843],
        [80.71004, 17.53867],
        [80.7101, 17.53938],
        [80.71028, 17.54077],
        [80.71034, 17.54163],
        [80.71038, 17.54224],
        [80.71047, 17.5433],
        [80.71052, 17.54381],
        [80.7106, 17.5447],
        [80.71082, 17.54691],
        [80.71106, 17.54848],
        [80.71218, 17.55135],
        [80.71298, 17.55337],
        [80.71309, 17.55367],
        [80.71362, 17.55508],
        [80.71396, 17.55602],
        [80.71465, 17.55779],
        [80.71498, 17.5585],
        [80.71501, 17.55872],
        [80.71542, 17.56018],
        [80.71602, 17.56169],
        [80.71607, 17.56182],
        [80.71614, 17.56192],
        [80.71646, 17.56248],
        [80.71655, 17.5626],
        [80.71712, 17.56381],
        [80.71731, 17.56413],
        [80.71771, 17.56484],
        [80.71785, 17.5651],
        [80.71793, 17.56521],
        [80.71799, 17.56535],
        [80.71805, 17.56543],
        [80.71915, 17.56685],
        [80.71922, 17.56695],
        [80.71928, 17.56709],
        [80.71961, 17.56789],
        [80.71975, 17.56826],
        [80.72008, 17.5696],
        [80.72197, 17.56942],
        [80.72471, 17.56789],
        [80.72476, 17.56851],
        [80.7251, 17.56903],
        [80.72528, 17.56933],
        [80.72546, 17.56965],
        [80.72574, 17.57012],
        [80.72648, 17.57142],
        [80.72671, 17.57175],
        [80.72872, 17.57521],
        [80.73145, 17.5799],
        [80.73443, 17.58497],
        [80.73747, 17.59042],
        [80.7397, 17.59431],
        [80.74128, 17.59408],
        [80.74347, 17.59374],
        [80.74616, 17.59324],
        [80.74847, 17.59284],
        [80.74991, 17.59206],
        [80.75309, 17.59006],
        [80.75313, 17.59001],
        [80.75364, 17.58942],
        [80.75382, 17.58919],
        [80.75457, 17.58839],
        [80.75614, 17.58745],
        [80.75676, 17.5868],
        [80.7569, 17.58662],
        [80.75696, 17.58655],
        [80.75749, 17.58592],
        [80.75843, 17.58516],
        [80.75911, 17.58469],
        [80.75937, 17.58449],
        [80.75991, 17.58392],
        [80.7605, 17.58356],
        [80.76108, 17.58305],
        [80.76171, 17.58269],
        [80.76274, 17.58227],
        [80.76365, 17.58184],
        [80.76429, 17.58115],
        [80.76594, 17.5794],
        [80.76636, 17.57918],
        [80.76727, 17.57876],
        [80.76821, 17.57797],
        [80.76833, 17.57783],
        [80.76942, 17.5766],
        [80.7698, 17.57624],
        [80.76998, 17.57606],
        [80.77051, 17.5758],
        [80.77117, 17.57558],
        [80.7717, 17.57525],
        [80.77191, 17.57512],
        [80.77262, 17.57446],
        [80.77393, 17.57331],
        [80.77424, 17.57164],
        [80.77423, 17.57079],
        [80.77423, 17.57069],
        [80.77506, 17.57036],
        [80.77588, 17.57012],
        [80.77623, 17.57053],
        [80.77692, 17.57114],
        [80.77731, 17.57161],
        [80.77856, 17.57246],
        [80.77936, 17.57284],
        [80.77938, 17.57285],
        [80.78079, 17.57349],
        [80.78115, 17.57365],
        [80.78192, 17.57418],
        [80.7822, 17.57452],
        [80.78281, 17.57532],
        [80.78282, 17.57535],
        [80.78319, 17.57596],
        [80.78317, 17.57598],
        [80.78297, 17.57633],
        [80.78195, 17.57811],
        [80.78165, 17.57864],
        [80.7809, 17.57946],
        [80.78064, 17.57974],
        [80.78045, 17.57992],
        [80.78017, 17.58064],
        [80.77991, 17.58127],
        [80.77972, 17.58183],
        [80.77958, 17.58218],
        [80.77956, 17.58255],
        [80.77947, 17.58368],
        [80.77977, 17.58478],
        [80.77998, 17.58506],
        [80.78087, 17.58571],
        [80.78157, 17.58617],
        [80.78215, 17.58656],
        [80.78317, 17.58724],
        [80.78327, 17.58728],
        [80.78405, 17.58754],
        [80.78411, 17.58755],
        [80.78413, 17.58754],
        [80.78424, 17.58739],
        [80.78428, 17.58734],
        [80.78449, 17.58708],
        [80.78721, 17.58534],
        [80.78778, 17.58495],
        [80.78846, 17.58453],
        [80.7886, 17.58443],
        [80.78872, 17.58437],
        [80.78932, 17.58398],
        [80.7894, 17.58387],
        [80.78952, 17.58381],
        [80.79022, 17.58332],
        [80.79059, 17.58305],
        [80.79068, 17.58294],
        [80.79079, 17.58289],
        [80.79168, 17.58225],
        [80.79178, 17.58218],
        [80.7918, 17.58217],
        [80.79191, 17.58209],
        [80.79196, 17.582],
        [80.79209, 17.58177],
        [80.7922, 17.58152],
        [80.79232, 17.58118],
        [80.79291, 17.57879],
        [80.79324, 17.57729],
        [80.79544, 17.5754],
        [80.7962, 17.57501],
        [80.79728, 17.57434],
        [80.79923, 17.57328],
        [80.79924, 17.57328],
        [80.79933, 17.57323],
        [80.8001, 17.57298],
        [80.80027, 17.57292],
        [80.80099, 17.57265],
        [80.80107, 17.5728],
        [80.80109, 17.5728],
        [80.80111, 17.57107],
        [80.80167, 17.56734],
        [80.80255, 17.56237],
        [80.80285, 17.56065],
        [80.80499, 17.55092],
        [80.80503, 17.55012],
        [80.80692, 17.55205],
        [80.80866, 17.55564],
        [80.80925, 17.55682],
        [80.81372, 17.55793],
        [80.81656, 17.55824],
        [80.81978, 17.55858],
        [80.8223, 17.55873],
        [80.82805, 17.55923],
        [80.8302, 17.5593],
        [80.83026, 17.55934],
        [80.83115, 17.55933],
        [80.83173, 17.55934],
        [80.83397, 17.55933],
        [80.83576, 17.55944],
        [80.84074, 17.55978],
        [80.84557, 17.55959],
        [80.84686, 17.55955],
        [80.84752, 17.55952],
        [80.84806, 17.56045],
        [80.84841, 17.56103],
        [80.84885, 17.56176],
        [80.84929, 17.56248],
        [80.84928, 17.56249],
        [80.84906, 17.56287],
        [80.84773, 17.56563],
        [80.84753, 17.56614],
        [80.84927, 17.56761],
        [80.85048, 17.5687],
        [80.85235, 17.57033],
        [80.85395, 17.57174],
        [80.85665, 17.57403],
        [80.85873, 17.5759],
        [80.86064, 17.57751],
        [80.86248, 17.57922],
        [80.86352, 17.5801],
        [80.86408, 17.5791],
        [80.86524, 17.57831],
        [80.86665, 17.5773],
        [80.86724, 17.57715],
        [80.86735, 17.57713],
        [80.8674, 17.5771],
        [80.8696, 17.5767],
        [80.8722, 17.5763],
        [80.87296, 17.57613],
        [80.8735, 17.576],
        [80.8745, 17.5757],
        [80.8752, 17.57547],
        [80.8766, 17.575],
        [80.8786, 17.5742],
        [80.87947, 17.5742],
        [80.8808, 17.5742],
        [80.8817, 17.5741],
        [80.8844, 17.578],
        [80.88474, 17.57874],
        [80.8859, 17.5813],
        [80.8883, 17.58529],
        [80.8883, 17.5853],
        [80.8919, 17.5885],
        [80.8955, 17.5896],
        [80.90465, 17.5896],
        [80.9065, 17.5896],
        [80.9136, 17.5892],
        [80.92258, 17.58891],
        [80.9262, 17.5888],
        [80.9335, 17.5892],
        [80.9397, 17.5899],
        [80.9476, 17.5904],
        [80.9528, 17.5899],
        [80.9567, 17.5876],
        [80.9608, 17.5797],
        [80.9646, 17.5682],
        [80.96553, 17.56444],
        [80.9662, 17.5617],
        [80.9685, 17.5577],
        [80.975, 17.5503],
        [80.97642, 17.54867],
        [80.97647, 17.5486],
        [80.9775, 17.5472],
        [80.97918, 17.54552],
        [80.9792, 17.5455],
        [80.9833, 17.5413],
        [80.98421, 17.54055],
        [80.9896, 17.5361],
        [80.9994, 17.5303],
        [80.99953, 17.53024],
        [80.99981, 17.53006],
        [81.0014, 17.5241],
        [81.00219, 17.52188],
        [81.0029, 17.5199],
        [81.0071, 17.5081],
        [81.0095, 17.5001],
        [81.01015, 17.49802],
        [81.0118, 17.4927],
        [81.01183, 17.49269],
        [81.01184, 17.49265],
        [81.01199, 17.49261],
        [81.012, 17.4926],
        [81.01234, 17.49249],
        [81.0168, 17.4911],
        [81.0229, 17.4895],
        [81.0314, 17.487],
        [81.04208, 17.48261],
        [81.0421, 17.4826],
        [81.0424, 17.4826],
        [81.04242, 17.4826],
        [81.04267, 17.48256],
        [81.04279, 17.48251],
        [81.0429, 17.4824],
        [81.0452, 17.481],
        [81.0465, 17.4802],
        [81.04665, 17.48015],
        [81.0468, 17.4801],
        [81.048, 17.47955],
        [81.0481, 17.4795],
        [81.04855, 17.4793],
        [81.0506, 17.4784],
        [81.05165, 17.47793],
        [81.0535, 17.4771],
        [81.0551, 17.4764],
        [81.0563, 17.4759],
        [81.0581, 17.4751],
        [81.0597, 17.4743],
        [81.0598, 17.47423],
        [81.06, 17.4741],
        [81.0607, 17.47379],
        [81.06093, 17.47367],
        [81.06144, 17.47342],
        [81.0634, 17.4724],
        [81.0649, 17.4717],
        [81.0651, 17.4716],
        [81.06546, 17.47142],
        [81.0655, 17.4714],
        [81.06553, 17.47139],
        [81.067, 17.4707],
        [81.06826, 17.47002],
        [81.0683, 17.47],
        [81.069, 17.4699],
        [81.0695, 17.46985],
        [81.07, 17.4698],
        [81.0707, 17.4694],
        [81.0726, 17.4677],
        [81.07339, 17.46697],
        [81.074, 17.4664],
        [81.0748, 17.4656],
        [81.0756, 17.4652],
        [81.078, 17.4638],
        [81.07907, 17.46326],
        [81.0798, 17.4629],
        [81.07992, 17.46278],
        [81.0801, 17.4626],
        [81.08184, 17.46151],
        [81.0825, 17.4611],
        [81.08311, 17.46069],
        [81.084, 17.4601],
        [81.08401, 17.46012],
        [81.0846, 17.4618],
        [81.0858, 17.4632],
        [81.087, 17.4646],
        [81.08745, 17.46505],
        [81.088, 17.4656],
        [81.08874, 17.46654],
        [81.0895, 17.4675],
        [81.09032, 17.46839],
        [81.0907, 17.4688],
        [81.09142, 17.4697],
        [81.0919, 17.47028],
        [81.09228, 17.47073],
        [81.0933, 17.4719],
        [81.095, 17.4739],
        [81.097, 17.4763],
        [81.0987, 17.4783],
        [81.09986, 17.47977],
        [81.10022, 17.48021],
        [81.10062, 17.48071],
        [81.1022, 17.4826],
        [81.10336, 17.484],
        [81.1037, 17.4844],
        [81.105, 17.486],
        [81.1051, 17.4862],
        [81.106, 17.4872],
        [81.1071, 17.4885],
        [81.1074, 17.4888],
        [81.10748, 17.48885],
        [81.1077, 17.489],
        [81.10805, 17.48944],
        [81.1081, 17.4895],
        [81.1093, 17.4909],
        [81.1104, 17.4921],
        [81.11075, 17.49252],
        [81.1119, 17.4939],
        [81.1133, 17.4955],
        [81.1143, 17.49525],
        [81.11445, 17.49521],
        [81.11499, 17.49506],
        [81.1159, 17.4948],
        [81.1176, 17.4947],
        [81.11848, 17.4947],
        [81.1196, 17.4947],
        [81.1214, 17.4942],
        [81.12202, 17.49402],
        [81.1242, 17.4934],
        [81.1267, 17.4927],
        [81.12719, 17.49261],
        [81.1278, 17.4925],
        [81.1281, 17.4924],
        [81.12919, 17.49205],
        [81.1306, 17.4916],
        [81.13179, 17.49135],
        [81.1325, 17.4912],
        [81.13287, 17.49108],
        [81.1334, 17.4909],
        [81.13427, 17.49071],
        [81.1352, 17.4905],
        [81.1357, 17.4904],
        [81.13647, 17.48977],
        [81.1368, 17.4895],
        [81.13704, 17.48932],
        [81.13722, 17.48916],
        [81.13758, 17.48871],
        [81.1379, 17.4883],
        [81.1382, 17.4879],
        [81.13829, 17.48784],
        [81.1385, 17.4877],
        [81.13939, 17.48651],
        [81.1397, 17.4861],
        [81.14036, 17.48529],
        [81.1406, 17.48499],
        [81.14084, 17.48485],
        [81.1416, 17.4844],
        [81.14268, 17.48381],
        [81.14277, 17.48373],
        [81.1429, 17.4836],
        [81.1448, 17.4827],
        [81.14664, 17.48167],
        [81.1496, 17.48],
        [81.15326, 17.47902],
        [81.1537, 17.4789],
        [81.15371, 17.4789],
        [81.1565, 17.4796],
        [81.1565, 17.47953],
        [81.1565, 17.4795],
        [81.15835, 17.47775],
        [81.1602, 17.476],
        [81.1623, 17.47288],
        [81.1633, 17.4714],
        [81.16368, 17.47073],
        [81.1646, 17.4691],
        [81.1661, 17.4674],
        [81.1686, 17.4638],
        [81.1695, 17.4613],
        [81.17024, 17.46025],
        [81.1718, 17.458],
        [81.17319, 17.45598],
        [81.1738, 17.4551],
        [81.1758, 17.4528],
        [81.1758, 17.45277],
        [81.1758, 17.4527],
        [81.1773, 17.4522],
        [81.1839, 17.4464],
        [81.18392, 17.44639],
        [81.1892, 17.4432],
        [81.1984, 17.4403],
        [81.20089, 17.43939],
        [81.2036, 17.4384],
        [81.20653, 17.43756],
        [81.2085, 17.437],
        [81.20854, 17.43697],
        [81.20855, 17.43696],
        [81.20858, 17.43694],
        [81.2112, 17.4349],
        [81.21285, 17.43486],
        [81.2149, 17.4348],
        [81.21732, 17.43582],
        [81.2182, 17.4362],
        [81.2231, 17.4371],
        [81.2246, 17.43748],
        [81.22697, 17.43809],
        [81.227, 17.4381],
        [81.22858, 17.43404],
        [81.2289, 17.4332],
        [81.2298, 17.43165],
        [81.2318, 17.4282],
        [81.23266, 17.4248],
        [81.2339, 17.4199],
        [81.23628, 17.41514],
        [81.2363, 17.4151],
        [81.2394, 17.4097],
        [81.243, 17.4052],
        [81.2449, 17.403],
        [81.24491, 17.40299],
        [81.2477, 17.4009],
        [81.2512, 17.4005],
        [81.2545, 17.3993],
        [81.25452, 17.39928],
        [81.25499, 17.39871],
        [81.2565, 17.3969],
        [81.2584, 17.3957],
        [81.26018, 17.39427],
        [81.2615, 17.3932],
        [81.26152, 17.3932],
        [81.26154, 17.39318],
        [81.2621, 17.39315],
        [81.2638, 17.393],
        [81.2639, 17.393],
        [81.2673, 17.3929],
        [81.2686, 17.39247],
        [81.2712, 17.3916],
        [81.27295, 17.39065],
        [81.2747, 17.3897],
        [81.2776, 17.3885],
        [81.28051, 17.38805],
        [81.28078, 17.388],
        [81.28101, 17.38795],
        [81.2829, 17.3875],
        [81.28617, 17.38579],
        [81.28706, 17.38531],
        [81.28708, 17.38531],
        [81.2871, 17.3853],
        [81.2881, 17.38527],
        [81.2905, 17.3852],
        [81.29177, 17.3849],
        [81.2947, 17.3842],
        [81.2993, 17.3838],
        [81.30302, 17.38178],
        [81.3041, 17.3812],
        [81.30651, 17.3799],
        [81.3078, 17.3792],
        [81.30921, 17.3776],
        [81.3115, 17.375],
        [81.31249, 17.37371],
        [81.3148, 17.3707],
        [81.31566, 17.3695],
        [81.3163, 17.3686],
        [81.31653, 17.3679],
        [81.3166, 17.3677],
        [81.3166, 17.36742],
        [81.3166, 17.3667],
        [81.3166, 17.3658],
        [81.3166, 17.3658],
        [81.31649, 17.3653],
        [81.3164, 17.3649],
        [81.31637, 17.36486],
        [81.3155, 17.3638],
        [81.31464, 17.36294],
        [81.3145, 17.3628],
        [81.31331, 17.3623],
        [81.3133, 17.3623],
        [81.3123, 17.3616],
        [81.31207, 17.36113],
        [81.31198, 17.36098],
        [81.31178, 17.36038],
        [81.3115, 17.3596],
        [81.3111, 17.3583],
        [81.3104, 17.3568],
        [81.30951, 17.35542],
        [81.30903, 17.35487],
        [81.3087, 17.3545],
        [81.3079, 17.3532],
        [81.307, 17.3513],
        [81.3061, 17.3491],
        [81.3048, 17.3459],
        [81.3031, 17.3433],
        [81.3009, 17.341],
        [81.2998, 17.3399],
        [81.29901, 17.33951],
        [81.29863, 17.33933],
        [81.29792, 17.33896],
        [81.2974, 17.3387],
        [81.2967, 17.338],
        [81.29625, 17.33733],
        [81.2959, 17.3368],
        [81.2948, 17.3352],
        [81.29426, 17.33445],
        [81.2935, 17.3334],
        [81.2913, 17.3313],
        [81.2892, 17.3289],
        [81.28903, 17.32876],
        [81.2882, 17.3281],
        [81.287, 17.3274],
        [81.286, 17.3271],
        [81.2836, 17.3262],
        [81.28263, 17.32585],
        [81.2814, 17.3254],
        [81.2794, 17.3242],
        [81.2784, 17.3233],
        [81.27755, 17.32207],
        [81.27747, 17.32196],
        [81.27706, 17.32086],
        [81.2768, 17.3202],
        [81.27671, 17.32003],
        [81.2759, 17.3184],
        [81.275, 17.3178],
        [81.2743, 17.3176],
        [81.2735, 17.3177],
        [81.27215, 17.31797],
        [81.27212, 17.31798],
        [81.27202, 17.318],
        [81.27187, 17.31807],
        [81.2704, 17.3188],
        [81.2695, 17.3194],
        [81.26949, 17.3194],
        [81.26945, 17.31943],
        [81.2688, 17.31963],
        [81.2665, 17.3204],
        [81.26547, 17.32063],
        [81.2647, 17.3208],
        [81.2618, 17.322],
        [81.2608, 17.3224],
        [81.26021, 17.32222],
        [81.2598, 17.3221],
        [81.25935, 17.3221],
        [81.2587, 17.3221],
        [81.25806, 17.32225],
        [81.2574, 17.3224],
        [81.2559, 17.3228],
        [81.25489, 17.32304],
        [81.2538, 17.3233],
        [81.25056, 17.3243],
        [81.2486, 17.3249],
        [81.2479, 17.32523],
        [81.2465, 17.3259],
        [81.24619, 17.32581],
        [81.2458, 17.3257],
        [81.24578, 17.32566],
        [81.24575, 17.32565],
        [81.2455, 17.32522],
        [81.24541, 17.32503],
        [81.2452, 17.3246],
        [81.2448, 17.3235],
        [81.24464, 17.32327],
        [81.2444, 17.3229],
        [81.24388, 17.3229],
        [81.2434, 17.3229],
        [81.24244, 17.3232],
        [81.2418, 17.3234],
        [81.2406, 17.3236],
        [81.2393, 17.3236],
        [81.2391, 17.3231],
        [81.2394, 17.3222],
        [81.23932, 17.32127],
        [81.2393, 17.321],
        [81.23902, 17.32072],
        [81.2388, 17.3205],
        [81.238, 17.3203],
        [81.23798, 17.32031],
        [81.2366, 17.3208],
        [81.2358, 17.3206],
        [81.2349, 17.3204],
        [81.234, 17.3203],
        [81.2338, 17.3203],
        [81.2332, 17.32043],
        [81.2324, 17.3206],
        [81.23066, 17.32093],
        [81.2303, 17.321],
        [81.2292, 17.3209],
        [81.228, 17.3209],
        [81.2263, 17.321],
        [81.2253, 17.3214],
        [81.22443, 17.32165],
        [81.2236, 17.3219],
        [81.22221, 17.3219],
        [81.2222, 17.3219],
        [81.222, 17.3217],
        [81.22168, 17.32159],
        [81.2214, 17.3215],
        [81.2208, 17.3218],
        [81.21973, 17.32225],
        [81.2196, 17.3223],
        [81.2185, 17.3228],
        [81.2159, 17.3238],
        [81.2136, 17.3245],
        [81.21285, 17.32484],
        [81.2112, 17.3256],
        [81.2106, 17.32585],
        [81.21, 17.3261],
        [81.20986, 17.32608],
        [81.2092, 17.326],
        [81.20846, 17.32545],
        [81.20843, 17.32542],
        [81.20771, 17.32527],
        [81.2068, 17.3251],
        [81.2038, 17.325],
        [81.2025, 17.32479],
        [81.2019, 17.3247],
        [81.1994, 17.3247],
        [81.1979, 17.3249],
        [81.1962, 17.3248],
        [81.1928, 17.3247],
        [81.1906, 17.3247],
        [81.19004, 17.32462],
        [81.1899, 17.3246],
        [81.18978, 17.3244],
        [81.1894, 17.3238],
        [81.189, 17.3231],
        [81.18861, 17.32209],
        [81.1885, 17.3218],
        [81.18837, 17.32142],
        [81.1877, 17.3195],
        [81.1873, 17.3178],
        [81.18727, 17.31754],
        [81.1871, 17.3158],
        [81.1867, 17.3144],
        [81.186, 17.3135],
        [81.1854, 17.3127],
        [81.18475, 17.31198],
        [81.18437, 17.31159],
        [81.18396, 17.31109],
        [81.1838, 17.3109],
        [81.1836, 17.3103],
        [81.1835, 17.31],
        [81.18337, 17.30957],
        [81.1831, 17.3087],
        [81.1825, 17.3069],
        [81.1817, 17.3054],
        [81.1813, 17.3043],
        [81.1803, 17.3015],
        [81.1793, 17.2973],
        [81.1789, 17.29605],
        [81.1787, 17.2954],
        [81.17855, 17.29499],
        [81.1781, 17.2938],
        [81.1776, 17.2928],
        [81.17741, 17.29241],
        [81.177, 17.2916],
        [81.1766, 17.2892],
        [81.17654, 17.28845],
        [81.1765, 17.2879],
        [81.1764, 17.2863],
        [81.1765, 17.2846],
        [81.17656, 17.28441],
        [81.1767, 17.284],
        [81.17696, 17.28374],
        [81.17709, 17.2836],
        [81.17718, 17.28351],
        [81.17778, 17.2831],
        [81.17794, 17.28301],
        [81.1784, 17.2827],
        [81.1785, 17.28255],
        [81.17858, 17.2824],
        [81.17864, 17.28229],
        [81.1787, 17.2821],
        [81.1789, 17.2812],
        [81.1791, 17.2801],
        [81.1793, 17.2789],
        [81.1793, 17.278],
        [81.179, 17.2769],
        [81.1781, 17.2733],
        [81.17808, 17.27312],
        [81.178, 17.2724],
        [81.1776, 17.2708],
        [81.17762, 17.27064],
        [81.1777, 17.2699],
        [81.17781, 17.26964],
        [81.1781, 17.269],
        [81.1783, 17.26811],
        [81.1783, 17.2681],
        [81.1792, 17.2661],
        [81.1801, 17.2648],
        [81.18062, 17.26387],
        [81.1814, 17.2625],
        [81.1823, 17.2612],
        [81.1823, 17.2611],
        [81.18246, 17.2608],
        [81.1829, 17.26],
        [81.1835, 17.2592],
        [81.18355, 17.25909],
        [81.1838, 17.2585],
        [81.18416, 17.25784],
        [81.1843, 17.2576],
        [81.1852, 17.2565],
        [81.18635, 17.25575],
        [81.1875, 17.255],
        [81.1875, 17.2546],
        [81.1867, 17.2523],
        [81.1863, 17.2512],
        [81.1862, 17.2498],
        [81.1862, 17.24943],
        [81.1862, 17.249],
        [81.1862, 17.24842],
        [81.1862, 17.2484],
        [81.1859, 17.2481],
        [81.18516, 17.24781],
        [81.1841, 17.2474],
        [81.18397, 17.24731],
        [81.1838, 17.2472],
        [81.1831, 17.24682],
        [81.1827, 17.2466],
        [81.1827, 17.24657],
        [81.1827, 17.2465],
        [81.18222, 17.2462],
        [81.1819, 17.246],
        [81.18162, 17.24544],
        [81.1813, 17.2448],
        [81.18122, 17.24472],
        [81.1811, 17.2446],
        [81.18103, 17.24415],
        [81.181, 17.244],
        [81.1807, 17.2432],
        [81.1804, 17.2426],
        [81.1799, 17.2421],
        [81.1785, 17.2413],
        [81.178, 17.24101],
        [81.1778, 17.2409],
        [81.17731, 17.24034],
        [81.17712, 17.24013],
        [81.1771, 17.2401],
        [81.1771, 17.2401],
        [81.17708, 17.24007],
        [81.1764, 17.239],
        [81.17596, 17.2378],
        [81.1757, 17.2371],
        [81.1741, 17.2322],
        [81.1736, 17.2309],
        [81.1734, 17.2308],
        [81.17297, 17.23084],
        [81.1723, 17.2309],
        [81.17175, 17.23096],
        [81.1714, 17.231],
        [81.17066, 17.23105],
        [81.17, 17.2311],
        [81.1673, 17.2311],
        [81.16618, 17.23118],
        [81.1644, 17.2313],
        [81.16387, 17.2313],
        [81.163, 17.2313],
        [81.16152, 17.2313],
        [81.1615, 17.2313],
        [81.1614, 17.2313],
        [81.16097, 17.23125],
        [81.1606, 17.2312],
        [81.16011, 17.23099],
        [81.1599, 17.2309],
        [81.159, 17.2308],
        [81.1586, 17.23072],
        [81.158, 17.2306],
        [81.15694, 17.23049],
        [81.156, 17.2304],
        [81.15505, 17.2301],
        [81.1541, 17.2298],
        [81.15357, 17.2298],
        [81.1529, 17.2298],
        [81.15212, 17.22972],
        [81.15188, 17.22971],
        [81.15179, 17.2297],
        [81.1517, 17.2297],
        [81.15143, 17.22966],
        [81.1502, 17.2295],
        [81.14748, 17.22923],
        [81.1472, 17.2292],
        [81.14708, 17.22918],
        [81.1455, 17.2289],
        [81.14493, 17.22874],
        [81.1444, 17.2286],
        [81.1439, 17.2282],
        [81.1429, 17.2277],
        [81.14152, 17.22737],
        [81.1408, 17.22721],
        [81.14026, 17.22711],
        [81.1385, 17.2268],
        [81.1374, 17.22661],
        [81.1368, 17.2265],
        [81.1351, 17.2264],
        [81.1341, 17.2261],
        [81.13371, 17.22592],
        [81.133, 17.2256],
        [81.1318, 17.2253],
        [81.1309, 17.2251],
        [81.1303, 17.2251],
        [81.1298, 17.2251],
        [81.1293, 17.2251],
        [81.12891, 17.22504],
        [81.1287, 17.225],
        [81.1281, 17.2248],
        [81.1278, 17.22435],
        [81.1277, 17.2242],
        [81.12766, 17.22417],
        [81.1274, 17.224],
        [81.12684, 17.22416],
        [81.1267, 17.2242],
        [81.1265, 17.2243],
        [81.1262, 17.2244],
        [81.1258, 17.2247],
        [81.1255, 17.2248],
        [81.125, 17.2246],
        [81.12493, 17.22457],
        [81.12477, 17.2245],
        [81.1239, 17.2246],
        [81.1222, 17.2247],
        [81.1206, 17.2247],
        [81.1197, 17.2247],
        [81.1171, 17.2244],
        [81.1156, 17.2243],
        [81.11428, 17.22397],
        [81.1136, 17.2238],
        [81.11182, 17.22371],
        [81.1116, 17.2237],
        [81.11128, 17.22366],
        [81.1098, 17.2235],
        [81.1075, 17.2231],
        [81.10683, 17.22304],
        [81.1063, 17.223],
        [81.10535, 17.22278],
        [81.1037, 17.2224],
        [81.1014, 17.2223],
        [81.10123, 17.22227],
        [81.1008, 17.2222],
        [81.0997, 17.2218],
        [81.09872, 17.22142],
        [81.09844, 17.22133],
        [81.09806, 17.22126],
        [81.0975, 17.2212],
        [81.0961, 17.2208],
        [81.09526, 17.22058],
        [81.0938, 17.2202],
        [81.0917, 17.2197],
        [81.09003, 17.21937],
        [81.0897, 17.2193],
        [81.0893, 17.2191],
        [81.0886, 17.2186],
        [81.08806, 17.2184],
        [81.0875, 17.2182],
        [81.0863, 17.2177],
        [81.08582, 17.2177],
        [81.0855, 17.2177],
        [81.08462, 17.21764],
        [81.0841, 17.2176],
        [81.0831, 17.2175],
        [81.0817, 17.2166],
        [81.081, 17.2162],
        [81.0807, 17.216],
        [81.08062, 17.21595],
        [81.0797, 17.2154],
        [81.07934, 17.21533],
        [81.0792, 17.2153],
        [81.0782, 17.2154],
        [81.0773, 17.2156],
        [81.0764, 17.2158],
        [81.0758, 17.2161],
        [81.0756, 17.2162],
        [81.0755, 17.2162],
        [81.073, 17.2173],
        [81.0723, 17.2176],
        [81.07227, 17.21763],
        [81.0722, 17.2177],
        [81.071, 17.2182],
        [81.0704, 17.21844],
        [81.0695, 17.2188],
        [81.06859, 17.21925],
        [81.0685, 17.2193],
        [81.0664, 17.2201],
        [81.06611, 17.22024],
        [81.0658, 17.2204],
        [81.0644, 17.2211],
        [81.06431, 17.22119],
        [81.0643, 17.2212],
        [81.06419, 17.22124],
        [81.063, 17.2217],
        [81.06208, 17.22193],
        [81.0618, 17.222],
        [81.06141, 17.22208],
        [81.0613, 17.2221],
        [81.0604, 17.2223],
        [81.0594, 17.2228],
        [81.0591, 17.223],
        [81.0578, 17.2237],
        [81.0566, 17.2242],
        [81.05641, 17.22431],
        [81.0561, 17.2245],
        [81.05598, 17.2245],
        [81.0559, 17.2245],
        [81.0557, 17.2246],
        [81.05465, 17.22498],
        [81.0546, 17.225],
        [81.05486, 17.22442],
        [81.055, 17.2241],
        [81.0553, 17.2233],
        [81.0557, 17.2214],
        [81.0554, 17.2193],
        [81.0549, 17.2179],
        [81.05454, 17.21711],
        [81.05442, 17.21685],
        [81.05431, 17.21661],
        [81.05317, 17.21517],
        [81.05302, 17.21492],
        [81.0524, 17.214],
        [81.05191, 17.21323],
        [81.0517, 17.2129],
        [81.0502, 17.2102],
        [81.04933, 17.20864],
        [81.0492, 17.2084],
        [81.04901, 17.20806],
        [81.0479, 17.2061],
        [81.04774, 17.20584],
        [81.0474, 17.2053],
        [81.0467, 17.205],
        [81.0452, 17.204],
        [81.04518, 17.20398],
        [81.0444, 17.2032],
        [81.0437, 17.2024],
        [81.0433, 17.20218],
        [81.0428, 17.2019],
        [81.0426, 17.20182],
        [81.0423, 17.2017],
        [81.0421, 17.2014],
        [81.042, 17.2012],
        [81.0417, 17.2006],
        [81.04154, 17.20035],
        [81.0415, 17.2003],
        [81.0407, 17.1988],
        [81.0396, 17.1972],
        [81.03934, 17.19689],
        [81.03909, 17.19662],
        [81.03883, 17.19623],
        [81.0383, 17.1955],
        [81.0378, 17.19493],
        [81.0369, 17.1939],
        [81.0357, 17.1927],
        [81.03511, 17.19248],
        [81.0346, 17.1923],
        [81.03347, 17.19253],
        [81.0331, 17.1926],
        [81.0326, 17.1926],
        [81.0324, 17.19246],
        [81.032, 17.1922],
        [81.03181, 17.19192],
        [81.0316, 17.1916],
        [81.0309, 17.191],
        [81.03087, 17.191],
        [81.0304, 17.191],
        [81.03016, 17.19106],
        [81.0292, 17.1913],
        [81.02763, 17.19174],
        [81.0256, 17.1923],
        [81.0233, 17.1929],
        [81.02205, 17.19335],
        [81.0208, 17.1938],
        [81.01955, 17.19398],
        [81.0174, 17.1943],
        [81.0152, 17.1945],
        [81.0128, 17.1946],
        [81.0117, 17.1945],
        [81.01073, 17.19418],
        [81.0105, 17.1941],
        [81.0098, 17.1937],
        [81.00945, 17.19329],
        [81.0087, 17.1924],
        [81.00837, 17.19215],
        [81.0083, 17.1921],
        [81.00788, 17.19218],
        [81.0078, 17.1922],
        [81.00738, 17.1922],
        [81.00695, 17.19221],
        [81.00659, 17.19212],
        [81.0065, 17.1921],
        [81.00638, 17.19206],
        [81.0056, 17.1918],
        [81.005, 17.19165],
        [81.0044, 17.1915],
        [81.0016, 17.1908],
        [81.00067, 17.19063],
        [81.00002, 17.19052],
        [80.99989, 17.1905],
        [80.9996, 17.1905],
        [80.99881, 17.19043],
        [80.9985, 17.1904],
        [80.9976, 17.1905],
        [80.9974, 17.19057],
        [80.9962, 17.191]
      ]
    ]
  }
}
