{
  "type": "Feature",
  "id": "TS-AC-14",
  "properties": {
    "stateName": "TELANGANA",
    "stateCode": "TS",
    "districtName": "NIZAMABAD",
    "acNo": 14,
    "acName": "BANSWADA",
    "seatType": null,
    "pcNo": null,
    "pcName": null,
    "quality": "unverified",
    "sources": [
      "TBD"
    ]
  },
  "geometry": {
    "type": "Polygon",
    "coordinates": [
      [
        [77.73802, 18.55694],
        [77.7383, 18.557],
        [77.7386, 18.557],
        [77.73846, 18.5579],
        [77.7382, 18.5596],
        [77.7379, 18.5608],
        [77.7378, 18.5613],
        [77.7374, 18.5629],
        [77.73738, 18.56296],
        [77.7371, 18.564],
        [77.7375, 18.5642],
        [77.738, 18.5644],
        [77.73821, 18.56456],
        [77.7384, 18.5647],
        [77.7387, 18.5662],
        [77.73908, 18.56683],
        [77.73908, 18.56683],
        [77.73962, 18.56772],
        [77.73968, 18.5679],
        [77.73968, 18.5679],
        [77.7399, 18.5684],
        [77.7402, 18.5714],
        [77.7402, 18.5724],
        [77.7402, 18.5732],
        [77.7402, 18.5733],
        [77.74024, 18.5733],
        [77.7403, 18.5733],
        [77.7403, 18.5739],
        [77.7403, 18.5744],
        [77.7404, 18.5746],
        [77.7406, 18.57548],
        [77.74082, 18.5756],
        [77.7415, 18.5759],
        [77.74205, 18.57628],
        [77.7425, 18.5766],
        [77.7427, 18.5767],
        [77.7431, 18.5771],
        [77.7433, 18.5772],
        [77.7435, 18.5774],
        [77.7438, 18.5777],
        [77.745, 18.5803],
        [77.7459, 18.583],
        [77.7463, 18.5847],
        [77.74705, 18.58531],
        [77.7484, 18.5864],
        [77.7491, 18.5874],
        [77.74916, 18.58747],
        [77.7497, 18.5882],
        [77.7502, 18.5892],
        [77.7502, 18.5892],
        [77.75, 18.5905],
        [77.7498, 18.5923],
        [77.7496, 18.5948],
        [77.7494, 18.59533],
        [77.7493, 18.5956],
        [77.7488, 18.5967],
        [77.7481, 18.5992],
        [77.7479, 18.6024],
        [77.7478, 18.6039],
        [77.7471, 18.6046],
        [77.7464, 18.6052],
        [77.7461, 18.6056],
        [77.74601, 18.60569],
        [77.74601, 18.60569],
        [77.74599, 18.60574],
        [77.7459, 18.606],
        [77.7459, 18.6065],
        [77.746, 18.6076],
        [77.7461, 18.6081],
        [77.7461, 18.60842],
        [77.74612, 18.60855],
        [77.74613, 18.60865],
        [77.7462, 18.6091],
        [77.7462, 18.60985],
        [77.7462, 18.6101],
        [77.7462, 18.61136],
        [77.7462, 18.612],
        [77.7462, 18.6128],
        [77.7461, 18.6141],
        [77.7462, 18.6153],
        [77.7463, 18.6161],
        [77.7461, 18.6169],
        [77.7457, 18.618],
        [77.74557, 18.61844],
        [77.74553, 18.61866],
        [77.74555, 18.6187],
        [77.7456, 18.6187],
        [77.74575, 18.61928],
        [77.74582, 18.6195],
        [77.74592, 18.61987],
        [77.7461, 18.6204],
        [77.746, 18.6212],
        [77.7455, 18.6229],
        [77.7447, 18.6249],
        [77.7438, 18.6268],
        [77.7428, 18.62868],
        [77.7421, 18.63],
        [77.74192, 18.63024],
        [77.7393, 18.6338],
        [77.7377, 18.636],
        [77.737, 18.6369],
        [77.7361, 18.6387],
        [77.7353, 18.6406],
        [77.735, 18.6412],
        [77.73421, 18.64163],
        [77.7339, 18.6418],
        [77.733, 18.6423],
        [77.7326, 18.6425],
        [77.7316, 18.6436],
        [77.731, 18.6448],
        [77.7308, 18.6456],
        [77.7308, 18.6466],
        [77.73096, 18.647],
        [77.731, 18.6471],
        [77.7312, 18.6475],
        [77.7312, 18.6476],
        [77.73129, 18.64797],
        [77.7313, 18.648],
        [77.7313, 18.64801],
        [77.7313, 18.64803],
        [77.73117, 18.64819],
        [77.7311, 18.6483],
        [77.731, 18.64849],
        [77.73639, 18.64796],
        [77.73666, 18.64794],
        [77.73691, 18.64793],
        [77.73839, 18.64787],
        [77.73923, 18.64791],
        [77.74034, 18.64796],
        [77.74053, 18.64797],
        [77.74258, 18.64792],
        [77.74291, 18.64791],
        [77.74401, 18.64786],
        [77.74478, 18.64783],
        [77.74552, 18.64784],
        [77.74565, 18.64785],
        [77.74594, 18.64785],
        [77.74613, 18.64784],
        [77.74741, 18.64791],
        [77.74783, 18.64792],
        [77.7491, 18.64792],
        [77.74923, 18.64792],
        [77.75134, 18.64789],
        [77.75174, 18.64788],
        [77.75305, 18.64793],
        [77.75322, 18.64793],
        [77.75556, 18.64794],
        [77.75717, 18.64815],
        [77.75942, 18.64849],
        [77.75957, 18.64851],
        [77.76048, 18.64859],
        [77.76161, 18.64868],
        [77.76417, 18.64863],
        [77.76413, 18.64882],
        [77.76397, 18.6494],
        [77.7638, 18.65053],
        [77.76378, 18.6508],
        [77.76367, 18.65259],
        [77.76363, 18.65289],
        [77.76353, 18.65364],
        [77.76348, 18.6542],
        [77.76384, 18.65427],
        [77.76592, 18.65468],
        [77.76615, 18.65473],
        [77.76757, 18.65501],
        [77.7686, 18.65517],
        [77.76909, 18.65527],
        [77.77032, 18.65552],
        [77.77023, 18.65603],
        [77.77011, 18.65676],
        [77.7701, 18.65691],
        [77.76998, 18.65806],
        [77.76996, 18.6583],
        [77.76993, 18.65885],
        [77.76992, 18.65908],
        [77.76989, 18.65987],
        [77.76988, 18.66015],
        [77.76982, 18.66087],
        [77.76978, 18.66132],
        [77.76977, 18.66142],
        [77.76969, 18.66222],
        [77.76981, 18.66222],
        [77.77063, 18.66238],
        [77.7708, 18.66244],
        [77.77092, 18.66286],
        [77.77097, 18.66304],
        [77.77141, 18.66293],
        [77.77226, 18.6627],
        [77.7728, 18.66266],
        [77.77308, 18.6626],
        [77.77353, 18.66254],
        [77.7738, 18.6625],
        [77.77405, 18.66251],
        [77.77409, 18.66297],
        [77.77545, 18.66296],
        [77.77586, 18.66315],
        [77.77598, 18.66369],
        [77.77732, 18.66372],
        [77.7774, 18.6646],
        [77.77759, 18.66459],
        [77.77797, 18.66457],
        [77.77866, 18.66454],
        [77.7791, 18.66452],
        [77.78017, 18.66459],
        [77.78038, 18.66461],
        [77.78051, 18.6646],
        [77.78135, 18.66473],
        [77.78229, 18.66491],
        [77.78235, 18.66492],
        [77.78243, 18.66493],
        [77.78274, 18.66499],
        [77.78318, 18.66507],
        [77.78384, 18.66519],
        [77.78441, 18.66552],
        [77.78462, 18.66564],
        [77.78508, 18.66591],
        [77.78627, 18.6671],
        [77.78661, 18.6669],
        [77.78806, 18.6667],
        [77.78859, 18.66661],
        [77.78953, 18.66649],
        [77.79, 18.66643],
        [77.7908, 18.66633],
        [77.79114, 18.66627],
        [77.79265, 18.66599],
        [77.7927, 18.66597],
        [77.79392, 18.66546],
        [77.79462, 18.66523],
        [77.79591, 18.6648],
        [77.79717, 18.6644],
        [77.79798, 18.66416],
        [77.79829, 18.66477],
        [77.79852, 18.66461],
        [77.79882, 18.6644],
        [77.79992, 18.66375],
        [77.80035, 18.66358],
        [77.80148, 18.66312],
        [77.80191, 18.66306],
        [77.80336, 18.66284],
        [77.80363, 18.66281],
        [77.80439, 18.66275],
        [77.80528, 18.6626],
        [77.80571, 18.66252],
        [77.80578, 18.66251],
        [77.80598, 18.66247],
        [77.80628, 18.6624],
        [77.80664, 18.66229],
        [77.80725, 18.6621],
        [77.80797, 18.66194],
        [77.80814, 18.6619],
        [77.81039, 18.66145],
        [77.81158, 18.66119],
        [77.81345, 18.66093],
        [77.81333, 18.65889],
        [77.81331, 18.65857],
        [77.81331, 18.65844],
        [77.81335, 18.65801],
        [77.81349, 18.65755],
        [77.81378, 18.65689],
        [77.8139, 18.65667],
        [77.814, 18.65658],
        [77.814, 18.65635],
        [77.81401, 18.65495],
        [77.81402, 18.65441],
        [77.81401, 18.65424],
        [77.81401, 18.65384],
        [77.81396, 18.65344],
        [77.81395, 18.65337],
        [77.8139, 18.65295],
        [77.81378, 18.65202],
        [77.81364, 18.65096],
        [77.81362, 18.65086],
        [77.81347, 18.6497],
        [77.81322, 18.64872],
        [77.81317, 18.64855],
        [77.81305, 18.64762],
        [77.81298, 18.64714],
        [77.81294, 18.6462],
        [77.81294, 18.64552],
        [77.81293, 18.64521],
        [77.81403, 18.64538],
        [77.81485, 18.64528],
        [77.81559, 18.64505],
        [77.81561, 18.64457],
        [77.81559, 18.64307],
        [77.8156, 18.64278],
        [77.81837, 18.64223],
        [77.81897, 18.64205],
        [77.8202, 18.64191],
        [77.82091, 18.64154],
        [77.82043, 18.63971],
        [77.82031, 18.639],
        [77.82029, 18.63889],
        [77.82028, 18.63871],
        [77.82053, 18.6383],
        [77.82063, 18.63812],
        [77.82123, 18.63704],
        [77.82136, 18.63681],
        [77.82186, 18.63604],
        [77.82216, 18.63574],
        [77.8231, 18.63499],
        [77.82378, 18.63445],
        [77.8256, 18.63266],
        [77.82568, 18.63274],
        [77.82622, 18.63225],
        [77.82635, 18.63214],
        [77.82727, 18.63116],
        [77.82734, 18.63103],
        [77.82785, 18.63017],
        [77.828, 18.63],
        [77.82861, 18.62929],
        [77.82868, 18.62921],
        [77.82875, 18.62911],
        [77.82886, 18.62895],
        [77.82983, 18.62816],
        [77.83096, 18.62727],
        [77.83225, 18.62628],
        [77.83226, 18.62586],
        [77.83267, 18.62544],
        [77.83304, 18.62507],
        [77.83348, 18.62474],
        [77.83453, 18.62395],
        [77.83448, 18.62315],
        [77.8352, 18.62257],
        [77.83542, 18.62239],
        [77.83684, 18.62131],
        [77.83768, 18.62093],
        [77.83795, 18.62082],
        [77.83827, 18.62068],
        [77.83839, 18.62062],
        [77.83913, 18.62029],
        [77.83922, 18.62028],
        [77.83931, 18.62027],
        [77.83973, 18.6202],
        [77.83979, 18.62019],
        [77.83986, 18.62018],
        [77.83999, 18.62019],
        [77.84127, 18.62008],
        [77.84162, 18.62004],
        [77.84289, 18.61988],
        [77.84293, 18.62016],
        [77.84421, 18.62042],
        [77.8471, 18.62101],
        [77.84803, 18.6212],
        [77.84825, 18.62125],
        [77.84874, 18.62125],
        [77.84959, 18.62126],
        [77.85054, 18.62124],
        [77.85061, 18.62123],
        [77.85233, 18.62113],
        [77.85246, 18.62112],
        [77.85299, 18.62103],
        [77.85331, 18.62096],
        [77.85438, 18.62074],
        [77.85456, 18.6207],
        [77.85498, 18.62064],
        [77.85621, 18.6204],
        [77.85658, 18.62116],
        [77.85671, 18.62136],
        [77.85761, 18.62258],
        [77.8577, 18.62271],
        [77.85808, 18.62395],
        [77.85808, 18.62401],
        [77.85835, 18.62514],
        [77.8584, 18.62531],
        [77.85858, 18.62593],
        [77.85863, 18.62611],
        [77.85905, 18.62782],
        [77.85913, 18.62781],
        [77.86167, 18.62771],
        [77.86174, 18.6277],
        [77.86191, 18.62769],
        [77.86251, 18.62768],
        [77.86372, 18.62766],
        [77.8639, 18.62766],
        [77.86411, 18.62766],
        [77.86488, 18.62767],
        [77.86621, 18.62769],
        [77.86635, 18.6277],
        [77.8667, 18.62766],
        [77.86698, 18.62761],
        [77.86771, 18.62747],
        [77.86822, 18.62736],
        [77.86872, 18.62726],
        [77.86885, 18.6272],
        [77.86916, 18.62706],
        [77.87039, 18.62657],
        [77.87051, 18.62652],
        [77.87173, 18.62604],
        [77.87184, 18.62615],
        [77.87198, 18.62648],
        [77.87428, 18.62553],
        [77.87529, 18.62526],
        [77.87594, 18.62508],
        [77.87624, 18.625],
        [77.87673, 18.62487],
        [77.87744, 18.62463],
        [77.87756, 18.62458],
        [77.87762, 18.62455],
        [77.87759, 18.6243],
        [77.87758, 18.62423],
        [77.87751, 18.62379],
        [77.87731, 18.62348],
        [77.87695, 18.62292],
        [77.87627, 18.62215],
        [77.87636, 18.62204],
        [77.87669, 18.62158],
        [77.87679, 18.62151],
        [77.87786, 18.62044],
        [77.87849, 18.61948],
        [77.87877, 18.619],
        [77.87919, 18.61827],
        [77.87928, 18.61813],
        [77.88005, 18.61697],
        [77.88012, 18.61687],
        [77.88083, 18.6167],
        [77.88094, 18.61671],
        [77.88117, 18.61671],
        [77.8818, 18.61648],
        [77.88216, 18.61627],
        [77.88255, 18.61604],
        [77.88323, 18.6157],
        [77.88357, 18.61553],
        [77.88384, 18.61538],
        [77.88389, 18.61535],
        [77.88424, 18.61516],
        [77.88502, 18.61476],
        [77.88646, 18.61401],
        [77.88657, 18.61394],
        [77.88681, 18.61378],
        [77.88801, 18.61313],
        [77.88786, 18.61128],
        [77.88808, 18.6112],
        [77.88915, 18.6109],
        [77.88956, 18.61078],
        [77.89078, 18.61048],
        [77.89039, 18.60936],
        [77.89028, 18.60904],
        [77.8901, 18.60851],
        [77.89004, 18.60837],
        [77.88964, 18.6078],
        [77.88962, 18.60773],
        [77.8893, 18.60741],
        [77.88916, 18.60725],
        [77.88905, 18.60702],
        [77.88892, 18.60644],
        [77.8894, 18.60633],
        [77.88951, 18.60633],
        [77.88965, 18.60634],
        [77.89, 18.60637],
        [77.89003, 18.60631],
        [77.89019, 18.60517],
        [77.89019, 18.60506],
        [77.89019, 18.60494],
        [77.89017, 18.60435],
        [77.89013, 18.60369],
        [77.89067, 18.60335],
        [77.89103, 18.60318],
        [77.89124, 18.60309],
        [77.89134, 18.60293],
        [77.8914, 18.60282],
        [77.89166, 18.6024],
        [77.89192, 18.6023],
        [77.89202, 18.60225],
        [77.89191, 18.60199],
        [77.89181, 18.60178],
        [77.89177, 18.60171],
        [77.89174, 18.60166],
        [77.89145, 18.6011],
        [77.89123, 18.60064],
        [77.89147, 18.60054],
        [77.89156, 18.60065],
        [77.89224, 18.60041],
        [77.89201, 18.59916],
        [77.8923, 18.59908],
        [77.89406, 18.59864],
        [77.89411, 18.59862],
        [77.89436, 18.59861],
        [77.89476, 18.59858],
        [77.89465, 18.59806],
        [77.89458, 18.59771],
        [77.89445, 18.59683],
        [77.89456, 18.59678],
        [77.89509, 18.59666],
        [77.89533, 18.5966],
        [77.89672, 18.59624],
        [77.89714, 18.59615],
        [77.8987, 18.59582],
        [77.89847, 18.59494],
        [77.8993, 18.59473],
        [77.8997, 18.59462],
        [77.89977, 18.59461],
        [77.90047, 18.59443],
        [77.90059, 18.59442],
        [77.90104, 18.5944],
        [77.90226, 18.59433],
        [77.90251, 18.59444],
        [77.90322, 18.59475],
        [77.90389, 18.59396],
        [77.90431, 18.5942],
        [77.90437, 18.59428],
        [77.90399, 18.59493],
        [77.90392, 18.59507],
        [77.9038, 18.59526],
        [77.90394, 18.59538],
        [77.90396, 18.59531],
        [77.9044, 18.59464],
        [77.90453, 18.59448],
        [77.90475, 18.59416],
        [77.90496, 18.5939],
        [77.9051, 18.59369],
        [77.90515, 18.59361],
        [77.90521, 18.59356],
        [77.90563, 18.59305],
        [77.90577, 18.59199],
        [77.90582, 18.59185],
        [77.90644, 18.59089],
        [77.90651, 18.59083],
        [77.90678, 18.59053],
        [77.90697, 18.59032],
        [77.90691, 18.58911],
        [77.90673, 18.588],
        [77.90656, 18.58696],
        [77.90671, 18.58697],
        [77.90645, 18.58577],
        [77.90608, 18.58427],
        [77.90606, 18.58417],
        [77.90594, 18.58344],
        [77.90574, 18.5819],
        [77.90575, 18.58118],
        [77.90575, 18.58051],
        [77.90576, 18.58031],
        [77.90574, 18.58003],
        [77.90574, 18.57984],
        [77.90575, 18.57939],
        [77.90581, 18.57768],
        [77.90607, 18.57525],
        [77.90628, 18.57522],
        [77.90644, 18.5752],
        [77.90742, 18.57509],
        [77.90828, 18.57499],
        [77.90866, 18.57495],
        [77.91076, 18.5744],
        [77.91216, 18.57437],
        [77.91267, 18.57438],
        [77.91344, 18.57434],
        [77.91475, 18.57425],
        [77.91517, 18.57416],
        [77.91596, 18.57395],
        [77.9164, 18.5738],
        [77.91842, 18.57351],
        [77.91846, 18.57369],
        [77.91869, 18.57507],
        [77.91876, 18.57549],
        [77.9189, 18.57672],
        [77.91891, 18.57679],
        [77.91895, 18.57695],
        [77.91899, 18.57712],
        [77.91907, 18.5774],
        [77.9191, 18.57751],
        [77.91938, 18.57747],
        [77.91963, 18.57779],
        [77.91979, 18.57806],
        [77.91992, 18.57833],
        [77.91998, 18.57844],
        [77.92029, 18.57901],
        [77.92041, 18.57919],
        [77.92043, 18.5794],
        [77.92066, 18.58009],
        [77.92088, 18.58082],
        [77.9209, 18.58103],
        [77.9209, 18.58155],
        [77.92099, 18.58227],
        [77.92099, 18.58236],
        [77.92103, 18.58275],
        [77.92103, 18.58284],
        [77.92106, 18.58291],
        [77.92113, 18.58357],
        [77.92113, 18.58364],
        [77.92113, 18.58371],
        [77.92123, 18.58414],
        [77.92135, 18.58469],
        [77.92137, 18.58476],
        [77.92143, 18.58539],
        [77.92145, 18.58563],
        [77.92147, 18.5858],
        [77.92151, 18.58599],
        [77.92146, 18.58609],
        [77.92137, 18.58626],
        [77.92202, 18.58657],
        [77.92207, 18.58659],
        [77.92242, 18.58669],
        [77.9227, 18.58678],
        [77.92279, 18.58681],
        [77.92367, 18.58687],
        [77.92457, 18.58692],
        [77.92589, 18.587],
        [77.92596, 18.587],
        [77.92706, 18.58714],
        [77.92737, 18.58718],
        [77.92891, 18.58737],
        [77.92903, 18.58742],
        [77.92914, 18.58747],
        [77.92961, 18.58784],
        [77.93002, 18.58786],
        [77.93021, 18.58787],
        [77.93028, 18.58788],
        [77.93106, 18.58789],
        [77.9323, 18.58745],
        [77.93339, 18.58709],
        [77.93347, 18.58714],
        [77.93356, 18.58721],
        [77.93368, 18.5873],
        [77.93379, 18.58741],
        [77.93422, 18.58789],
        [77.9344, 18.58844],
        [77.93438, 18.58865],
        [77.93436, 18.58884],
        [77.93433, 18.58888],
        [77.93425, 18.58901],
        [77.93419, 18.58987],
        [77.93417, 18.59046],
        [77.93415, 18.59058],
        [77.93409, 18.59114],
        [77.93409, 18.59232],
        [77.93404, 18.59345],
        [77.93395, 18.59401],
        [77.93375, 18.59514],
        [77.93376, 18.59535],
        [77.93381, 18.59624],
        [77.93387, 18.59781],
        [77.9339, 18.59817],
        [77.93396, 18.59878],
        [77.93397, 18.59885],
        [77.93419, 18.59991],
        [77.93384, 18.60028],
        [77.93416, 18.60122],
        [77.93409, 18.6018],
        [77.93406, 18.60199],
        [77.93403, 18.60224],
        [77.93416, 18.60292],
        [77.93424, 18.60336],
        [77.93439, 18.60369],
        [77.93463, 18.60425],
        [77.93468, 18.60436],
        [77.93482, 18.60458],
        [77.93524, 18.60555],
        [77.9353, 18.60573],
        [77.9356, 18.6058],
        [77.93663, 18.60604],
        [77.93679, 18.60607],
        [77.93723, 18.60618],
        [77.93781, 18.60632],
        [77.93813, 18.60642],
        [77.94, 18.60703],
        [77.94038, 18.60715],
        [77.94064, 18.60722],
        [77.94183, 18.60748],
        [77.94249, 18.60815],
        [77.94316, 18.60884],
        [77.94366, 18.60934],
        [77.94382, 18.60951],
        [77.94449, 18.61021],
        [77.94453, 18.61026],
        [77.94541, 18.61135],
        [77.94554, 18.61155],
        [77.94608, 18.61266],
        [77.94614, 18.61278],
        [77.94579, 18.61286],
        [77.94569, 18.61288],
        [77.94562, 18.61289],
        [77.94566, 18.61312],
        [77.9459, 18.61452],
        [77.94603, 18.61499],
        [77.94651, 18.61568],
        [77.94695, 18.61607],
        [77.94772, 18.61673],
        [77.94783, 18.61656],
        [77.94813, 18.61627],
        [77.94845, 18.61617],
        [77.9495, 18.61629],
        [77.94957, 18.61633],
        [77.94958, 18.61658],
        [77.95003, 18.61662],
        [77.95029, 18.61665],
        [77.95051, 18.61671],
        [77.95195, 18.61699],
        [77.95219, 18.61703],
        [77.95227, 18.61704],
        [77.95297, 18.61696],
        [77.95353, 18.61694],
        [77.95408, 18.6169],
        [77.95416, 18.61692],
        [77.95497, 18.61686],
        [77.95569, 18.61743],
        [77.95583, 18.61754],
        [77.95594, 18.61775],
        [77.95598, 18.61783],
        [77.956, 18.61794],
        [77.95641, 18.61962],
        [77.95656, 18.62003],
        [77.95662, 18.6204],
        [77.95696, 18.6224],
        [77.95699, 18.62261],
        [77.95701, 18.62302],
        [77.95706, 18.62416],
        [77.95714, 18.62482],
        [77.95725, 18.62572],
        [77.95768, 18.62825],
        [77.95843, 18.63133],
        [77.9585, 18.63163],
        [77.95866, 18.63215],
        [77.95876, 18.63248],
        [77.959, 18.63324],
        [77.95905, 18.63342],
        [77.95916, 18.63374],
        [77.95931, 18.6342],
        [77.95952, 18.63485],
        [77.95973, 18.63547],
        [77.95988, 18.63593],
        [77.96006, 18.63649],
        [77.96142, 18.63712],
        [77.96243, 18.6376],
        [77.96416, 18.63838],
        [77.96469, 18.6385],
        [77.96487, 18.63885],
        [77.96494, 18.63897],
        [77.96499, 18.63903],
        [77.96556, 18.63939],
        [77.96599, 18.63992],
        [77.96604, 18.64001],
        [77.96715, 18.64025],
        [77.96891, 18.64069],
        [77.97096, 18.64065],
        [77.97143, 18.64036],
        [77.97149, 18.64032],
        [77.97216, 18.63993],
        [77.97224, 18.63991],
        [77.97237, 18.63983],
        [77.97253, 18.63975],
        [77.9728, 18.63959],
        [77.9734, 18.63931],
        [77.97402, 18.63916],
        [77.97417, 18.63907],
        [77.97439, 18.63842],
        [77.97435, 18.638],
        [77.97468, 18.63777],
        [77.97611, 18.63684],
        [77.97626, 18.63669],
        [77.97665, 18.63643],
        [77.97688, 18.63626],
        [77.97698, 18.63566],
        [77.97714, 18.63494],
        [77.97759, 18.63422],
        [77.97809, 18.63349],
        [77.97871, 18.63306],
        [77.97908, 18.63278],
        [77.97992, 18.63184],
        [77.98054, 18.63116],
        [77.98118, 18.63005],
        [77.98147, 18.62956],
        [77.98167, 18.62923],
        [77.98179, 18.62839],
        [77.98171, 18.6276],
        [77.98228, 18.6271],
        [77.98289, 18.62657],
        [77.98337, 18.62624],
        [77.9837, 18.626],
        [77.98424, 18.62559],
        [77.98458, 18.62537],
        [77.98477, 18.62532],
        [77.98488, 18.62549],
        [77.98499, 18.62566],
        [77.98534, 18.62521],
        [77.9861, 18.62467],
        [77.98601, 18.62448],
        [77.98588, 18.62434],
        [77.98563, 18.62398],
        [77.9856, 18.62393],
        [77.98585, 18.62318],
        [77.9861, 18.62241],
        [77.9864, 18.62194],
        [77.98643, 18.6219],
        [77.98668, 18.62151],
        [77.98686, 18.62122],
        [77.98739, 18.62039],
        [77.98772, 18.61986],
        [77.98772, 18.61949],
        [77.98772, 18.61943],
        [77.98785, 18.61852],
        [77.98795, 18.61779],
        [77.98799, 18.61658],
        [77.98808, 18.6164],
        [77.98821, 18.61628],
        [77.98879, 18.61566],
        [77.98892, 18.61553],
        [77.98951, 18.6149],
        [77.98959, 18.61482],
        [77.9899, 18.61455],
        [77.99, 18.61447],
        [77.99009, 18.6144],
        [77.99019, 18.6143],
        [77.99032, 18.6142],
        [77.99036, 18.61416],
        [77.99096, 18.61328],
        [77.99114, 18.61303],
        [77.99119, 18.61295],
        [77.99126, 18.61264],
        [77.99147, 18.61226],
        [77.99159, 18.61205],
        [77.99174, 18.61206],
        [77.99175, 18.6118],
        [77.99171, 18.61049],
        [77.99171, 18.61033],
        [77.99171, 18.61026],
        [77.99165, 18.61027],
        [77.99129, 18.61022],
        [77.9912, 18.60902],
        [77.99118, 18.60882],
        [77.99117, 18.60863],
        [77.99114, 18.60808],
        [77.9909, 18.60722],
        [77.99054, 18.60594],
        [77.99047, 18.60566],
        [77.99029, 18.6049],
        [77.99009, 18.60422],
        [77.99023, 18.6042],
        [77.99093, 18.60412],
        [77.99244, 18.60407],
        [77.99244, 18.60361],
        [77.99245, 18.60329],
        [77.99246, 18.60263],
        [77.99283, 18.6026],
        [77.99272, 18.60236],
        [77.99283, 18.60206],
        [77.99278, 18.6019],
        [77.99275, 18.60179],
        [77.9927, 18.60162],
        [77.99266, 18.60149],
        [77.99264, 18.60034],
        [77.99262, 18.59961],
        [77.99272, 18.59932],
        [77.99275, 18.5992],
        [77.9928, 18.59901],
        [77.99292, 18.59865],
        [77.99303, 18.59823],
        [77.9931, 18.59797],
        [77.99316, 18.59768],
        [77.9959, 18.58939],
        [77.99921, 18.58594],
        [78.00232, 18.5827],
        [78.00319, 18.58051],
        [78.00324, 18.5804],
        [78.00364, 18.57938],
        [78.00624, 18.57283],
        [78.00769, 18.56917],
        [78.00851, 18.56709],
        [78.00887, 18.56586],
        [78.00891, 18.5657],
        [78.0107, 18.56742],
        [78.01202, 18.56867],
        [78.01245, 18.56907],
        [78.01254, 18.56908],
        [78.01434, 18.56923],
        [78.01557, 18.56933],
        [78.01559, 18.56949],
        [78.01575, 18.57015],
        [78.01591, 18.57085],
        [78.01596, 18.57109],
        [78.01608, 18.57158],
        [78.0158, 18.57211],
        [78.01569, 18.57234],
        [78.01544, 18.5729],
        [78.01501, 18.57359],
        [78.01518, 18.5738],
        [78.01536, 18.57422],
        [78.01563, 18.5748],
        [78.01575, 18.57571],
        [78.01581, 18.57631],
        [78.01588, 18.57701],
        [78.01588, 18.5772],
        [78.01588, 18.57745],
        [78.01592, 18.5779],
        [78.01598, 18.5787],
        [78.01722, 18.58062],
        [78.01747, 18.58098],
        [78.01758, 18.58114],
        [78.01852, 18.58163],
        [78.0198, 18.58233],
        [78.02062, 18.58278],
        [78.02167, 18.5827],
        [78.0221, 18.58267],
        [78.02262, 18.58263],
        [78.02327, 18.58312],
        [78.02341, 18.58321],
        [78.02353, 18.58332],
        [78.02495, 18.58445],
        [78.02649, 18.58565],
        [78.02908, 18.58768],
        [78.03023, 18.58859],
        [78.0304, 18.58875],
        [78.03376, 18.59143],
        [78.03571, 18.59236],
        [78.03714, 18.59227],
        [78.03824, 18.59202],
        [78.03945, 18.59167],
        [78.03978, 18.59152],
        [78.03991, 18.59141],
        [78.04062, 18.59104],
        [78.04124, 18.59073],
        [78.04306, 18.58978],
        [78.04526, 18.58969],
        [78.04744, 18.58957],
        [78.048, 18.5885],
        [78.04874, 18.58733],
        [78.04938, 18.58618],
        [78.04893, 18.58382],
        [78.04867, 18.58232],
        [78.04861, 18.58199],
        [78.04858, 18.58173],
        [78.04835, 18.57992],
        [78.04818, 18.57861],
        [78.04763, 18.57715],
        [78.04698, 18.57516],
        [78.04704, 18.57431],
        [78.04715, 18.57248],
        [78.04717, 18.57238],
        [78.04731, 18.57102],
        [78.04747, 18.57033],
        [78.04802, 18.56856],
        [78.04846, 18.56701],
        [78.04898, 18.56513],
        [78.04896, 18.56316],
        [78.04895, 18.56147],
        [78.04894, 18.56111],
        [78.04893, 18.56034],
        [78.04951, 18.55905],
        [78.04962, 18.55882],
        [78.05026, 18.55746],
        [78.05044, 18.55709],
        [78.05074, 18.55637],
        [78.05118, 18.55532],
        [78.05125, 18.55513],
        [78.05141, 18.554],
        [78.05143, 18.55383],
        [78.05155, 18.55302],
        [78.05163, 18.55181],
        [78.05183, 18.54974],
        [78.05205, 18.54781],
        [78.0533, 18.54573],
        [78.05332, 18.54542],
        [78.05311, 18.54395],
        [78.05246, 18.543],
        [78.05196, 18.54225],
        [78.05025, 18.54256],
        [78.04982, 18.54263],
        [78.04915, 18.54245],
        [78.04758, 18.54202],
        [78.04657, 18.54174],
        [78.0465, 18.54172],
        [78.04399, 18.54094],
        [78.04302, 18.54064],
        [78.04264, 18.54052],
        [78.04101, 18.53641],
        [78.03813, 18.52915],
        [78.03816, 18.52865],
        [78.03777, 18.52669],
        [78.0377, 18.52637],
        [78.03738, 18.52479],
        [78.03752, 18.5236],
        [78.03897, 18.52229],
        [78.0391, 18.5213],
        [78.03915, 18.52104],
        [78.03922, 18.51997],
        [78.03896, 18.51908],
        [78.03862, 18.51837],
        [78.03854, 18.51676],
        [78.0385, 18.51643],
        [78.0381, 18.51564],
        [78.03837, 18.51494],
        [78.03842, 18.51483],
        [78.03848, 18.5147],
        [78.03921, 18.5133],
        [78.03838, 18.51239],
        [78.0381, 18.51231],
        [78.03734, 18.51209],
        [78.03607, 18.51155],
        [78.03598, 18.5107],
        [78.03523, 18.50979],
        [78.03434, 18.50959],
        [78.0339, 18.50915],
        [78.03364, 18.50864],
        [78.03331, 18.50814],
        [78.03355, 18.50799],
        [78.03368, 18.50781],
        [78.03413, 18.50756],
        [78.03423, 18.50747],
        [78.03422, 18.50741],
        [78.03405, 18.50727],
        [78.03434, 18.507],
        [78.03495, 18.50616],
        [78.03505, 18.5059],
        [78.03549, 18.50563],
        [78.03556, 18.50516],
        [78.03614, 18.5044],
        [78.03658, 18.50314],
        [78.03722, 18.50221],
        [78.0369, 18.50177],
        [78.03606, 18.5018],
        [78.03557, 18.5014],
        [78.03607, 18.49938],
        [78.03671, 18.499],
        [78.03729, 18.49863],
        [78.03818, 18.49815],
        [78.0399, 18.497],
        [78.0406, 18.49653],
        [78.03895, 18.49367],
        [78.04088, 18.4911],
        [78.03958, 18.48935],
        [78.03948, 18.48741],
        [78.0393, 18.4863],
        [78.03899, 18.4848],
        [78.03853, 18.48423],
        [78.03787, 18.48345],
        [78.03767, 18.48291],
        [78.03732, 18.48229],
        [78.0371, 18.48222],
        [78.03651, 18.48189],
        [78.0361, 18.48158],
        [78.03547, 18.48044],
        [78.03456, 18.47886],
        [78.03458, 18.47781],
        [78.03467, 18.47745],
        [78.03466, 18.47623],
        [78.03475, 18.47529],
        [78.03475, 18.47475],
        [78.03559, 18.47305],
        [78.03596, 18.47194],
        [78.03617, 18.47102],
        [78.03605, 18.47048],
        [78.03599, 18.46953],
        [78.03594, 18.46888],
        [78.036, 18.468],
        [78.03594, 18.46709],
        [78.03585, 18.46569],
        [78.03583, 18.46523],
        [78.03584, 18.4648],
        [78.03572, 18.46434],
        [78.0354, 18.46282],
        [78.03537, 18.46199],
        [78.03471, 18.46123],
        [78.03413, 18.46001],
        [78.03374, 18.4591],
        [78.03359, 18.4585],
        [78.03342, 18.45785],
        [78.03326, 18.45742],
        [78.03288, 18.45676],
        [78.03259, 18.45643],
        [78.03217, 18.45596],
        [78.03179, 18.45526],
        [78.03177, 18.45498],
        [78.03231, 18.45393],
        [78.03222, 18.45329],
        [78.03153, 18.45336],
        [78.03067, 18.45239],
        [78.03022, 18.45113],
        [78.02996, 18.45042],
        [78.02952, 18.44908],
        [78.02909, 18.4481],
        [78.02897, 18.44785],
        [78.02856, 18.44708],
        [78.02777, 18.44625],
        [78.02729, 18.4458],
        [78.02663, 18.44554],
        [78.02624, 18.44476],
        [78.02562, 18.44401],
        [78.0249, 18.44315],
        [78.02483, 18.44308],
        [78.02412, 18.44229],
        [78.0236, 18.44122],
        [78.0238, 18.44032],
        [78.02469, 18.43963],
        [78.02488, 18.43947],
        [78.0252, 18.4392],
        [78.02559, 18.43887],
        [78.02602, 18.43764],
        [78.026, 18.43756],
        [78.02576, 18.43677],
        [78.02483, 18.43609],
        [78.02446, 18.43562],
        [78.02441, 18.43545],
        [78.02411, 18.43444],
        [78.02368, 18.43376],
        [78.02363, 18.43369],
        [78.02321, 18.43301],
        [78.02292, 18.43255],
        [78.02326, 18.43159],
        [78.02371, 18.43133],
        [78.02455, 18.43085],
        [78.02465, 18.43051],
        [78.02497, 18.42967],
        [78.02579, 18.42875],
        [78.02586, 18.42779],
        [78.02595, 18.42711],
        [78.02597, 18.42682],
        [78.02604, 18.42581],
        [78.02685, 18.42495],
        [78.02802, 18.42373],
        [78.02925, 18.42245],
        [78.03055, 18.4211],
        [78.03117, 18.42047],
        [78.03132, 18.42025],
        [78.03272, 18.41805],
        [78.03334, 18.41705],
        [78.03294, 18.41658],
        [78.03221, 18.41573],
        [78.03197, 18.41545],
        [78.03181, 18.41527],
        [78.03173, 18.41518],
        [78.03099, 18.4143],
        [78.03083, 18.41412],
        [78.03053, 18.41379],
        [78.03039, 18.41352],
        [78.03014, 18.4135],
        [78.02974, 18.41347],
        [78.02722, 18.41341],
        [78.02582, 18.41336],
        [78.0239, 18.41329],
        [78.02246, 18.41324],
        [78.02027, 18.41318],
        [78.0187, 18.41316],
        [78.01734, 18.41356],
        [78.01638, 18.41382],
        [78.01504, 18.41335],
        [78.01242, 18.41246],
        [78.01186, 18.41228],
        [78.0104, 18.41178],
        [78.00977, 18.41156],
        [78.009, 18.41046],
        [78.00822, 18.40927],
        [78.00801, 18.40895],
        [78.00701, 18.4074],
        [78.00665, 18.40681],
        [78.00629, 18.40674],
        [78.00374, 18.40632],
        [78.00231, 18.40607],
        [78.00132, 18.40597],
        [78.00067, 18.40591],
        [77.99986, 18.40607],
        [77.99959, 18.40616],
        [77.9993, 18.40625],
        [77.99908, 18.40629],
        [77.99687, 18.40538],
        [77.99644, 18.4052],
        [77.99538, 18.40475],
        [77.99504, 18.4046],
        [77.99398, 18.40303],
        [77.99348, 18.40229],
        [77.99293, 18.40147],
        [77.99258, 18.40095],
        [77.99241, 18.4007],
        [77.99198, 18.40006],
        [77.99197, 18.39953],
        [77.99197, 18.39941],
        [77.99196, 18.39914],
        [77.99197, 18.3989],
        [77.99194, 18.39811],
        [77.99194, 18.39804],
        [77.99193, 18.39787],
        [77.99194, 18.39778],
        [77.99219, 18.39762],
        [77.99262, 18.39738],
        [77.99276, 18.39701],
        [77.99289, 18.39679],
        [77.99289, 18.39672],
        [77.99223, 18.39634],
        [77.99171, 18.39607],
        [77.99159, 18.39602],
        [77.99134, 18.39591],
        [77.99136, 18.3958],
        [77.99155, 18.39493],
        [77.99171, 18.39417],
        [77.99179, 18.3938],
        [77.99188, 18.3934],
        [77.99206, 18.39256],
        [77.99208, 18.39242],
        [77.9921, 18.39233],
        [77.99151, 18.39269],
        [77.99066, 18.39308],
        [77.98993, 18.39341],
        [77.98971, 18.39352],
        [77.98953, 18.39359],
        [77.98918, 18.39375],
        [77.98885, 18.39366],
        [77.9886, 18.3936],
        [77.9882, 18.39421],
        [77.98774, 18.39398],
        [77.98733, 18.39419],
        [77.98751, 18.39436],
        [77.98779, 18.3946],
        [77.98767, 18.39497],
        [77.98736, 18.39529],
        [77.98731, 18.39533],
        [77.98738, 18.39574],
        [77.98711, 18.39582],
        [77.98698, 18.39565],
        [77.98687, 18.39558],
        [77.9866, 18.3952],
        [77.98651, 18.39513],
        [77.98646, 18.3951],
        [77.98627, 18.39486],
        [77.98614, 18.39493],
        [77.98623, 18.39511],
        [77.98585, 18.39512],
        [77.98598, 18.3953],
        [77.98548, 18.39552],
        [77.98515, 18.39572],
        [77.98499, 18.39582],
        [77.98499, 18.39591],
        [77.98483, 18.3962],
        [77.98468, 18.39618],
        [77.98444, 18.39615],
        [77.98424, 18.39613],
        [77.98404, 18.39629],
        [77.98381, 18.39629],
        [77.98371, 18.3963],
        [77.98346, 18.39626],
        [77.98335, 18.39632],
        [77.98325, 18.39637],
        [77.98307, 18.39638],
        [77.98246, 18.39638],
        [77.98233, 18.39639],
        [77.98207, 18.39623],
        [77.98177, 18.39612],
        [77.98133, 18.39594],
        [77.98118, 18.39595],
        [77.98097, 18.39596],
        [77.98073, 18.39606],
        [77.97991, 18.39571],
        [77.97973, 18.39505],
        [77.97875, 18.39452],
        [77.97861, 18.39444],
        [77.97749, 18.39408],
        [77.97725, 18.39344],
        [77.97645, 18.39329],
        [77.9764, 18.39328],
        [77.97627, 18.39326],
        [77.97598, 18.39274],
        [77.9756, 18.39289],
        [77.97583, 18.39095],
        [77.97478, 18.39083],
        [77.97422, 18.39053],
        [77.97329, 18.39007],
        [77.97142, 18.38916],
        [77.97023, 18.38892],
        [77.9701, 18.38886],
        [77.9682, 18.38802],
        [77.96754, 18.38808],
        [77.96111, 18.38861],
        [77.96094, 18.38861],
        [77.95381, 18.3889],
        [77.95372, 18.38609],
        [77.95371, 18.38591],
        [77.95358, 18.38342],
        [77.95356, 18.38305],
        [77.95341, 18.38076],
        [77.9534, 18.3806],
        [77.95328, 18.3799],
        [77.95295, 18.37852],
        [77.95298, 18.37835],
        [77.95239, 18.37604],
        [77.95236, 18.3759],
        [77.95235, 18.37566],
        [77.95234, 18.37518],
        [77.95233, 18.37478],
        [77.94924, 18.37517],
        [77.94573, 18.37561],
        [77.94519, 18.37586],
        [77.94384, 18.37654],
        [77.94144, 18.37775],
        [77.94096, 18.37799],
        [77.93666, 18.38009],
        [77.9364, 18.37967],
        [77.93517, 18.37761],
        [77.93494, 18.37722],
        [77.93233, 18.3768],
        [77.93178, 18.37668],
        [77.93092, 18.3765],
        [77.93011, 18.37615],
        [77.92899, 18.37568],
        [77.92798, 18.37542],
        [77.92621, 18.37485],
        [77.92449, 18.37428],
        [77.92332, 18.37387],
        [77.92209, 18.37266],
        [77.92134, 18.37194],
        [77.92126, 18.37098],
        [77.92122, 18.37048],
        [77.92112, 18.36892],
        [77.92098, 18.36745],
        [77.92085, 18.36605],
        [77.92073, 18.3646],
        [77.92063, 18.36325],
        [77.92057, 18.36184],
        [77.92052, 18.36061],
        [77.92047, 18.35796],
        [77.92042, 18.35503],
        [77.92037, 18.35234],
        [77.92192, 18.34765],
        [77.92206, 18.34762],
        [77.92323, 18.34731],
        [77.92453, 18.34699],
        [77.92672, 18.34646],
        [77.93013, 18.34554],
        [77.92681, 18.3428],
        [77.92647, 18.34253],
        [77.92732, 18.34223],
        [77.92804, 18.34182],
        [77.93128, 18.34011],
        [77.93107, 18.34005],
        [77.93091, 18.33999],
        [77.93002, 18.33975],
        [77.92979, 18.33921],
        [77.9294, 18.3381],
        [77.92895, 18.33679],
        [77.9285, 18.33547],
        [77.92804, 18.33439],
        [77.92754, 18.33325],
        [77.92698, 18.33196],
        [77.92653, 18.33074],
        [77.92604, 18.32945],
        [77.92553, 18.32819],
        [77.92543, 18.3279],
        [77.9256, 18.32664],
        [77.92576, 18.32558],
        [77.92558, 18.32484],
        [77.92555, 18.32476],
        [77.9252, 18.32346],
        [77.92507, 18.32288],
        [77.92468, 18.32203],
        [77.92442, 18.32147],
        [77.92426, 18.32074],
        [77.92394, 18.31924],
        [77.92366, 18.31792],
        [77.92339, 18.31689],
        [77.92316, 18.31612],
        [77.92244, 18.31603],
        [77.92221, 18.31601],
        [77.92207, 18.316],
        [77.92179, 18.31599],
        [77.92165, 18.31594],
        [77.9214, 18.31596],
        [77.92122, 18.31593],
        [77.92088, 18.3159],
        [77.91986, 18.31578],
        [77.91972, 18.31595],
        [77.91956, 18.31613],
        [77.91951, 18.31618],
        [77.91944, 18.31625],
        [77.91936, 18.31632],
        [77.9193, 18.31638],
        [77.91873, 18.31691],
        [77.91793, 18.31765],
        [77.91765, 18.31759],
        [77.91618, 18.31728],
        [77.91587, 18.3173],
        [77.91556, 18.31732],
        [77.91534, 18.31734],
        [77.91505, 18.31737],
        [77.91495, 18.31738],
        [77.91456, 18.31743],
        [77.91437, 18.31745],
        [77.91429, 18.31748],
        [77.91424, 18.3175],
        [77.91413, 18.31756],
        [77.91402, 18.31755],
        [77.91392, 18.31758],
        [77.91385, 18.3176],
        [77.91367, 18.31765],
        [77.91345, 18.3177],
        [77.91338, 18.31772],
        [77.91323, 18.31774],
        [77.91283, 18.31782],
        [77.91237, 18.3179],
        [77.91231, 18.31793],
        [77.91224, 18.31791],
        [77.91148, 18.31798],
        [77.91142, 18.31798],
        [77.91136, 18.31798],
        [77.91102, 18.31802],
        [77.91097, 18.31803],
        [77.91073, 18.31806],
        [77.91064, 18.31807],
        [77.91054, 18.31811],
        [77.91007, 18.31832],
        [77.90964, 18.3185],
        [77.90956, 18.31854],
        [77.90929, 18.3186],
        [77.90868, 18.31883],
        [77.90862, 18.31884],
        [77.90855, 18.31885],
        [77.90821, 18.31892],
        [77.90769, 18.31904],
        [77.90763, 18.31904],
        [77.90758, 18.31906],
        [77.90726, 18.31914],
        [77.90683, 18.31925],
        [77.90678, 18.31926],
        [77.90671, 18.31926],
        [77.90612, 18.31929],
        [77.90571, 18.31942],
        [77.9055, 18.31947],
        [77.90517, 18.31955],
        [77.90502, 18.31959],
        [77.90497, 18.31962],
        [77.90491, 18.31962],
        [77.90445, 18.31968],
        [77.90412, 18.31973],
        [77.90396, 18.31985],
        [77.90362, 18.31982],
        [77.90354, 18.31982],
        [77.9033, 18.31983],
        [77.90322, 18.31984],
        [77.90304, 18.31985],
        [77.90294, 18.31988],
        [77.90276, 18.31991],
        [77.90266, 18.31994],
        [77.90201, 18.32013],
        [77.9018, 18.32016],
        [77.90165, 18.32018],
        [77.9011, 18.32031],
        [77.90088, 18.32023],
        [77.90007, 18.31991],
        [77.89973, 18.31975],
        [77.89917, 18.31956],
        [77.89898, 18.3195],
        [77.89884, 18.31945],
        [77.89852, 18.31943],
        [77.89836, 18.31942],
        [77.89684, 18.31931],
        [77.89659, 18.31913],
        [77.8965, 18.31914],
        [77.89573, 18.31933],
        [77.89461, 18.31961],
        [77.89331, 18.31994],
        [77.89303, 18.32001],
        [77.89283, 18.32006],
        [77.89276, 18.32008],
        [77.8926, 18.32013],
        [77.89167, 18.3204],
        [77.89154, 18.32044],
        [77.8897, 18.32142],
        [77.88944, 18.32148],
        [77.8879, 18.32179],
        [77.88785, 18.32181],
        [77.88706, 18.32216],
        [77.88639, 18.32244],
        [77.88625, 18.32242],
        [77.88599, 18.32237],
        [77.88552, 18.32229],
        [77.88534, 18.32226],
        [77.88452, 18.32213],
        [77.88438, 18.32211],
        [77.88424, 18.32208],
        [77.88092, 18.32113],
        [77.87907, 18.32314],
        [77.87717, 18.3252],
        [77.8749, 18.32842],
        [77.87414, 18.32949],
        [77.87384, 18.33044],
        [77.8722, 18.33565],
        [77.87152, 18.33782],
        [77.87149, 18.33792],
        [77.8706, 18.34114],
        [77.8706, 18.34302],
        [77.86915, 18.34697],
        [77.86875, 18.3478],
        [77.86714, 18.3508],
        [77.86426, 18.35399],
        [77.86227, 18.35547],
        [77.86131, 18.35619],
        [77.85837, 18.35839],
        [77.85545, 18.36071],
        [77.85426, 18.36216],
        [77.85129, 18.36427],
        [77.85038, 18.36499],
        [77.84916, 18.36594],
        [77.84743, 18.36722],
        [77.84574, 18.36847],
        [77.84313, 18.37047],
        [77.8408, 18.37233],
        [77.8391, 18.37372],
        [77.83739, 18.37524],
        [77.83287, 18.37981],
        [77.8322, 18.38051],
        [77.83077, 18.382],
        [77.82711, 18.38571],
        [77.82364, 18.38918],
        [77.82097, 18.39149],
        [77.8205, 18.39175],
        [77.81797, 18.39313],
        [77.81304, 18.39647],
        [77.81133, 18.39692],
        [77.80348, 18.4022],
        [77.79773, 18.40557],
        [77.79727, 18.40584],
        [77.79613, 18.40792],
        [77.79527, 18.40948],
        [77.79206, 18.41498],
        [77.79144, 18.41697],
        [77.79027, 18.42076],
        [77.78728, 18.42533],
        [77.78563, 18.42826],
        [77.78192, 18.43397],
        [77.77938, 18.43986],
        [77.77886, 18.44456],
        [77.77684, 18.44724],
        [77.77602, 18.44833],
        [77.77319, 18.45066],
        [77.77178, 18.45128],
        [77.76904, 18.45463],
        [77.76515, 18.46019],
        [77.76071, 18.4686],
        [77.75988, 18.4695],
        [77.75814, 18.47138],
        [77.75929, 18.47588],
        [77.75953, 18.47877],
        [77.76015, 18.48639],
        [77.75974, 18.49003],
        [77.76015, 18.49113],
        [77.76163, 18.49781],
        [77.76161, 18.49811],
        [77.76134, 18.50259],
        [77.76164, 18.50482],
        [77.76271, 18.51071],
        [77.76319, 18.51843],
        [77.76324, 18.51921],
        [77.76295, 18.52469],
        [77.76124, 18.52872],
        [77.75832, 18.53703],
        [77.75668, 18.54317],
        [77.75318, 18.55131],
        [77.75104, 18.55395],
        [77.74883, 18.55538],
        [77.74793, 18.55616],
        [77.74712, 18.55688],
        [77.74639, 18.55884],
        [77.7414, 18.55787],
        [77.73953, 18.55726],
        [77.73926, 18.55718],
        [77.73896, 18.55708],
        [77.73865, 18.55698],
        [77.73863, 18.55698],
        [77.73829, 18.55696],
        [77.73802, 18.55694]
      ]
    ]
  }
}
