{
  "type": "Feature",
  "id": "TS-AC-51",
  "properties": {
    "stateName": "TELANGANA",
    "stateCode": "TS",
    "districtName": "RANGAREDDY",
    "acNo": 51,
    "acName": "RAJENDRANAGAR",
    "seatType": null,
    "pcNo": null,
    "pcName": null,
    "quality": "unverified",
    "sources": [
      "TBD"
    ]
  },
  "geometry": {
    "type": "Polygon",
    "coordinates": [
      [
        [78.39837, 17.40811],
        [78.39808, 17.40725],
        [78.398, 17.40701],
        [78.39827, 17.40646],
        [78.3986, 17.40583],
        [78.39864, 17.4057],
        [78.39869, 17.40555],
        [78.39855, 17.4055],
        [78.39843, 17.40541],
        [78.39726, 17.40481],
        [78.39709, 17.40471],
        [78.39691, 17.40442],
        [78.39628, 17.40374],
        [78.3962, 17.40366],
        [78.3962, 17.40358],
        [78.39606, 17.4035],
        [78.39522, 17.40301],
        [78.39502, 17.40285],
        [78.39471, 17.40276],
        [78.39394, 17.40247],
        [78.39363, 17.40231],
        [78.39341, 17.40223],
        [78.39316, 17.40212],
        [78.39281, 17.40142],
        [78.39261, 17.40101],
        [78.39246, 17.40034],
        [78.39246, 17.40022],
        [78.39242, 17.40008],
        [78.39226, 17.39896],
        [78.39209, 17.39735],
        [78.39205, 17.39698],
        [78.39131, 17.39706],
        [78.39108, 17.39708],
        [78.39109, 17.39688],
        [78.39072, 17.39693],
        [78.39034, 17.39668],
        [78.38961, 17.39657],
        [78.38914, 17.39711],
        [78.3887, 17.39474],
        [78.38867, 17.39445],
        [78.38844, 17.39318],
        [78.38838, 17.39301],
        [78.38888, 17.39286],
        [78.3894, 17.39266],
        [78.39019, 17.39242],
        [78.39114, 17.39217],
        [78.39199, 17.39216],
        [78.39216, 17.39214],
        [78.39279, 17.39208],
        [78.39288, 17.3925],
        [78.39312, 17.39246],
        [78.39307, 17.39236],
        [78.39288, 17.39156],
        [78.39282, 17.39138],
        [78.39279, 17.39128],
        [78.39273, 17.39088],
        [78.39271, 17.39078],
        [78.3928, 17.39073],
        [78.3933, 17.39045],
        [78.39401, 17.39028],
        [78.39442, 17.39016],
        [78.39454, 17.39013],
        [78.39473, 17.39004],
        [78.39473, 17.38994],
        [78.39465, 17.38966],
        [78.39488, 17.38943],
        [78.3949, 17.38916],
        [78.39486, 17.38895],
        [78.39493, 17.38862],
        [78.3947, 17.38852],
        [78.39473, 17.3882],
        [78.39521, 17.38779],
        [78.39514, 17.38757],
        [78.39529, 17.38738],
        [78.39619, 17.38644],
        [78.39654, 17.38521],
        [78.39693, 17.38449],
        [78.39721, 17.38361],
        [78.39702, 17.38341],
        [78.39739, 17.38287],
        [78.39747, 17.38262],
        [78.39751, 17.38246],
        [78.39776, 17.38226],
        [78.39761, 17.38155],
        [78.39754, 17.38082],
        [78.39755, 17.38051],
        [78.39733, 17.38048],
        [78.3973, 17.38004],
        [78.39728, 17.37966],
        [78.39727, 17.37948],
        [78.39704, 17.37956],
        [78.39664, 17.37969],
        [78.39634, 17.37973],
        [78.39612, 17.37984],
        [78.39575, 17.37995],
        [78.39483, 17.38026],
        [78.39468, 17.38032],
        [78.39439, 17.38045],
        [78.39386, 17.38064],
        [78.39318, 17.38096],
        [78.3928, 17.38112],
        [78.39246, 17.38124],
        [78.39156, 17.38153],
        [78.39005, 17.38185],
        [78.38908, 17.3822],
        [78.38867, 17.38237],
        [78.38762, 17.38288],
        [78.38639, 17.38341],
        [78.38598, 17.38363],
        [78.38571, 17.38385],
        [78.3856, 17.384],
        [78.3854, 17.38398],
        [78.38504, 17.38421],
        [78.38471, 17.38435],
        [78.38426, 17.38454],
        [78.38384, 17.38489],
        [78.38383, 17.3847],
        [78.38359, 17.38304],
        [78.3835, 17.38283],
        [78.3834, 17.38246],
        [78.3833, 17.38216],
        [78.38302, 17.38128],
        [78.383, 17.38124],
        [78.38288, 17.38097],
        [78.38266, 17.38049],
        [78.38246, 17.38004],
        [78.38225, 17.37934],
        [78.38216, 17.37868],
        [78.38211, 17.37802],
        [78.38208, 17.3777],
        [78.38209, 17.3772],
        [78.38209, 17.37714],
        [78.38207, 17.37665],
        [78.38199, 17.37587],
        [78.382, 17.37558],
        [78.38202, 17.37525],
        [78.38203, 17.37503],
        [78.38203, 17.375],
        [78.38205, 17.37478],
        [78.38214, 17.37452],
        [78.38221, 17.37431],
        [78.38262, 17.37414],
        [78.38268, 17.37345],
        [78.38414, 17.37299],
        [78.38518, 17.37294],
        [78.38609, 17.3726],
        [78.38666, 17.37209],
        [78.38689, 17.372],
        [78.38712, 17.37189],
        [78.38752, 17.37162],
        [78.3876, 17.37157],
        [78.38762, 17.37156],
        [78.3877, 17.37151],
        [78.38868, 17.3714],
        [78.38853, 17.37103],
        [78.38886, 17.37095],
        [78.38969, 17.37055],
        [78.39038, 17.37041],
        [78.39131, 17.37034],
        [78.39137, 17.37034],
        [78.39238, 17.37036],
        [78.39346, 17.37037],
        [78.39387, 17.37035],
        [78.39454, 17.37031],
        [78.39524, 17.37017],
        [78.39663, 17.37011],
        [78.39732, 17.37012],
        [78.39733, 17.37018],
        [78.39756, 17.37023],
        [78.39876, 17.3704],
        [78.39904, 17.37044],
        [78.39903, 17.37033],
        [78.39903, 17.37024],
        [78.39913, 17.36899],
        [78.39919, 17.36881],
        [78.39937, 17.36877],
        [78.40097, 17.36831],
        [78.40088, 17.36902],
        [78.40068, 17.36966],
        [78.40086, 17.36995],
        [78.40219, 17.37039],
        [78.40222, 17.3704],
        [78.40241, 17.37045],
        [78.40243, 17.37064],
        [78.40268, 17.37185],
        [78.40297, 17.37205],
        [78.40303, 17.37258],
        [78.40606, 17.37152],
        [78.40809, 17.3723],
        [78.41136, 17.37249],
        [78.41156, 17.37207],
        [78.41205, 17.37184],
        [78.41382, 17.37157],
        [78.41555, 17.37151],
        [78.41707, 17.37168],
        [78.41813, 17.37184],
        [78.41857, 17.37187],
        [78.41915, 17.37179],
        [78.41929, 17.37134],
        [78.41934, 17.37078],
        [78.41953, 17.37015],
        [78.41971, 17.36988],
        [78.42012, 17.36951],
        [78.42071, 17.36969],
        [78.42132, 17.36964],
        [78.42197, 17.3696],
        [78.42336, 17.36951],
        [78.42429, 17.36974],
        [78.42456, 17.37004],
        [78.42492, 17.37044],
        [78.42664, 17.37098],
        [78.42795, 17.37126],
        [78.4282, 17.37132],
        [78.42836, 17.37135],
        [78.42928, 17.37153],
        [78.42964, 17.3716],
        [78.42981, 17.37163],
        [78.43117, 17.37208],
        [78.4312, 17.37208],
        [78.43137, 17.37209],
        [78.43158, 17.37209],
        [78.43244, 17.3721],
        [78.43408, 17.37212],
        [78.43539, 17.37155],
        [78.43645, 17.3711],
        [78.43756, 17.36936],
        [78.43814, 17.3685],
        [78.43895, 17.36729],
        [78.43958, 17.36692],
        [78.43986, 17.36677],
        [78.44014, 17.3666],
        [78.43995, 17.36623],
        [78.43961, 17.36555],
        [78.43929, 17.36524],
        [78.43898, 17.36493],
        [78.43772, 17.36396],
        [78.43747, 17.36256],
        [78.43726, 17.36207],
        [78.43706, 17.3616],
        [78.43641, 17.36012],
        [78.43602, 17.35921],
        [78.43561, 17.35826],
        [78.43462, 17.35678],
        [78.43282, 17.3541],
        [78.43237, 17.35344],
        [78.43178, 17.35255],
        [78.43069, 17.35245],
        [78.42969, 17.35209],
        [78.42971, 17.35078],
        [78.42972, 17.34964],
        [78.43, 17.34886],
        [78.43027, 17.34804],
        [78.42971, 17.34795],
        [78.42877, 17.34782],
        [78.42862, 17.3478],
        [78.42795, 17.34769],
        [78.42789, 17.34769],
        [78.42751, 17.34768],
        [78.42684, 17.34762],
        [78.42659, 17.34754],
        [78.42617, 17.3474],
        [78.42543, 17.34721],
        [78.42467, 17.34712],
        [78.4241, 17.34743],
        [78.42354, 17.34798],
        [78.42314, 17.3484],
        [78.42297, 17.34861],
        [78.42268, 17.34895],
        [78.4225, 17.34945],
        [78.42246, 17.35043],
        [78.42247, 17.35053],
        [78.42221, 17.35044],
        [78.42038, 17.34978],
        [78.41861, 17.349],
        [78.41738, 17.34785],
        [78.41633, 17.34651],
        [78.41594, 17.34592],
        [78.41585, 17.34577],
        [78.41529, 17.34432],
        [78.41524, 17.34427],
        [78.41764, 17.34266],
        [78.418, 17.34242],
        [78.4181, 17.34233],
        [78.41978, 17.34125],
        [78.42093, 17.34061],
        [78.42101, 17.34058],
        [78.42155, 17.34038],
        [78.42236, 17.34054],
        [78.42244, 17.34062],
        [78.42238, 17.34047],
        [78.42468, 17.33923],
        [78.42625, 17.3383],
        [78.4274, 17.33847],
        [78.42846, 17.33904],
        [78.42935, 17.34055],
        [78.43057, 17.34167],
        [78.43236, 17.34263],
        [78.43376, 17.34281],
        [78.43554, 17.34162],
        [78.43571, 17.34151],
        [78.43608, 17.34126],
        [78.43635, 17.34094],
        [78.43792, 17.33906],
        [78.43982, 17.33806],
        [78.43982, 17.3383],
        [78.43989, 17.33829],
        [78.44257, 17.33785],
        [78.44375, 17.33786],
        [78.44484, 17.33778],
        [78.44554, 17.3374],
        [78.44585, 17.33636],
        [78.44576, 17.33522],
        [78.44549, 17.33414],
        [78.44548, 17.33408],
        [78.4455, 17.33264],
        [78.44511, 17.33239],
        [78.44484, 17.332],
        [78.44445, 17.33156],
        [78.44428, 17.33127],
        [78.44426, 17.33098],
        [78.44425, 17.33024],
        [78.44426, 17.32967],
        [78.44422, 17.3291],
        [78.44422, 17.32845],
        [78.44423, 17.32776],
        [78.44424, 17.32768],
        [78.44437, 17.32692],
        [78.44451, 17.32672],
        [78.44467, 17.32648],
        [78.44521, 17.32618],
        [78.446, 17.32603],
        [78.44655, 17.32595],
        [78.44717, 17.32582],
        [78.44777, 17.32572],
        [78.44825, 17.32558],
        [78.44864, 17.32543],
        [78.44895, 17.32532],
        [78.4492, 17.32521],
        [78.44954, 17.32507],
        [78.44947, 17.32596],
        [78.44935, 17.32766],
        [78.44927, 17.32875],
        [78.45181, 17.32795],
        [78.45356, 17.32805],
        [78.45345, 17.32952],
        [78.4551, 17.32819],
        [78.45706, 17.32758],
        [78.45696, 17.32904],
        [78.45665, 17.33005],
        [78.45602, 17.33026],
        [78.45568, 17.33107],
        [78.45598, 17.33214],
        [78.45535, 17.33412],
        [78.45694, 17.33495],
        [78.45952, 17.33412],
        [78.46011, 17.33404],
        [78.46208, 17.33377],
        [78.46221, 17.33369],
        [78.46125, 17.33309],
        [78.46091, 17.33219],
        [78.45996, 17.32968],
        [78.45946, 17.3277],
        [78.45933, 17.32571],
        [78.45921, 17.32387],
        [78.46091, 17.32161],
        [78.46096, 17.32158],
        [78.46216, 17.32101],
        [78.46242, 17.32068],
        [78.4624, 17.31921],
        [78.46238, 17.31914],
        [78.46245, 17.31918],
        [78.46314, 17.31999],
        [78.46356, 17.32016],
        [78.46366, 17.32016],
        [78.46395, 17.31979],
        [78.46387, 17.31922],
        [78.46405, 17.31917],
        [78.46426, 17.31906],
        [78.46444, 17.31916],
        [78.46457, 17.31904],
        [78.46456, 17.31852],
        [78.46451, 17.31847],
        [78.46425, 17.31832],
        [78.46377, 17.31825],
        [78.46359, 17.31821],
        [78.4635, 17.31819],
        [78.46326, 17.31815],
        [78.46298, 17.31813],
        [78.46298, 17.31805],
        [78.46285, 17.31803],
        [78.46288, 17.31783],
        [78.46271, 17.31783],
        [78.46288, 17.31732],
        [78.46293, 17.31682],
        [78.46295, 17.31661],
        [78.46256, 17.31573],
        [78.46191, 17.31513],
        [78.46087, 17.31466],
        [78.46031, 17.31398],
        [78.46021, 17.31387],
        [78.46038, 17.31359],
        [78.4602, 17.31355],
        [78.46024, 17.31302],
        [78.4592, 17.31264],
        [78.45861, 17.31259],
        [78.45866, 17.31277],
        [78.45821, 17.31303],
        [78.45816, 17.31307],
        [78.45806, 17.31315],
        [78.45764, 17.31314],
        [78.45771, 17.31333],
        [78.45806, 17.31354],
        [78.45804, 17.31369],
        [78.4582, 17.31363],
        [78.45837, 17.31401],
        [78.4577, 17.31477],
        [78.45688, 17.31498],
        [78.45595, 17.31467],
        [78.45586, 17.31329],
        [78.45284, 17.31241],
        [78.45346, 17.31197],
        [78.4535, 17.31194],
        [78.45371, 17.31181],
        [78.4537, 17.31166],
        [78.4539, 17.3116],
        [78.45387, 17.31138],
        [78.45404, 17.31132],
        [78.45409, 17.31111],
        [78.45418, 17.31106],
        [78.4541, 17.31038],
        [78.45318, 17.31047],
        [78.45319, 17.31014],
        [78.45317, 17.3098],
        [78.45331, 17.30972],
        [78.4533, 17.30953],
        [78.4532, 17.30948],
        [78.45322, 17.30935],
        [78.45326, 17.30908],
        [78.45332, 17.30906],
        [78.45342, 17.30901],
        [78.45346, 17.30885],
        [78.45355, 17.30877],
        [78.45368, 17.30877],
        [78.45368, 17.30858],
        [78.45371, 17.3085],
        [78.45381, 17.30846],
        [78.45379, 17.30841],
        [78.45377, 17.30837],
        [78.45381, 17.30833],
        [78.454, 17.30808],
        [78.45403, 17.30804],
        [78.45415, 17.30802],
        [78.4542, 17.30759],
        [78.45409, 17.30751],
        [78.45406, 17.30711],
        [78.45403, 17.30663],
        [78.45413, 17.30657],
        [78.4542, 17.30641],
        [78.45424, 17.30637],
        [78.4543, 17.30629],
        [78.45416, 17.306],
        [78.45414, 17.30583],
        [78.45418, 17.30576],
        [78.45424, 17.30571],
        [78.45419, 17.30558],
        [78.45435, 17.30547],
        [78.4543, 17.30519],
        [78.45434, 17.30511],
        [78.45434, 17.30504],
        [78.45426, 17.30457],
        [78.45423, 17.30453],
        [78.45427, 17.30447],
        [78.45441, 17.30394],
        [78.45413, 17.3039],
        [78.45406, 17.30389],
        [78.45489, 17.30346],
        [78.4561, 17.30332],
        [78.45648, 17.30172],
        [78.45392, 17.30187],
        [78.45368, 17.30188],
        [78.45319, 17.30191],
        [78.45278, 17.30193],
        [78.44846, 17.30079],
        [78.44841, 17.30076],
        [78.44587, 17.30024],
        [78.44566, 17.30019],
        [78.44482, 17.30002],
        [78.44471, 17.29991],
        [78.44464, 17.29984],
        [78.44411, 17.29983],
        [78.44342, 17.29983],
        [78.44325, 17.29982],
        [78.44111, 17.2998],
        [78.44056, 17.2998],
        [78.43904, 17.29983],
        [78.43874, 17.29983],
        [78.43664, 17.29958],
        [78.43521, 17.30008],
        [78.43517, 17.29954],
        [78.435, 17.29896],
        [78.43492, 17.29867],
        [78.43454, 17.29733],
        [78.4341, 17.29613],
        [78.43404, 17.296],
        [78.43395, 17.29586],
        [78.43337, 17.29447],
        [78.43336, 17.29431],
        [78.43331, 17.29421],
        [78.43323, 17.29408],
        [78.43318, 17.29394],
        [78.43309, 17.29379],
        [78.43266, 17.29282],
        [78.43211, 17.29158],
        [78.43205, 17.29141],
        [78.43196, 17.29127],
        [78.43189, 17.29117],
        [78.43154, 17.2905],
        [78.43058, 17.28864],
        [78.43006, 17.28794],
        [78.42993, 17.28779],
        [78.43008, 17.28769],
        [78.43052, 17.28743],
        [78.43149, 17.28686],
        [78.43161, 17.28679],
        [78.43171, 17.28673],
        [78.43182, 17.28668],
        [78.43276, 17.28612],
        [78.43321, 17.28586],
        [78.43377, 17.28553],
        [78.4342, 17.28528],
        [78.43432, 17.2852],
        [78.43442, 17.28514],
        [78.43456, 17.28509],
        [78.43508, 17.28477],
        [78.43542, 17.28456],
        [78.43558, 17.28446],
        [78.43577, 17.28434],
        [78.43609, 17.28414],
        [78.43614, 17.28411],
        [78.43622, 17.28405],
        [78.43622, 17.28398],
        [78.43624, 17.28394],
        [78.43625, 17.28379],
        [78.43627, 17.28356],
        [78.43627, 17.28351],
        [78.43627, 17.2834],
        [78.43627, 17.28324],
        [78.43651, 17.28161],
        [78.43652, 17.28149],
        [78.43653, 17.28133],
        [78.43679, 17.27979],
        [78.43681, 17.27968],
        [78.43684, 17.27956],
        [78.43719, 17.27716],
        [78.43721, 17.277],
        [78.43723, 17.27686],
        [78.43765, 17.27494],
        [78.43771, 17.27465],
        [78.43773, 17.27455],
        [78.43777, 17.27444],
        [78.43818, 17.2728],
        [78.43832, 17.27195],
        [78.43833, 17.27176],
        [78.43833, 17.27172],
        [78.43832, 17.27142],
        [78.43825, 17.27136],
        [78.43818, 17.27129],
        [78.43758, 17.27096],
        [78.43693, 17.2706],
        [78.43448, 17.26925],
        [78.43272, 17.2681],
        [78.4326, 17.26802],
        [78.43258, 17.26816],
        [78.43253, 17.2692],
        [78.43203, 17.27085],
        [78.43148, 17.27223],
        [78.43119, 17.27326],
        [78.43014, 17.27455],
        [78.42905, 17.27586],
        [78.42847, 17.27919],
        [78.42846, 17.27932],
        [78.42834, 17.2794],
        [78.42831, 17.27942],
        [78.42725, 17.2802],
        [78.4262, 17.28065],
        [78.42615, 17.27901],
        [78.42615, 17.27889],
        [78.42604, 17.27737],
        [78.42609, 17.27618],
        [78.42536, 17.27555],
        [78.42526, 17.27532],
        [78.42489, 17.27479],
        [78.42471, 17.27474],
        [78.42463, 17.27367],
        [78.42542, 17.27343],
        [78.42603, 17.27328],
        [78.42615, 17.27326],
        [78.4262, 17.27313],
        [78.42667, 17.27159],
        [78.42669, 17.27145],
        [78.42657, 17.27146],
        [78.42611, 17.27151],
        [78.42572, 17.27115],
        [78.42563, 17.27031],
        [78.42564, 17.2702],
        [78.42563, 17.27008],
        [78.42545, 17.26843],
        [78.42543, 17.2683],
        [78.42543, 17.26821],
        [78.42511, 17.26542],
        [78.42511, 17.26531],
        [78.42498, 17.26533],
        [78.42362, 17.26541],
        [78.4235, 17.26543],
        [78.42339, 17.26545],
        [78.42207, 17.26554],
        [78.42194, 17.26556],
        [78.42181, 17.26557],
        [78.42034, 17.26567],
        [78.42022, 17.26569],
        [78.42011, 17.26572],
        [78.4191, 17.26627],
        [78.41901, 17.26638],
        [78.41899, 17.26648],
        [78.41324, 17.25989],
        [78.40826, 17.25417],
        [78.40837, 17.25417],
        [78.40994, 17.2544],
        [78.41117, 17.25459],
        [78.41189, 17.25453],
        [78.41201, 17.25451],
        [78.41208, 17.25449],
        [78.41325, 17.25434],
        [78.41338, 17.25433],
        [78.4135, 17.2543],
        [78.41568, 17.25405],
        [78.4158, 17.25405],
        [78.4159, 17.25403],
        [78.41625, 17.25403],
        [78.41836, 17.254],
        [78.41846, 17.254],
        [78.41858, 17.254],
        [78.41908, 17.25395],
        [78.42008, 17.25377],
        [78.42016, 17.25373],
        [78.42027, 17.25373],
        [78.4208, 17.2536],
        [78.42127, 17.25349],
        [78.42216, 17.25335],
        [78.42228, 17.25333],
        [78.42239, 17.2533],
        [78.42434, 17.25273],
        [78.42558, 17.25235],
        [78.42568, 17.25232],
        [78.42579, 17.25229],
        [78.42751, 17.25176],
        [78.42764, 17.25171],
        [78.4277, 17.25164],
        [78.4286, 17.25041],
        [78.42869, 17.25032],
        [78.42875, 17.25023],
        [78.42922, 17.2496],
        [78.42939, 17.24875],
        [78.43003, 17.24708],
        [78.43006, 17.24697],
        [78.4301, 17.24688],
        [78.4302, 17.24636],
        [78.43047, 17.24537],
        [78.43042, 17.24533],
        [78.42987, 17.24517],
        [78.42853, 17.24476],
        [78.42841, 17.24475],
        [78.42833, 17.24471],
        [78.42554, 17.24392],
        [78.42542, 17.2439],
        [78.42532, 17.24383],
        [78.4245, 17.244],
        [78.4221, 17.24459],
        [78.42196, 17.24464],
        [78.42188, 17.24459],
        [78.42087, 17.24392],
        [78.42008, 17.24337],
        [78.42001, 17.24331],
        [78.41996, 17.24325],
        [78.41933, 17.24242],
        [78.41923, 17.24136],
        [78.41921, 17.24126],
        [78.41918, 17.2412],
        [78.41904, 17.24093],
        [78.41868, 17.24032],
        [78.41858, 17.24025],
        [78.41824, 17.24002],
        [78.41733, 17.2404],
        [78.41754, 17.24113],
        [78.41757, 17.24123],
        [78.41744, 17.24125],
        [78.41668, 17.24141],
        [78.41641, 17.2416],
        [78.41617, 17.24164],
        [78.41601, 17.24172],
        [78.41578, 17.24166],
        [78.41474, 17.24148],
        [78.41362, 17.24162],
        [78.41269, 17.2417],
        [78.41258, 17.24171],
        [78.41247, 17.24175],
        [78.41103, 17.24231],
        [78.41095, 17.24234],
        [78.41084, 17.24233],
        [78.41038, 17.24236],
        [78.40976, 17.24231],
        [78.40965, 17.24228],
        [78.40964, 17.24219],
        [78.40961, 17.24175],
        [78.40952, 17.24146],
        [78.40929, 17.24101],
        [78.40879, 17.2395],
        [78.40868, 17.2392],
        [78.40879, 17.23911],
        [78.409, 17.23946],
        [78.40933, 17.23901],
        [78.40964, 17.23909],
        [78.40994, 17.23937],
        [78.41014, 17.23968],
        [78.41008, 17.24038],
        [78.41067, 17.24087],
        [78.41152, 17.24096],
        [78.41194, 17.24036],
        [78.41232, 17.23955],
        [78.41234, 17.23934],
        [78.41286, 17.23913],
        [78.41282, 17.23858],
        [78.41305, 17.23842],
        [78.41396, 17.23833],
        [78.41472, 17.23812],
        [78.41587, 17.23779],
        [78.41819, 17.23789],
        [78.41889, 17.23813],
        [78.41934, 17.23828],
        [78.42019, 17.23774],
        [78.42113, 17.23716],
        [78.42248, 17.23626],
        [78.42475, 17.23476],
        [78.42749, 17.23381],
        [78.42926, 17.23318],
        [78.42987, 17.233],
        [78.43351, 17.23212],
        [78.43358, 17.23211],
        [78.43627, 17.23136],
        [78.43537, 17.22955],
        [78.43475, 17.22851],
        [78.43372, 17.22724],
        [78.43283, 17.22524],
        [78.43277, 17.22514],
        [78.43262, 17.2237],
        [78.43273, 17.22282],
        [78.43278, 17.2227],
        [78.43305, 17.22176],
        [78.43434, 17.22078],
        [78.43479, 17.22061],
        [78.43577, 17.21993],
        [78.43504, 17.21884],
        [78.43482, 17.21835],
        [78.4344, 17.21803],
        [78.43439, 17.21795],
        [78.43438, 17.21778],
        [78.43432, 17.21717],
        [78.43458, 17.21617],
        [78.43502, 17.21445],
        [78.43523, 17.21374],
        [78.43455, 17.21154],
        [78.43433, 17.211],
        [78.43391, 17.20998],
        [78.43414, 17.20879],
        [78.43429, 17.20794],
        [78.43431, 17.20778],
        [78.43434, 17.20762],
        [78.43432, 17.2061],
        [78.43433, 17.20592],
        [78.43687, 17.2061],
        [78.43699, 17.20473],
        [78.43698, 17.20458],
        [78.437, 17.20445],
        [78.43694, 17.20412],
        [78.43709, 17.20303],
        [78.43717, 17.20098],
        [78.43717, 17.20079],
        [78.43712, 17.20012],
        [78.43708, 17.19995],
        [78.43688, 17.19922],
        [78.43566, 17.19819],
        [78.43548, 17.19753],
        [78.43545, 17.19737],
        [78.43541, 17.19727],
        [78.43509, 17.19653],
        [78.4347, 17.19593],
        [78.43462, 17.19582],
        [78.43414, 17.1951],
        [78.4331, 17.19341],
        [78.43301, 17.1933],
        [78.43244, 17.19235],
        [78.43183, 17.19164],
        [78.43138, 17.19148],
        [78.43063, 17.19121],
        [78.42985, 17.1906],
        [78.42957, 17.19042],
        [78.42882, 17.18992],
        [78.42725, 17.1891],
        [78.42691, 17.18846],
        [78.42668, 17.18801],
        [78.42622, 17.18722],
        [78.42586, 17.18659],
        [78.42516, 17.18538],
        [78.4249, 17.18543],
        [78.42484, 17.18545],
        [78.42408, 17.1856],
        [78.42386, 17.18565],
        [78.42367, 17.18576],
        [78.42135, 17.18712],
        [78.41929, 17.18833],
        [78.41873, 17.18916],
        [78.41771, 17.18945],
        [78.41764, 17.18947],
        [78.41578, 17.18988],
        [78.41523, 17.19],
        [78.41317, 17.19033],
        [78.41309, 17.19034],
        [78.41151, 17.19065],
        [78.41077, 17.1908],
        [78.41032, 17.19092],
        [78.40984, 17.19126],
        [78.40868, 17.19196],
        [78.40858, 17.19201],
        [78.40746, 17.19268],
        [78.40604, 17.19266],
        [78.40601, 17.19265],
        [78.40574, 17.19265],
        [78.40537, 17.19265],
        [78.40517, 17.19263],
        [78.40513, 17.19263],
        [78.40411, 17.19255],
        [78.40363, 17.19251],
        [78.40359, 17.19251],
        [78.40344, 17.1925],
        [78.40304, 17.19251],
        [78.40214, 17.19254],
        [78.40204, 17.19254],
        [78.4017, 17.19258],
        [78.40084, 17.19267],
        [78.39994, 17.19272],
        [78.39956, 17.19274],
        [78.39929, 17.19276],
        [78.39746, 17.19294],
        [78.39692, 17.19299],
        [78.39579, 17.1931],
        [78.39535, 17.19317],
        [78.3949, 17.19317],
        [78.39475, 17.19319],
        [78.39341, 17.19339],
        [78.3926, 17.19355],
        [78.39242, 17.19358],
        [78.39078, 17.19391],
        [78.38934, 17.19419],
        [78.38879, 17.19434],
        [78.38737, 17.19472],
        [78.38687, 17.1947],
        [78.38679, 17.19472],
        [78.38628, 17.19484],
        [78.38624, 17.19486],
        [78.38604, 17.19486],
        [78.38598, 17.19484],
        [78.38559, 17.19482],
        [78.38528, 17.19482],
        [78.3842, 17.19478],
        [78.38391, 17.19479],
        [78.38351, 17.19481],
        [78.3833, 17.19483],
        [78.38319, 17.19482],
        [78.38281, 17.19479],
        [78.38247, 17.19479],
        [78.38098, 17.19478],
        [78.37997, 17.19478],
        [78.37921, 17.19469],
        [78.37668, 17.19454],
        [78.37659, 17.19451],
        [78.37512, 17.19414],
        [78.37273, 17.19363],
        [78.37259, 17.1936],
        [78.37262, 17.19341],
        [78.3729, 17.19121],
        [78.37291, 17.19108],
        [78.37301, 17.18881],
        [78.36949, 17.1866],
        [78.3687, 17.18674],
        [78.36564, 17.187],
        [78.36278, 17.18725],
        [78.36106, 17.18739],
        [78.36051, 17.18755],
        [78.35874, 17.18774],
        [78.35725, 17.18787],
        [78.35463, 17.18837],
        [78.35301, 17.1889],
        [78.35279, 17.18912],
        [78.35226, 17.18973],
        [78.35219, 17.19007],
        [78.35203, 17.19109],
        [78.35194, 17.19161],
        [78.35187, 17.19208],
        [78.35186, 17.19292],
        [78.35207, 17.19371],
        [78.35213, 17.1945],
        [78.35219, 17.1953],
        [78.35017, 17.19555],
        [78.34914, 17.19562],
        [78.34848, 17.19568],
        [78.34802, 17.19572],
        [78.34618, 17.19585],
        [78.34601, 17.19587],
        [78.34581, 17.19588],
        [78.34471, 17.19442],
        [78.34449, 17.19412],
        [78.34402, 17.19102],
        [78.34384, 17.18994],
        [78.34375, 17.18944],
        [78.34345, 17.1887],
        [78.34307, 17.18776],
        [78.34286, 17.18727],
        [78.34274, 17.18683],
        [78.34237, 17.18557],
        [78.34157, 17.18287],
        [78.3413, 17.18194],
        [78.34101, 17.18119],
        [78.34006, 17.1788],
        [78.33972, 17.17778],
        [78.33899, 17.17612],
        [78.33887, 17.17579],
        [78.33881, 17.17562],
        [78.33871, 17.17528],
        [78.33821, 17.17394],
        [78.33802, 17.17328],
        [78.33801, 17.17256],
        [78.33785, 17.17202],
        [78.33764, 17.17134],
        [78.33755, 17.17102],
        [78.33729, 17.17011],
        [78.33708, 17.16962],
        [78.33701, 17.16944],
        [78.33689, 17.16937],
        [78.33671, 17.16896],
        [78.33656, 17.16862],
        [78.33654, 17.16849],
        [78.33653, 17.16845],
        [78.33638, 17.16754],
        [78.33637, 17.16751],
        [78.33623, 17.16676],
        [78.33626, 17.16659],
        [78.33631, 17.1665],
        [78.33649, 17.16594],
        [78.33653, 17.16585],
        [78.33659, 17.1656],
        [78.33655, 17.16553],
        [78.33651, 17.16545],
        [78.33644, 17.16528],
        [78.33638, 17.1651],
        [78.33649, 17.16486],
        [78.33652, 17.16471],
        [78.33661, 17.16402],
        [78.33659, 17.16393],
        [78.33649, 17.16392],
        [78.33569, 17.16382],
        [78.3353, 17.16385],
        [78.33512, 17.16392],
        [78.33492, 17.16388],
        [78.33374, 17.16378],
        [78.33327, 17.16396],
        [78.33312, 17.16401],
        [78.33255, 17.16423],
        [78.33027, 17.16421],
        [78.33012, 17.16427],
        [78.32961, 17.1645],
        [78.32851, 17.16512],
        [78.32845, 17.16515],
        [78.32753, 17.16584],
        [78.32736, 17.166],
        [78.32674, 17.16661],
        [78.32536, 17.16621],
        [78.32482, 17.16523],
        [78.32425, 17.1638],
        [78.32518, 17.16263],
        [78.32488, 17.1624],
        [78.32351, 17.16136],
        [78.32337, 17.16128],
        [78.3226, 17.16083],
        [78.32188, 17.16069],
        [78.3216, 17.15976],
        [78.32155, 17.15962],
        [78.3209, 17.1587],
        [78.32083, 17.1586],
        [78.32051, 17.15815],
        [78.32022, 17.15774],
        [78.31975, 17.15703],
        [78.31928, 17.15646],
        [78.31912, 17.15617],
        [78.3188, 17.15559],
        [78.31861, 17.15526],
        [78.31837, 17.15507],
        [78.31797, 17.15477],
        [78.31728, 17.15331],
        [78.31663, 17.15262],
        [78.31634, 17.15224],
        [78.31429, 17.14964],
        [78.31423, 17.14963],
        [78.31324, 17.14912],
        [78.31213, 17.14854],
        [78.30982, 17.14774],
        [78.30887, 17.14737],
        [78.30769, 17.14631],
        [78.30751, 17.14612],
        [78.3063, 17.14582],
        [78.30616, 17.14577],
        [78.30616, 17.1458],
        [78.30621, 17.1464],
        [78.30623, 17.14653],
        [78.30315, 17.14554],
        [78.30244, 17.14532],
        [78.30151, 17.14505],
        [78.30152, 17.14527],
        [78.30155, 17.14541],
        [78.30148, 17.14546],
        [78.30121, 17.14568],
        [78.30012, 17.14658],
        [78.2989, 17.14731],
        [78.29781, 17.14795],
        [78.29765, 17.148],
        [78.29766, 17.14812],
        [78.29771, 17.14824],
        [78.2978, 17.14871],
        [78.29783, 17.14882],
        [78.29797, 17.14964],
        [78.29807, 17.15016],
        [78.29826, 17.15097],
        [78.29827, 17.151],
        [78.29833, 17.15115],
        [78.29847, 17.15147],
        [78.29853, 17.15162],
        [78.2986, 17.15185],
        [78.29875, 17.15243],
        [78.29877, 17.15261],
        [78.29879, 17.15268],
        [78.29883, 17.15273],
        [78.29886, 17.15305],
        [78.29888, 17.15325],
        [78.29901, 17.15383],
        [78.29903, 17.15392],
        [78.29903, 17.15397],
        [78.29902, 17.15405],
        [78.29906, 17.15415],
        [78.29908, 17.15429],
        [78.2993, 17.15513],
        [78.29935, 17.1554],
        [78.29935, 17.15545],
        [78.29936, 17.15554],
        [78.2994, 17.15568],
        [78.29977, 17.15711],
        [78.30005, 17.15823],
        [78.30003, 17.15841],
        [78.30006, 17.15859],
        [78.30009, 17.15894],
        [78.30017, 17.15968],
        [78.30019, 17.15982],
        [78.3003, 17.16072],
        [78.30042, 17.16178],
        [78.3004, 17.16196],
        [78.30044, 17.1621],
        [78.30048, 17.16237],
        [78.30054, 17.16283],
        [78.30059, 17.16309],
        [78.30063, 17.16377],
        [78.30062, 17.16389],
        [78.30065, 17.16405],
        [78.30072, 17.16445],
        [78.30091, 17.16519],
        [78.30092, 17.16524],
        [78.301, 17.16561],
        [78.30105, 17.16582],
        [78.30108, 17.16598],
        [78.3011, 17.16611],
        [78.30113, 17.16629],
        [78.30121, 17.16661],
        [78.30129, 17.16692],
        [78.30132, 17.16707],
        [78.30133, 17.16712],
        [78.30136, 17.16724],
        [78.3014, 17.1675],
        [78.30145, 17.1676],
        [78.30149, 17.16779],
        [78.30157, 17.16807],
        [78.3016, 17.16816],
        [78.3016, 17.16834],
        [78.30161, 17.16849],
        [78.30167, 17.16865],
        [78.30176, 17.16888],
        [78.30195, 17.16931],
        [78.30201, 17.16943],
        [78.30206, 17.16958],
        [78.30212, 17.16969],
        [78.30214, 17.16976],
        [78.30215, 17.16993],
        [78.30215, 17.1701],
        [78.30216, 17.17022],
        [78.30219, 17.17046],
        [78.30231, 17.17133],
        [78.30231, 17.17134],
        [78.30236, 17.17162],
        [78.30236, 17.17173],
        [78.30236, 17.17177],
        [78.30241, 17.17189],
        [78.30242, 17.17198],
        [78.30252, 17.1724],
        [78.30256, 17.17261],
        [78.30261, 17.17282],
        [78.3027, 17.17325],
        [78.30277, 17.17338],
        [78.30295, 17.17406],
        [78.30301, 17.17426],
        [78.30301, 17.17444],
        [78.303, 17.17457],
        [78.30297, 17.17498],
        [78.30296, 17.17512],
        [78.30293, 17.17522],
        [78.3029, 17.17532],
        [78.30288, 17.17534],
        [78.30266, 17.17549],
        [78.3022, 17.17602],
        [78.30212, 17.17613],
        [78.30193, 17.17618],
        [78.30177, 17.17623],
        [78.30149, 17.17643],
        [78.30147, 17.17644],
        [78.30115, 17.17659],
        [78.30072, 17.1768],
        [78.30056, 17.17684],
        [78.3004, 17.17687],
        [78.30023, 17.17693],
        [78.29994, 17.17695],
        [78.29946, 17.17711],
        [78.29918, 17.17722],
        [78.29892, 17.17747],
        [78.29869, 17.17759],
        [78.2987, 17.17778],
        [78.29819, 17.17796],
        [78.29796, 17.17812],
        [78.29762, 17.17858],
        [78.29751, 17.17873],
        [78.29725, 17.17885],
        [78.29713, 17.17889],
        [78.29694, 17.17879],
        [78.29691, 17.17894],
        [78.29676, 17.17901],
        [78.29664, 17.17905],
        [78.29655, 17.17913],
        [78.29634, 17.17914],
        [78.29626, 17.17913],
        [78.29611, 17.17912],
        [78.29595, 17.17921],
        [78.29591, 17.17923],
        [78.29587, 17.17925],
        [78.29574, 17.1793],
        [78.29574, 17.17951],
        [78.29528, 17.17988],
        [78.29512, 17.17988],
        [78.29503, 17.18005],
        [78.29473, 17.18015],
        [78.2946, 17.18022],
        [78.29452, 17.18033],
        [78.29407, 17.18068],
        [78.29376, 17.18077],
        [78.29365, 17.18106],
        [78.2934, 17.18122],
        [78.29319, 17.18122],
        [78.29296, 17.18123],
        [78.29305, 17.1816],
        [78.29306, 17.18163],
        [78.29282, 17.18168],
        [78.29267, 17.18169],
        [78.29267, 17.18174],
        [78.29265, 17.18212],
        [78.29264, 17.18226],
        [78.29263, 17.18241],
        [78.2926, 17.18264],
        [78.2926, 17.18285],
        [78.29248, 17.183],
        [78.29245, 17.18305],
        [78.29239, 17.18315],
        [78.29237, 17.18327],
        [78.29237, 17.18331],
        [78.29237, 17.18334],
        [78.29236, 17.18344],
        [78.29235, 17.18346],
        [78.29235, 17.18349],
        [78.29233, 17.18366],
        [78.29206, 17.18399],
        [78.29196, 17.1841],
        [78.29152, 17.18464],
        [78.29138, 17.18482],
        [78.29126, 17.18496],
        [78.29124, 17.18499],
        [78.29091, 17.18511],
        [78.29082, 17.18514],
        [78.29005, 17.18604],
        [78.28992, 17.18619],
        [78.28961, 17.18655],
        [78.28928, 17.18688],
        [78.28925, 17.18691],
        [78.28921, 17.18693],
        [78.28923, 17.18711],
        [78.28923, 17.18712],
        [78.28921, 17.18722],
        [78.28921, 17.18725],
        [78.28921, 17.18726],
        [78.28925, 17.18834],
        [78.28927, 17.18893],
        [78.28984, 17.19039],
        [78.28948, 17.19043],
        [78.28921, 17.19048],
        [78.28912, 17.1905],
        [78.28917, 17.19063],
        [78.28933, 17.19105],
        [78.28921, 17.1913],
        [78.28904, 17.19164],
        [78.28907, 17.19171],
        [78.28844, 17.19293],
        [78.28805, 17.19334],
        [78.28793, 17.19346],
        [78.28791, 17.19353],
        [78.28784, 17.19385],
        [78.28779, 17.19407],
        [78.28765, 17.19517],
        [78.28765, 17.19518],
        [78.28754, 17.19525],
        [78.28748, 17.19528],
        [78.28744, 17.1953],
        [78.28729, 17.19539],
        [78.28757, 17.19537],
        [78.28763, 17.19541],
        [78.28789, 17.19559],
        [78.28794, 17.19562],
        [78.28805, 17.19562],
        [78.28849, 17.19563],
        [78.28848, 17.19584],
        [78.28848, 17.19592],
        [78.28848, 17.19606],
        [78.28848, 17.19609],
        [78.28815, 17.19659],
        [78.28814, 17.19665],
        [78.28801, 17.19728],
        [78.28797, 17.19776],
        [78.28795, 17.198],
        [78.28796, 17.19869],
        [78.28823, 17.19971],
        [78.28825, 17.19978],
        [78.28843, 17.20018],
        [78.28856, 17.20047],
        [78.28861, 17.20058],
        [78.28896, 17.20084],
        [78.28906, 17.20091],
        [78.2895, 17.20124],
        [78.28953, 17.20126],
        [78.28957, 17.20129],
        [78.28953, 17.20168],
        [78.28952, 17.20178],
        [78.28944, 17.20248],
        [78.28944, 17.20249],
        [78.28938, 17.20273],
        [78.28935, 17.20282],
        [78.28933, 17.20291],
        [78.28913, 17.20372],
        [78.28908, 17.20386],
        [78.28904, 17.204],
        [78.28897, 17.20406],
        [78.28868, 17.20431],
        [78.28845, 17.20448],
        [78.28836, 17.20455],
        [78.28826, 17.20463],
        [78.28765, 17.20506],
        [78.28727, 17.20525],
        [78.2871, 17.20546],
        [78.2869, 17.20529],
        [78.28663, 17.20567],
        [78.28691, 17.20596],
        [78.28695, 17.20609],
        [78.28698, 17.20619],
        [78.28734, 17.20654],
        [78.28771, 17.20704],
        [78.28777, 17.20705],
        [78.28785, 17.20708],
        [78.28804, 17.20713],
        [78.28804, 17.20715],
        [78.28801, 17.20729],
        [78.28801, 17.20731],
        [78.28799, 17.20742],
        [78.2879, 17.20774],
        [78.28779, 17.20768],
        [78.28774, 17.20797],
        [78.28764, 17.20809],
        [78.28757, 17.20837],
        [78.28772, 17.20843],
        [78.28767, 17.20864],
        [78.28765, 17.20891],
        [78.28773, 17.20952],
        [78.28787, 17.20971],
        [78.28816, 17.21002],
        [78.28858, 17.21047],
        [78.28868, 17.21057],
        [78.28896, 17.21087],
        [78.28906, 17.21097],
        [78.28912, 17.21104],
        [78.28895, 17.21126],
        [78.28892, 17.21126],
        [78.28883, 17.21127],
        [78.28878, 17.21127],
        [78.28865, 17.21129],
        [78.28868, 17.21157],
        [78.28879, 17.21177],
        [78.28892, 17.21204],
        [78.28902, 17.21237],
        [78.28919, 17.21281],
        [78.28926, 17.21295],
        [78.28951, 17.21336],
        [78.28949, 17.21361],
        [78.28949, 17.21391],
        [78.28949, 17.21396],
        [78.2895, 17.21402],
        [78.28945, 17.21409],
        [78.28937, 17.21419],
        [78.28933, 17.21425],
        [78.28947, 17.21445],
        [78.28951, 17.21468],
        [78.28953, 17.21485],
        [78.28953, 17.21486],
        [78.28948, 17.2149],
        [78.28943, 17.21496],
        [78.28949, 17.21524],
        [78.28952, 17.21535],
        [78.28948, 17.21564],
        [78.28946, 17.21576],
        [78.28942, 17.21603],
        [78.28939, 17.21622],
        [78.2894, 17.21642],
        [78.28941, 17.21649],
        [78.28941, 17.21657],
        [78.28905, 17.21709],
        [78.28902, 17.21713],
        [78.2889, 17.21736],
        [78.2888, 17.21756],
        [78.28877, 17.21761],
        [78.28876, 17.21759],
        [78.28869, 17.21764],
        [78.28864, 17.21767],
        [78.28856, 17.21773],
        [78.28831, 17.21793],
        [78.28822, 17.21822],
        [78.28818, 17.21836],
        [78.28817, 17.2184],
        [78.28817, 17.21876],
        [78.28817, 17.21889],
        [78.28809, 17.21893],
        [78.28766, 17.21916],
        [78.28745, 17.21926],
        [78.28732, 17.21933],
        [78.28683, 17.21941],
        [78.28627, 17.2195],
        [78.28614, 17.21955],
        [78.28585, 17.2195],
        [78.28519, 17.21992],
        [78.28509, 17.21997],
        [78.28496, 17.21999],
        [78.28485, 17.22002],
        [78.28483, 17.22003],
        [78.28467, 17.22007],
        [78.28442, 17.22015],
        [78.28409, 17.22037],
        [78.28369, 17.2204],
        [78.28361, 17.22041],
        [78.28318, 17.22061],
        [78.28284, 17.22077],
        [78.28256, 17.22084],
        [78.28205, 17.22126],
        [78.28094, 17.2218],
        [78.28081, 17.22186],
        [78.28064, 17.22193],
        [78.28053, 17.22196],
        [78.28042, 17.22202],
        [78.2791, 17.22278],
        [78.27908, 17.22279],
        [78.27898, 17.22288],
        [78.27885, 17.22291],
        [78.27866, 17.22298],
        [78.27864, 17.22299],
        [78.27853, 17.22301],
        [78.27842, 17.22305],
        [78.27784, 17.2232],
        [78.27772, 17.22323],
        [78.27763, 17.22325],
        [78.27687, 17.22349],
        [78.27676, 17.22352],
        [78.27666, 17.22355],
        [78.27564, 17.22394],
        [78.27546, 17.22393],
        [78.27538, 17.22391],
        [78.27525, 17.22392],
        [78.27402, 17.22406],
        [78.27392, 17.22406],
        [78.27202, 17.22433],
        [78.27189, 17.22435],
        [78.27179, 17.22437],
        [78.27145, 17.22444],
        [78.27125, 17.22448],
        [78.26868, 17.22497],
        [78.267, 17.22541],
        [78.26643, 17.22549],
        [78.26637, 17.22536],
        [78.26581, 17.2254],
        [78.26537, 17.22529],
        [78.26529, 17.22526],
        [78.26516, 17.22522],
        [78.26433, 17.22506],
        [78.26374, 17.22495],
        [78.26347, 17.22494],
        [78.26337, 17.22494],
        [78.26331, 17.22494],
        [78.2631, 17.22496],
        [78.26304, 17.22494],
        [78.26299, 17.22493],
        [78.263, 17.22481],
        [78.26301, 17.22472],
        [78.26306, 17.22462],
        [78.26301, 17.22451],
        [78.26296, 17.22429],
        [78.26277, 17.22383],
        [78.26276, 17.22381],
        [78.26265, 17.22353],
        [78.26316, 17.22254],
        [78.2632, 17.22244],
        [78.26323, 17.22234],
        [78.26337, 17.22176],
        [78.26336, 17.22131],
        [78.26336, 17.22114],
        [78.26333, 17.22014],
        [78.26334, 17.22002],
        [78.2633, 17.21991],
        [78.26316, 17.21971],
        [78.26298, 17.21932],
        [78.26289, 17.21884],
        [78.26281, 17.21859],
        [78.26273, 17.21836],
        [78.26238, 17.21706],
        [78.2624, 17.21695],
        [78.26238, 17.21671],
        [78.26237, 17.21664],
        [78.26234, 17.21627],
        [78.26228, 17.21619],
        [78.26195, 17.21555],
        [78.26178, 17.21488],
        [78.26172, 17.21466],
        [78.2617, 17.21455],
        [78.26161, 17.21431],
        [78.26146, 17.21394],
        [78.26099, 17.21339],
        [78.26047, 17.21292],
        [78.26025, 17.2125],
        [78.26024, 17.21246],
        [78.26016, 17.2123],
        [78.26003, 17.21225],
        [78.25992, 17.21217],
        [78.25959, 17.21156],
        [78.25954, 17.21148],
        [78.25939, 17.21116],
        [78.2593, 17.21025],
        [78.25913, 17.2103],
        [78.25887, 17.21031],
        [78.25746, 17.21041],
        [78.25681, 17.21059],
        [78.25567, 17.21082],
        [78.25482, 17.21128],
        [78.25442, 17.21146],
        [78.25422, 17.21154],
        [78.25359, 17.2121],
        [78.25075, 17.21403],
        [78.24859, 17.21556],
        [78.24781, 17.21612],
        [78.24748, 17.21637],
        [78.24718, 17.21643],
        [78.24697, 17.21647],
        [78.24603, 17.21666],
        [78.24531, 17.21674],
        [78.24482, 17.21675],
        [78.24469, 17.21678],
        [78.2446, 17.21687],
        [78.24421, 17.21749],
        [78.24385, 17.21805],
        [78.24235, 17.21866],
        [78.24165, 17.21895],
        [78.24129, 17.21921],
        [78.24119, 17.21926],
        [78.24107, 17.21924],
        [78.24055, 17.21909],
        [78.24021, 17.21899],
        [78.24012, 17.21896],
        [78.24006, 17.21899],
        [78.23997, 17.21904],
        [78.23917, 17.21948],
        [78.23819, 17.22005],
        [78.23702, 17.22075],
        [78.23691, 17.22087],
        [78.23682, 17.22094],
        [78.23589, 17.22143],
        [78.23575, 17.22148],
        [78.23563, 17.22154],
        [78.23501, 17.22178],
        [78.23487, 17.22182],
        [78.23472, 17.22184],
        [78.23318, 17.22202],
        [78.23321, 17.22222],
        [78.23341, 17.22386],
        [78.23342, 17.22408],
        [78.23345, 17.22423],
        [78.23343, 17.22586],
        [78.23348, 17.22691],
        [78.23349, 17.22709],
        [78.23354, 17.22724],
        [78.23418, 17.22862],
        [78.23425, 17.22878],
        [78.23427, 17.22895],
        [78.23446, 17.22987],
        [78.23465, 17.23003],
        [78.23503, 17.23179],
        [78.23505, 17.23194],
        [78.23505, 17.23213],
        [78.23467, 17.23407],
        [78.23465, 17.23424],
        [78.23464, 17.23433],
        [78.23441, 17.23511],
        [78.23437, 17.23526],
        [78.23433, 17.23537],
        [78.23386, 17.23662],
        [78.23382, 17.23674],
        [78.23376, 17.23685],
        [78.2335, 17.23774],
        [78.23325, 17.23837],
        [78.23299, 17.23934],
        [78.23295, 17.23946],
        [78.23294, 17.23957],
        [78.23302, 17.24095],
        [78.23292, 17.24121],
        [78.2329, 17.24126],
        [78.23264, 17.24231],
        [78.23264, 17.24246],
        [78.23276, 17.24253],
        [78.23391, 17.24303],
        [78.23401, 17.2431],
        [78.23416, 17.24323],
        [78.23449, 17.24302],
        [78.23528, 17.24252],
        [78.23546, 17.24261],
        [78.23641, 17.24327],
        [78.23774, 17.24407],
        [78.23835, 17.24458],
        [78.23904, 17.24528],
        [78.23963, 17.2457],
        [78.24064, 17.24633],
        [78.24161, 17.24705],
        [78.2428, 17.24823],
        [78.24315, 17.25081],
        [78.24326, 17.25056],
        [78.24346, 17.25105],
        [78.24351, 17.25105],
        [78.24355, 17.25106],
        [78.24389, 17.25064],
        [78.24399, 17.25066],
        [78.24402, 17.25057],
        [78.24427, 17.25013],
        [78.2443, 17.25006],
        [78.24438, 17.24991],
        [78.24452, 17.24957],
        [78.24465, 17.24924],
        [78.24468, 17.24917],
        [78.24465, 17.24912],
        [78.24462, 17.24875],
        [78.24461, 17.24869],
        [78.24464, 17.24833],
        [78.24471, 17.24781],
        [78.24476, 17.24751],
        [78.24474, 17.24706],
        [78.24529, 17.24642],
        [78.24588, 17.24592],
        [78.24591, 17.2459],
        [78.24741, 17.24562],
        [78.24787, 17.24571],
        [78.24793, 17.24571],
        [78.24799, 17.24571],
        [78.24831, 17.2458],
        [78.24856, 17.246],
        [78.24861, 17.24606],
        [78.24867, 17.2461],
        [78.24876, 17.24619],
        [78.24892, 17.24639],
        [78.24898, 17.24642],
        [78.24923, 17.24654],
        [78.24952, 17.24698],
        [78.24958, 17.24705],
        [78.25, 17.24745],
        [78.25005, 17.24752],
        [78.25063, 17.24813],
        [78.25068, 17.2482],
        [78.2506, 17.24824],
        [78.25051, 17.24827],
        [78.25052, 17.2483],
        [78.25062, 17.2485],
        [78.25065, 17.24861],
        [78.25078, 17.24869],
        [78.25177, 17.24941],
        [78.25191, 17.24953],
        [78.25203, 17.24956],
        [78.25324, 17.25023],
        [78.25331, 17.25029],
        [78.25349, 17.25035],
        [78.25383, 17.25046],
        [78.25508, 17.25086],
        [78.25544, 17.25096],
        [78.2557, 17.25105],
        [78.25583, 17.2512],
        [78.25632, 17.25213],
        [78.25703, 17.25287],
        [78.25705, 17.25295],
        [78.25701, 17.25299],
        [78.25698, 17.25302],
        [78.25716, 17.25316],
        [78.25819, 17.25379],
        [78.25862, 17.25395],
        [78.25967, 17.25399],
        [78.26077, 17.25377],
        [78.26172, 17.25439],
        [78.26222, 17.25446],
        [78.26276, 17.25455],
        [78.26281, 17.25477],
        [78.26309, 17.2547],
        [78.26342, 17.25461],
        [78.26384, 17.25485],
        [78.26397, 17.25495],
        [78.26425, 17.25506],
        [78.26435, 17.25496],
        [78.26459, 17.25497],
        [78.26512, 17.25504],
        [78.26503, 17.25519],
        [78.26533, 17.2554],
        [78.26532, 17.25518],
        [78.26608, 17.25514],
        [78.26642, 17.25519],
        [78.26654, 17.2552],
        [78.26699, 17.2553],
        [78.26714, 17.25532],
        [78.26793, 17.25536],
        [78.268, 17.25536],
        [78.26904, 17.25562],
        [78.27121, 17.25617],
        [78.27288, 17.25709],
        [78.27309, 17.25721],
        [78.27476, 17.25863],
        [78.27563, 17.25928],
        [78.27651, 17.25981],
        [78.2771, 17.26085],
        [78.2774, 17.26129],
        [78.27758, 17.26157],
        [78.27836, 17.26233],
        [78.27915, 17.26289],
        [78.27964, 17.26307],
        [78.28047, 17.26339],
        [78.28114, 17.264],
        [78.28152, 17.26428],
        [78.28188, 17.26459],
        [78.2821, 17.2649],
        [78.28213, 17.26493],
        [78.28245, 17.26445],
        [78.28792, 17.26879],
        [78.28937, 17.26901],
        [78.2909, 17.26924],
        [78.29363, 17.27182],
        [78.29396, 17.27208],
        [78.29477, 17.27254],
        [78.29656, 17.27357],
        [78.29837, 17.27358],
        [78.29963, 17.27381],
        [78.29964, 17.27373],
        [78.29988, 17.27347],
        [78.30017, 17.27317],
        [78.30021, 17.27325],
        [78.30024, 17.2733],
        [78.30035, 17.27341],
        [78.30043, 17.27343],
        [78.30052, 17.27342],
        [78.30059, 17.2734],
        [78.30067, 17.27339],
        [78.30074, 17.27343],
        [78.30096, 17.27358],
        [78.30102, 17.27362],
        [78.30107, 17.27367],
        [78.30171, 17.27426],
        [78.30175, 17.27431],
        [78.3018, 17.27427],
        [78.30193, 17.27421],
        [78.30199, 17.27427],
        [78.30302, 17.27472],
        [78.30327, 17.27484],
        [78.30332, 17.27485],
        [78.30342, 17.27484],
        [78.30363, 17.27476],
        [78.30372, 17.27474],
        [78.30379, 17.2747],
        [78.30417, 17.27457],
        [78.30428, 17.27453],
        [78.30438, 17.27455],
        [78.30512, 17.27426],
        [78.30519, 17.27422],
        [78.30519, 17.27408],
        [78.30527, 17.27412],
        [78.30536, 17.27412],
        [78.30669, 17.27415],
        [78.30678, 17.27415],
        [78.30688, 17.27416],
        [78.30694, 17.27416],
        [78.30703, 17.27415],
        [78.30744, 17.27411],
        [78.30751, 17.27409],
        [78.30757, 17.27412],
        [78.30819, 17.2735],
        [78.30849, 17.27335],
        [78.30779, 17.27261],
        [78.30777, 17.27256],
        [78.30772, 17.2725],
        [78.30739, 17.27216],
        [78.30733, 17.27209],
        [78.30738, 17.27204],
        [78.30744, 17.272],
        [78.30751, 17.27197],
        [78.3076, 17.2719],
        [78.30771, 17.2718],
        [78.30777, 17.27175],
        [78.30817, 17.27132],
        [78.3082, 17.27126],
        [78.30838, 17.27103],
        [78.30843, 17.27094],
        [78.3085, 17.2709],
        [78.30864, 17.27097],
        [78.30951, 17.27131],
        [78.30963, 17.27136],
        [78.30978, 17.27145],
        [78.31079, 17.27251],
        [78.3109, 17.2726],
        [78.31106, 17.27264],
        [78.31165, 17.27276],
        [78.31177, 17.27279],
        [78.31192, 17.27285],
        [78.31253, 17.27289],
        [78.31264, 17.27288],
        [78.31269, 17.27303],
        [78.31293, 17.27356],
        [78.31296, 17.27362],
        [78.31313, 17.27385],
        [78.31337, 17.27418],
        [78.31341, 17.27426],
        [78.31353, 17.27432],
        [78.31384, 17.27443],
        [78.31482, 17.27484],
        [78.31502, 17.27491],
        [78.31514, 17.27492],
        [78.31589, 17.27515],
        [78.31601, 17.27516],
        [78.31608, 17.27518],
        [78.31631, 17.27527],
        [78.31637, 17.27529],
        [78.3166, 17.27538],
        [78.31667, 17.27541],
        [78.31665, 17.27547],
        [78.3167, 17.2756],
        [78.31671, 17.27618],
        [78.31678, 17.27628],
        [78.31705, 17.27679],
        [78.31709, 17.27682],
        [78.3172, 17.27679],
        [78.31727, 17.27678],
        [78.31728, 17.27684],
        [78.31737, 17.27708],
        [78.31742, 17.27715],
        [78.31754, 17.2774],
        [78.31758, 17.27748],
        [78.31767, 17.27744],
        [78.31782, 17.27737],
        [78.31782, 17.27744],
        [78.31791, 17.27761],
        [78.31792, 17.27766],
        [78.31809, 17.27763],
        [78.31821, 17.27798],
        [78.31833, 17.27792],
        [78.31878, 17.27772],
        [78.31885, 17.27766],
        [78.319, 17.27754],
        [78.31905, 17.27748],
        [78.31907, 17.27739],
        [78.31911, 17.2773],
        [78.31921, 17.27725],
        [78.3196, 17.27702],
        [78.31965, 17.27697],
        [78.31988, 17.27704],
        [78.31994, 17.27706],
        [78.3202, 17.27712],
        [78.32026, 17.27713],
        [78.32051, 17.27718],
        [78.3208, 17.27724],
        [78.32175, 17.27743],
        [78.32215, 17.27765],
        [78.32233, 17.27768],
        [78.3234, 17.27787],
        [78.32352, 17.27793],
        [78.32362, 17.27799],
        [78.32378, 17.27802],
        [78.32462, 17.27817],
        [78.32477, 17.27821],
        [78.32494, 17.27826],
        [78.32608, 17.27845],
        [78.32625, 17.27848],
        [78.32635, 17.27834],
        [78.32675, 17.27788],
        [78.32726, 17.27707],
        [78.32781, 17.27631],
        [78.32834, 17.2756],
        [78.32846, 17.27545],
        [78.32854, 17.27533],
        [78.32879, 17.27497],
        [78.32929, 17.27364],
        [78.32938, 17.27346],
        [78.33041, 17.27344],
        [78.33069, 17.27338],
        [78.33085, 17.2732],
        [78.33115, 17.27285],
        [78.33134, 17.27262],
        [78.33159, 17.27242],
        [78.33177, 17.27231],
        [78.33208, 17.27201],
        [78.33287, 17.27189],
        [78.33346, 17.27173],
        [78.33407, 17.27156],
        [78.33455, 17.2701],
        [78.33491, 17.26888],
        [78.33509, 17.2685],
        [78.33531, 17.26862],
        [78.33574, 17.26876],
        [78.33642, 17.26895],
        [78.33687, 17.26915],
        [78.3371, 17.26934],
        [78.33743, 17.26943],
        [78.3382, 17.2696],
        [78.33849, 17.26972],
        [78.33783, 17.26991],
        [78.3373, 17.27013],
        [78.33689, 17.2704],
        [78.33692, 17.27055],
        [78.33697, 17.27073],
        [78.33718, 17.27124],
        [78.33733, 17.27143],
        [78.33745, 17.2717],
        [78.33745, 17.27202],
        [78.33743, 17.27236],
        [78.33735, 17.27256],
        [78.33717, 17.27273],
        [78.3368, 17.27308],
        [78.33637, 17.27335],
        [78.33619, 17.27355],
        [78.336, 17.27398],
        [78.33538, 17.27654],
        [78.33518, 17.27723],
        [78.33495, 17.27869],
        [78.3348, 17.27909],
        [78.33496, 17.27918],
        [78.33572, 17.27975],
        [78.33588, 17.2799],
        [78.33619, 17.2802],
        [78.33657, 17.28071],
        [78.33667, 17.28085],
        [78.33678, 17.281],
        [78.33688, 17.28115],
        [78.33739, 17.28195],
        [78.33888, 17.28261],
        [78.33943, 17.28255],
        [78.34068, 17.2822],
        [78.34085, 17.28213],
        [78.34103, 17.28219],
        [78.34239, 17.2812],
        [78.34341, 17.28096],
        [78.34357, 17.28092],
        [78.34376, 17.28087],
        [78.34448, 17.28064],
        [78.34569, 17.28118],
        [78.34496, 17.28322],
        [78.34508, 17.28353],
        [78.34512, 17.28366],
        [78.34518, 17.28382],
        [78.3454, 17.28445],
        [78.34561, 17.28472],
        [78.34588, 17.28487],
        [78.34686, 17.28436],
        [78.34756, 17.28395],
        [78.34849, 17.28342],
        [78.34901, 17.28312],
        [78.35171, 17.28472],
        [78.35166, 17.28498],
        [78.35111, 17.28655],
        [78.35048, 17.28821],
        [78.35022, 17.29003],
        [78.35147, 17.29051],
        [78.35172, 17.29059],
        [78.35246, 17.28922],
        [78.35263, 17.28761],
        [78.35297, 17.28597],
        [78.35347, 17.28537],
        [78.3536, 17.28525],
        [78.35375, 17.28514],
        [78.35416, 17.28476],
        [78.35451, 17.28489],
        [78.35588, 17.28462],
        [78.35645, 17.28469],
        [78.35763, 17.28495],
        [78.35832, 17.28352],
        [78.35932, 17.28428],
        [78.36071, 17.28315],
        [78.36073, 17.28177],
        [78.36147, 17.28128],
        [78.36268, 17.28151],
        [78.36371, 17.28146],
        [78.36389, 17.28145],
        [78.36385, 17.2816],
        [78.36347, 17.28249],
        [78.36284, 17.28412],
        [78.36274, 17.28432],
        [78.3622, 17.28511],
        [78.36211, 17.28528],
        [78.36204, 17.28543],
        [78.36175, 17.28592],
        [78.36127, 17.28668],
        [78.36042, 17.28812],
        [78.3599, 17.28845],
        [78.3598, 17.28854],
        [78.35969, 17.28866],
        [78.35963, 17.28878],
        [78.35954, 17.2889],
        [78.35943, 17.28898],
        [78.35916, 17.28919],
        [78.35896, 17.28938],
        [78.3583, 17.28991],
        [78.35801, 17.29007],
        [78.35782, 17.29029],
        [78.35772, 17.2906],
        [78.35784, 17.29083],
        [78.35786, 17.29099],
        [78.35786, 17.29113],
        [78.35763, 17.29193],
        [78.35719, 17.29307],
        [78.35711, 17.29338],
        [78.35713, 17.29435],
        [78.35715, 17.29509],
        [78.35706, 17.29538],
        [78.35699, 17.29563],
        [78.35695, 17.29579],
        [78.35684, 17.29588],
        [78.35642, 17.29636],
        [78.35647, 17.29665],
        [78.35648, 17.29713],
        [78.35643, 17.29798],
        [78.35716, 17.29765],
        [78.35796, 17.29733],
        [78.35855, 17.297],
        [78.35935, 17.29667],
        [78.3598, 17.2964],
        [78.36087, 17.29593],
        [78.36248, 17.29538],
        [78.36276, 17.29521],
        [78.3636, 17.29469],
        [78.36401, 17.2945],
        [78.36394, 17.29477],
        [78.36403, 17.29511],
        [78.36411, 17.29532],
        [78.36402, 17.29589],
        [78.36393, 17.2963],
        [78.36391, 17.29764],
        [78.36402, 17.29802],
        [78.36388, 17.29945],
        [78.36385, 17.29954],
        [78.36374, 17.29974],
        [78.36308, 17.30108],
        [78.36296, 17.30193],
        [78.36293, 17.30205],
        [78.36308, 17.30204],
        [78.36354, 17.30204],
        [78.36477, 17.3011],
        [78.36576, 17.30237],
        [78.36695, 17.30387],
        [78.36812, 17.30516],
        [78.36933, 17.30627],
        [78.36984, 17.30558],
        [78.37008, 17.30498],
        [78.37042, 17.30365],
        [78.3705, 17.3034],
        [78.37077, 17.30196],
        [78.37077, 17.30172],
        [78.37174, 17.30024],
        [78.3726, 17.29911],
        [78.37272, 17.29897],
        [78.37282, 17.29909],
        [78.37318, 17.29946],
        [78.37462, 17.29892],
        [78.37614, 17.29801],
        [78.37527, 17.2993],
        [78.37509, 17.29933],
        [78.3745, 17.29956],
        [78.37368, 17.30014],
        [78.37285, 17.30121],
        [78.3726, 17.30151],
        [78.37289, 17.30291],
        [78.37216, 17.30411],
        [78.37235, 17.3044],
        [78.37261, 17.30563],
        [78.37274, 17.30595],
        [78.37311, 17.30551],
        [78.37361, 17.30497],
        [78.37383, 17.3047],
        [78.37579, 17.30412],
        [78.37603, 17.30451],
        [78.37605, 17.30469],
        [78.37604, 17.30587],
        [78.37491, 17.30693],
        [78.37485, 17.30725],
        [78.37444, 17.308],
        [78.37341, 17.30796],
        [78.37302, 17.30829],
        [78.37238, 17.30956],
        [78.37083, 17.31093],
        [78.37046, 17.31177],
        [78.37047, 17.31232],
        [78.3704, 17.31296],
        [78.37053, 17.31365],
        [78.37106, 17.31392],
        [78.37134, 17.31478],
        [78.37177, 17.3153],
        [78.372, 17.31607],
        [78.37106, 17.31693],
        [78.37066, 17.31799],
        [78.37048, 17.31871],
        [78.371, 17.31904],
        [78.37073, 17.32023],
        [78.37099, 17.32084],
        [78.37107, 17.32115],
        [78.3715, 17.32135],
        [78.37359, 17.32235],
        [78.37435, 17.32261],
        [78.3747, 17.32272],
        [78.37467, 17.32284],
        [78.37465, 17.32355],
        [78.37465, 17.32367],
        [78.3746, 17.32382],
        [78.37435, 17.32541],
        [78.37434, 17.32552],
        [78.37432, 17.32562],
        [78.37429, 17.32578],
        [78.37426, 17.32589],
        [78.37413, 17.32757],
        [78.37416, 17.3277],
        [78.37437, 17.32802],
        [78.37459, 17.32834],
        [78.37521, 17.3286],
        [78.37521, 17.32868],
        [78.37517, 17.3288],
        [78.3748, 17.33023],
        [78.37476, 17.33034],
        [78.37472, 17.33048],
        [78.37437, 17.33161],
        [78.37497, 17.33229],
        [78.37489, 17.33251],
        [78.37534, 17.33275],
        [78.37503, 17.33291],
        [78.37492, 17.33298],
        [78.3748, 17.33301],
        [78.3737, 17.33323],
        [78.37242, 17.3333],
        [78.37227, 17.3333],
        [78.37213, 17.33422],
        [78.37046, 17.33445],
        [78.37023, 17.33355],
        [78.36982, 17.3336],
        [78.36871, 17.33372],
        [78.36811, 17.3339],
        [78.36765, 17.3341],
        [78.36645, 17.33405],
        [78.36629, 17.33402],
        [78.36624, 17.334],
        [78.36574, 17.33389],
        [78.36565, 17.33388],
        [78.36564, 17.334],
        [78.36557, 17.33425],
        [78.36555, 17.3348],
        [78.36554, 17.33523],
        [78.36554, 17.33537],
        [78.36556, 17.33561],
        [78.36557, 17.33573],
        [78.36521, 17.33544],
        [78.36455, 17.3349],
        [78.36416, 17.33459],
        [78.3625, 17.33377],
        [78.36129, 17.3337],
        [78.36074, 17.33367],
        [78.36016, 17.33374],
        [78.3594, 17.33437],
        [78.35939, 17.33541],
        [78.35796, 17.33572],
        [78.35721, 17.33555],
        [78.35646, 17.33554],
        [78.35596, 17.33578],
        [78.35578, 17.33666],
        [78.35652, 17.33779],
        [78.35733, 17.33956],
        [78.35715, 17.341],
        [78.3558, 17.34171],
        [78.35413, 17.34169],
        [78.35321, 17.34168],
        [78.35196, 17.34158],
        [78.35087, 17.34157],
        [78.34995, 17.34164],
        [78.34853, 17.34162],
        [78.34762, 17.34145],
        [78.34645, 17.34112],
        [78.34504, 17.34062],
        [78.34496, 17.34057],
        [78.34485, 17.34063],
        [78.34454, 17.34077],
        [78.34448, 17.34081],
        [78.34423, 17.34054],
        [78.34425, 17.3403],
        [78.3443, 17.33976],
        [78.34424, 17.33915],
        [78.34402, 17.33926],
        [78.34331, 17.33962],
        [78.34315, 17.33969],
        [78.34301, 17.33982],
        [78.34195, 17.34111],
        [78.34107, 17.3421],
        [78.34102, 17.34218],
        [78.34106, 17.34228],
        [78.34114, 17.34264],
        [78.34155, 17.34419],
        [78.34158, 17.3443],
        [78.34159, 17.34442],
        [78.3416, 17.34464],
        [78.34185, 17.34568],
        [78.34197, 17.34618],
        [78.343, 17.34651],
        [78.34326, 17.3466],
        [78.34497, 17.34718],
        [78.34647, 17.34768],
        [78.34741, 17.34858],
        [78.3479, 17.34905],
        [78.34879, 17.34964],
        [78.34946, 17.35008],
        [78.34986, 17.35028],
        [78.35061, 17.35061],
        [78.35063, 17.35085],
        [78.3493, 17.35105],
        [78.34766, 17.35129],
        [78.34621, 17.35175],
        [78.34572, 17.35197],
        [78.34523, 17.35219],
        [78.34381, 17.35351],
        [78.34318, 17.35383],
        [78.34134, 17.35378],
        [78.33993, 17.3537],
        [78.33874, 17.35367],
        [78.33837, 17.35366],
        [78.33825, 17.35366],
        [78.33733, 17.35371],
        [78.33717, 17.35439],
        [78.33705, 17.35604],
        [78.33687, 17.35845],
        [78.33687, 17.35857],
        [78.3362, 17.36015],
        [78.33595, 17.36012],
        [78.33557, 17.36009],
        [78.3352, 17.36006],
        [78.33449, 17.36],
        [78.3344, 17.35998],
        [78.33432, 17.35997],
        [78.3328, 17.36007],
        [78.33242, 17.36008],
        [78.33168, 17.36018],
        [78.33019, 17.36058],
        [78.33012, 17.3606],
        [78.33001, 17.3606],
        [78.32992, 17.36062],
        [78.32687, 17.36035],
        [78.32829, 17.36256],
        [78.32834, 17.36267],
        [78.3284, 17.36274],
        [78.33042, 17.36595],
        [78.33002, 17.3666],
        [78.32776, 17.37039],
        [78.32713, 17.37153],
        [78.32709, 17.37162],
        [78.32713, 17.37171],
        [78.32683, 17.37151],
        [78.32505, 17.37079],
        [78.32468, 17.37007],
        [78.3238, 17.37055],
        [78.32313, 17.3708],
        [78.32252, 17.37109],
        [78.32129, 17.37151],
        [78.32047, 17.37187],
        [78.32026, 17.37124],
        [78.32011, 17.3703],
        [78.32278, 17.36842],
        [78.32316, 17.36729],
        [78.32232, 17.36653],
        [78.32191, 17.36591],
        [78.32085, 17.36542],
        [78.31837, 17.3663],
        [78.31599, 17.36371],
        [78.31618, 17.36293],
        [78.31658, 17.36154],
        [78.31538, 17.3598],
        [78.31468, 17.35852],
        [78.31526, 17.35593],
        [78.31676, 17.3545],
        [78.31777, 17.35276],
        [78.31798, 17.35241],
        [78.31837, 17.35173],
        [78.31886, 17.35059],
        [78.31889, 17.34976],
        [78.31887, 17.34966],
        [78.31689, 17.34965],
        [78.31665, 17.34969],
        [78.31433, 17.35063],
        [78.31273, 17.35017],
        [78.31207, 17.34999],
        [78.31135, 17.34979],
        [78.31125, 17.34976],
        [78.31121, 17.34968],
        [78.31027, 17.34777],
        [78.30999, 17.34719],
        [78.30994, 17.3471],
        [78.30962, 17.34747],
        [78.30854, 17.34845],
        [78.30751, 17.34939],
        [78.3084, 17.35066],
        [78.30863, 17.35137],
        [78.30955, 17.35426],
        [78.30809, 17.3556],
        [78.30772, 17.35767],
        [78.30614, 17.35871],
        [78.3073, 17.36002],
        [78.30744, 17.36018],
        [78.30808, 17.36008],
        [78.30855, 17.36099],
        [78.30739, 17.36338],
        [78.30709, 17.3665],
        [78.30771, 17.36682],
        [78.30896, 17.36743],
        [78.30775, 17.36814],
        [78.30705, 17.36793],
        [78.30563, 17.36685],
        [78.3038, 17.3662],
        [78.30365, 17.36604],
        [78.30309, 17.36552],
        [78.30312, 17.36501],
        [78.30306, 17.36439],
        [78.30306, 17.36377],
        [78.30377, 17.36366],
        [78.30502, 17.36087],
        [78.30506, 17.36023],
        [78.30507, 17.36002],
        [78.3051, 17.35955],
        [78.30454, 17.3594],
        [78.30376, 17.3592],
        [78.30284, 17.35896],
        [78.3018, 17.35939],
        [78.30065, 17.35966],
        [78.29961, 17.35989],
        [78.29923, 17.36024],
        [78.29869, 17.35993],
        [78.29834, 17.35975],
        [78.2981, 17.35961],
        [78.29782, 17.35946],
        [78.29716, 17.35867],
        [78.29679, 17.35827],
        [78.29675, 17.35822],
        [78.29632, 17.35773],
        [78.29619, 17.3574],
        [78.29604, 17.35699],
        [78.2958, 17.35625],
        [78.29581, 17.35602],
        [78.2958, 17.35514],
        [78.29586, 17.3547],
        [78.29587, 17.35461],
        [78.29595, 17.35411],
        [78.29606, 17.35374],
        [78.29628, 17.35294],
        [78.29587, 17.35223],
        [78.2958, 17.35187],
        [78.29558, 17.3515],
        [78.29513, 17.35066],
        [78.2951, 17.35058],
        [78.29506, 17.35049],
        [78.29499, 17.35033],
        [78.29482, 17.34992],
        [78.29418, 17.3498],
        [78.29374, 17.34968],
        [78.29341, 17.34968],
        [78.2932, 17.3496],
        [78.29314, 17.34957],
        [78.29305, 17.34967],
        [78.29292, 17.34982],
        [78.29283, 17.34994],
        [78.29278, 17.35],
        [78.29238, 17.3504],
        [78.29224, 17.35054],
        [78.29218, 17.3506],
        [78.29203, 17.35082],
        [78.2919, 17.35171],
        [78.29175, 17.35246],
        [78.29171, 17.35267],
        [78.29132, 17.35308],
        [78.29105, 17.3534],
        [78.29045, 17.35398],
        [78.29029, 17.35415],
        [78.28992, 17.35476],
        [78.28959, 17.35528],
        [78.28956, 17.35532],
        [78.28946, 17.3555],
        [78.28915, 17.35564],
        [78.28863, 17.35574],
        [78.28854, 17.35577],
        [78.28852, 17.35591],
        [78.28826, 17.35606],
        [78.28808, 17.35614],
        [78.28803, 17.35616],
        [78.2879, 17.35617],
        [78.28782, 17.35604],
        [78.28778, 17.35598],
        [78.2874, 17.35601],
        [78.28738, 17.35602],
        [78.28723, 17.35608],
        [78.28694, 17.35608],
        [78.28654, 17.35606],
        [78.28636, 17.35605],
        [78.28616, 17.35606],
        [78.28593, 17.35604],
        [78.28488, 17.35667],
        [78.28462, 17.35683],
        [78.28448, 17.35691],
        [78.28335, 17.35905],
        [78.28355, 17.35929],
        [78.28366, 17.3594],
        [78.2844, 17.35987],
        [78.28503, 17.36026],
        [78.28566, 17.3606],
        [78.28656, 17.36065],
        [78.28697, 17.36131],
        [78.28699, 17.36134],
        [78.28767, 17.36233],
        [78.28765, 17.36267],
        [78.28781, 17.36368],
        [78.28793, 17.36438],
        [78.28797, 17.36451],
        [78.28805, 17.36476],
        [78.28832, 17.36552],
        [78.28855, 17.36615],
        [78.28869, 17.36671],
        [78.28899, 17.36781],
        [78.28889, 17.36812],
        [78.28871, 17.36866],
        [78.28866, 17.36884],
        [78.28844, 17.36949],
        [78.28754, 17.37085],
        [78.28747, 17.37095],
        [78.28741, 17.37104],
        [78.28571, 17.3719],
        [78.28541, 17.37216],
        [78.28498, 17.37254],
        [78.28462, 17.37269],
        [78.28416, 17.37281],
        [78.28265, 17.37393],
        [78.28251, 17.37403],
        [78.28208, 17.37431],
        [78.28146, 17.37473],
        [78.28119, 17.37489],
        [78.27914, 17.37535],
        [78.27854, 17.37553],
        [78.27812, 17.37563],
        [78.27754, 17.37574],
        [78.27634, 17.37574],
        [78.2761, 17.37559],
        [78.27612, 17.37577],
        [78.27584, 17.37568],
        [78.2758, 17.37567],
        [78.27553, 17.37591],
        [78.27463, 17.37599],
        [78.27448, 17.376],
        [78.2739, 17.37609],
        [78.27367, 17.37606],
        [78.27355, 17.37604],
        [78.27287, 17.37591],
        [78.27217, 17.37596],
        [78.27189, 17.37595],
        [78.27144, 17.37598],
        [78.27114, 17.37605],
        [78.27111, 17.37606],
        [78.271, 17.37612],
        [78.27082, 17.37611],
        [78.27053, 17.37607],
        [78.27014, 17.37595],
        [78.26912, 17.37584],
        [78.26853, 17.37584],
        [78.26851, 17.37619],
        [78.26853, 17.3769],
        [78.26855, 17.3772],
        [78.26858, 17.37747],
        [78.26844, 17.37841],
        [78.26853, 17.3785],
        [78.26845, 17.37868],
        [78.26826, 17.37939],
        [78.2683, 17.38014],
        [78.26832, 17.38047],
        [78.26832, 17.3806],
        [78.26834, 17.38074],
        [78.26837, 17.38107],
        [78.26839, 17.3812],
        [78.26826, 17.38126],
        [78.26806, 17.38137],
        [78.26795, 17.38145],
        [78.26779, 17.38152],
        [78.2676, 17.3816],
        [78.26665, 17.38199],
        [78.26622, 17.38199],
        [78.26608, 17.38199],
        [78.26594, 17.38201],
        [78.26582, 17.38201],
        [78.26489, 17.38214],
        [78.2638, 17.38206],
        [78.26364, 17.38206],
        [78.26353, 17.3821],
        [78.26322, 17.38213],
        [78.26303, 17.38216],
        [78.26112, 17.38184],
        [78.26046, 17.38166],
        [78.26028, 17.38161],
        [78.26013, 17.38159],
        [78.25931, 17.38145],
        [78.25896, 17.38125],
        [78.25888, 17.38116],
        [78.25879, 17.38108],
        [78.25865, 17.3809],
        [78.25852, 17.38081],
        [78.25838, 17.38069],
        [78.25793, 17.38037],
        [78.25785, 17.3803],
        [78.25761, 17.37993],
        [78.25739, 17.37958],
        [78.25733, 17.37944],
        [78.25733, 17.37929],
        [78.25735, 17.37838],
        [78.25737, 17.37824],
        [78.25735, 17.37811],
        [78.25726, 17.3769],
        [78.25724, 17.37677],
        [78.25717, 17.37691],
        [78.25704, 17.37727],
        [78.25703, 17.3774],
        [78.25699, 17.3782],
        [78.25695, 17.37896],
        [78.25684, 17.37942],
        [78.25676, 17.37979],
        [78.25662, 17.38039],
        [78.25658, 17.3806],
        [78.25635, 17.38042],
        [78.25552, 17.37974],
        [78.25547, 17.37973],
        [78.25539, 17.37971],
        [78.25522, 17.37965],
        [78.25502, 17.3796],
        [78.25451, 17.3799],
        [78.25438, 17.37999],
        [78.25433, 17.38006],
        [78.25417, 17.38022],
        [78.25408, 17.38031],
        [78.25395, 17.38043],
        [78.25596, 17.3829],
        [78.25608, 17.38308],
        [78.25619, 17.38323],
        [78.25681, 17.38403],
        [78.2569, 17.38414],
        [78.25703, 17.38431],
        [78.25717, 17.3845],
        [78.25748, 17.38502],
        [78.25755, 17.38514],
        [78.25761, 17.38526],
        [78.25765, 17.3853],
        [78.25769, 17.38535],
        [78.25782, 17.38549],
        [78.2579, 17.38561],
        [78.25802, 17.38591],
        [78.25805, 17.38647],
        [78.25806, 17.38677],
        [78.25809, 17.38717],
        [78.25815, 17.38728],
        [78.25821, 17.3874],
        [78.25814, 17.38747],
        [78.25809, 17.38749],
        [78.25801, 17.38753],
        [78.2579, 17.38762],
        [78.25667, 17.38853],
        [78.25593, 17.38887],
        [78.25564, 17.38901],
        [78.25515, 17.38923],
        [78.25497, 17.38929],
        [78.25493, 17.38947],
        [78.25457, 17.39074],
        [78.25449, 17.39091],
        [78.25448, 17.39094],
        [78.25442, 17.3911],
        [78.25419, 17.39156],
        [78.25379, 17.39237],
        [78.25367, 17.39252],
        [78.25347, 17.39264],
        [78.25287, 17.39298],
        [78.25272, 17.39305],
        [78.25262, 17.39314],
        [78.25203, 17.39352],
        [78.25142, 17.39409],
        [78.25126, 17.39425],
        [78.25107, 17.39431],
        [78.25063, 17.39448],
        [78.25047, 17.39456],
        [78.2502, 17.39471],
        [78.25009, 17.39478],
        [78.24999, 17.39486],
        [78.24982, 17.39497],
        [78.24875, 17.39563],
        [78.2479, 17.39611],
        [78.2478, 17.39617],
        [78.24772, 17.39624],
        [78.24758, 17.39634],
        [78.24736, 17.39649],
        [78.24567, 17.39668],
        [78.24549, 17.3967],
        [78.24533, 17.39672],
        [78.24391, 17.39663],
        [78.24362, 17.39661],
        [78.24355, 17.3966],
        [78.24207, 17.39632],
        [78.24186, 17.39628],
        [78.23991, 17.39561],
        [78.23951, 17.39542],
        [78.23821, 17.3948],
        [78.23772, 17.39428],
        [78.23694, 17.39345],
        [78.23521, 17.39302],
        [78.23345, 17.39276],
        [78.23274, 17.393],
        [78.23198, 17.39346],
        [78.23099, 17.39451],
        [78.2304, 17.39558],
        [78.23013, 17.39614],
        [78.22999, 17.39695],
        [78.22996, 17.39714],
        [78.22949, 17.39805],
        [78.22898, 17.39839],
        [78.2281, 17.39897],
        [78.22813, 17.3998],
        [78.22851, 17.39972],
        [78.229, 17.39963],
        [78.22962, 17.39931],
        [78.22962, 17.39922],
        [78.22962, 17.39918],
        [78.22962, 17.39907],
        [78.22998, 17.39835],
        [78.23004, 17.39824],
        [78.23063, 17.3974],
        [78.23068, 17.3973],
        [78.2311, 17.3964],
        [78.23186, 17.39545],
        [78.23192, 17.39538],
        [78.23202, 17.39528],
        [78.2326, 17.39476],
        [78.23271, 17.39473],
        [78.23429, 17.39436],
        [78.2344, 17.39433],
        [78.23517, 17.39411],
        [78.23523, 17.39411],
        [78.2352, 17.39423],
        [78.23497, 17.39508],
        [78.23472, 17.39599],
        [78.23469, 17.3961],
        [78.23488, 17.39605],
        [78.23559, 17.39574],
        [78.23584, 17.39563],
        [78.23595, 17.39559],
        [78.236, 17.39568],
        [78.23616, 17.39616],
        [78.23621, 17.39631],
        [78.23643, 17.39665],
        [78.23652, 17.39679],
        [78.23686, 17.39696],
        [78.23695, 17.39702],
        [78.23703, 17.39705],
        [78.2389, 17.39813],
        [78.23955, 17.39847],
        [78.23951, 17.39864],
        [78.23947, 17.39882],
        [78.23943, 17.39896],
        [78.23938, 17.39909],
        [78.23904, 17.40008],
        [78.23981, 17.40054],
        [78.23994, 17.40059],
        [78.2401, 17.4005],
        [78.24014, 17.40049],
        [78.24016, 17.40046],
        [78.24031, 17.40049],
        [78.24035, 17.40049],
        [78.24063, 17.39988],
        [78.24079, 17.39976],
        [78.24079, 17.39972],
        [78.24085, 17.39957],
        [78.24091, 17.39958],
        [78.24104, 17.39957],
        [78.24134, 17.39955],
        [78.24248, 17.39947],
        [78.2426, 17.39953],
        [78.24302, 17.39971],
        [78.24306, 17.39972],
        [78.24309, 17.39975],
        [78.24366, 17.39997],
        [78.24441, 17.40004],
        [78.24463, 17.40003],
        [78.24523, 17.4],
        [78.24563, 17.39998],
        [78.24601, 17.39996],
        [78.24686, 17.40009],
        [78.24761, 17.40025],
        [78.24797, 17.40027],
        [78.24858, 17.40014],
        [78.24864, 17.40014],
        [78.24932, 17.40007],
        [78.24937, 17.40004],
        [78.24941, 17.40004],
        [78.2496, 17.40005],
        [78.24974, 17.40003],
        [78.24983, 17.40001],
        [78.25033, 17.39953],
        [78.25094, 17.3991],
        [78.25123, 17.39892],
        [78.25134, 17.39884],
        [78.25238, 17.39839],
        [78.25297, 17.39813],
        [78.25324, 17.39802],
        [78.25442, 17.39761],
        [78.25504, 17.3974],
        [78.25567, 17.39721],
        [78.25625, 17.3971],
        [78.2568, 17.39692],
        [78.25693, 17.39687],
        [78.25718, 17.39679],
        [78.25724, 17.39677],
        [78.2573, 17.39674],
        [78.25786, 17.39655],
        [78.25839, 17.39629],
        [78.25893, 17.3951],
        [78.26025, 17.39397],
        [78.26079, 17.3936],
        [78.26092, 17.3935],
        [78.26128, 17.39319],
        [78.26132, 17.39316],
        [78.26177, 17.39279],
        [78.26209, 17.39255],
        [78.26307, 17.39191],
        [78.26313, 17.39186],
        [78.26334, 17.3917],
        [78.26349, 17.39157],
        [78.26371, 17.3916],
        [78.26461, 17.39132],
        [78.26529, 17.39113],
        [78.26532, 17.39113],
        [78.26615, 17.39091],
        [78.2662, 17.3909],
        [78.26623, 17.39089],
        [78.26626, 17.39089],
        [78.26631, 17.39087],
        [78.26679, 17.39077],
        [78.26689, 17.39074],
        [78.26697, 17.39072],
        [78.26701, 17.39072],
        [78.26725, 17.39081],
        [78.26735, 17.39085],
        [78.26738, 17.39087],
        [78.26788, 17.39106],
        [78.2682, 17.3912],
        [78.26844, 17.39135],
        [78.26841, 17.39155],
        [78.26839, 17.39172],
        [78.26838, 17.39177],
        [78.26837, 17.39183],
        [78.26828, 17.39226],
        [78.26826, 17.39235],
        [78.26825, 17.39238],
        [78.26824, 17.39243],
        [78.2682, 17.39262],
        [78.26819, 17.39267],
        [78.26807, 17.3933],
        [78.26806, 17.39392],
        [78.26805, 17.39395],
        [78.26806, 17.39399],
        [78.26806, 17.39421],
        [78.26806, 17.39424],
        [78.26806, 17.39434],
        [78.26806, 17.39438],
        [78.26806, 17.39441],
        [78.26806, 17.39506],
        [78.26808, 17.39523],
        [78.26807, 17.39534],
        [78.26807, 17.39539],
        [78.26807, 17.39556],
        [78.26806, 17.39562],
        [78.26804, 17.39569],
        [78.26803, 17.39571],
        [78.26798, 17.39589],
        [78.26798, 17.39591],
        [78.26793, 17.39601],
        [78.26795, 17.39606],
        [78.26795, 17.39611],
        [78.26795, 17.39623],
        [78.26793, 17.39627],
        [78.26793, 17.39645],
        [78.26793, 17.39648],
        [78.26793, 17.39653],
        [78.26792, 17.39662],
        [78.26807, 17.39685],
        [78.26815, 17.39693],
        [78.26815, 17.39702],
        [78.2684, 17.39741],
        [78.26853, 17.39756],
        [78.2689, 17.39814],
        [78.26909, 17.39799],
        [78.26912, 17.39797],
        [78.26924, 17.39786],
        [78.26964, 17.39749],
        [78.26969, 17.39744],
        [78.26981, 17.39733],
        [78.26983, 17.39731],
        [78.27016, 17.39705],
        [78.27021, 17.397],
        [78.27033, 17.39681],
        [78.2705, 17.39676],
        [78.27063, 17.39675],
        [78.27065, 17.39672],
        [78.27112, 17.39639],
        [78.27146, 17.39622],
        [78.27176, 17.39602],
        [78.27179, 17.39599],
        [78.27185, 17.39594],
        [78.27226, 17.39567],
        [78.27307, 17.39523],
        [78.2731, 17.39522],
        [78.27316, 17.39517],
        [78.27343, 17.39501],
        [78.27431, 17.39484],
        [78.27442, 17.39484],
        [78.27451, 17.39482],
        [78.27492, 17.39482],
        [78.27505, 17.39483],
        [78.27511, 17.39483],
        [78.27539, 17.39482],
        [78.27639, 17.39423],
        [78.27644, 17.3942],
        [78.27648, 17.39417],
        [78.27684, 17.39388],
        [78.27691, 17.39385],
        [78.2774, 17.39342],
        [78.27835, 17.39261],
        [78.27938, 17.39208],
        [78.27951, 17.39204],
        [78.27965, 17.39199],
        [78.2801, 17.39185],
        [78.28091, 17.39137],
        [78.281, 17.3913],
        [78.28109, 17.39126],
        [78.28168, 17.39095],
        [78.28178, 17.3909],
        [78.28184, 17.39085],
        [78.28239, 17.39013],
        [78.28245, 17.39005],
        [78.28253, 17.38995],
        [78.2828, 17.38964],
        [78.28286, 17.38958],
        [78.28297, 17.3895],
        [78.28312, 17.38934],
        [78.28314, 17.38927],
        [78.28317, 17.38906],
        [78.28321, 17.38891],
        [78.28323, 17.38879],
        [78.2836, 17.38751],
        [78.28418, 17.38624],
        [78.28442, 17.38572],
        [78.2845, 17.38567],
        [78.28463, 17.3856],
        [78.28617, 17.38497],
        [78.2865, 17.38484],
        [78.28756, 17.38463],
        [78.28771, 17.38506],
        [78.28773, 17.38525],
        [78.28774, 17.38541],
        [78.28784, 17.38618],
        [78.28786, 17.38629],
        [78.28794, 17.38676],
        [78.28802, 17.3873],
        [78.28806, 17.38747],
        [78.28826, 17.38835],
        [78.28849, 17.38934],
        [78.28854, 17.38956],
        [78.28858, 17.3898],
        [78.28869, 17.3905],
        [78.2887, 17.39056],
        [78.28872, 17.3907],
        [78.28885, 17.39181],
        [78.28885, 17.39191],
        [78.28885, 17.39202],
        [78.28886, 17.39303],
        [78.28885, 17.39311],
        [78.28885, 17.39322],
        [78.28884, 17.39338],
        [78.28881, 17.39381],
        [78.2888, 17.39384],
        [78.28857, 17.3946],
        [78.28838, 17.39521],
        [78.28837, 17.39531],
        [78.28839, 17.39541],
        [78.28845, 17.39576],
        [78.28846, 17.39583],
        [78.28845, 17.39593],
        [78.28853, 17.39666],
        [78.28862, 17.39738],
        [78.28869, 17.39771],
        [78.28871, 17.3978],
        [78.28883, 17.39841],
        [78.28892, 17.39891],
        [78.28891, 17.39899],
        [78.28885, 17.39925],
        [78.28863, 17.40048],
        [78.28847, 17.40138],
        [78.28849, 17.40148],
        [78.28841, 17.40194],
        [78.28841, 17.40205],
        [78.28848, 17.40214],
        [78.28849, 17.40216],
        [78.28853, 17.40228],
        [78.28849, 17.40255],
        [78.28846, 17.40279],
        [78.28845, 17.40288],
        [78.28844, 17.40319],
        [78.28844, 17.40333],
        [78.28844, 17.40337],
        [78.28837, 17.40374],
        [78.28836, 17.40394],
        [78.28834, 17.40438],
        [78.28833, 17.40453],
        [78.28832, 17.40459],
        [78.2883, 17.40464],
        [78.28836, 17.40509],
        [78.2884, 17.40539],
        [78.28839, 17.40548],
        [78.28801, 17.40636],
        [78.2882, 17.40692],
        [78.28818, 17.40714],
        [78.28818, 17.40851],
        [78.28816, 17.40941],
        [78.28811, 17.40957],
        [78.28803, 17.40981],
        [78.2878, 17.40981],
        [78.28678, 17.40981],
        [78.28668, 17.40977],
        [78.28657, 17.40973],
        [78.28651, 17.40971],
        [78.28647, 17.4097],
        [78.28642, 17.40968],
        [78.28585, 17.40984],
        [78.28515, 17.41002],
        [78.28513, 17.41002],
        [78.28453, 17.41029],
        [78.28427, 17.4109],
        [78.28407, 17.41139],
        [78.28405, 17.41143],
        [78.284, 17.41151],
        [78.28389, 17.41158],
        [78.28329, 17.41197],
        [78.28312, 17.41208],
        [78.28305, 17.41213],
        [78.28294, 17.4122],
        [78.28289, 17.41229],
        [78.28273, 17.41252],
        [78.28177, 17.41295],
        [78.28165, 17.413],
        [78.28156, 17.41305],
        [78.28117, 17.41321],
        [78.28076, 17.41337],
        [78.27963, 17.4136],
        [78.27923, 17.4134],
        [78.27915, 17.41371],
        [78.27933, 17.41457],
        [78.27934, 17.41469],
        [78.27787, 17.41498],
        [78.27757, 17.4151],
        [78.27683, 17.41535],
        [78.2767, 17.41539],
        [78.27606, 17.41552],
        [78.27599, 17.41558],
        [78.27531, 17.41599],
        [78.2752, 17.41604],
        [78.27509, 17.41608],
        [78.27506, 17.41609],
        [78.27444, 17.4163],
        [78.27402, 17.41636],
        [78.27379, 17.41642],
        [78.2737, 17.41645],
        [78.27368, 17.41652],
        [78.27358, 17.41672],
        [78.27357, 17.41674],
        [78.27355, 17.41678],
        [78.27351, 17.41682],
        [78.27346, 17.41687],
        [78.27287, 17.41712],
        [78.27281, 17.41715],
        [78.27271, 17.4172],
        [78.27273, 17.41855],
        [78.27273, 17.41869],
        [78.27271, 17.41876],
        [78.2727, 17.41882],
        [78.27277, 17.41963],
        [78.27279, 17.41994],
        [78.27285, 17.42076],
        [78.27288, 17.42085],
        [78.27286, 17.42099],
        [78.27289, 17.42142],
        [78.27295, 17.42228],
        [78.27295, 17.42238],
        [78.27296, 17.4225],
        [78.273, 17.42269],
        [78.27296, 17.42281],
        [78.27278, 17.42334],
        [78.27271, 17.42347],
        [78.27261, 17.42358],
        [78.27258, 17.42368],
        [78.2725, 17.42391],
        [78.27228, 17.42429],
        [78.27185, 17.42492],
        [78.27181, 17.42498],
        [78.27181, 17.42507],
        [78.27184, 17.4253],
        [78.27191, 17.42594],
        [78.27191, 17.42604],
        [78.27192, 17.42615],
        [78.27191, 17.4262],
        [78.27188, 17.42627],
        [78.27162, 17.42718],
        [78.2716, 17.42723],
        [78.27159, 17.42726],
        [78.27158, 17.42732],
        [78.27156, 17.42736],
        [78.27151, 17.42746],
        [78.27145, 17.4277],
        [78.27104, 17.42853],
        [78.27026, 17.42931],
        [78.27031, 17.43017],
        [78.27059, 17.43123],
        [78.27068, 17.43158],
        [78.27109, 17.43173],
        [78.27128, 17.4318],
        [78.27153, 17.43196],
        [78.27172, 17.43211],
        [78.2727, 17.43177],
        [78.27311, 17.43163],
        [78.27327, 17.43158],
        [78.27392, 17.43137],
        [78.2744, 17.43121],
        [78.27455, 17.4312],
        [78.27465, 17.43108],
        [78.27635, 17.43037],
        [78.27639, 17.43036],
        [78.27696, 17.43023],
        [78.27705, 17.43018],
        [78.27725, 17.43006],
        [78.27731, 17.43005],
        [78.27779, 17.42978],
        [78.27857, 17.42934],
        [78.27865, 17.4293],
        [78.27874, 17.42923],
        [78.27954, 17.42873],
        [78.27962, 17.42867],
        [78.27973, 17.42861],
        [78.27996, 17.42846],
        [78.28012, 17.42837],
        [78.28019, 17.42851],
        [78.28039, 17.42889],
        [78.28047, 17.42893],
        [78.28054, 17.42903],
        [78.28099, 17.42915],
        [78.28105, 17.42916],
        [78.28131, 17.42913],
        [78.28242, 17.42896],
        [78.28253, 17.42894],
        [78.28267, 17.42884],
        [78.28282, 17.42874],
        [78.28329, 17.42862],
        [78.28336, 17.42861],
        [78.28341, 17.42835],
        [78.28415, 17.42845],
        [78.28501, 17.4286],
        [78.28514, 17.42863],
        [78.28605, 17.42859],
        [78.28666, 17.42853],
        [78.28687, 17.42879],
        [78.28692, 17.42898],
        [78.28713, 17.42888],
        [78.28748, 17.42867],
        [78.28783, 17.42922],
        [78.28792, 17.4293],
        [78.29007, 17.43072],
        [78.29019, 17.43081],
        [78.2903, 17.43086],
        [78.29076, 17.43117],
        [78.29437, 17.43369],
        [78.29471, 17.43392],
        [78.29506, 17.43402],
        [78.29563, 17.43418],
        [78.29659, 17.43415],
        [78.29852, 17.4341],
        [78.29982, 17.43401],
        [78.30322, 17.43372],
        [78.30328, 17.43369],
        [78.30392, 17.43342],
        [78.30399, 17.43337],
        [78.30405, 17.43336],
        [78.30429, 17.43333],
        [78.30442, 17.43332],
        [78.3045, 17.43332],
        [78.3045, 17.43317],
        [78.3066, 17.43218],
        [78.30946, 17.43219],
        [78.30997, 17.43214],
        [78.31242, 17.43193],
        [78.31257, 17.43191],
        [78.3127, 17.43188],
        [78.31535, 17.43177],
        [78.31549, 17.43178],
        [78.31558, 17.43178],
        [78.31862, 17.43145],
        [78.31875, 17.4314],
        [78.31886, 17.43136],
        [78.32071, 17.43056],
        [78.32082, 17.43052],
        [78.32093, 17.43046],
        [78.32263, 17.4297],
        [78.32296, 17.42955],
        [78.32302, 17.4295],
        [78.32313, 17.42946],
        [78.32583, 17.42855],
        [78.32593, 17.4285],
        [78.32596, 17.42849],
        [78.326, 17.42848],
        [78.32617, 17.42838],
        [78.32677, 17.42802],
        [78.32741, 17.42761],
        [78.32749, 17.4276],
        [78.32802, 17.42758],
        [78.32837, 17.42756],
        [78.32843, 17.42758],
        [78.32845, 17.42759],
        [78.32857, 17.42742],
        [78.32862, 17.42735],
        [78.32879, 17.42724],
        [78.32961, 17.42677],
        [78.32994, 17.42658],
        [78.32999, 17.42655],
        [78.32985, 17.42641],
        [78.32981, 17.42615],
        [78.32976, 17.42572],
        [78.32975, 17.42549],
        [78.32971, 17.4243],
        [78.3297, 17.42397],
        [78.3297, 17.42327],
        [78.32963, 17.42248],
        [78.3296, 17.42221],
        [78.32956, 17.42213],
        [78.3296, 17.42172],
        [78.32972, 17.42167],
        [78.33066, 17.4212],
        [78.33073, 17.42116],
        [78.33222, 17.42044],
        [78.33281, 17.42018],
        [78.3329, 17.42014],
        [78.33419, 17.41946],
        [78.33471, 17.4192],
        [78.33497, 17.41908],
        [78.33534, 17.41889],
        [78.33601, 17.41851],
        [78.33615, 17.41844],
        [78.33628, 17.41838],
        [78.33645, 17.41832],
        [78.33736, 17.41785],
        [78.33743, 17.41782],
        [78.3377, 17.41771],
        [78.33802, 17.41759],
        [78.33966, 17.41689],
        [78.33991, 17.4168],
        [78.341, 17.41642],
        [78.3419, 17.41609],
        [78.34204, 17.41602],
        [78.34343, 17.41539],
        [78.34393, 17.41516],
        [78.34456, 17.41486],
        [78.34484, 17.41471],
        [78.34491, 17.41467],
        [78.34499, 17.41461],
        [78.34564, 17.41424],
        [78.34614, 17.41396],
        [78.34661, 17.41369],
        [78.34687, 17.41348],
        [78.34767, 17.41283],
        [78.34787, 17.41267],
        [78.34795, 17.41257],
        [78.34933, 17.41135],
        [78.34939, 17.41129],
        [78.34942, 17.41126],
        [78.34957, 17.41114],
        [78.34981, 17.41094],
        [78.35021, 17.41059],
        [78.35165, 17.40935],
        [78.35173, 17.40929],
        [78.35183, 17.40923],
        [78.35323, 17.4098],
        [78.3535, 17.40991],
        [78.35392, 17.41016],
        [78.35478, 17.41066],
        [78.35618, 17.41227],
        [78.3565, 17.41263],
        [78.35661, 17.41274],
        [78.35671, 17.41274],
        [78.35731, 17.41268],
        [78.35828, 17.41242],
        [78.35956, 17.41292],
        [78.3604, 17.4135],
        [78.36066, 17.41396],
        [78.36125, 17.4149],
        [78.36144, 17.41515],
        [78.36227, 17.41628],
        [78.3624, 17.41646],
        [78.36247, 17.4164],
        [78.36369, 17.41563],
        [78.36381, 17.41555],
        [78.36391, 17.41547],
        [78.36397, 17.41544],
        [78.364, 17.41543],
        [78.36429, 17.41528],
        [78.36441, 17.41523],
        [78.3645, 17.41517],
        [78.36465, 17.41511],
        [78.3648, 17.41505],
        [78.36619, 17.41457],
        [78.36627, 17.41454],
        [78.36704, 17.41428],
        [78.36714, 17.41428],
        [78.36734, 17.41423],
        [78.36757, 17.41413],
        [78.36767, 17.41405],
        [78.36781, 17.41398],
        [78.36849, 17.41361],
        [78.36944, 17.41308],
        [78.36957, 17.413],
        [78.36968, 17.41292],
        [78.37075, 17.41195],
        [78.37108, 17.41166],
        [78.3712, 17.4116],
        [78.37249, 17.41263],
        [78.37268, 17.41285],
        [78.37281, 17.41315],
        [78.37283, 17.41333],
        [78.37292, 17.41353],
        [78.37308, 17.41382],
        [78.3732, 17.41408],
        [78.37336, 17.41408],
        [78.37374, 17.41393],
        [78.37385, 17.41401],
        [78.37417, 17.41404],
        [78.37433, 17.41432],
        [78.37426, 17.41446],
        [78.37429, 17.41463],
        [78.37434, 17.41485],
        [78.37444, 17.41503],
        [78.37444, 17.41525],
        [78.37452, 17.41543],
        [78.37488, 17.41546],
        [78.37523, 17.41542],
        [78.3753, 17.41671],
        [78.37538, 17.41793],
        [78.37581, 17.41899],
        [78.37587, 17.41913],
        [78.37654, 17.41868],
        [78.37662, 17.41863],
        [78.37708, 17.41835],
        [78.37737, 17.41818],
        [78.3791, 17.41713],
        [78.38001, 17.41628],
        [78.38164, 17.41475],
        [78.38492, 17.41471],
        [78.38503, 17.41455],
        [78.38572, 17.41458],
        [78.38583, 17.41457],
        [78.38642, 17.41458],
        [78.38714, 17.41485],
        [78.38798, 17.41435],
        [78.38825, 17.41418],
        [78.38837, 17.41397],
        [78.3885, 17.41395],
        [78.38884, 17.41389],
        [78.39028, 17.41331],
        [78.39097, 17.41309],
        [78.39123, 17.41312],
        [78.39197, 17.41284],
        [78.39237, 17.41293],
        [78.3934, 17.41277],
        [78.3935, 17.41274],
        [78.39449, 17.41253],
        [78.39527, 17.41222],
        [78.39541, 17.41224],
        [78.39555, 17.41246],
        [78.39582, 17.41239],
        [78.3973, 17.41176],
        [78.39792, 17.41174],
        [78.3991, 17.41193],
        [78.39967, 17.41194],
        [78.40011, 17.41146],
        [78.40018, 17.41087],
        [78.39851, 17.40857],
        [78.39837, 17.40811]
      ]
    ]
  }
}
