{
  "type": "Feature",
  "id": "TS-AC-64",
  "properties": {
    "stateName": "TELANGANA",
    "stateCode": "TS",
    "districtName": "MAHABUBNAGAR",
    "acNo": 64,
    "acName": "GADWAL",
    "seatType": null,
    "pcNo": null,
    "pcName": null,
    "quality": "unverified",
    "sources": [
      "TBD"
    ]
  },
  "geometry": {
    "type": "Polygon",
    "coordinates": [
      [
        [77.49418, 16.03774],
        [77.49561, 16.04203],
        [77.49637, 16.0443],
        [77.49703, 16.04628],
        [77.49869, 16.05127],
        [77.49929, 16.05308],
        [77.4995, 16.0537],
        [77.49943, 16.05372],
        [77.4963, 16.0546],
        [77.49647, 16.05495],
        [77.49913, 16.06043],
        [77.49914, 16.06045],
        [77.49931, 16.0608],
        [77.4996, 16.0614],
        [77.5027, 16.0592],
        [77.50283, 16.05982],
        [77.50463, 16.06862],
        [77.50482, 16.06952],
        [77.50521, 16.07143],
        [77.50524, 16.07156],
        [77.50526, 16.07171],
        [77.5056, 16.07337],
        [77.50613, 16.07594],
        [77.5069, 16.0797],
        [77.49626, 16.0851],
        [77.4937, 16.0864],
        [77.5011, 16.1065],
        [77.5133, 16.108],
        [77.5125, 16.10877],
        [77.50406, 16.11696],
        [77.50395, 16.11706],
        [77.50195, 16.119],
        [77.5003, 16.1206],
        [77.49625, 16.12021],
        [77.4932, 16.11992],
        [77.4898, 16.1196],
        [77.48981, 16.12008],
        [77.48985, 16.12166],
        [77.48988, 16.12306],
        [77.49045, 16.14889],
        [77.49047, 16.14977],
        [77.4905, 16.151],
        [77.4907, 16.16],
        [77.48827, 16.16234],
        [77.4856, 16.1649],
        [77.4856, 16.1649],
        [77.48596, 16.16577],
        [77.48701, 16.16833],
        [77.4995, 16.1986],
        [77.49953, 16.19903],
        [77.49956, 16.19909],
        [77.49955, 16.19926],
        [77.49955, 16.19927],
        [77.49955, 16.19929],
        [77.49964, 16.20046],
        [77.49975, 16.202],
        [77.49981, 16.20285],
        [77.5012, 16.2217],
        [77.51045, 16.2219],
        [77.51216, 16.22194],
        [77.515, 16.222],
        [77.5151, 16.2228],
        [77.5157, 16.2278],
        [77.5132, 16.2309],
        [77.49985, 16.22987],
        [77.49277, 16.22933],
        [77.4924, 16.2293],
        [77.4901, 16.2552],
        [77.50196, 16.26282],
        [77.5024, 16.2631],
        [77.50248, 16.2635],
        [77.50442, 16.27337],
        [77.5049, 16.2758],
        [77.5064, 16.276],
        [77.51319, 16.27692],
        [77.5219, 16.2781],
        [77.537, 16.2665],
        [77.5451, 16.2917],
        [77.5632, 16.3017],
        [77.56531, 16.3024],
        [77.56558, 16.30249],
        [77.56696, 16.30295],
        [77.5689, 16.3036],
        [77.57754, 16.29581],
        [77.57946, 16.29408],
        [77.5795, 16.29405],
        [77.5821, 16.2917],
        [77.5978, 16.2931],
        [77.59749, 16.2936],
        [77.59715, 16.29414],
        [77.59225, 16.30197],
        [77.5921, 16.3022],
        [77.59216, 16.30251],
        [77.59303, 16.30667],
        [77.5954, 16.3181],
        [77.59278, 16.32353],
        [77.5907, 16.32783],
        [77.5883, 16.3328],
        [77.58845, 16.33295],
        [77.5954, 16.34],
        [77.59504, 16.341],
        [77.59519, 16.34106],
        [77.59559, 16.34123],
        [77.60044, 16.34324],
        [77.60881, 16.34562],
        [77.61547, 16.35076],
        [77.61948, 16.35412],
        [77.6233, 16.35627],
        [77.62837, 16.35756],
        [77.63268, 16.3585],
        [77.63294, 16.35856],
        [77.63965, 16.35956],
        [77.64279, 16.35892],
        [77.64743, 16.35734],
        [77.64903, 16.35689],
        [77.65118, 16.35606],
        [77.65178, 16.35631],
        [77.65262, 16.35629],
        [77.65832, 16.35616],
        [77.66111, 16.35741],
        [77.66221, 16.35791],
        [77.66263, 16.35763],
        [77.66564, 16.36295],
        [77.66586, 16.36306],
        [77.66722, 16.36329],
        [77.66818, 16.36227],
        [77.67617, 16.36089],
        [77.68016, 16.35614],
        [77.68022, 16.35608],
        [77.68126, 16.3554],
        [77.6833, 16.3514],
        [77.68225, 16.35083],
        [77.68401, 16.34815],
        [77.68479, 16.34902],
        [77.68674, 16.34737],
        [77.68867, 16.34566],
        [77.68931, 16.3451],
        [77.6895, 16.34497],
        [77.68825, 16.34147],
        [77.69489, 16.33801],
        [77.70021, 16.33858],
        [77.70335, 16.33858],
        [77.71287, 16.33667],
        [77.72267, 16.33344],
        [77.73352, 16.33068],
        [77.73677, 16.32683],
        [77.73728, 16.32663],
        [77.73839, 16.32531],
        [77.7405, 16.32492],
        [77.7414, 16.32475],
        [77.74217, 16.32414],
        [77.74285, 16.32362],
        [77.74486, 16.32298],
        [77.74545, 16.3229],
        [77.7457, 16.32287],
        [77.74678, 16.32273],
        [77.74771, 16.32248],
        [77.74913, 16.32209],
        [77.74984, 16.32188],
        [77.75236, 16.31967],
        [77.75403, 16.31873],
        [77.75713, 16.31602],
        [77.76605, 16.31149],
        [77.77315, 16.30872],
        [77.77683, 16.30728],
        [77.77966, 16.30436],
        [77.78156, 16.30299],
        [77.78722, 16.29942],
        [77.78739, 16.29929],
        [77.79126, 16.29627],
        [77.79537, 16.29359],
        [77.79852, 16.29157],
        [77.80191, 16.29008],
        [77.805, 16.28895],
        [77.8094, 16.28634],
        [77.81214, 16.28425],
        [77.8149, 16.28207],
        [77.81621, 16.2814],
        [77.81731, 16.28142],
        [77.81795, 16.28157],
        [77.81938, 16.28159],
        [77.81903, 16.28114],
        [77.82115, 16.27907],
        [77.82276, 16.27744],
        [77.82386, 16.27632],
        [77.82391, 16.27627],
        [77.82429, 16.27588],
        [77.82483, 16.27532],
        [77.82505, 16.27509],
        [77.82542, 16.27472],
        [77.82543, 16.27471],
        [77.82743, 16.27265],
        [77.82977, 16.26975],
        [77.83251, 16.26763],
        [77.83306, 16.26721],
        [77.83452, 16.26608],
        [77.83833, 16.26328],
        [77.83996, 16.26245],
        [77.842, 16.26141],
        [77.84494, 16.25924],
        [77.84718, 16.25758],
        [77.8501, 16.25523],
        [77.8541, 16.25199],
        [77.85972, 16.2479],
        [77.86312, 16.24518],
        [77.86638, 16.24257],
        [77.87228, 16.23914],
        [77.87742, 16.23524],
        [77.87923, 16.234],
        [77.8811, 16.23273],
        [77.88522, 16.22991],
        [77.89094, 16.22525],
        [77.89176, 16.22465],
        [77.89274, 16.22394],
        [77.89356, 16.22335],
        [77.89426, 16.22284],
        [77.89426, 16.22296],
        [77.89718, 16.2232],
        [77.90444, 16.21856],
        [77.91104, 16.21398],
        [77.91967, 16.20755],
        [77.92358, 16.20436],
        [77.92419, 16.20387],
        [77.92503, 16.20301],
        [77.92686, 16.20113],
        [77.92918, 16.19881],
        [77.92965, 16.19802],
        [77.93115, 16.19548],
        [77.93224, 16.19296],
        [77.93275, 16.19179],
        [77.93281, 16.18804],
        [77.93222, 16.18305],
        [77.93216, 16.17858],
        [77.93113, 16.1756],
        [77.93112, 16.1756],
        [77.92906, 16.17632],
        [77.9271, 16.17805],
        [77.92663, 16.17867],
        [77.92477, 16.17904],
        [77.92392, 16.17921],
        [77.92366, 16.1795],
        [77.92355, 16.17964],
        [77.92342, 16.17979],
        [77.92309, 16.18022],
        [77.92301, 16.18019],
        [77.92271, 16.18004],
        [77.92245, 16.18046],
        [77.92159, 16.18072],
        [77.92151, 16.1808],
        [77.92147, 16.1808],
        [77.92135, 16.18096],
        [77.92063, 16.1817],
        [77.92053, 16.18169],
        [77.92017, 16.18163],
        [77.92002, 16.1816],
        [77.9199, 16.1814],
        [77.91968, 16.1812],
        [77.9195, 16.18102],
        [77.91945, 16.18088],
        [77.91936, 16.18096],
        [77.91934, 16.18098],
        [77.91915, 16.18113],
        [77.91896, 16.18123],
        [77.91828, 16.18182],
        [77.91813, 16.18197],
        [77.91802, 16.18207],
        [77.91791, 16.18218],
        [77.91702, 16.18287],
        [77.91683, 16.18303],
        [77.91666, 16.18315],
        [77.91657, 16.1832],
        [77.91649, 16.18326],
        [77.91602, 16.18351],
        [77.91586, 16.18355],
        [77.91576, 16.18358],
        [77.91529, 16.18375],
        [77.91518, 16.18379],
        [77.91515, 16.18377],
        [77.91507, 16.18381],
        [77.9147, 16.1839],
        [77.9146, 16.18391],
        [77.91454, 16.18392],
        [77.91379, 16.18424],
        [77.91359, 16.18435],
        [77.91354, 16.18437],
        [77.91347, 16.18441],
        [77.91234, 16.18465],
        [77.91221, 16.18468],
        [77.91222, 16.18462],
        [77.91217, 16.18463],
        [77.91159, 16.18461],
        [77.91148, 16.1846],
        [77.91139, 16.18463],
        [77.91129, 16.18466],
        [77.91117, 16.18468],
        [77.91115, 16.18473],
        [77.91114, 16.18481],
        [77.91114, 16.18502],
        [77.91114, 16.18514],
        [77.91067, 16.18548],
        [77.91065, 16.18551],
        [77.91057, 16.18557],
        [77.91047, 16.18564],
        [77.91038, 16.18571],
        [77.91023, 16.18565],
        [77.91011, 16.18561],
        [77.90946, 16.18542],
        [77.90942, 16.18535],
        [77.90912, 16.18481],
        [77.90907, 16.18474],
        [77.90901, 16.18459],
        [77.90901, 16.18438],
        [77.90902, 16.18432],
        [77.90904, 16.18429],
        [77.90906, 16.18415],
        [77.90904, 16.18374],
        [77.90907, 16.18329],
        [77.90907, 16.18326],
        [77.90908, 16.1831],
        [77.90908, 16.18299],
        [77.90905, 16.18289],
        [77.90903, 16.18281],
        [77.90899, 16.1824],
        [77.90899, 16.18234],
        [77.90899, 16.18228],
        [77.90883, 16.18234],
        [77.90856, 16.18246],
        [77.90839, 16.18251],
        [77.90828, 16.18253],
        [77.90747, 16.18153],
        [77.90728, 16.18096],
        [77.90725, 16.18085],
        [77.90723, 16.18075],
        [77.90717, 16.18057],
        [77.90607, 16.17784],
        [77.90599, 16.17773],
        [77.90593, 16.1776],
        [77.90589, 16.17753],
        [77.90567, 16.17712],
        [77.90559, 16.17699],
        [77.90548, 16.17683],
        [77.90534, 16.17673],
        [77.90527, 16.17662],
        [77.90528, 16.17638],
        [77.90505, 16.17618],
        [77.90499, 16.17606],
        [77.90495, 16.1758],
        [77.90488, 16.17563],
        [77.90483, 16.17553],
        [77.90481, 16.17538],
        [77.90446, 16.17515],
        [77.90398, 16.17457],
        [77.90392, 16.17426],
        [77.90391, 16.17417],
        [77.9038, 16.17404],
        [77.90345, 16.17343],
        [77.90341, 16.17329],
        [77.90315, 16.17251],
        [77.90311, 16.17234],
        [77.90296, 16.17219],
        [77.90287, 16.17199],
        [77.90283, 16.17191],
        [77.9028, 16.17183],
        [77.90278, 16.1718],
        [77.90271, 16.17179],
        [77.90251, 16.17176],
        [77.90208, 16.17174],
        [77.9019, 16.17174],
        [77.90179, 16.17161],
        [77.90156, 16.17132],
        [77.901, 16.17047],
        [77.90087, 16.17029],
        [77.9008, 16.17018],
        [77.89996, 16.16902],
        [77.89977, 16.16887],
        [77.89925, 16.16844],
        [77.89915, 16.16836],
        [77.899, 16.16823],
        [77.89869, 16.16789],
        [77.89861, 16.1678],
        [77.89858, 16.1678],
        [77.89846, 16.16762],
        [77.8984, 16.16749],
        [77.89832, 16.16744],
        [77.89821, 16.16726],
        [77.89822, 16.16715],
        [77.89817, 16.16702],
        [77.89812, 16.16687],
        [77.89803, 16.16662],
        [77.89792, 16.16645],
        [77.89721, 16.16534],
        [77.89706, 16.16517],
        [77.89702, 16.16512],
        [77.89691, 16.16481],
        [77.89665, 16.16446],
        [77.89646, 16.16454],
        [77.89543, 16.16289],
        [77.89539, 16.16281],
        [77.89535, 16.16274],
        [77.8948, 16.1627],
        [77.89432, 16.1629],
        [77.89365, 16.16309],
        [77.89316, 16.16312],
        [77.89306, 16.16314],
        [77.89114, 16.16335],
        [77.89104, 16.16302],
        [77.89101, 16.16294],
        [77.89095, 16.16284],
        [77.8908, 16.16289],
        [77.89037, 16.163],
        [77.89022, 16.16304],
        [77.89007, 16.16293],
        [77.88957, 16.16258],
        [77.88949, 16.16163],
        [77.88928, 16.16126],
        [77.88921, 16.16113],
        [77.88914, 16.16103],
        [77.88895, 16.16107],
        [77.8888, 16.16109],
        [77.88831, 16.1611],
        [77.88825, 16.16123],
        [77.88815, 16.1612],
        [77.88808, 16.16118],
        [77.88733, 16.16106],
        [77.88726, 16.16104],
        [77.8871, 16.161],
        [77.88706, 16.16105],
        [77.887, 16.16113],
        [77.88686, 16.16115],
        [77.88597, 16.16132],
        [77.88594, 16.16136],
        [77.88589, 16.16146],
        [77.88567, 16.16147],
        [77.88546, 16.16144],
        [77.88548, 16.16135],
        [77.88558, 16.16115],
        [77.88533, 16.16064],
        [77.88526, 16.16057],
        [77.88515, 16.16049],
        [77.88498, 16.16054],
        [77.88465, 16.16066],
        [77.88455, 16.16058],
        [77.88444, 16.16049],
        [77.88372, 16.16008],
        [77.88364, 16.15956],
        [77.88344, 16.15914],
        [77.88338, 16.15897],
        [77.8833, 16.15879],
        [77.88328, 16.15866],
        [77.88314, 16.15824],
        [77.88319, 16.15788],
        [77.88322, 16.15771],
        [77.88305, 16.15775],
        [77.88254, 16.15784],
        [77.88215, 16.15784],
        [77.88211, 16.15747],
        [77.88209, 16.15731],
        [77.88207, 16.15718],
        [77.88207, 16.15701],
        [77.88208, 16.15683],
        [77.88207, 16.15673],
        [77.88207, 16.15624],
        [77.88207, 16.15604],
        [77.88204, 16.15591],
        [77.88193, 16.15572],
        [77.88167, 16.15549],
        [77.8816, 16.15526],
        [77.88159, 16.15512],
        [77.88158, 16.15507],
        [77.88142, 16.15507],
        [77.88121, 16.1551],
        [77.88113, 16.1551],
        [77.88089, 16.15438],
        [77.8807, 16.15381],
        [77.88067, 16.15368],
        [77.88059, 16.15369],
        [77.8805, 16.15371],
        [77.87968, 16.15378],
        [77.8795, 16.15383],
        [77.87938, 16.15393],
        [77.87925, 16.15387],
        [77.87919, 16.15385],
        [77.87914, 16.15384],
        [77.87904, 16.15383],
        [77.8785, 16.15379],
        [77.87836, 16.15378],
        [77.87832, 16.15378],
        [77.87828, 16.15367],
        [77.87824, 16.15359],
        [77.87817, 16.15343],
        [77.87684, 16.1529],
        [77.87669, 16.15286],
        [77.87667, 16.15265],
        [77.87677, 16.15223],
        [77.87663, 16.15217],
        [77.87645, 16.15213],
        [77.87582, 16.15222],
        [77.87541, 16.15232],
        [77.87527, 16.15235],
        [77.87498, 16.15239],
        [77.8748, 16.15239],
        [77.87484, 16.15237],
        [77.87485, 16.15202],
        [77.8746, 16.15077],
        [77.87453, 16.15068],
        [77.87436, 16.15061],
        [77.87431, 16.15054],
        [77.87423, 16.15043],
        [77.87415, 16.15031],
        [77.87407, 16.15022],
        [77.87396, 16.15025],
        [77.87358, 16.14891],
        [77.87352, 16.14876],
        [77.87348, 16.14857],
        [77.87326, 16.14825],
        [77.87292, 16.14808],
        [77.87266, 16.14801],
        [77.87271, 16.14789],
        [77.87276, 16.14769],
        [77.87278, 16.14757],
        [77.87264, 16.14748],
        [77.87255, 16.14742],
        [77.87198, 16.14708],
        [77.87194, 16.14705],
        [77.87175, 16.14696],
        [77.87137, 16.14678],
        [77.87096, 16.14677],
        [77.87074, 16.1468],
        [77.87073, 16.14662],
        [77.87073, 16.14659],
        [77.87072, 16.14655],
        [77.8707, 16.14629],
        [77.87069, 16.1462],
        [77.87043, 16.14579],
        [77.87033, 16.14566],
        [77.87028, 16.1455],
        [77.87026, 16.14536],
        [77.87024, 16.14527],
        [77.8702, 16.1451],
        [77.87015, 16.14495],
        [77.87003, 16.14497],
        [77.86942, 16.14506],
        [77.86809, 16.14525],
        [77.86806, 16.14521],
        [77.86796, 16.14503],
        [77.86744, 16.14413],
        [77.86737, 16.14402],
        [77.86735, 16.14399],
        [77.86724, 16.14401],
        [77.86664, 16.14406],
        [77.86658, 16.14407],
        [77.866, 16.14411],
        [77.86581, 16.14407],
        [77.86574, 16.14412],
        [77.86561, 16.14409],
        [77.86545, 16.14407],
        [77.86515, 16.14396],
        [77.86494, 16.14389],
        [77.86472, 16.14381],
        [77.86373, 16.14354],
        [77.86367, 16.14352],
        [77.8635, 16.14329],
        [77.86347, 16.14328],
        [77.86323, 16.14316],
        [77.86313, 16.14316],
        [77.86301, 16.14317],
        [77.86283, 16.14321],
        [77.86267, 16.14326],
        [77.86108, 16.14351],
        [77.86102, 16.14352],
        [77.86065, 16.14356],
        [77.86059, 16.14356],
        [77.86049, 16.14367],
        [77.86036, 16.14383],
        [77.8603, 16.14394],
        [77.86011, 16.14415],
        [77.85989, 16.14431],
        [77.85917, 16.14496],
        [77.85876, 16.14543],
        [77.85847, 16.14549],
        [77.85831, 16.14548],
        [77.85781, 16.14567],
        [77.85787, 16.14584],
        [77.8578, 16.14585],
        [77.85762, 16.14586],
        [77.85757, 16.14565],
        [77.85725, 16.14572],
        [77.85681, 16.14565],
        [77.85636, 16.14536],
        [77.85625, 16.14523],
        [77.85605, 16.14516],
        [77.856, 16.14518],
        [77.85601, 16.14527],
        [77.85571, 16.14517],
        [77.85559, 16.14531],
        [77.85546, 16.14532],
        [77.85537, 16.14532],
        [77.85513, 16.1452],
        [77.85485, 16.14511],
        [77.85457, 16.14503],
        [77.85452, 16.14502],
        [77.85449, 16.1451],
        [77.85437, 16.14513],
        [77.85385, 16.14493],
        [77.85329, 16.14437],
        [77.85292, 16.144],
        [77.85238, 16.14416],
        [77.85197, 16.14425],
        [77.85192, 16.14424],
        [77.85168, 16.14422],
        [77.85136, 16.14416],
        [77.85037, 16.14397],
        [77.85019, 16.14444],
        [77.85016, 16.1446],
        [77.85015, 16.14478],
        [77.8495, 16.14457],
        [77.84961, 16.14478],
        [77.84917, 16.14485],
        [77.84857, 16.14494],
        [77.84832, 16.14493],
        [77.84784, 16.14494],
        [77.84773, 16.14475],
        [77.84625, 16.14543],
        [77.84535, 16.14592],
        [77.84518, 16.14596],
        [77.84357, 16.14615],
        [77.84343, 16.14614],
        [77.84348, 16.14607],
        [77.84299, 16.14541],
        [77.84273, 16.14531],
        [77.84235, 16.14541],
        [77.84222, 16.14547],
        [77.84219, 16.14536],
        [77.84181, 16.14388],
        [77.84178, 16.14374],
        [77.84176, 16.14364],
        [77.84161, 16.14309],
        [77.84146, 16.14296],
        [77.84136, 16.14294],
        [77.84098, 16.14304],
        [77.84053, 16.14311],
        [77.84042, 16.14318],
        [77.84033, 16.14328],
        [77.84032, 16.1431],
        [77.84026, 16.14189],
        [77.84014, 16.14188],
        [77.83981, 16.14193],
        [77.83967, 16.14196],
        [77.83966, 16.14198],
        [77.83957, 16.14206],
        [77.83945, 16.14218],
        [77.83861, 16.14214],
        [77.83849, 16.14208],
        [77.83797, 16.14198],
        [77.83794, 16.14188],
        [77.83791, 16.14179],
        [77.83779, 16.14166],
        [77.83756, 16.14141],
        [77.83748, 16.14143],
        [77.83732, 16.14147],
        [77.83719, 16.14148],
        [77.83699, 16.14108],
        [77.83667, 16.14053],
        [77.83643, 16.14],
        [77.83626, 16.13974],
        [77.83618, 16.13967],
        [77.83598, 16.13954],
        [77.83594, 16.13947],
        [77.83573, 16.13915],
        [77.83556, 16.13889],
        [77.83553, 16.13889],
        [77.83508, 16.13884],
        [77.835, 16.13873],
        [77.83484, 16.13853],
        [77.83487, 16.13812],
        [77.83487, 16.13786],
        [77.83486, 16.13744],
        [77.83483, 16.13723],
        [77.83483, 16.13708],
        [77.83483, 16.13699],
        [77.83482, 16.13674],
        [77.83476, 16.13661],
        [77.83464, 16.13651],
        [77.8346, 16.13655],
        [77.83456, 16.13658],
        [77.83448, 16.13665],
        [77.83434, 16.13674],
        [77.83427, 16.13674],
        [77.83425, 16.13684],
        [77.83412, 16.13697],
        [77.8338, 16.13709],
        [77.8335, 16.13722],
        [77.83337, 16.13724],
        [77.83262, 16.1374],
        [77.83258, 16.13741],
        [77.83249, 16.13743],
        [77.83239, 16.13746],
        [77.83219, 16.13746],
        [77.83197, 16.13746],
        [77.83096, 16.13746],
        [77.83081, 16.13744],
        [77.83067, 16.13746],
        [77.83016, 16.13753],
        [77.83002, 16.13755],
        [77.82899, 16.13743],
        [77.82837, 16.13736],
        [77.82833, 16.13735],
        [77.82835, 16.1373],
        [77.82825, 16.13727],
        [77.82819, 16.13726],
        [77.82811, 16.13725],
        [77.82765, 16.13718],
        [77.82591, 16.13696],
        [77.82587, 16.13696],
        [77.82568, 16.13692],
        [77.82554, 16.13686],
        [77.82549, 16.13685],
        [77.82532, 16.13683],
        [77.82363, 16.13663],
        [77.82347, 16.1366],
        [77.82335, 16.13659],
        [77.82332, 16.13659],
        [77.82269, 16.13646],
        [77.82255, 16.13642],
        [77.82226, 16.1363],
        [77.82224, 16.13629],
        [77.82216, 16.13621],
        [77.82211, 16.13616],
        [77.82201, 16.13605],
        [77.82192, 16.13594],
        [77.82177, 16.13592],
        [77.82142, 16.13582],
        [77.82129, 16.1358],
        [77.82104, 16.13579],
        [77.81913, 16.13569],
        [77.81901, 16.13569],
        [77.81898, 16.13567],
        [77.81895, 16.13543],
        [77.8189, 16.13505],
        [77.81884, 16.13455],
        [77.81875, 16.13374],
        [77.81874, 16.13362],
        [77.8188, 16.13349],
        [77.81882, 16.13346],
        [77.81891, 16.13335],
        [77.819, 16.13325],
        [77.81895, 16.13316],
        [77.81849, 16.132],
        [77.81841, 16.1318],
        [77.81836, 16.13164],
        [77.81832, 16.13154],
        [77.81794, 16.13077],
        [77.81784, 16.13034],
        [77.81797, 16.13022],
        [77.81794, 16.13011],
        [77.81772, 16.12902],
        [77.81757, 16.12901],
        [77.81757, 16.12885],
        [77.81757, 16.12834],
        [77.81738, 16.12826],
        [77.81733, 16.12821],
        [77.81703, 16.12812],
        [77.81679, 16.12805],
        [77.81688, 16.12795],
        [77.81692, 16.12778],
        [77.81691, 16.1277],
        [77.81678, 16.12738],
        [77.81672, 16.12724],
        [77.81667, 16.12709],
        [77.81631, 16.12611],
        [77.81626, 16.126],
        [77.81613, 16.12595],
        [77.81509, 16.12568],
        [77.81496, 16.12558],
        [77.81455, 16.12527],
        [77.81411, 16.12473],
        [77.81401, 16.1246],
        [77.81367, 16.12331],
        [77.81357, 16.12307],
        [77.8134, 16.12234],
        [77.81321, 16.12188],
        [77.81261, 16.12053],
        [77.81257, 16.12046],
        [77.81251, 16.1204],
        [77.8124, 16.12029],
        [77.81099, 16.11953],
        [77.81087, 16.1194],
        [77.81089, 16.11938],
        [77.81112, 16.11913],
        [77.81113, 16.1191],
        [77.81041, 16.11731],
        [77.81022, 16.11695],
        [77.81004, 16.11648],
        [77.81, 16.11636],
        [77.80992, 16.11621],
        [77.80987, 16.11604],
        [77.809, 16.11452],
        [77.80892, 16.11442],
        [77.80886, 16.11428],
        [77.80843, 16.11333],
        [77.80827, 16.11299],
        [77.80792, 16.1122],
        [77.80746, 16.11115],
        [77.80736, 16.1109],
        [77.80625, 16.10849],
        [77.80621, 16.10839],
        [77.80614, 16.10826],
        [77.80578, 16.10758],
        [77.80546, 16.1069],
        [77.80545, 16.10687],
        [77.80526, 16.10645],
        [77.8052, 16.10631],
        [77.80463, 16.10497],
        [77.80457, 16.10482],
        [77.80473, 16.10477],
        [77.80551, 16.10454],
        [77.80562, 16.10451],
        [77.80688, 16.10406],
        [77.80776, 16.1038],
        [77.80909, 16.10339],
        [77.80919, 16.10337],
        [77.80923, 16.10336],
        [77.80984, 16.10319],
        [77.81044, 16.10301],
        [77.81055, 16.10298],
        [77.81123, 16.10278],
        [77.81126, 16.10277],
        [77.81137, 16.10297],
        [77.81195, 16.10291],
        [77.81211, 16.10288],
        [77.81266, 16.1038],
        [77.81274, 16.10379],
        [77.81323, 16.10365],
        [77.81389, 16.10345],
        [77.81393, 16.10345],
        [77.81503, 16.1032],
        [77.81515, 16.10317],
        [77.81509, 16.10254],
        [77.81501, 16.10236],
        [77.81488, 16.10118],
        [77.81478, 16.10088],
        [77.81476, 16.10078],
        [77.81473, 16.10054],
        [77.81468, 16.1002],
        [77.81472, 16.10001],
        [77.8147, 16.09983],
        [77.81443, 16.09759],
        [77.81439, 16.09688],
        [77.81437, 16.09652],
        [77.8142, 16.09564],
        [77.81416, 16.09485],
        [77.81413, 16.09464],
        [77.814, 16.09377],
        [77.81394, 16.09329],
        [77.81388, 16.09289],
        [77.81383, 16.09267],
        [77.81381, 16.09258],
        [77.81373, 16.09219],
        [77.81359, 16.0917],
        [77.81303, 16.09001],
        [77.81276, 16.08912],
        [77.8126, 16.0886],
        [77.81241, 16.08795],
        [77.81232, 16.08772],
        [77.81129, 16.08529],
        [77.81125, 16.08522],
        [77.81111, 16.08533],
        [77.8102, 16.08595],
        [77.80994, 16.08614],
        [77.80913, 16.08671],
        [77.80895, 16.08682],
        [77.80886, 16.0869],
        [77.80819, 16.08742],
        [77.80806, 16.08751],
        [77.80797, 16.08758],
        [77.80706, 16.0884],
        [77.80691, 16.08845],
        [77.80591, 16.08882],
        [77.80573, 16.08886],
        [77.80442, 16.08913],
        [77.80312, 16.08934],
        [77.80308, 16.08933],
        [77.80298, 16.0893],
        [77.80279, 16.08933],
        [77.80224, 16.08944],
        [77.80069, 16.08966],
        [77.80033, 16.08972],
        [77.79944, 16.08984],
        [77.79846, 16.08998],
        [77.79838, 16.09],
        [77.79826, 16.09],
        [77.79737, 16.09005],
        [77.79692, 16.09015],
        [77.79642, 16.09019],
        [77.79636, 16.0902],
        [77.79632, 16.09021],
        [77.79628, 16.0902],
        [77.79608, 16.09026],
        [77.79298, 16.09064],
        [77.79281, 16.09065],
        [77.79263, 16.0907],
        [77.79151, 16.09085],
        [77.79071, 16.09097],
        [77.79049, 16.09095],
        [77.79036, 16.091],
        [77.78891, 16.09121],
        [77.78749, 16.09142],
        [77.7874, 16.09145],
        [77.78733, 16.09134],
        [77.78669, 16.09017],
        [77.7864, 16.08966],
        [77.78633, 16.08953],
        [77.78628, 16.08942],
        [77.78595, 16.08857],
        [77.78571, 16.08827],
        [77.78563, 16.08816],
        [77.78562, 16.08814],
        [77.78553, 16.08801],
        [77.78545, 16.08789],
        [77.78535, 16.08779],
        [77.78509, 16.08738],
        [77.78501, 16.08727],
        [77.78493, 16.08712],
        [77.78482, 16.08691],
        [77.7848, 16.08687],
        [77.78469, 16.08664],
        [77.7846, 16.08654],
        [77.78456, 16.08643],
        [77.78415, 16.08574],
        [77.78393, 16.08499],
        [77.78389, 16.08484],
        [77.78385, 16.08468],
        [77.78379, 16.08454],
        [77.78361, 16.08413],
        [77.78332, 16.08338],
        [77.78328, 16.08326],
        [77.78323, 16.08311],
        [77.78318, 16.08299],
        [77.78313, 16.08287],
        [77.78296, 16.08231],
        [77.78295, 16.08227],
        [77.78292, 16.08216],
        [77.78292, 16.08213],
        [77.78233, 16.0806],
        [77.78228, 16.08045],
        [77.78227, 16.0804],
        [77.78226, 16.08034],
        [77.78179, 16.07921],
        [77.78173, 16.07913],
        [77.78168, 16.07899],
        [77.78165, 16.07893],
        [77.78134, 16.07808],
        [77.7813, 16.07799],
        [77.78126, 16.07786],
        [77.78106, 16.0773],
        [77.78061, 16.0762],
        [77.78057, 16.07604],
        [77.78055, 16.07591],
        [77.7805, 16.07569],
        [77.78045, 16.07551],
        [77.78024, 16.0746],
        [77.78021, 16.07443],
        [77.78019, 16.07432],
        [77.78019, 16.074],
        [77.78017, 16.07389],
        [77.78014, 16.07376],
        [77.77982, 16.07258],
        [77.77956, 16.07166],
        [77.77954, 16.07157],
        [77.77948, 16.07141],
        [77.77947, 16.07132],
        [77.77935, 16.07081],
        [77.77894, 16.0698],
        [77.77873, 16.06981],
        [77.77867, 16.0697],
        [77.77833, 16.06877],
        [77.77816, 16.0682],
        [77.77808, 16.06815],
        [77.77795, 16.06807],
        [77.77794, 16.06804],
        [77.77795, 16.06804],
        [77.77797, 16.06743],
        [77.77752, 16.06638],
        [77.7774, 16.06589],
        [77.77729, 16.06492],
        [77.77726, 16.0648],
        [77.77727, 16.06468],
        [77.77727, 16.06461],
        [77.77717, 16.06334],
        [77.77717, 16.06321],
        [77.77716, 16.06308],
        [77.77695, 16.06197],
        [77.77692, 16.06177],
        [77.77698, 16.06176],
        [77.77694, 16.06162],
        [77.77691, 16.06146],
        [77.77679, 16.06089],
        [77.77656, 16.05982],
        [77.7765, 16.05966],
        [77.77647, 16.05951],
        [77.77624, 16.05864],
        [77.77602, 16.05782],
        [77.77592, 16.05746],
        [77.77591, 16.05736],
        [77.77582, 16.05736],
        [77.77514, 16.05734],
        [77.77499, 16.05733],
        [77.77416, 16.05736],
        [77.77382, 16.0573],
        [77.77375, 16.05729],
        [77.77362, 16.05733],
        [77.77257, 16.05745],
        [77.77246, 16.05744],
        [77.77242, 16.05759],
        [77.77236, 16.0576],
        [77.77217, 16.05762],
        [77.77204, 16.05762],
        [77.77057, 16.05766],
        [77.77025, 16.05757],
        [77.76923, 16.05769],
        [77.76908, 16.05771],
        [77.76897, 16.05772],
        [77.7683, 16.05776],
        [77.76827, 16.05777],
        [77.76815, 16.05777],
        [77.76809, 16.05777],
        [77.768, 16.05778],
        [77.76787, 16.05778],
        [77.76763, 16.05781],
        [77.76649, 16.05796],
        [77.76524, 16.05793],
        [77.76515, 16.05792],
        [77.76437, 16.05801],
        [77.76421, 16.05802],
        [77.76403, 16.05802],
        [77.76381, 16.05799],
        [77.76287, 16.05829],
        [77.76274, 16.05832],
        [77.76271, 16.05833],
        [77.76259, 16.05833],
        [77.76205, 16.05844],
        [77.76193, 16.05848],
        [77.7619, 16.05849],
        [77.76182, 16.05853],
        [77.76048, 16.05886],
        [77.76031, 16.0589],
        [77.76025, 16.05894],
        [77.76014, 16.05896],
        [77.76004, 16.05904],
        [77.75989, 16.05905],
        [77.75905, 16.05915],
        [77.75851, 16.05921],
        [77.7583, 16.05927],
        [77.75789, 16.05934],
        [77.75784, 16.05936],
        [77.75775, 16.05939],
        [77.75761, 16.05943],
        [77.75734, 16.05949],
        [77.75724, 16.05952],
        [77.75645, 16.05967],
        [77.7555, 16.0599],
        [77.75533, 16.05995],
        [77.75529, 16.05997],
        [77.75522, 16.05998],
        [77.75456, 16.06007],
        [77.75357, 16.06039],
        [77.75344, 16.06043],
        [77.7528, 16.06062],
        [77.75269, 16.06065],
        [77.75265, 16.06065],
        [77.75251, 16.06069],
        [77.75203, 16.06081],
        [77.75151, 16.06089],
        [77.7514, 16.06088],
        [77.7504, 16.06092],
        [77.75033, 16.06092],
        [77.74995, 16.0609],
        [77.74982, 16.06089],
        [77.74935, 16.06087],
        [77.74905, 16.06086],
        [77.74907, 16.06067],
        [77.74908, 16.06062],
        [77.74915, 16.05955],
        [77.74917, 16.05942],
        [77.74931, 16.05845],
        [77.74931, 16.05837],
        [77.74947, 16.05781],
        [77.74953, 16.05709],
        [77.74943, 16.05635],
        [77.74929, 16.05547],
        [77.74928, 16.05542],
        [77.74927, 16.05537],
        [77.74914, 16.05486],
        [77.74911, 16.05467],
        [77.74916, 16.05458],
        [77.74946, 16.05402],
        [77.74952, 16.05365],
        [77.74952, 16.05356],
        [77.7493, 16.05281],
        [77.74935, 16.05278],
        [77.74942, 16.05274],
        [77.74948, 16.05271],
        [77.75007, 16.05235],
        [77.7503, 16.05222],
        [77.75044, 16.05207],
        [77.75053, 16.05192],
        [77.75085, 16.05121],
        [77.75089, 16.05106],
        [77.75093, 16.05094],
        [77.75117, 16.0501],
        [77.75118, 16.05004],
        [77.75133, 16.04923],
        [77.75131, 16.04867],
        [77.75121, 16.04832],
        [77.75118, 16.04819],
        [77.75105, 16.04667],
        [77.75098, 16.04633],
        [77.75093, 16.04613],
        [77.75088, 16.04598],
        [77.7509, 16.04585],
        [77.75111, 16.04379],
        [77.75111, 16.04372],
        [77.75112, 16.04366],
        [77.75115, 16.04354],
        [77.75118, 16.04342],
        [77.75135, 16.04248],
        [77.75135, 16.04243],
        [77.75136, 16.04235],
        [77.75128, 16.04234],
        [77.75133, 16.03985],
        [77.75133, 16.03879],
        [77.75131, 16.03866],
        [77.75144, 16.03733],
        [77.75136, 16.03513],
        [77.75145, 16.03513],
        [77.75144, 16.03502],
        [77.75141, 16.03467],
        [77.75141, 16.03463],
        [77.75139, 16.03453],
        [77.75154, 16.03452],
        [77.75277, 16.03444],
        [77.7527, 16.03336],
        [77.75265, 16.0323],
        [77.75261, 16.03168],
        [77.7526, 16.03158],
        [77.75265, 16.03146],
        [77.7527, 16.03136],
        [77.7527, 16.03125],
        [77.75268, 16.03088],
        [77.75264, 16.03047],
        [77.75264, 16.03044],
        [77.75243, 16.0297],
        [77.75239, 16.02958],
        [77.75237, 16.02953],
        [77.75233, 16.02946],
        [77.75228, 16.02931],
        [77.75213, 16.02895],
        [77.75219, 16.02862],
        [77.75206, 16.02808],
        [77.75206, 16.02794],
        [77.75206, 16.02784],
        [77.75206, 16.02741],
        [77.75191, 16.02664],
        [77.75187, 16.0265],
        [77.75184, 16.02631],
        [77.75179, 16.02617],
        [77.75179, 16.02607],
        [77.75164, 16.02545],
        [77.75163, 16.0253],
        [77.75152, 16.02432],
        [77.75148, 16.02402],
        [77.75145, 16.02387],
        [77.75144, 16.02372],
        [77.75134, 16.02307],
        [77.75129, 16.02293],
        [77.75104, 16.02226],
        [77.75096, 16.02211],
        [77.75095, 16.022],
        [77.75094, 16.02198],
        [77.75091, 16.02188],
        [77.75071, 16.02103],
        [77.75063, 16.02064],
        [77.75059, 16.02048],
        [77.75056, 16.02035],
        [77.75054, 16.02027],
        [77.75043, 16.01976],
        [77.7502, 16.01918],
        [77.75012, 16.01895],
        [77.75003, 16.01867],
        [77.74998, 16.01858],
        [77.74992, 16.01843],
        [77.74953, 16.01749],
        [77.74916, 16.01662],
        [77.74909, 16.01649],
        [77.7491, 16.01636],
        [77.74908, 16.01603],
        [77.74902, 16.01581],
        [77.74895, 16.01559],
        [77.74888, 16.01547],
        [77.74884, 16.01536],
        [77.74832, 16.01438],
        [77.74826, 16.01427],
        [77.74794, 16.01415],
        [77.74763, 16.01199],
        [77.74752, 16.01153],
        [77.74745, 16.01127],
        [77.74549, 16.0107],
        [77.74524, 16.01067],
        [77.74421, 16.01164],
        [77.74354, 16.01217],
        [77.74312, 16.01241],
        [77.74253, 16.01274],
        [77.74153, 16.01323],
        [77.74102, 16.01349],
        [77.7409, 16.01354],
        [77.73994, 16.01385],
        [77.7398, 16.01386],
        [77.73967, 16.01388],
        [77.73908, 16.01402],
        [77.73872, 16.01406],
        [77.73768, 16.01406],
        [77.7369, 16.01414],
        [77.73623, 16.0141],
        [77.73608, 16.01408],
        [77.73565, 16.01359],
        [77.73558, 16.01358],
        [77.73537, 16.01355],
        [77.73533, 16.01357],
        [77.73506, 16.01368],
        [77.73496, 16.01371],
        [77.73485, 16.01377],
        [77.73474, 16.01379],
        [77.73306, 16.01409],
        [77.73295, 16.01413],
        [77.73279, 16.01418],
        [77.73271, 16.0142],
        [77.73182, 16.01447],
        [77.73163, 16.01467],
        [77.73119, 16.01505],
        [77.73096, 16.01545],
        [77.73076, 16.01564],
        [77.73067, 16.01586],
        [77.7307, 16.01594],
        [77.73071, 16.01597],
        [77.73094, 16.016],
        [77.73094, 16.01603],
        [77.73095, 16.01612],
        [77.73143, 16.01741],
        [77.73144, 16.01744],
        [77.73118, 16.01853],
        [77.73108, 16.01878],
        [77.73045, 16.02006],
        [77.72985, 16.02033],
        [77.72941, 16.02109],
        [77.72932, 16.02122],
        [77.72918, 16.02133],
        [77.72895, 16.02153],
        [77.72889, 16.02159],
        [77.72868, 16.02179],
        [77.72848, 16.02199],
        [77.72838, 16.02205],
        [77.72835, 16.02207],
        [77.72834, 16.02214],
        [77.72832, 16.02227],
        [77.72824, 16.02255],
        [77.72809, 16.02305],
        [77.72813, 16.02309],
        [77.72909, 16.0241],
        [77.72907, 16.02416],
        [77.72884, 16.02468],
        [77.72881, 16.02475],
        [77.7287, 16.02509],
        [77.7278, 16.02603],
        [77.72776, 16.02607],
        [77.7277, 16.02613],
        [77.72731, 16.02649],
        [77.72685, 16.02719],
        [77.72654, 16.02806],
        [77.72652, 16.02815],
        [77.7265, 16.02827],
        [77.72638, 16.02876],
        [77.72637, 16.02889],
        [77.72603, 16.02923],
        [77.72591, 16.02935],
        [77.72559, 16.02966],
        [77.7255, 16.02975],
        [77.72475, 16.03032],
        [77.72463, 16.03033],
        [77.72418, 16.03039],
        [77.724, 16.03086],
        [77.72394, 16.03099],
        [77.72295, 16.03147],
        [77.72273, 16.03173],
        [77.72263, 16.03184],
        [77.72274, 16.03193],
        [77.72319, 16.03232],
        [77.72323, 16.03236],
        [77.72347, 16.03303],
        [77.72351, 16.03313],
        [77.72351, 16.03318],
        [77.7235, 16.03347],
        [77.72347, 16.03397],
        [77.7235, 16.03406],
        [77.72351, 16.0341],
        [77.72361, 16.03442],
        [77.72385, 16.03443],
        [77.72387, 16.0347],
        [77.72389, 16.03485],
        [77.7239, 16.03493],
        [77.7239, 16.035],
        [77.72389, 16.03714],
        [77.72392, 16.03726],
        [77.72389, 16.03772],
        [77.7239, 16.03783],
        [77.72396, 16.03781],
        [77.72375, 16.03826],
        [77.72364, 16.03854],
        [77.72361, 16.0386],
        [77.72341, 16.03891],
        [77.72339, 16.03894],
        [77.72337, 16.03897],
        [77.7228, 16.03967],
        [77.7227, 16.03973],
        [77.72263, 16.03986],
        [77.72259, 16.03999],
        [77.72248, 16.04016],
        [77.72243, 16.04025],
        [77.72211, 16.04024],
        [77.72147, 16.04101],
        [77.72095, 16.04156],
        [77.72078, 16.04165],
        [77.72065, 16.04169],
        [77.72056, 16.04171],
        [77.7202, 16.04185],
        [77.71969, 16.04237],
        [77.71962, 16.04259],
        [77.71945, 16.04311],
        [77.71942, 16.0432],
        [77.71946, 16.0432],
        [77.71942, 16.0433],
        [77.71942, 16.04351],
        [77.71908, 16.04352],
        [77.71903, 16.04357],
        [77.71798, 16.0445],
        [77.71798, 16.04453],
        [77.71783, 16.04463],
        [77.71758, 16.04485],
        [77.71753, 16.04492],
        [77.71739, 16.04503],
        [77.71703, 16.04533],
        [77.71607, 16.04607],
        [77.71598, 16.04614],
        [77.71576, 16.04607],
        [77.71571, 16.04605],
        [77.71558, 16.04609],
        [77.71524, 16.04617],
        [77.71511, 16.04624],
        [77.7151, 16.04638],
        [77.71511, 16.04725],
        [77.71503, 16.04787],
        [77.715, 16.04805],
        [77.71495, 16.04816],
        [77.71482, 16.04871],
        [77.71478, 16.0488],
        [77.71478, 16.04883],
        [77.71476, 16.04892],
        [77.71461, 16.04938],
        [77.71454, 16.04952],
        [77.71445, 16.04991],
        [77.71443, 16.05002],
        [77.7144, 16.05002],
        [77.71434, 16.05018],
        [77.71427, 16.05096],
        [77.71424, 16.05109],
        [77.71411, 16.05109],
        [77.71406, 16.05109],
        [77.7137, 16.05103],
        [77.71268, 16.05085],
        [77.71249, 16.05082],
        [77.7124, 16.05081],
        [77.7123, 16.0508],
        [77.7117, 16.05072],
        [77.71147, 16.05069],
        [77.71139, 16.05068],
        [77.71132, 16.05071],
        [77.71128, 16.05073],
        [77.71112, 16.05047],
        [77.71104, 16.05027],
        [77.711, 16.05018],
        [77.71093, 16.05018],
        [77.71087, 16.05017],
        [77.71083, 16.05017],
        [77.7099, 16.05015],
        [77.70952, 16.05029],
        [77.70938, 16.05034],
        [77.70921, 16.05037],
        [77.70903, 16.05042],
        [77.70778, 16.0506],
        [77.7075, 16.05062],
        [77.70739, 16.05065],
        [77.70729, 16.05051],
        [77.70717, 16.05031],
        [77.7069, 16.04979],
        [77.70668, 16.04977],
        [77.70657, 16.04976],
        [77.70644, 16.04978],
        [77.70504, 16.04991],
        [77.70493, 16.0499],
        [77.70468, 16.04997],
        [77.70467, 16.04985],
        [77.70473, 16.04893],
        [77.70475, 16.04852],
        [77.70473, 16.04823],
        [77.70472, 16.04815],
        [77.70458, 16.04745],
        [77.70455, 16.04728],
        [77.7045, 16.04721],
        [77.70444, 16.04712],
        [77.70443, 16.04709],
        [77.70442, 16.04667],
        [77.70439, 16.04653],
        [77.70432, 16.04641],
        [77.70431, 16.04627],
        [77.70429, 16.04617],
        [77.70443, 16.04607],
        [77.705, 16.04578],
        [77.7051, 16.04573],
        [77.70517, 16.0457],
        [77.70525, 16.04566],
        [77.70545, 16.04556],
        [77.7056, 16.04548],
        [77.70578, 16.04539],
        [77.70588, 16.04527],
        [77.70601, 16.04522],
        [77.70616, 16.0452],
        [77.70652, 16.04501],
        [77.70705, 16.04486],
        [77.70715, 16.04482],
        [77.70726, 16.04475],
        [77.70753, 16.04462],
        [77.70771, 16.04461],
        [77.7079, 16.04455],
        [77.70825, 16.04444],
        [77.70839, 16.04441],
        [77.70831, 16.0442],
        [77.70815, 16.04347],
        [77.70801, 16.04298],
        [77.70783, 16.04299],
        [77.70772, 16.04298],
        [77.70766, 16.04299],
        [77.70658, 16.04311],
        [77.70522, 16.04324],
        [77.7052, 16.0432],
        [77.70502, 16.0427],
        [77.70501, 16.04254],
        [77.70502, 16.04244],
        [77.70482, 16.04113],
        [77.70479, 16.04095],
        [77.70464, 16.04092],
        [77.70443, 16.04094],
        [77.70433, 16.04094],
        [77.70402, 16.04096],
        [77.70341, 16.04111],
        [77.70302, 16.04117],
        [77.70274, 16.04129],
        [77.70258, 16.04133],
        [77.70089, 16.04175],
        [77.70082, 16.04177],
        [77.70077, 16.04178],
        [77.70074, 16.04174],
        [77.69984, 16.0399],
        [77.6994, 16.039],
        [77.69932, 16.03889],
        [77.69922, 16.03863],
        [77.69896, 16.03831],
        [77.69845, 16.03746],
        [77.6984, 16.03742],
        [77.69832, 16.03736],
        [77.6982, 16.03744],
        [77.6978, 16.03764],
        [77.69768, 16.03772],
        [77.69715, 16.03807],
        [77.69702, 16.03816],
        [77.69515, 16.03895],
        [77.69503, 16.03899],
        [77.6948, 16.039],
        [77.69477, 16.03901],
        [77.69458, 16.03914],
        [77.69442, 16.03927],
        [77.69431, 16.03953],
        [77.6943, 16.03956],
        [77.69427, 16.03968],
        [77.69425, 16.03976],
        [77.69406, 16.04001],
        [77.69323, 16.04037],
        [77.6932, 16.04038],
        [77.693, 16.04052],
        [77.69295, 16.04056],
        [77.69285, 16.04062],
        [77.69223, 16.04063],
        [77.6921, 16.04059],
        [77.692, 16.04068],
        [77.69185, 16.04081],
        [77.69142, 16.04118],
        [77.69135, 16.04124],
        [77.69114, 16.04176],
        [77.69091, 16.0418],
        [77.69089, 16.04182],
        [77.69006, 16.04201],
        [77.68949, 16.04178],
        [77.68944, 16.04176],
        [77.68936, 16.04172],
        [77.68928, 16.04178],
        [77.68917, 16.04181],
        [77.68881, 16.04194],
        [77.68822, 16.04218],
        [77.68762, 16.04233],
        [77.68747, 16.04235],
        [77.68733, 16.04239],
        [77.68542, 16.04278],
        [77.68496, 16.04289],
        [77.68481, 16.0429],
        [77.68478, 16.0429],
        [77.68481, 16.04305],
        [77.68493, 16.04398],
        [77.68493, 16.04408],
        [77.68493, 16.04413],
        [77.68497, 16.04428],
        [77.6853, 16.04613],
        [77.68532, 16.04625],
        [77.68532, 16.04637],
        [77.68531, 16.04648],
        [77.68522, 16.0465],
        [77.68437, 16.04675],
        [77.68421, 16.04678],
        [77.6841, 16.04682],
        [77.68313, 16.04706],
        [77.68228, 16.04728],
        [77.68211, 16.0473],
        [77.68199, 16.04736],
        [77.68113, 16.04764],
        [77.68106, 16.04766],
        [77.67989, 16.04811],
        [77.6798, 16.04815],
        [77.67983, 16.04829],
        [77.68022, 16.04897],
        [77.68032, 16.0491],
        [77.68032, 16.04916],
        [77.68035, 16.04921],
        [77.68035, 16.04927],
        [77.68034, 16.04931],
        [77.68032, 16.04952],
        [77.68079, 16.05134],
        [77.68086, 16.05162],
        [77.68105, 16.05218],
        [77.6816, 16.05388],
        [77.68161, 16.05392],
        [77.68163, 16.05404],
        [77.68168, 16.05425],
        [77.68181, 16.05479],
        [77.68226, 16.05642],
        [77.68232, 16.05662],
        [77.68248, 16.05726],
        [77.68242, 16.05724],
        [77.68244, 16.05737],
        [77.68252, 16.05854],
        [77.68253, 16.05869],
        [77.68254, 16.05874],
        [77.68255, 16.05882],
        [77.68189, 16.05888],
        [77.68127, 16.0588],
        [77.68062, 16.05883],
        [77.68049, 16.05882],
        [77.68032, 16.05912],
        [77.68022, 16.05952],
        [77.68012, 16.06019],
        [77.68012, 16.06027],
        [77.68016, 16.0603],
        [77.68015, 16.06044],
        [77.68014, 16.06264],
        [77.67985, 16.06269],
        [77.67979, 16.063],
        [77.6798, 16.06305],
        [77.67991, 16.06353],
        [77.68002, 16.06413],
        [77.67985, 16.06408],
        [77.67978, 16.06406],
        [77.67959, 16.0642],
        [77.67959, 16.06432],
        [77.67959, 16.0649],
        [77.6796, 16.06572],
        [77.6796, 16.06583],
        [77.67932, 16.06672],
        [77.67932, 16.06687],
        [77.67927, 16.06714],
        [77.67908, 16.06755],
        [77.67905, 16.06775],
        [77.67901, 16.06802],
        [77.67899, 16.06815],
        [77.67902, 16.06867],
        [77.67903, 16.06881],
        [77.67901, 16.06914],
        [77.67901, 16.06919],
        [77.67877, 16.06942],
        [77.67847, 16.06971],
        [77.67807, 16.0708],
        [77.67814, 16.07161],
        [77.6782, 16.07174],
        [77.67821, 16.07186],
        [77.6782, 16.07299],
        [77.67817, 16.073],
        [77.67803, 16.07308],
        [77.67805, 16.07316],
        [77.67791, 16.07322],
        [77.67799, 16.07331],
        [77.67809, 16.07355],
        [77.67796, 16.0739],
        [77.67811, 16.07424],
        [77.67814, 16.0743],
        [77.67806, 16.07433],
        [77.67809, 16.0744],
        [77.67816, 16.07465],
        [77.67835, 16.07521],
        [77.67847, 16.0759],
        [77.67849, 16.07606],
        [77.67857, 16.07653],
        [77.67879, 16.07766],
        [77.67885, 16.07832],
        [77.67888, 16.07852],
        [77.67888, 16.0787],
        [77.67891, 16.07893],
        [77.67907, 16.07891],
        [77.67908, 16.07905],
        [77.67927, 16.08023],
        [77.67927, 16.08027],
        [77.67945, 16.08179],
        [77.6793, 16.08182],
        [77.6792, 16.08185],
        [77.67908, 16.08187],
        [77.67904, 16.08188],
        [77.67886, 16.08184],
        [77.67827, 16.08183],
        [77.67775, 16.08176],
        [77.67774, 16.08157],
        [77.6775, 16.08139],
        [77.67736, 16.08128],
        [77.67708, 16.08075],
        [77.67703, 16.08072],
        [77.67675, 16.08056],
        [77.6763, 16.08014],
        [77.67607, 16.07995],
        [77.676, 16.07958],
        [77.676, 16.07953],
        [77.67582, 16.07937],
        [77.67558, 16.07916],
        [77.67554, 16.07912],
        [77.67543, 16.07902],
        [77.67377, 16.07831],
        [77.67328, 16.07811],
        [77.67227, 16.07708],
        [77.67218, 16.077],
        [77.67167, 16.07656],
        [77.67075, 16.07565],
        [77.67054, 16.07529],
        [77.67047, 16.07517],
        [77.67043, 16.07512],
        [77.66944, 16.0737],
        [77.66931, 16.07354],
        [77.66778, 16.07212],
        [77.66775, 16.07209],
        [77.66686, 16.0713],
        [77.66679, 16.07124],
        [77.66673, 16.07119],
        [77.66652, 16.071],
        [77.66653, 16.07073],
        [77.66561, 16.07017],
        [77.66482, 16.06963],
        [77.66472, 16.06958],
        [77.66451, 16.06948],
        [77.66342, 16.06897],
        [77.66252, 16.06888],
        [77.66206, 16.06895],
        [77.66124, 16.06866],
        [77.6604, 16.06836],
        [77.66035, 16.06834],
        [77.65861, 16.06699],
        [77.65848, 16.06687],
        [77.65817, 16.06671],
        [77.65761, 16.06764],
        [77.65688, 16.06886],
        [77.65679, 16.06898],
        [77.65679, 16.06904],
        [77.65654, 16.07131],
        [77.65548, 16.0717],
        [77.6556, 16.07056],
        [77.65563, 16.07028],
        [77.65564, 16.07025],
        [77.65575, 16.06971],
        [77.65522, 16.06826],
        [77.65492, 16.06641],
        [77.65482, 16.06594],
        [77.65461, 16.06586],
        [77.6535, 16.06558],
        [77.6533, 16.06565],
        [77.65315, 16.06571],
        [77.65247, 16.06597],
        [77.65194, 16.06623],
        [77.65104, 16.06578],
        [77.65059, 16.06575],
        [77.65034, 16.0658],
        [77.65014, 16.06586],
        [77.64967, 16.06602],
        [77.64881, 16.06657],
        [77.64863, 16.06672],
        [77.64844, 16.06686],
        [77.64835, 16.06694],
        [77.6482, 16.06732],
        [77.64821, 16.06736],
        [77.64811, 16.06741],
        [77.64807, 16.06746],
        [77.64675, 16.06834],
        [77.6462, 16.06864],
        [77.64605, 16.06872],
        [77.64592, 16.0688],
        [77.64571, 16.06892],
        [77.64564, 16.06895],
        [77.64557, 16.06898],
        [77.64371, 16.0708],
        [77.64321, 16.07136],
        [77.64314, 16.07144],
        [77.64308, 16.07146],
        [77.64135, 16.07196],
        [77.64117, 16.07195],
        [77.64099, 16.07197],
        [77.63989, 16.072],
        [77.63972, 16.072],
        [77.63899, 16.07199],
        [77.63879, 16.07202],
        [77.63781, 16.07205],
        [77.63766, 16.07204],
        [77.63762, 16.07205],
        [77.6375, 16.07207],
        [77.63609, 16.07219],
        [77.63584, 16.07221],
        [77.63509, 16.07235],
        [77.63494, 16.07239],
        [77.63483, 16.07242],
        [77.63422, 16.07252],
        [77.63411, 16.07253],
        [77.63408, 16.07253],
        [77.63301, 16.07276],
        [77.63197, 16.07297],
        [77.63192, 16.07297],
        [77.63186, 16.07283],
        [77.63168, 16.07281],
        [77.6312, 16.07277],
        [77.63117, 16.07273],
        [77.63112, 16.07262],
        [77.63107, 16.07257],
        [77.63104, 16.07254],
        [77.63079, 16.0724],
        [77.63001, 16.07211],
        [77.62986, 16.07198],
        [77.62966, 16.0718],
        [77.62897, 16.07114],
        [77.62873, 16.07096],
        [77.62858, 16.07086],
        [77.62849, 16.07079],
        [77.62798, 16.07031],
        [77.62787, 16.0702],
        [77.62771, 16.07006],
        [77.62762, 16.06997],
        [77.62749, 16.06986],
        [77.62739, 16.06979],
        [77.62722, 16.06966],
        [77.62683, 16.06941],
        [77.62655, 16.06923],
        [77.62633, 16.06909],
        [77.6263, 16.06906],
        [77.62521, 16.06841],
        [77.62502, 16.06827],
        [77.62446, 16.06786],
        [77.62383, 16.06747],
        [77.62373, 16.06735],
        [77.62362, 16.06723],
        [77.62353, 16.06713],
        [77.62336, 16.06693],
        [77.62251, 16.06593],
        [77.62218, 16.06554],
        [77.62208, 16.06533],
        [77.62205, 16.06524],
        [77.62194, 16.06493],
        [77.62156, 16.06386],
        [77.62149, 16.06371],
        [77.62146, 16.06362],
        [77.62138, 16.06342],
        [77.62132, 16.06336],
        [77.6214, 16.06326],
        [77.62166, 16.06281],
        [77.62188, 16.06245],
        [77.62201, 16.06223],
        [77.62233, 16.06169],
        [77.62267, 16.06158],
        [77.62274, 16.06148],
        [77.62269, 16.06136],
        [77.62262, 16.06119],
        [77.6226, 16.06116],
        [77.62198, 16.05978],
        [77.62209, 16.05917],
        [77.62209, 16.05905],
        [77.62207, 16.05711],
        [77.62206, 16.05701],
        [77.62205, 16.05693],
        [77.6222, 16.05683],
        [77.62308, 16.05652],
        [77.62544, 16.05567],
        [77.62554, 16.05564],
        [77.62551, 16.0555],
        [77.62523, 16.05444],
        [77.62521, 16.05436],
        [77.62517, 16.05423],
        [77.62509, 16.05406],
        [77.6249, 16.0535],
        [77.62482, 16.05324],
        [77.6237, 16.05208],
        [77.62362, 16.052],
        [77.62349, 16.0517],
        [77.62308, 16.05101],
        [77.62292, 16.05024],
        [77.62309, 16.05023],
        [77.62323, 16.05023],
        [77.62467, 16.05024],
        [77.62582, 16.05025],
        [77.62585, 16.0493],
        [77.62587, 16.04878],
        [77.62586, 16.0487],
        [77.62575, 16.04773],
        [77.62573, 16.04762],
        [77.62583, 16.04759],
        [77.62582, 16.04748],
        [77.62567, 16.04635],
        [77.62565, 16.04625],
        [77.62564, 16.04622],
        [77.62561, 16.04612],
        [77.62555, 16.04521],
        [77.62555, 16.04502],
        [77.62565, 16.04467],
        [77.62566, 16.04461],
        [77.62573, 16.04436],
        [77.62576, 16.04423],
        [77.62573, 16.04378],
        [77.62538, 16.04301],
        [77.62537, 16.04297],
        [77.62515, 16.04222],
        [77.62511, 16.04212],
        [77.62504, 16.04198],
        [77.625, 16.04185],
        [77.62495, 16.04174],
        [77.62471, 16.0411],
        [77.62444, 16.04016],
        [77.62441, 16.04004],
        [77.62428, 16.03985],
        [77.62414, 16.0394],
        [77.6241, 16.03929],
        [77.62407, 16.03916],
        [77.62403, 16.03902],
        [77.62396, 16.03887],
        [77.62372, 16.03838],
        [77.62353, 16.0382],
        [77.62342, 16.0381],
        [77.62278, 16.03643],
        [77.62269, 16.03623],
        [77.62252, 16.03623],
        [77.62216, 16.03624],
        [77.62204, 16.03624],
        [77.6215, 16.03626],
        [77.62128, 16.03626],
        [77.62069, 16.03629],
        [77.62062, 16.03629],
        [77.62046, 16.03631],
        [77.62035, 16.03637],
        [77.61999, 16.0366],
        [77.61991, 16.03664],
        [77.61983, 16.03667],
        [77.61937, 16.03676],
        [77.61926, 16.03677],
        [77.61912, 16.0368],
        [77.61864, 16.03688],
        [77.61853, 16.03689],
        [77.61853, 16.03678],
        [77.61852, 16.03657],
        [77.61851, 16.03644],
        [77.61845, 16.03604],
        [77.61849, 16.03598],
        [77.6185, 16.03593],
        [77.61869, 16.03551],
        [77.61869, 16.03537],
        [77.61855, 16.03539],
        [77.6185, 16.03541],
        [77.61836, 16.03544],
        [77.61822, 16.03547],
        [77.61805, 16.0355],
        [77.61803, 16.03538],
        [77.61799, 16.03505],
        [77.61801, 16.03491],
        [77.61804, 16.03399],
        [77.61804, 16.03396],
        [77.61803, 16.03382],
        [77.61804, 16.03354],
        [77.61806, 16.03312],
        [77.61807, 16.03302],
        [77.61807, 16.03236],
        [77.61802, 16.03178],
        [77.61801, 16.03159],
        [77.61786, 16.03126],
        [77.61782, 16.03121],
        [77.61771, 16.03109],
        [77.61762, 16.03099],
        [77.61753, 16.03085],
        [77.61745, 16.0307],
        [77.61741, 16.02929],
        [77.6174, 16.02872],
        [77.61737, 16.02764],
        [77.61734, 16.02689],
        [77.6173, 16.02677],
        [77.61704, 16.02695],
        [77.61629, 16.02618],
        [77.61622, 16.0261],
        [77.61612, 16.02602],
        [77.61582, 16.02562],
        [77.61574, 16.02554],
        [77.61562, 16.0255],
        [77.61546, 16.02533],
        [77.61542, 16.02527],
        [77.61516, 16.0249],
        [77.61506, 16.02478],
        [77.61502, 16.02475],
        [77.61495, 16.02467],
        [77.61485, 16.02462],
        [77.61464, 16.02454],
        [77.61451, 16.02448],
        [77.6144, 16.0244],
        [77.61425, 16.02425],
        [77.61407, 16.02408],
        [77.61379, 16.0238],
        [77.61307, 16.02293],
        [77.61297, 16.02279],
        [77.61156, 16.02138],
        [77.61055, 16.02038],
        [77.61053, 16.02036],
        [77.61048, 16.02007],
        [77.61045, 16.0199],
        [77.6104, 16.01956],
        [77.61021, 16.01848],
        [77.61014, 16.01823],
        [77.60989, 16.0173],
        [77.60961, 16.01616],
        [77.60958, 16.01602],
        [77.60949, 16.01598],
        [77.60939, 16.01593],
        [77.60836, 16.01634],
        [77.60833, 16.01634],
        [77.60802, 16.01633],
        [77.60797, 16.01631],
        [77.60751, 16.01606],
        [77.60543, 16.01593],
        [77.60441, 16.01587],
        [77.60385, 16.01586],
        [77.60348, 16.01585],
        [77.60309, 16.01582],
        [77.60237, 16.01578],
        [77.60169, 16.01552],
        [77.60168, 16.01538],
        [77.60165, 16.01511],
        [77.60164, 16.01494],
        [77.60163, 16.01491],
        [77.60153, 16.01429],
        [77.60148, 16.01392],
        [77.60125, 16.01325],
        [77.60117, 16.01299],
        [77.6011, 16.01279],
        [77.60031, 16.01264],
        [77.60028, 16.01254],
        [77.60009, 16.01254],
        [77.60009, 16.01248],
        [77.59997, 16.01241],
        [77.59925, 16.01244],
        [77.59838, 16.01235],
        [77.59811, 16.01227],
        [77.59729, 16.01204],
        [77.5973, 16.01181],
        [77.59703, 16.01175],
        [77.59683, 16.01172],
        [77.59658, 16.0117],
        [77.59649, 16.01169],
        [77.59642, 16.01168],
        [77.59637, 16.01167],
        [77.59619, 16.0116],
        [77.5959, 16.01149],
        [77.59531, 16.01143],
        [77.59522, 16.01142],
        [77.59431, 16.01103],
        [77.59407, 16.01096],
        [77.59306, 16.01065],
        [77.59274, 16.01055],
        [77.59251, 16.01049],
        [77.59261, 16.00941],
        [77.59262, 16.00926],
        [77.59267, 16.00859],
        [77.59264, 16.00858],
        [77.59187, 16.00835],
        [77.59175, 16.00832],
        [77.5917, 16.0083],
        [77.59088, 16.00822],
        [77.5896, 16.0081],
        [77.5893, 16.00805],
        [77.58906, 16.00802],
        [77.5888, 16.00801],
        [77.58821, 16.00814],
        [77.58812, 16.00813],
        [77.58808, 16.0078],
        [77.58792, 16.00733],
        [77.58789, 16.00725],
        [77.58782, 16.00723],
        [77.58778, 16.00723],
        [77.58768, 16.0072],
        [77.58763, 16.00709],
        [77.58754, 16.00655],
        [77.58734, 16.00608],
        [77.58732, 16.00593],
        [77.58726, 16.00578],
        [77.58705, 16.00483],
        [77.58699, 16.00455],
        [77.58686, 16.00371],
        [77.58686, 16.00357],
        [77.58687, 16.0034],
        [77.58688, 16.00315],
        [77.58688, 16.00293],
        [77.58689, 16.00285],
        [77.58688, 16.00277],
        [77.58668, 16.00187],
        [77.58641, 16.00072],
        [77.58651, 16.00062],
        [77.5866, 16.0005],
        [77.58669, 16.00036],
        [77.58661, 16.0003],
        [77.58651, 16.0002],
        [77.58614, 15.99978],
        [77.58587, 15.99945],
        [77.58563, 15.99917],
        [77.58538, 15.99886],
        [77.58524, 15.99889],
        [77.58379, 15.99948],
        [77.58363, 15.99951],
        [77.5835, 15.99949],
        [77.58321, 15.99944],
        [77.58261, 15.99934],
        [77.58237, 15.99934],
        [77.58224, 15.99934],
        [77.58216, 15.99927],
        [77.58162, 15.99934],
        [77.58141, 15.99938],
        [77.58134, 15.99928],
        [77.58125, 15.99907],
        [77.58118, 15.99893],
        [77.58114, 15.99879],
        [77.58048, 15.99713],
        [77.58043, 15.99703],
        [77.58024, 15.99701],
        [77.58002, 15.99697],
        [77.57992, 15.997],
        [77.57975, 15.99698],
        [77.57921, 15.99683],
        [77.57906, 15.9968],
        [77.57888, 15.99677],
        [77.57801, 15.99659],
        [77.57768, 15.99645],
        [77.57757, 15.9964],
        [77.57743, 15.99638],
        [77.57669, 15.99633],
        [77.57665, 15.99632],
        [77.57632, 15.99616],
        [77.57607, 15.99616],
        [77.57604, 15.99613],
        [77.57587, 15.99597],
        [77.57546, 15.99601],
        [77.57544, 15.99589],
        [77.57542, 15.99584],
        [77.57509, 15.99585],
        [77.57487, 15.99588],
        [77.57438, 15.9959],
        [77.57425, 15.99589],
        [77.57414, 15.99584],
        [77.57384, 15.99577],
        [77.57312, 15.99561],
        [77.57293, 15.99557],
        [77.57279, 15.99552],
        [77.57271, 15.9955],
        [77.57215, 15.99537],
        [77.57189, 15.99519],
        [77.57162, 15.99524],
        [77.57087, 15.99488],
        [77.57068, 15.99481],
        [77.57036, 15.99468],
        [77.57018, 15.99461],
        [77.57003, 15.99462],
        [77.56959, 15.99471],
        [77.5694, 15.99473],
        [77.56924, 15.99476],
        [77.56923, 15.99474],
        [77.56915, 15.99471],
        [77.56901, 15.99467],
        [77.5688, 15.99476],
        [77.56852, 15.99475],
        [77.56837, 15.99476],
        [77.56834, 15.99456],
        [77.56817, 15.99452],
        [77.56751, 15.99436],
        [77.56642, 15.99407],
        [77.5663, 15.99404],
        [77.56621, 15.99403],
        [77.56608, 15.99403],
        [77.56596, 15.99402],
        [77.56592, 15.99402],
        [77.56523, 15.99394],
        [77.56463, 15.9938],
        [77.56447, 15.99378],
        [77.56428, 15.99369],
        [77.56337, 15.9935],
        [77.56323, 15.99349],
        [77.56298, 15.99349],
        [77.56281, 15.99348],
        [77.56261, 15.99348],
        [77.56231, 15.99347],
        [77.5621, 15.99346],
        [77.56208, 15.99332],
        [77.56188, 15.99301],
        [77.56084, 15.99285],
        [77.56061, 15.99283],
        [77.56047, 15.99283],
        [77.56042, 15.99271],
        [77.5605, 15.9925],
        [77.56051, 15.99243],
        [77.5605, 15.99229],
        [77.56048, 15.99221],
        [77.5604, 15.99161],
        [77.5604, 15.99153],
        [77.5604, 15.99149],
        [77.56025, 15.99148],
        [77.55964, 15.99145],
        [77.55901, 15.99138],
        [77.55819, 15.99134],
        [77.55814, 15.99142],
        [77.5581, 15.99148],
        [77.55793, 15.99148],
        [77.55776, 15.99148],
        [77.5577, 15.9915],
        [77.55763, 15.99154],
        [77.55754, 15.99158],
        [77.55641, 15.99096],
        [77.55621, 15.99098],
        [77.5562, 15.99086],
        [77.5562, 15.99076],
        [77.55607, 15.99076],
        [77.55552, 15.99073],
        [77.55536, 15.99073],
        [77.55538, 15.99059],
        [77.55522, 15.99055],
        [77.55494, 15.9905],
        [77.55441, 15.99019],
        [77.55423, 15.99012],
        [77.55363, 15.98976],
        [77.55349, 15.98968],
        [77.55336, 15.98972],
        [77.55326, 15.98974],
        [77.55318, 15.98976],
        [77.55308, 15.98978],
        [77.55303, 15.98968],
        [77.55302, 15.98965],
        [77.55274, 15.98932],
        [77.55245, 15.98924],
        [77.55235, 15.98907],
        [77.55222, 15.98904],
        [77.55163, 15.98914],
        [77.5515, 15.98915],
        [77.55142, 15.98908],
        [77.55118, 15.98891],
        [77.55059, 15.98831],
        [77.55042, 15.98827],
        [77.54959, 15.98813],
        [77.54936, 15.98809],
        [77.54913, 15.98804],
        [77.54898, 15.988],
        [77.548, 15.9878],
        [77.54789, 15.98777],
        [77.54774, 15.98775],
        [77.54761, 15.98773],
        [77.54654, 15.98758],
        [77.5464, 15.98753],
        [77.54634, 15.98751],
        [77.54625, 15.98749],
        [77.54619, 15.98747],
        [77.54612, 15.98748],
        [77.54594, 15.98746],
        [77.54576, 15.98743],
        [77.54556, 15.98734],
        [77.54545, 15.98731],
        [77.54533, 15.98727],
        [77.54503, 15.98718],
        [77.54491, 15.98715],
        [77.5444, 15.98698],
        [77.54406, 15.98687],
        [77.54402, 15.98685],
        [77.54396, 15.98681],
        [77.54361, 15.98685],
        [77.54353, 15.98687],
        [77.54312, 15.98677],
        [77.54289, 15.98672],
        [77.54284, 15.98672],
        [77.54272, 15.98671],
        [77.54271, 15.98666],
        [77.54257, 15.98661],
        [77.54255, 15.9866],
        [77.54246, 15.98658],
        [77.54212, 15.98648],
        [77.54172, 15.98643],
        [77.54081, 15.98633],
        [77.5399, 15.9862],
        [77.53968, 15.98615],
        [77.5395, 15.98613],
        [77.53777, 15.98596],
        [77.53759, 15.98594],
        [77.53733, 15.98591],
        [77.53718, 15.98588],
        [77.53694, 15.98587],
        [77.53691, 15.98587],
        [77.53646, 15.98577],
        [77.53611, 15.98578],
        [77.5357, 15.9858],
        [77.5356, 15.9858],
        [77.53555, 15.98568],
        [77.53553, 15.98562],
        [77.53521, 15.98563],
        [77.53513, 15.98564],
        [77.53506, 15.98564],
        [77.53456, 15.9857],
        [77.53403, 15.9857],
        [77.53369, 15.9857],
        [77.53333, 15.9857],
        [77.53316, 15.9857],
        [77.53312, 15.9857],
        [77.53261, 15.98569],
        [77.53257, 15.98569],
        [77.5325, 15.9857],
        [77.53238, 15.98573],
        [77.53221, 15.98572],
        [77.53153, 15.98578],
        [77.53146, 15.98576],
        [77.53142, 15.98575],
        [77.53117, 15.98567],
        [77.52977, 15.98547],
        [77.52971, 15.98548],
        [77.52898, 15.98517],
        [77.52853, 15.98499],
        [77.52834, 15.98489],
        [77.5282, 15.98485],
        [77.52768, 15.98466],
        [77.52753, 15.9846],
        [77.52711, 15.98444],
        [77.5268, 15.9842],
        [77.52618, 15.98386],
        [77.52606, 15.98379],
        [77.52494, 15.98309],
        [77.52491, 15.98307],
        [77.5243, 15.98276],
        [77.52379, 15.98255],
        [77.52317, 15.9823],
        [77.52303, 15.98224],
        [77.52291, 15.98218],
        [77.52194, 15.98171],
        [77.5217, 15.98159],
        [77.52165, 15.98152],
        [77.52144, 15.9813],
        [77.52135, 15.98111],
        [77.52128, 15.981],
        [77.52125, 15.98097],
        [77.5211, 15.98097],
        [77.52073, 15.98098],
        [77.52071, 15.98098],
        [77.52059, 15.98092],
        [77.52044, 15.98085],
        [77.52019, 15.98072],
        [77.51938, 15.98032],
        [77.51916, 15.98021],
        [77.51903, 15.98014],
        [77.51887, 15.98008],
        [77.51828, 15.97985],
        [77.51816, 15.97979],
        [77.51794, 15.97971],
        [77.51756, 15.97963],
        [77.51738, 15.97955],
        [77.51723, 15.97947],
        [77.51635, 15.97909],
        [77.51622, 15.979],
        [77.51607, 15.97897],
        [77.51603, 15.97896],
        [77.51514, 15.97868],
        [77.51506, 15.97865],
        [77.5147, 15.97846],
        [77.51377, 15.97806],
        [77.51348, 15.97794],
        [77.51336, 15.97791],
        [77.51324, 15.97779],
        [77.51311, 15.9776],
        [77.51311, 15.97749],
        [77.51312, 15.97727],
        [77.51314, 15.97707],
        [77.51313, 15.97691],
        [77.51298, 15.97692],
        [77.5117, 15.97689],
        [77.51092, 15.97673],
        [77.51086, 15.97668],
        [77.51085, 15.97674],
        [77.51103, 15.97793],
        [77.51133, 15.97999],
        [77.51077, 15.98027],
        [77.51059, 15.98039],
        [77.51076, 15.98953],
        [77.51077, 15.98976],
        [77.5108, 15.9916],
        [77.51141, 15.9948],
        [77.51252, 16.00062],
        [77.51252, 16.00065],
        [77.51269, 16.00154],
        [77.51314, 16.0039],
        [77.51315, 16.00392],
        [77.514, 16.0084],
        [77.5044, 16.0114],
        [77.49638, 16.03046],
        [77.49554, 16.03246],
        [77.4938, 16.0366],
        [77.49418, 16.03774]
      ]
    ]
  }
}
