{
  "type": "Feature",
  "id": "ML-AC-3",
  "properties": {
    "stateName": "MEGHALAYA",
    "stateCode": "ML",
    "districtName": "JAINTIA HILLS",
    "acNo": 3,
    "acName": "Raliang (ST)",
    "seatType": null,
    "pcNo": 1,
    "pcName": "SHILLONG (ST)",
    "quality": "unverified",
    "sources": [
      "TBD"
    ]
  },
  "geometry": {
    "type": "Polygon",
    "coordinates": [
      [
        [92.41759, 25.61697],
        [92.41739, 25.57872],
        [92.44368, 25.5177],
        [92.47561, 25.48854],
        [92.48417, 25.4539],
        [92.46302, 25.45263],
        [92.45543, 25.4576],
        [92.43437, 25.45422],
        [92.4253, 25.44403],
        [92.41575, 25.44468],
        [92.40397, 25.43855],
        [92.39164, 25.44256],
        [92.38291, 25.4365],
        [92.37193, 25.44014],
        [92.35912, 25.43449],
        [92.31133, 25.44045],
        [92.30621, 25.47272],
        [92.27965, 25.5317],
        [92.2054, 25.52923],
        [92.19454, 25.55873],
        [92.22154, 25.56304],
        [92.22357, 25.57564],
        [92.27878, 25.58399],
        [92.2636, 25.59515],
        [92.28733, 25.61185],
        [92.32951, 25.62326],
        [92.41759, 25.61697]
      ]
    ]
  }
}
