{
  "type": "Feature",
  "id": "ML-AC-33",
  "properties": {
    "stateName": "MEGHALAYA",
    "stateCode": "ML",
    "districtName": "WEST KHASI HILLS",
    "acNo": 33,
    "acName": "Rambrai Jyrngam (ST",
    "seatType": null,
    "pcNo": 1,
    "pcName": "SHILLONG (ST)",
    "quality": "unverified",
    "sources": [
      "TBD"
    ]
  },
  "geometry": {
    "type": "Polygon",
    "coordinates": [
      [
        [91.19557, 25.86096],
        [91.19712, 25.84969],
        [91.20395, 25.84357],
        [91.18612, 25.81834],
        [91.1906, 25.81123],
        [91.17798, 25.778],
        [91.18901, 25.76443],
        [91.18663, 25.73872],
        [91.19294, 25.73681],
        [91.1919, 25.73061],
        [91.21999, 25.72716],
        [91.22065, 25.72206],
        [91.25716, 25.74797],
        [91.2735, 25.74575],
        [91.3221, 25.82075],
        [91.3339, 25.83194],
        [91.33445, 25.83896],
        [91.34223, 25.83664],
        [91.34182, 25.82472],
        [91.35946, 25.80662],
        [91.38021, 25.80099],
        [91.39476, 25.80521],
        [91.41813, 25.80316],
        [91.42261, 25.79324],
        [91.45736, 25.79509],
        [91.45843, 25.78853],
        [91.47084, 25.79031],
        [91.48553, 25.72267],
        [91.49923, 25.6982],
        [91.50709, 25.69382],
        [91.44294, 25.6745],
        [91.44315, 25.66277],
        [91.42868, 25.62732],
        [91.43366, 25.60891],
        [91.37212, 25.62378],
        [91.34694, 25.56963],
        [91.31048, 25.5868],
        [91.25862, 25.59664],
        [91.26412, 25.642],
        [91.243, 25.647],
        [91.22695, 25.67642],
        [91.2375, 25.6895],
        [91.18816, 25.69944],
        [91.14573, 25.69805],
        [91.14772, 25.71973],
        [91.12782, 25.72091],
        [91.10359, 25.78481],
        [91.09472, 25.79],
        [91.06647, 25.77666],
        [91.06697, 25.7414],
        [91.07241, 25.72123],
        [90.95944, 25.71442],
        [90.96859, 25.72628],
        [90.98309, 25.74201],
        [90.98195, 25.74744],
        [90.95993, 25.74917],
        [90.9528, 25.758],
        [90.94469, 25.7533],
        [90.93852, 25.75991],
        [90.94466, 25.77222],
        [90.96338, 25.77964],
        [90.98128, 25.79793],
        [91.00131, 25.82487],
        [91.00578, 25.82046],
        [91.02221, 25.82363],
        [91.04802, 25.84926],
        [91.06704, 25.8467],
        [91.07856, 25.85266],
        [91.07172, 25.8386],
        [91.06115, 25.83743],
        [91.04897, 25.82925],
        [91.06204, 25.8209],
        [91.07825, 25.82923],
        [91.11374, 25.83229],
        [91.14773, 25.85059],
        [91.18024, 25.84406],
        [91.19557, 25.86096]
      ]
    ]
  }
}
