{
  "type": "Feature",
  "id": "ML-AC-45",
  "properties": {
    "stateName": "MEGHALAYA",
    "stateCode": "ML",
    "districtName": "WEST GARO HILLS",
    "acNo": 45,
    "acName": "Tikrikila (ST)",
    "seatType": null,
    "pcNo": 2,
    "pcName": "TURA (ST)",
    "quality": "unverified",
    "sources": [
      "TBD"
    ]
  },
  "geometry": {
    "type": "Polygon",
    "coordinates": [
      [
        [90.0623, 25.91152],
        [90.06006, 25.91376],
        [90.06704, 25.91358],
        [90.07168, 25.919],
        [90.07593, 25.91558],
        [90.08653, 25.91987],
        [90.08546, 25.92546],
        [90.09432, 25.9282],
        [90.09229, 25.93847],
        [90.09836, 25.93789],
        [90.10075, 25.944],
        [90.10629, 25.94269],
        [90.11284, 25.95407],
        [90.15981, 25.91415],
        [90.18206, 25.90143],
        [90.19157, 25.90678],
        [90.24405, 25.90236],
        [90.25459, 25.89506],
        [90.26993, 25.87695],
        [90.2668, 25.85368],
        [90.29015, 25.82929],
        [90.29709, 25.80664],
        [90.29119, 25.80051],
        [90.24282, 25.78345],
        [90.21853, 25.79323],
        [90.21851, 25.79792],
        [90.23327, 25.81091],
        [90.23391, 25.82084],
        [90.22376, 25.82402],
        [90.21751, 25.83255],
        [90.20815, 25.82308],
        [90.19011, 25.81935],
        [90.17895, 25.81202],
        [90.1729, 25.81351],
        [90.17788, 25.82058],
        [90.17558, 25.82509],
        [90.13868, 25.84051],
        [90.13234, 25.85784],
        [90.11793, 25.87558],
        [90.09219, 25.88337],
        [90.0841, 25.89874],
        [90.06688, 25.90314],
        [90.06249, 25.91086],
        [90.0623, 25.91152]
      ]
    ]
  }
}
