{
  "type": "Feature",
  "id": "ML-AC-56",
  "properties": {
    "stateName": "MEGHALAYA",
    "stateCode": "ML",
    "districtName": "WEST GARO HILLS",
    "acNo": 56,
    "acName": "Gambegre (ST)",
    "seatType": null,
    "pcNo": 2,
    "pcName": "TURA (ST)",
    "quality": "unverified",
    "sources": [
      "TBD"
    ]
  },
  "geometry": {
    "type": "Polygon",
    "coordinates": [
      [
        [90.21634, 25.49298],
        [90.25973, 25.49],
        [90.30419, 25.48531],
        [90.3211, 25.47719],
        [90.31603, 25.47084],
        [90.31936, 25.46436],
        [90.30359, 25.4185],
        [90.31359, 25.3844],
        [90.30862, 25.36535],
        [90.26142, 25.32124],
        [90.25578, 25.30791],
        [90.23915, 25.31845],
        [90.23696, 25.3314],
        [90.202, 25.34424],
        [90.17959, 25.32482],
        [90.1618, 25.32255],
        [90.15249, 25.2951],
        [90.14258, 25.28967],
        [90.1371, 25.27484],
        [90.12431, 25.27185],
        [90.09879, 25.27456],
        [90.08753, 25.27973],
        [90.05943, 25.30547],
        [90.05391, 25.32179],
        [90.05502, 25.34738],
        [90.03758, 25.33454],
        [90.01562, 25.33797],
        [90.00439, 25.36787],
        [90.00602, 25.37786],
        [90.03101, 25.39855],
        [90.06979, 25.40569],
        [90.08429, 25.41474],
        [90.09027, 25.44088],
        [90.08922, 25.46575],
        [90.17472, 25.49219],
        [90.19962, 25.4968],
        [90.21634, 25.49298]
      ]
    ]
  }
}
