{
  "type": "Feature",
  "id": "PY-AC-12",
  "properties": {
    "stateName": "PUDUCHERRY",
    "stateCode": "PY",
    "districtName": "PONDICHERRY",
    "acNo": 12,
    "acName": "Kalapet",
    "seatType": null,
    "pcNo": 1,
    "pcName": "PONDICHERRY",
    "quality": "unverified",
    "sources": [
      "TBD"
    ]
  },
  "geometry": {
    "type": "MultiPolygon",
    "coordinates": [
      [
        [
          [79.82164, 11.96956],
          [79.82837, 11.95872],
          [79.82388, 11.95756],
          [79.81629, 11.96895],
          [79.81639, 11.95856],
          [79.80528, 11.96363],
          [79.81254, 11.97793],
          [79.81844, 11.97793],
          [79.82164, 11.96956]
        ]
      ],
      [
        [
          [79.79434, 12.02584],
          [79.80531, 12.02454],
          [79.79833, 12.01695],
          [79.78832, 12.01924],
          [79.78929, 12.02769],
          [79.79434, 12.02584]
        ]
      ],
      [
        [
          [79.85758, 12.00778],
          [79.85706, 12.00681],
          [79.84047, 12.01327],
          [79.84881, 12.04915],
          [79.84976, 12.05182],
          [79.87379, 12.04262],
          [79.85758, 12.00778]
        ]
      ]
    ]
  }
}
