{
  "type": "Feature",
  "id": "PY-AC-2",
  "properties": {
    "stateName": "PUDUCHERRY",
    "stateCode": "PY",
    "districtName": "PONDICHERRY",
    "acNo": 2,
    "acName": "Thirubhuvanai (SC)",
    "seatType": null,
    "pcNo": 1,
    "pcName": "PONDICHERRY",
    "quality": "unverified",
    "sources": [
      "TBD"
    ]
  },
  "geometry": {
    "type": "MultiPolygon",
    "coordinates": [
      [
        [
          [79.65859, 11.94457],
          [79.66069, 11.93708],
          [79.67026, 11.93551],
          [79.66885, 11.91841],
          [79.65604, 11.9129],
          [79.65589, 11.90794],
          [79.64106, 11.90767],
          [79.64062, 11.9022],
          [79.62983, 11.90158],
          [79.6259, 11.90592],
          [79.62832, 11.91958],
          [79.61842, 11.92609],
          [79.61787, 11.93605],
          [79.6189, 11.94322],
          [79.62849, 11.94518],
          [79.64575, 11.94126],
          [79.64787, 11.94455],
          [79.65195, 11.94359],
          [79.65298, 11.94822],
          [79.65859, 11.94457]
        ]
      ],
      [
        [
          [79.69652, 11.96263],
          [79.70006, 11.96276],
          [79.70122, 11.95115],
          [79.70796, 11.94409],
          [79.71111, 11.93306],
          [79.69724, 11.94176],
          [79.6916, 11.95135],
          [79.69652, 11.96263]
        ]
      ],
      [
        [
          [79.68649, 11.97321],
          [79.68461, 11.95336],
          [79.67327, 11.94786],
          [79.65466, 11.95345],
          [79.65379, 11.9606],
          [79.65998, 11.95836],
          [79.66216, 11.96909],
          [79.67666, 11.96809],
          [79.6847, 11.97308],
          [79.68649, 11.97321]
        ]
      ]
    ]
  }
}
