{
  "type": "Feature",
  "id": "MZ-AC-16",
  "properties": {
    "stateName": "MIZORAM",
    "stateCode": "MZ",
    "districtName": "AIZAWL",
    "acNo": 16,
    "acName": "Aizawl West-II (ST)",
    "seatType": null,
    "pcNo": 1,
    "pcName": "MIZORAM (ST)",
    "quality": "unverified",
    "sources": [
      "TBD"
    ]
  },
  "geometry": {
    "type": "Polygon",
    "coordinates": [
      [
        [92.6868, 23.70963],
        [92.70418, 23.69635],
        [92.7048, 23.68963],
        [92.70127, 23.68888],
        [92.68841, 23.68818],
        [92.67133, 23.69573],
        [92.66369, 23.731],
        [92.67682, 23.72656],
        [92.69792, 23.72708],
        [92.69847, 23.72064],
        [92.68701, 23.71585],
        [92.6868, 23.70963]
      ]
    ]
  }
}
