{
  "type": "Feature",
  "id": "MZ-AC-17",
  "properties": {
    "stateName": "MIZORAM",
    "stateCode": "MZ",
    "districtName": "AIZAWL",
    "acNo": 17,
    "acName": "Aizawl West-III (ST",
    "seatType": null,
    "pcNo": 1,
    "pcName": "MIZORAM (ST)",
    "quality": "unverified",
    "sources": [
      "TBD"
    ]
  },
  "geometry": {
    "type": "Polygon",
    "coordinates": [
      [
        [92.67133, 23.69573],
        [92.68841, 23.68818],
        [92.70127, 23.68888],
        [92.70868, 23.68136],
        [92.72213, 23.68142],
        [92.72637, 23.66973],
        [92.72196, 23.66884],
        [92.70754, 23.67285],
        [92.68919, 23.67134],
        [92.68193, 23.68064],
        [92.67392, 23.67753],
        [92.67221, 23.68819],
        [92.65748, 23.69084],
        [92.66142, 23.70059],
        [92.67133, 23.69573]
      ]
    ]
  }
}
