{
  "type": "Feature",
  "id": "MZ-AC-28",
  "properties": {
    "stateName": "MIZORAM",
    "stateCode": "MZ",
    "districtName": "SERCHHIP",
    "acNo": 28,
    "acName": "Hrangturzo (ST)",
    "seatType": null,
    "pcNo": 1,
    "pcName": "MIZORAM (ST)",
    "quality": "unverified",
    "sources": [
      "TBD"
    ]
  },
  "geometry": {
    "type": "Polygon",
    "coordinates": [
      [
        [93.01481, 23.27869],
        [93.01092, 23.27049],
        [93.00959, 23.26282],
        [93.03481, 23.24528],
        [93.04745, 23.21396],
        [93.12762, 23.19539],
        [93.1622, 23.17994],
        [93.16424, 23.17343],
        [93.18041, 23.12187],
        [93.1936, 23.05404],
        [93.18786, 23.05225],
        [93.18307, 23.05969],
        [93.16859, 23.04663],
        [93.16057, 23.04817],
        [93.1552, 23.04345],
        [93.15124, 23.05404],
        [93.14051, 23.05329],
        [93.14005, 23.05933],
        [93.13449, 23.05991],
        [93.13493, 23.0482],
        [93.12562, 23.04082],
        [93.12785, 23.03104],
        [93.12184, 23.00614],
        [93.09279, 23.02627],
        [93.08045, 23.02918],
        [93.07743, 23.03669],
        [93.04286, 23.04674],
        [93.03861, 23.05026],
        [93.04008, 23.07819],
        [93.03652, 23.08172],
        [93.01862, 23.07969],
        [92.96449, 23.11208],
        [92.95726, 23.11694],
        [92.95799, 23.13101],
        [92.95376, 23.16615],
        [92.93451, 23.17215],
        [92.93517, 23.18741],
        [92.91782, 23.18919],
        [92.90564, 23.25323],
        [92.90767, 23.26678],
        [92.92733, 23.27793],
        [93.01481, 23.27869]
      ]
    ]
  }
}
