{
  "type": "Feature",
  "id": "UP-AC-110",
  "properties": {
    "stateName": "UTTAR PRADESH",
    "stateCode": "UP",
    "districtName": "MAINPURI",
    "acNo": 110,
    "acName": "BISAULI (SC)",
    "seatType": null,
    "pcNo": null,
    "pcName": null,
    "quality": "unverified",
    "sources": [
      "TBD"
    ]
  },
  "geometry": {
    "type": "Polygon",
    "coordinates": [
      [
        [78.76454, 27.33649],
        [78.76468, 27.33618],
        [78.7648, 27.33597],
        [78.7648, 27.33588],
        [78.76483, 27.33571],
        [78.76496, 27.33544],
        [78.76533, 27.33375],
        [78.76563, 27.33283],
        [78.76569, 27.33266],
        [78.76588, 27.33249],
        [78.76619, 27.33241],
        [78.76649, 27.33237],
        [78.76662, 27.33237],
        [78.76677, 27.33246],
        [78.76696, 27.33253],
        [78.76729, 27.33258],
        [78.76759, 27.33255],
        [78.76794, 27.33232],
        [78.76806, 27.33221],
        [78.76803, 27.33204],
        [78.76798, 27.33189],
        [78.76795, 27.33177],
        [78.76808, 27.33168],
        [78.76831, 27.33162],
        [78.76859, 27.33155],
        [78.76866, 27.33147],
        [78.76868, 27.33135],
        [78.76871, 27.33118],
        [78.76877, 27.33107],
        [78.76891, 27.33096],
        [78.76912, 27.33081],
        [78.76933, 27.3307],
        [78.76947, 27.33058],
        [78.76965, 27.33042],
        [78.76963, 27.33029],
        [78.76966, 27.33014],
        [78.76965, 27.32989],
        [78.76956, 27.32967],
        [78.76953, 27.32951],
        [78.7695, 27.32936],
        [78.76943, 27.32919],
        [78.76936, 27.32901],
        [78.76914, 27.32879],
        [78.76883, 27.32863],
        [78.76854, 27.32849],
        [78.76833, 27.32833],
        [78.76818, 27.32811],
        [78.76813, 27.32777],
        [78.76829, 27.32654],
        [78.76938, 27.32332],
        [78.76952, 27.32284],
        [78.76978, 27.32257],
        [78.77011, 27.3224],
        [78.77037, 27.32227],
        [78.77057, 27.32201],
        [78.7707, 27.32161],
        [78.7707, 27.32133],
        [78.7707, 27.32084],
        [78.77067, 27.32034],
        [78.77078, 27.31986],
        [78.77103, 27.31929],
        [78.77123, 27.31901],
        [78.77138, 27.31887],
        [78.7717, 27.31857],
        [78.77294, 27.31746],
        [78.77351, 27.31655],
        [78.7737, 27.31618],
        [78.77384, 27.31593],
        [78.77392, 27.31561],
        [78.77395, 27.31537],
        [78.77398, 27.31511],
        [78.77396, 27.31465],
        [78.77391, 27.31439],
        [78.77382, 27.31388],
        [78.77375, 27.31354],
        [78.77378, 27.31331],
        [78.77383, 27.31306],
        [78.77396, 27.3127],
        [78.77423, 27.31239],
        [78.77459, 27.31198],
        [78.77503, 27.31164],
        [78.77557, 27.31147],
        [78.77637, 27.31122],
        [78.77775, 27.31123],
        [78.77898, 27.31131],
        [78.77932, 27.31126],
        [78.77963, 27.3111],
        [78.77977, 27.31092],
        [78.7796, 27.31024],
        [78.77966, 27.30981],
        [78.77982, 27.3094],
        [78.78023, 27.30897],
        [78.78066, 27.30863],
        [78.78101, 27.30827],
        [78.78131, 27.30796],
        [78.78163, 27.30776],
        [78.78216, 27.30759],
        [78.78297, 27.30754],
        [78.78385, 27.30757],
        [78.78422, 27.30767],
        [78.78474, 27.30782],
        [78.78513, 27.30808],
        [78.78545, 27.30837],
        [78.786, 27.30933],
        [78.78636, 27.31011],
        [78.78669, 27.31085],
        [78.78693, 27.31128],
        [78.78735, 27.31157],
        [78.78798, 27.3118],
        [78.78876, 27.31192],
        [78.78932, 27.31195],
        [78.78973, 27.31193],
        [78.79005, 27.31195],
        [78.79037, 27.31203],
        [78.79133, 27.31247],
        [78.79207, 27.3128],
        [78.79241, 27.31306],
        [78.79267, 27.3133],
        [78.79318, 27.31317],
        [78.79343, 27.31315],
        [78.79369, 27.31323],
        [78.7941, 27.31337],
        [78.79461, 27.31352],
        [78.79497, 27.31366],
        [78.79542, 27.31377],
        [78.79576, 27.31376],
        [78.79607, 27.31356],
        [78.7964, 27.31317],
        [78.79703, 27.31152],
        [78.79728, 27.31098],
        [78.79725, 27.3104],
        [78.7973, 27.31006],
        [78.7975, 27.30975],
        [78.7978, 27.30955],
        [78.79807, 27.3094],
        [78.7984, 27.30906],
        [78.79856, 27.30879],
        [78.79904, 27.30805],
        [78.79938, 27.30752],
        [78.80048, 27.30624],
        [78.80124, 27.30584],
        [78.80249, 27.30525],
        [78.80321, 27.30479],
        [78.80338, 27.30442],
        [78.80351, 27.30409],
        [78.80361, 27.30368],
        [78.80371, 27.30337],
        [78.80392, 27.30313],
        [78.80464, 27.30267],
        [78.80649, 27.30214],
        [78.80765, 27.30184],
        [78.80815, 27.30182],
        [78.80819, 27.3014],
        [78.8082, 27.30079],
        [78.80828, 27.3005],
        [78.80849, 27.30035],
        [78.80875, 27.30025],
        [78.80941, 27.30002],
        [78.81036, 27.29938],
        [78.81074, 27.29912],
        [78.81144, 27.29949],
        [78.81181, 27.2997],
        [78.81213, 27.30003],
        [78.81242, 27.30041],
        [78.8126, 27.3006],
        [78.81297, 27.30076],
        [78.81333, 27.30084],
        [78.8136, 27.30091],
        [78.81383, 27.30102],
        [78.8142, 27.30144],
        [78.81444, 27.30181],
        [78.81473, 27.30245],
        [78.81492, 27.30273],
        [78.8153, 27.30311],
        [78.8157, 27.30323],
        [78.8162, 27.3035],
        [78.81648, 27.30365],
        [78.81693, 27.30378],
        [78.81725, 27.3038],
        [78.81752, 27.30383],
        [78.81774, 27.3038],
        [78.81796, 27.30373],
        [78.81832, 27.30372],
        [78.81864, 27.3037],
        [78.81895, 27.30382],
        [78.82136, 27.30435],
        [78.82176, 27.30439],
        [78.82226, 27.30442],
        [78.82253, 27.30444],
        [78.82271, 27.30441],
        [78.82276, 27.30433],
        [78.82275, 27.30415],
        [78.82275, 27.30393],
        [78.82283, 27.30368],
        [78.82301, 27.30334],
        [78.82336, 27.30306],
        [78.82354, 27.30298],
        [78.82363, 27.30286],
        [78.82372, 27.30273],
        [78.82376, 27.30265],
        [78.82376, 27.30252],
        [78.8238, 27.3023],
        [78.82407, 27.30206],
        [78.82439, 27.30199],
        [78.82475, 27.30193],
        [78.82498, 27.3019],
        [78.82525, 27.30179],
        [78.82543, 27.30162],
        [78.82547, 27.3015],
        [78.82547, 27.30119],
        [78.82542, 27.30097],
        [78.82537, 27.30074],
        [78.82532, 27.30052],
        [78.82536, 27.30031],
        [78.82545, 27.30018],
        [78.82577, 27.30003],
        [78.82609, 27.29996],
        [78.82631, 27.29993],
        [78.8265, 27.29986],
        [78.82658, 27.29973],
        [78.82672, 27.29952],
        [78.82681, 27.29931],
        [78.82699, 27.29906],
        [78.82721, 27.29881],
        [78.8274, 27.29869],
        [78.82785, 27.29828],
        [78.82857, 27.29745],
        [78.82899, 27.29695],
        [78.82926, 27.29635],
        [78.8293, 27.29605],
        [78.82939, 27.2957],
        [78.82943, 27.29531],
        [78.82943, 27.29501],
        [78.82955, 27.29451],
        [78.82973, 27.29421],
        [78.83014, 27.29389],
        [78.83037, 27.29364],
        [78.83067, 27.29282],
        [78.83072, 27.29234],
        [78.83095, 27.29188],
        [78.83155, 27.29108],
        [78.83285, 27.29054],
        [78.83373, 27.29023],
        [78.83392, 27.29016],
        [78.83406, 27.29008],
        [78.83411, 27.28999],
        [78.83415, 27.28986],
        [78.83425, 27.28965],
        [78.83448, 27.28944],
        [78.83485, 27.28933],
        [78.83527, 27.28931],
        [78.83569, 27.28933],
        [78.83602, 27.2893],
        [78.8363, 27.28923],
        [78.83672, 27.28903],
        [78.83696, 27.28891],
        [78.83719, 27.28866],
        [78.83742, 27.28849],
        [78.83775, 27.28838],
        [78.83803, 27.2883],
        [78.83822, 27.28823],
        [78.83846, 27.2881],
        [78.83911, 27.28761],
        [78.83921, 27.2874],
        [78.8394, 27.28714],
        [78.83954, 27.28689],
        [78.83973, 27.28672],
        [78.84001, 27.2866],
        [78.84025, 27.28653],
        [78.84058, 27.28645],
        [78.84105, 27.28626],
        [78.84114, 27.28613],
        [78.84124, 27.28596],
        [78.84209, 27.28512],
        [78.8427, 27.28471],
        [78.84299, 27.28459],
        [78.84332, 27.28443],
        [78.84384, 27.28437],
        [78.84441, 27.28435],
        [78.84492, 27.28432],
        [78.84525, 27.28438],
        [78.84562, 27.28457],
        [78.84688, 27.28566],
        [78.84776, 27.28652],
        [78.849, 27.28849],
        [78.85052, 27.29107],
        [78.8518, 27.29316],
        [78.85195, 27.29382],
        [78.85195, 27.29415],
        [78.85185, 27.29452],
        [78.85184, 27.29483],
        [78.85184, 27.29504],
        [78.85184, 27.29527],
        [78.85183, 27.29553],
        [78.85178, 27.2957],
        [78.85141, 27.29599],
        [78.85079, 27.29637],
        [78.84943, 27.29706],
        [78.849, 27.29753],
        [78.84872, 27.29813],
        [78.84872, 27.2985],
        [78.84896, 27.2987],
        [78.84916, 27.29892],
        [78.84928, 27.29902],
        [78.84941, 27.2991],
        [78.84963, 27.29913],
        [78.84981, 27.29916],
        [78.85014, 27.29914],
        [78.85037, 27.29915],
        [78.85067, 27.29918],
        [78.85097, 27.29924],
        [78.85117, 27.29937],
        [78.85135, 27.29952],
        [78.85147, 27.29966],
        [78.85162, 27.29979],
        [78.8518, 27.29989],
        [78.85205, 27.29994],
        [78.85251, 27.29991],
        [78.85289, 27.29985],
        [78.85345, 27.29975],
        [78.85383, 27.29976],
        [78.85443, 27.30001],
        [78.8546, 27.30018],
        [78.85475, 27.3005],
        [78.85492, 27.30083],
        [78.85514, 27.30179],
        [78.85516, 27.30205],
        [78.85525, 27.30239],
        [78.85552, 27.30277],
        [78.8557, 27.30302],
        [78.85586, 27.30342],
        [78.85594, 27.30374],
        [78.85606, 27.30405],
        [78.8561, 27.30429],
        [78.85632, 27.30462],
        [78.85652, 27.30496],
        [78.85711, 27.30557],
        [78.85751, 27.30589],
        [78.85798, 27.30614],
        [78.85833, 27.30633],
        [78.85863, 27.30644],
        [78.85893, 27.30654],
        [78.85926, 27.30664],
        [78.85958, 27.30681],
        [78.85993, 27.30701],
        [78.8602, 27.30718],
        [78.8604, 27.3074],
        [78.86072, 27.30774],
        [78.86096, 27.30813],
        [78.8612, 27.30868],
        [78.86153, 27.30972],
        [78.86197, 27.3096],
        [78.86262, 27.30948],
        [78.86345, 27.30945],
        [78.86419, 27.30951],
        [78.86488, 27.3097],
        [78.86617, 27.31016],
        [78.86671, 27.31056],
        [78.86712, 27.31096],
        [78.86735, 27.31123],
        [78.86753, 27.31132],
        [78.8679, 27.31137],
        [78.86808, 27.31133],
        [78.8686, 27.31094],
        [78.86964, 27.31026],
        [78.87021, 27.31001],
        [78.87044, 27.31001],
        [78.87077, 27.31002],
        [78.87101, 27.31015],
        [78.87107, 27.30918],
        [78.87108, 27.30872],
        [78.87097, 27.30838],
        [78.87092, 27.30804],
        [78.87081, 27.30765],
        [78.8707, 27.30719],
        [78.87066, 27.30674],
        [78.87061, 27.3064],
        [78.87062, 27.30612],
        [78.87062, 27.30589],
        [78.87075, 27.30555],
        [78.87095, 27.30516],
        [78.87132, 27.30477],
        [78.87169, 27.30444],
        [78.87231, 27.30411],
        [78.87268, 27.30389],
        [78.87305, 27.30361],
        [78.87324, 27.30339],
        [78.87331, 27.30311],
        [78.87344, 27.30266],
        [78.87352, 27.30221],
        [78.87365, 27.30176],
        [78.87372, 27.30142],
        [78.8738, 27.30098],
        [78.87387, 27.30058],
        [78.87394, 27.30024],
        [78.87407, 27.30002],
        [78.87426, 27.2998],
        [78.87457, 27.29963],
        [78.87499, 27.29964],
        [78.87559, 27.29976],
        [78.87637, 27.30005],
        [78.87691, 27.30029],
        [78.87718, 27.30049],
        [78.8775, 27.30092],
        [78.87785, 27.30126],
        [78.87892, 27.30189],
        [78.87958, 27.30224],
        [78.88018, 27.30247],
        [78.88139, 27.30249],
        [78.8817, 27.30243],
        [78.88249, 27.30233],
        [78.88292, 27.30234],
        [78.88345, 27.30096],
        [78.88358, 27.30039],
        [78.8836, 27.29986],
        [78.88358, 27.29943],
        [78.88347, 27.29911],
        [78.88341, 27.29872],
        [78.88339, 27.29822],
        [78.88345, 27.29772],
        [78.88366, 27.29726],
        [78.88394, 27.29687],
        [78.88434, 27.29659],
        [78.88477, 27.29635],
        [78.88509, 27.29592],
        [78.8858, 27.29454],
        [78.88672, 27.29178],
        [78.88701, 27.29094],
        [78.88703, 27.29052],
        [78.88704, 27.29016],
        [78.88686, 27.2898],
        [78.88681, 27.28937],
        [78.88683, 27.28883],
        [78.88698, 27.28836],
        [78.88702, 27.28721],
        [78.8868, 27.28445],
        [78.8862, 27.28282],
        [78.8852, 27.28142],
        [78.88455, 27.28105],
        [78.88403, 27.2808],
        [78.88371, 27.28074],
        [78.88345, 27.28056],
        [78.8834, 27.28007],
        [78.88342, 27.27965],
        [78.88343, 27.27929],
        [78.88338, 27.27887],
        [78.88326, 27.27863],
        [78.88287, 27.27832],
        [78.88255, 27.27808],
        [78.88237, 27.27772],
        [78.88225, 27.27718],
        [78.88182, 27.27633],
        [78.88147, 27.275],
        [78.88109, 27.2717],
        [78.88068, 27.26901],
        [78.88055, 27.26815],
        [78.88024, 27.26749],
        [78.87973, 27.26712],
        [78.8792, 27.26687],
        [78.87868, 27.26674],
        [78.87809, 27.26661],
        [78.87703, 27.26647],
        [78.8765, 27.26646],
        [78.87618, 27.26627],
        [78.876, 27.26585],
        [78.87581, 27.26555],
        [78.87542, 27.26518],
        [78.8751, 27.26475],
        [78.87479, 27.26433],
        [78.87446, 27.26402],
        [78.87414, 27.26378],
        [78.87362, 27.26341],
        [78.87191, 27.26098],
        [78.87105, 27.25962],
        [78.8737, 27.25685],
        [78.87493, 27.25567],
        [78.87573, 27.25511],
        [78.87678, 27.25456],
        [78.87719, 27.25414],
        [78.87785, 27.25337],
        [78.87842, 27.25288],
        [78.87875, 27.25253],
        [78.87907, 27.25233],
        [78.87964, 27.25198],
        [78.87996, 27.25163],
        [78.88014, 27.25128],
        [78.88015, 27.25085],
        [78.88016, 27.25042],
        [78.88041, 27.25014],
        [78.88082, 27.24972],
        [78.88131, 27.24944],
        [78.88179, 27.24917],
        [78.88219, 27.24889],
        [78.88286, 27.24812],
        [78.88338, 27.24663],
        [78.88357, 27.24336],
        [78.88353, 27.24243],
        [78.88341, 27.24129],
        [78.88321, 27.24022],
        [78.88237, 27.23801],
        [78.88216, 27.23715],
        [78.8821, 27.23652],
        [78.88245, 27.2358],
        [78.88302, 27.23524],
        [78.88375, 27.23476],
        [78.88448, 27.23427],
        [78.88521, 27.23399],
        [78.8861, 27.2335],
        [78.88682, 27.23322],
        [78.88771, 27.23288],
        [78.88908, 27.23225],
        [78.89142, 27.23127],
        [78.89238, 27.231],
        [78.89286, 27.23086],
        [78.89366, 27.23072],
        [78.89422, 27.23051],
        [78.89446, 27.23037],
        [78.89487, 27.23016],
        [78.89552, 27.22981],
        [78.89617, 27.22946],
        [78.89665, 27.22925],
        [78.89697, 27.22904],
        [78.89746, 27.22868],
        [78.89771, 27.2284],
        [78.89813, 27.22783],
        [78.89861, 27.22762],
        [78.89792, 27.22714],
        [78.8965, 27.2265],
        [78.89295, 27.225],
        [78.89096, 27.22443],
        [78.88925, 27.22413],
        [78.88916, 27.22349],
        [78.88904, 27.22321],
        [78.88883, 27.2229],
        [78.88879, 27.22278],
        [78.8888, 27.22258],
        [78.88886, 27.22227],
        [78.88895, 27.22195],
        [78.88905, 27.22176],
        [78.8891, 27.22152],
        [78.88915, 27.22129],
        [78.8892, 27.22117],
        [78.88926, 27.22081],
        [78.88926, 27.2207],
        [78.88936, 27.2205],
        [78.88945, 27.22023],
        [78.88959, 27.21999],
        [78.88982, 27.21984],
        [78.89017, 27.2198],
        [78.8906, 27.22],
        [78.89129, 27.22048],
        [78.89159, 27.22071],
        [78.8918, 27.22091],
        [78.89202, 27.22103],
        [78.89219, 27.22107],
        [78.89241, 27.22103],
        [78.89268, 27.22092],
        [78.89313, 27.22068],
        [78.89385, 27.2201],
        [78.8943, 27.21963],
        [78.89449, 27.21936],
        [78.89464, 27.2188],
        [78.89457, 27.21829],
        [78.89446, 27.21762],
        [78.8943, 27.21731],
        [78.89413, 27.21703],
        [78.89387, 27.21688],
        [78.89375, 27.21672],
        [78.89376, 27.21648],
        [78.89385, 27.21625],
        [78.89403, 27.21609],
        [78.89422, 27.21589],
        [78.89432, 27.2155],
        [78.89419, 27.21538],
        [78.89411, 27.21526],
        [78.89402, 27.21515],
        [78.89398, 27.21499],
        [78.89408, 27.21483],
        [78.89426, 27.21472],
        [78.89457, 27.21464],
        [78.89501, 27.21464],
        [78.89531, 27.21468],
        [78.8957, 27.2148],
        [78.89609, 27.21508],
        [78.89635, 27.21528],
        [78.89661, 27.21536],
        [78.89692, 27.21536],
        [78.8974, 27.2152],
        [78.89812, 27.21493],
        [78.89843, 27.21473],
        [78.89915, 27.2143],
        [78.89962, 27.21383],
        [78.89956, 27.21372],
        [78.89951, 27.21333],
        [78.89952, 27.21305],
        [78.89972, 27.21282],
        [78.89997, 27.21277],
        [78.90023, 27.21277],
        [78.90054, 27.21277],
        [78.90086, 27.21271],
        [78.90112, 27.21255],
        [78.90151, 27.21221],
        [78.90158, 27.21193],
        [78.90165, 27.21159],
        [78.90179, 27.21142],
        [78.90198, 27.21125],
        [78.90231, 27.21097],
        [78.90263, 27.21075],
        [78.90295, 27.21052],
        [78.90309, 27.21024],
        [78.90338, 27.20923],
        [78.90347, 27.20855],
        [78.90348, 27.2081],
        [78.90349, 27.20776],
        [78.90345, 27.20726],
        [78.90347, 27.2068],
        [78.90348, 27.20647],
        [78.90349, 27.20618],
        [78.90363, 27.20579],
        [78.90376, 27.20551],
        [78.90396, 27.20528],
        [78.90429, 27.20506],
        [78.90479, 27.205],
        [78.90511, 27.20489],
        [78.9055, 27.20472],
        [78.90589, 27.20439],
        [78.9068, 27.20354],
        [78.90763, 27.2032],
        [78.90821, 27.20315],
        [78.90903, 27.20309],
        [78.90979, 27.2031],
        [78.91035, 27.20321],
        [78.91073, 27.20321],
        [78.91105, 27.20321],
        [78.91171, 27.20313],
        [78.91189, 27.20329],
        [78.91236, 27.20351],
        [78.91275, 27.20387],
        [78.91313, 27.20429],
        [78.91335, 27.20479],
        [78.91357, 27.20536],
        [78.9137, 27.20608],
        [78.91376, 27.20672],
        [78.91388, 27.20779],
        [78.91472, 27.21079],
        [78.91522, 27.2125],
        [78.91528, 27.213],
        [78.9158, 27.21393],
        [78.91578, 27.21443],
        [78.91576, 27.215],
        [78.91567, 27.21536],
        [78.91559, 27.21546],
        [78.91724, 27.21578],
        [78.91824, 27.21579],
        [78.91975, 27.21568],
        [78.92057, 27.21568],
        [78.92151, 27.21563],
        [78.92239, 27.21563],
        [78.92256, 27.21566],
        [78.92264, 27.21264],
        [78.92283, 27.21069],
        [78.92331, 27.20896],
        [78.92394, 27.20796],
        [78.92438, 27.20738],
        [78.9247, 27.2067],
        [78.92498, 27.20549],
        [78.92512, 27.20507],
        [78.92561, 27.20449],
        [78.92598, 27.20423],
        [78.92623, 27.20381],
        [78.92671, 27.20197],
        [78.92697, 27.20128],
        [78.92737, 27.20046],
        [78.92842, 27.2008],
        [78.92899, 27.20091],
        [78.92936, 27.20091],
        [78.92986, 27.20088],
        [78.9306, 27.20041],
        [78.93107, 27.20008],
        [78.93191, 27.19972],
        [78.93223, 27.19971],
        [78.93251, 27.19976],
        [78.93269, 27.19984],
        [78.93291, 27.20009],
        [78.93304, 27.20041],
        [78.93302, 27.20078],
        [78.93278, 27.20111],
        [78.93197, 27.20168],
        [78.93126, 27.20217],
        [78.93051, 27.20262],
        [78.92963, 27.20291],
        [78.92916, 27.20307],
        [78.92902, 27.20319],
        [78.92891, 27.20352],
        [78.92895, 27.20381],
        [78.92908, 27.20389],
        [78.92922, 27.20393],
        [78.9294, 27.20405],
        [78.92948, 27.20426],
        [78.92942, 27.20455],
        [78.92918, 27.20487],
        [78.92879, 27.2054],
        [78.9287, 27.20553],
        [78.92841, 27.20573],
        [78.92827, 27.20589],
        [78.92812, 27.20618],
        [78.92811, 27.20635],
        [78.9281, 27.20663],
        [78.92828, 27.20672],
        [78.92851, 27.20676],
        [78.92874, 27.20668],
        [78.92889, 27.20647],
        [78.92912, 27.20639],
        [78.92931, 27.20639],
        [78.92949, 27.20651],
        [78.92966, 27.20672],
        [78.9298, 27.2068],
        [78.93003, 27.20676],
        [78.93004, 27.20639],
        [78.92996, 27.20623],
        [78.93001, 27.20594],
        [78.9302, 27.20582],
        [78.93043, 27.20574],
        [78.93062, 27.20561],
        [78.93081, 27.20545],
        [78.93097, 27.20512],
        [78.93116, 27.20488],
        [78.93135, 27.20467],
        [78.93163, 27.20459],
        [78.93204, 27.20467],
        [78.9324, 27.2048],
        [78.9329, 27.20513],
        [78.93489, 27.20595],
        [78.93525, 27.20608],
        [78.93557, 27.20612],
        [78.93576, 27.20612],
        [78.93585, 27.20604],
        [78.9359, 27.20587],
        [78.93591, 27.20571],
        [78.93591, 27.20563],
        [78.93592, 27.20546],
        [78.93602, 27.20522],
        [78.93626, 27.20501],
        [78.93645, 27.20497],
        [78.93667, 27.20505],
        [78.93699, 27.20522],
        [78.93742, 27.20588],
        [78.93801, 27.20719],
        [78.93871, 27.20809],
        [78.93947, 27.20867],
        [78.9402, 27.209],
        [78.94084, 27.20912],
        [78.94139, 27.20917],
        [78.94184, 27.20929],
        [78.94225, 27.20941],
        [78.94243, 27.20954],
        [78.94251, 27.20978],
        [78.94259, 27.20999],
        [78.94286, 27.21032],
        [78.94323, 27.21061],
        [78.94358, 27.2103],
        [78.9437, 27.21024],
        [78.94602, 27.2093],
        [78.94703, 27.20924],
        [78.94806, 27.20917],
        [78.94824, 27.20945],
        [78.94873, 27.20958],
        [78.94936, 27.20992],
        [78.95028, 27.2107],
        [78.95095, 27.21189],
        [78.95219, 27.21311],
        [78.95274, 27.21348],
        [78.95319, 27.21372],
        [78.95364, 27.21386],
        [78.95398, 27.21389],
        [78.95439, 27.21406],
        [78.95478, 27.21454],
        [78.95555, 27.21532],
        [78.95628, 27.216],
        [78.95678, 27.21657],
        [78.95712, 27.21749],
        [78.95736, 27.21809],
        [78.95773, 27.2188],
        [78.95803, 27.21872],
        [78.95831, 27.2186],
        [78.95902, 27.21824],
        [78.9602, 27.21799],
        [78.96054, 27.21793],
        [78.96137, 27.21776],
        [78.96213, 27.21763],
        [78.96276, 27.21752],
        [78.96346, 27.21727],
        [78.96409, 27.21697],
        [78.96451, 27.21673],
        [78.9648, 27.21648],
        [78.96509, 27.21618],
        [78.96531, 27.21581],
        [78.96574, 27.21545],
        [78.96602, 27.21545],
        [78.96649, 27.2157],
        [78.96709, 27.21594],
        [78.96796, 27.21649],
        [78.96927, 27.21756],
        [78.96921, 27.21674],
        [78.96932, 27.21626],
        [78.96956, 27.21612],
        [78.97011, 27.21585],
        [78.97082, 27.21571],
        [78.97144, 27.21571],
        [78.97245, 27.21572],
        [78.97306, 27.21593],
        [78.97414, 27.21628],
        [78.97602, 27.21745],
        [78.97663, 27.21787],
        [78.97779, 27.21946],
        [78.97891, 27.2205],
        [78.98041, 27.22153],
        [78.98101, 27.22202],
        [78.98131, 27.2223],
        [78.98161, 27.2225],
        [78.98199, 27.22257],
        [78.98238, 27.2225],
        [78.98271, 27.22223],
        [78.98296, 27.22196],
        [78.98312, 27.22175],
        [78.98384, 27.22141],
        [78.98456, 27.22114],
        [78.98518, 27.22107],
        [78.9855, 27.221],
        [78.98574, 27.2208],
        [78.98599, 27.22052],
        [78.98639, 27.22024],
        [78.98703, 27.2199],
        [78.98743, 27.2197],
        [78.98941, 27.21915],
        [78.99176, 27.21902],
        [78.99364, 27.21889],
        [78.99458, 27.21869],
        [78.99506, 27.21848],
        [78.99539, 27.21821],
        [78.9958, 27.2178],
        [78.99652, 27.21753],
        [78.99683, 27.21753],
        [78.99714, 27.21753],
        [78.99723, 27.21757],
        [79.00299, 27.21292],
        [79.00428, 27.21214],
        [79.00515, 27.21152],
        [79.00565, 27.21105],
        [79.00615, 27.21059],
        [79.00646, 27.21022],
        [79.00659, 27.21002],
        [79.00655, 27.20975],
        [79.00644, 27.20954],
        [79.0064, 27.20928],
        [79.00647, 27.20897],
        [79.00672, 27.20871],
        [79.00703, 27.20856],
        [79.00728, 27.20829],
        [79.00753, 27.20798],
        [79.00773, 27.20767],
        [79.00805, 27.2072],
        [79.00874, 27.20653],
        [79.00906, 27.20622],
        [79.00924, 27.20601],
        [79.00938, 27.20575],
        [79.00964, 27.20528],
        [79.00968, 27.2045],
        [79.00943, 27.20361],
        [79.00709, 27.19842],
        [79.00622, 27.19619],
        [79.00593, 27.19543],
        [79.00422, 27.1927],
        [79.00311, 27.19165],
        [79.00236, 27.19128],
        [79.00177, 27.19112],
        [79.00124, 27.19101],
        [79.00059, 27.19085],
        [79.00012, 27.1908],
        [78.9997, 27.19074],
        [78.99929, 27.19058],
        [78.99883, 27.19042],
        [78.99854, 27.19021],
        [78.99814, 27.1899],
        [78.99745, 27.18926],
        [78.99678, 27.18842],
        [78.99591, 27.18669],
        [78.99559, 27.18585],
        [78.9952, 27.18532],
        [78.9948, 27.18496],
        [78.99457, 27.18469],
        [78.99417, 27.18438],
        [78.99382, 27.18422],
        [78.99358, 27.18422],
        [78.99324, 27.18425],
        [78.99488, 27.1827],
        [78.99584, 27.18225],
        [78.99678, 27.1819],
        [78.99773, 27.18154],
        [78.99792, 27.18149],
        [78.99761, 27.18062],
        [78.99641, 27.1785],
        [78.99354, 27.17467],
        [78.9931, 27.17427],
        [78.99272, 27.1741],
        [78.99332, 27.17295],
        [78.994, 27.17207],
        [78.99466, 27.17156],
        [78.9951, 27.1711],
        [78.99538, 27.17078],
        [78.99572, 27.17041],
        [78.99595, 27.17004],
        [78.99617, 27.16971],
        [78.99657, 27.16916],
        [78.99696, 27.16888],
        [78.99718, 27.16869],
        [78.99751, 27.16842],
        [78.99784, 27.16805],
        [78.99812, 27.16772],
        [78.99814, 27.1674],
        [78.99816, 27.16698],
        [78.99813, 27.16642],
        [78.9978, 27.16302],
        [78.99761, 27.16013],
        [78.99768, 27.15966],
        [78.99777, 27.1595],
        [78.99786, 27.15934],
        [78.99819, 27.15897],
        [78.99879, 27.15855],
        [78.99934, 27.15827],
        [79.00001, 27.15768],
        [79.00045, 27.15726],
        [79.00106, 27.15666],
        [79.00134, 27.15643],
        [79.00189, 27.15601],
        [79.00265, 27.15574],
        [79.00351, 27.15556],
        [79.00592, 27.15535],
        [79.01162, 27.15522],
        [79.00597, 27.1502],
        [79.00408, 27.14849],
        [79.00334, 27.14734],
        [79.00235, 27.14587],
        [79.00103, 27.1448],
        [78.99794, 27.14203],
        [78.99712, 27.1417],
        [78.99671, 27.14142],
        [78.9963, 27.14105],
        [78.9961, 27.14078],
        [78.99596, 27.14041],
        [78.99582, 27.1399],
        [78.99584, 27.13958],
        [78.99605, 27.13935],
        [78.99651, 27.13913],
        [78.99673, 27.1389],
        [78.99679, 27.13867],
        [78.99675, 27.13821],
        [78.99633, 27.13706],
        [78.99534, 27.13531],
        [78.99319, 27.13264],
        [78.99184, 27.13079],
        [78.99096, 27.12886],
        [78.99061, 27.12775],
        [78.9906, 27.12656],
        [78.99061, 27.12605],
        [78.99062, 27.12578],
        [78.99074, 27.1255],
        [78.9909, 27.12537],
        [78.99117, 27.12523],
        [78.99138, 27.12514],
        [78.99154, 27.12505],
        [78.99176, 27.12487],
        [78.99188, 27.12441],
        [78.99197, 27.12349],
        [78.99202, 27.11899],
        [78.99214, 27.11692],
        [78.99241, 27.11374],
        [78.99316, 27.10919],
        [78.99354, 27.10721],
        [78.99358, 27.10637],
        [78.9938, 27.10609],
        [78.99448, 27.10542],
        [78.99471, 27.10522],
        [78.99488, 27.10508],
        [78.99541, 27.10485],
        [78.99633, 27.10463],
        [78.99725, 27.10453],
        [78.99803, 27.10476],
        [78.99933, 27.10489],
        [79.0009, 27.10501],
        [79.00207, 27.10537],
        [79.00494, 27.10574],
        [79.00637, 27.10598],
        [79.00702, 27.10611],
        [79.00768, 27.106],
        [79.00875, 27.10533],
        [79.00917, 27.10453],
        [79.00919, 27.10409],
        [79.0092, 27.10362],
        [79.00931, 27.10322],
        [79.00935, 27.10305],
        [79.01031, 27.10192],
        [79.01047, 27.10101],
        [79.01063, 27.09998],
        [79.01093, 27.09907],
        [79.01135, 27.09828],
        [79.01201, 27.09806],
        [79.01319, 27.09819],
        [79.01383, 27.09877],
        [79.01434, 27.09934],
        [79.01497, 27.10015],
        [79.01547, 27.10073],
        [79.0161, 27.10138],
        [79.01843, 27.10014],
        [79.02062, 27.09851],
        [79.02222, 27.09725],
        [79.02392, 27.0951],
        [79.02496, 27.09261],
        [79.0254, 27.09069],
        [79.02658, 27.08486],
        [79.0269, 27.08416],
        [79.02729, 27.08339],
        [79.02739, 27.08262],
        [79.02718, 27.08204],
        [79.02626, 27.08041],
        [79.02577, 27.0793],
        [79.02564, 27.07872],
        [79.02567, 27.07782],
        [79.0259, 27.07737],
        [79.02755, 27.0754],
        [79.02807, 27.075],
        [79.02895, 27.07424],
        [79.02926, 27.0735],
        [79.02941, 27.07298],
        [79.02931, 27.07179],
        [79.02913, 27.06859],
        [79.02918, 27.06822],
        [79.02927, 27.06796],
        [79.0294, 27.06786],
        [79.02983, 27.06764],
        [79.03005, 27.0675],
        [79.03049, 27.06713],
        [79.0307, 27.06688],
        [79.03106, 27.06633],
        [79.03138, 27.06559],
        [79.03147, 27.06507],
        [79.03149, 27.06448],
        [79.0315, 27.06392],
        [79.03157, 27.06269],
        [79.03157, 27.06239],
        [79.0318, 27.06199],
        [79.03197, 27.06184],
        [79.03219, 27.06181],
        [79.03236, 27.06182],
        [79.03253, 27.06182],
        [79.03279, 27.06183],
        [79.033, 27.06176],
        [79.03318, 27.0615],
        [79.03327, 27.06113],
        [79.03333, 27.06065],
        [79.03321, 27.06023],
        [79.03302, 27.06004],
        [79.03295, 27.05997],
        [79.03262, 27.0597],
        [79.03245, 27.05947],
        [79.03197, 27.05888],
        [79.03115, 27.05744],
        [79.03103, 27.05722],
        [79.02907, 27.05358],
        [79.02854, 27.05259],
        [79.02827, 27.05206],
        [79.02767, 27.05165],
        [79.02693, 27.05136],
        [79.02626, 27.05115],
        [79.02581, 27.05088],
        [79.02515, 27.04981],
        [79.02292, 27.04791],
        [79.0224, 27.04783],
        [79.02187, 27.04788],
        [79.02112, 27.04806],
        [79.02029, 27.0483],
        [79.01969, 27.04835],
        [79.01925, 27.04807],
        [79.01872, 27.04812],
        [79.01953, 27.04635],
        [79.01981, 27.04571],
        [79.01991, 27.04515],
        [79.02, 27.04467],
        [79.02019, 27.04412],
        [79.02047, 27.04348],
        [79.02093, 27.04285],
        [79.02139, 27.04239],
        [79.02204, 27.04184],
        [79.02259, 27.04146],
        [79.02296, 27.04115],
        [79.02314, 27.04091],
        [79.02342, 27.0406],
        [79.02388, 27.04013],
        [79.02425, 27.03982],
        [79.02462, 27.03951],
        [79.0249, 27.03888],
        [79.02499, 27.0384],
        [79.025, 27.03792],
        [79.02518, 27.03736],
        [79.02537, 27.03697],
        [79.02565, 27.03658],
        [79.02583, 27.03618],
        [79.02593, 27.03578],
        [79.02602, 27.03522],
        [79.02602, 27.03466],
        [79.02603, 27.03417],
        [79.02594, 27.03361],
        [79.02594, 27.03296],
        [79.02603, 27.03256],
        [79.0258, 27.03181],
        [79.02558, 27.03122],
        [79.02484, 27.03041],
        [79.02417, 27.03],
        [79.02351, 27.02971],
        [79.02292, 27.02943],
        [79.02233, 27.02915],
        [79.02196, 27.02874],
        [79.02159, 27.02801],
        [79.02122, 27.02761],
        [79.02018, 27.02679],
        [79.01662, 27.02378],
        [79.01515, 27.02307],
        [79.01374, 27.02269],
        [79.01197, 27.0221],
        [79.01106, 27.02206],
        [79.01054, 27.0187],
        [79.00956, 27.01485],
        [79.00903, 27.01369],
        [79.00865, 27.01358],
        [79.00832, 27.01134],
        [79.00823, 27.01068],
        [79.0085, 27.01029],
        [79.00896, 27.01023],
        [79.00941, 27.01008],
        [79.00995, 27.00986],
        [79.01014, 27.00946],
        [79.01014, 27.00897],
        [79.00995, 27.00839],
        [79.00977, 27.0078],
        [79.00977, 27.00723],
        [79.00995, 27.00666],
        [79.00995, 27.006],
        [79.00986, 27.00549],
        [79.00976, 27.00483],
        [79.00994, 27.00425],
        [79.0103, 27.00386],
        [79.01067, 27.00355],
        [79.01094, 27.00307],
        [79.01103, 27.00266],
        [79.01102, 27.00199],
        [79.01092, 27.00115],
        [79.01092, 27.00064],
        [79.01082, 27.00013],
        [79.0109, 26.99955],
        [79.01107, 26.99918],
        [79.01153, 26.99875],
        [79.01245, 26.9984],
        [79.01327, 26.99812],
        [79.01391, 26.99766],
        [79.01489, 26.99554],
        [79.01634, 26.99379],
        [79.01779, 26.99231],
        [79.01954, 26.99129],
        [79.02156, 26.99023],
        [79.02371, 26.98944],
        [79.02351, 26.98788],
        [79.02309, 26.98558],
        [79.02257, 26.98456],
        [79.02246, 26.98393],
        [79.02273, 26.98335],
        [79.02338, 26.98299],
        [79.02402, 26.98225],
        [79.0243, 26.98178],
        [79.0245, 26.98122],
        [79.02441, 26.98084],
        [79.02442, 26.98055],
        [79.02418, 26.97909],
        [79.02383, 26.97846],
        [79.02347, 26.97805],
        [79.0232, 26.97784],
        [79.02369, 26.97692],
        [79.02412, 26.97669],
        [79.02482, 26.97638],
        [79.02572, 26.97609],
        [79.02637, 26.97584],
        [79.02704, 26.97567],
        [79.02768, 26.97568],
        [79.02776, 26.9757],
        [79.02787, 26.97512],
        [79.02792, 26.97487],
        [79.028, 26.97437],
        [79.02793, 26.97394],
        [79.02779, 26.97339],
        [79.02774, 26.97278],
        [79.02765, 26.97219],
        [79.02757, 26.97175],
        [79.02735, 26.97091],
        [79.027, 26.97013],
        [79.02689, 26.96948],
        [79.02709, 26.96895],
        [79.02726, 26.96857],
        [79.02747, 26.96817],
        [79.02762, 26.96781],
        [79.02761, 26.96725],
        [79.02709, 26.96638],
        [79.02622, 26.96537],
        [79.02749, 26.9657],
        [79.02843, 26.96593],
        [79.02884, 26.96598],
        [79.0293, 26.96606],
        [79.02971, 26.96612],
        [79.02992, 26.96613],
        [79.03012, 26.96615],
        [79.03048, 26.96627],
        [79.03077, 26.96639],
        [79.03131, 26.96666],
        [79.03164, 26.96681],
        [79.03183, 26.96686],
        [79.03197, 26.96687],
        [79.03209, 26.96684],
        [79.03195, 26.96671],
        [79.03176, 26.96657],
        [79.03161, 26.96642],
        [79.03213, 26.96676],
        [79.03256, 26.96703],
        [79.03289, 26.96726],
        [79.0333, 26.96754],
        [79.03362, 26.96777],
        [79.03478, 26.96718],
        [79.03455, 26.9668],
        [79.03445, 26.96654],
        [79.03435, 26.96628],
        [79.03423, 26.96603],
        [79.0341, 26.96578],
        [79.03396, 26.96554],
        [79.03381, 26.9653],
        [79.03364, 26.96508],
        [79.03347, 26.96486],
        [79.03327, 26.96459],
        [79.03307, 26.96432],
        [79.03287, 26.96405],
        [79.03268, 26.96378],
        [79.03249, 26.9635],
        [79.03231, 26.96322],
        [79.03213, 26.96294],
        [79.03195, 26.96265],
        [79.03177, 26.96237],
        [79.0316, 26.96209],
        [79.03142, 26.96181],
        [79.03124, 26.96154],
        [79.03106, 26.96126],
        [79.03088, 26.96098],
        [79.0307, 26.96071],
        [79.03052, 26.96043],
        [79.03034, 26.96016],
        [79.03015, 26.95989],
        [79.02988, 26.95937],
        [79.02959, 26.95886],
        [79.0293, 26.95835],
        [79.029, 26.95785],
        [79.02869, 26.95736],
        [79.02837, 26.95687],
        [79.02804, 26.95638],
        [79.0277, 26.9559],
        [79.02736, 26.95543],
        [79.02706, 26.95511],
        [79.02675, 26.95478],
        [79.02644, 26.95446],
        [79.02614, 26.95414],
        [79.02583, 26.95382],
        [79.02552, 26.95351],
        [79.02521, 26.95319],
        [79.02489, 26.95287],
        [79.02458, 26.95256],
        [79.02424, 26.95228],
        [79.02389, 26.952],
        [79.02354, 26.95174],
        [79.02318, 26.95149],
        [79.02281, 26.95125],
        [79.02243, 26.95102],
        [79.02205, 26.95081],
        [79.02166, 26.9506],
        [79.02126, 26.9504],
        [79.02096, 26.95026],
        [79.02066, 26.9501],
        [79.02036, 26.94994],
        [79.02007, 26.94977],
        [79.01978, 26.9496],
        [79.0195, 26.94941],
        [79.01923, 26.94922],
        [79.01896, 26.94901],
        [79.01869, 26.94881],
        [79.01855, 26.94864],
        [79.01839, 26.94849],
        [79.01822, 26.94834],
        [79.01805, 26.94821],
        [79.01786, 26.94809],
        [79.01767, 26.94797],
        [79.01748, 26.94787],
        [79.01728, 26.94779],
        [79.01707, 26.94771],
        [79.0167, 26.94757],
        [79.01631, 26.94748],
        [79.01592, 26.94746],
        [79.01553, 26.9475],
        [79.01525, 26.94755],
        [79.0149, 26.9475],
        [79.01458, 26.94738],
        [79.01427, 26.94719],
        [79.01396, 26.947],
        [79.01366, 26.94681],
        [79.01335, 26.94661],
        [79.01306, 26.9464],
        [79.01276, 26.9462],
        [79.01247, 26.94598],
        [79.01217, 26.94577],
        [79.01189, 26.94555],
        [79.01169, 26.94541],
        [79.01155, 26.9452],
        [79.0115, 26.94494],
        [79.0115, 26.94474],
        [79.01155, 26.94454],
        [79.01164, 26.94435],
        [79.01192, 26.94398],
        [79.01212, 26.94369],
        [79.01232, 26.94339],
        [79.01251, 26.94309],
        [79.01269, 26.94277],
        [79.01286, 26.94246],
        [79.01303, 26.94214],
        [79.01318, 26.94182],
        [79.01332, 26.94149],
        [79.01346, 26.94125],
        [79.01349, 26.94097],
        [79.01339, 26.94071],
        [79.01319, 26.94052],
        [79.01284, 26.94024],
        [79.01262, 26.94003],
        [79.01239, 26.93981],
        [79.01217, 26.93959],
        [79.01195, 26.93937],
        [79.01173, 26.93915],
        [79.01152, 26.93893],
        [79.01131, 26.9387],
        [79.01109, 26.93847],
        [79.01081, 26.93822],
        [79.01052, 26.938],
        [79.0102, 26.9378],
        [79.00987, 26.93762],
        [79.00953, 26.93747],
        [79.00918, 26.93734],
        [79.00882, 26.93724],
        [79.00845, 26.93717],
        [79.00808, 26.93713],
        [79.00785, 26.93709],
        [79.00761, 26.93707],
        [79.00738, 26.93706],
        [79.00714, 26.93707],
        [79.00691, 26.93709],
        [79.00668, 26.93713],
        [79.00645, 26.93719],
        [79.00622, 26.93725],
        [79.006, 26.93734],
        [79.00578, 26.93743],
        [79.00556, 26.93732],
        [79.00515, 26.93699],
        [79.00478, 26.9367],
        [79.00442, 26.9364],
        [79.00407, 26.93608],
        [79.00373, 26.93576],
        [79.0034, 26.93542],
        [79.00309, 26.93508],
        [79.00279, 26.93472],
        [79.0025, 26.93435],
        [79.00229, 26.93415],
        [79.00209, 26.93395],
        [79.0019, 26.93373],
        [79.00172, 26.93351],
        [79.00154, 26.93328],
        [79.00138, 26.93305],
        [79.00123, 26.9328],
        [79.00109, 26.93255],
        [79.00096, 26.9323],
        [79.00087, 26.9321],
        [79.00077, 26.93192],
        [79.00066, 26.93174],
        [79.00054, 26.93158],
        [79.0004, 26.93142],
        [79.00026, 26.93127],
        [79.0001, 26.93112],
        [78.99994, 26.93099],
        [78.99977, 26.93087],
        [78.99963, 26.93072],
        [78.99949, 26.93056],
        [78.99936, 26.9304],
        [78.99922, 26.93024],
        [78.99909, 26.93008],
        [78.99896, 26.92992],
        [78.99883, 26.92976],
        [78.9987, 26.92959],
        [78.99879, 26.92905],
        [78.9974, 26.92894],
        [78.99414, 26.9303],
        [78.9905, 26.93348],
        [78.98914, 26.93438],
        [78.98815, 26.93698],
        [78.98682, 26.9383],
        [78.98631, 26.9393],
        [78.98674, 26.94058],
        [78.98696, 26.94186],
        [78.98693, 26.9422],
        [78.9869, 26.94226],
        [78.98683, 26.94244],
        [78.98644, 26.94283],
        [78.98586, 26.94326],
        [78.98493, 26.94362],
        [78.98393, 26.94392],
        [78.9836, 26.94408],
        [78.98346, 26.94419],
        [78.98336, 26.94428],
        [78.98334, 26.94438],
        [78.98336, 26.94458],
        [78.98271, 26.94599],
        [78.98218, 26.94669],
        [78.98182, 26.94694],
        [78.98146, 26.94703],
        [78.9811, 26.94705],
        [78.9804, 26.9472],
        [78.97916, 26.94768],
        [78.97648, 26.94905],
        [78.9763, 26.94923],
        [78.97624, 26.94933],
        [78.97623, 26.94962],
        [78.97621, 26.95046],
        [78.97613, 26.95076],
        [78.97603, 26.9509],
        [78.97544, 26.95126],
        [78.97479, 26.95199],
        [78.97322, 26.95389],
        [78.97163, 26.95517],
        [78.9706, 26.95578],
        [78.96951, 26.95623],
        [78.96817, 26.95655],
        [78.96792, 26.95662],
        [78.96774, 26.95672],
        [78.96767, 26.95676],
        [78.96764, 26.9569],
        [78.96764, 26.95706],
        [78.96778, 26.95764],
        [78.96828, 26.95848],
        [78.96836, 26.95859],
        [78.9684, 26.95864],
        [78.9684, 26.95885],
        [78.96834, 26.95892],
        [78.96824, 26.95895],
        [78.96805, 26.95894],
        [78.9666, 26.95863],
        [78.96641, 26.9586],
        [78.9662, 26.95859],
        [78.96601, 26.95857],
        [78.96577, 26.9586],
        [78.9645, 26.9592],
        [78.96217, 26.96004],
        [78.96128, 26.96042],
        [78.95986, 26.96079],
        [78.95957, 26.96082],
        [78.95946, 26.96085],
        [78.95933, 26.96095],
        [78.95937, 26.96108],
        [78.95963, 26.96171],
        [78.95975, 26.96467],
        [78.95962, 26.9667],
        [78.95957, 26.96691],
        [78.95953, 26.96702],
        [78.95949, 26.96717],
        [78.95943, 26.96727],
        [78.95929, 26.9674],
        [78.95898, 26.96757],
        [78.95739, 26.9679],
        [78.95598, 26.96815],
        [78.9555, 26.96836],
        [78.95478, 26.96874],
        [78.95376, 26.9695],
        [78.95304, 26.97016],
        [78.95215, 26.97135],
        [78.95163, 26.97217],
        [78.95154, 26.97226],
        [78.95115, 26.97238],
        [78.95058, 26.97247],
        [78.94963, 26.97278],
        [78.94887, 26.97323],
        [78.94852, 26.97329],
        [78.94802, 26.97337],
        [78.94744, 26.97347],
        [78.94714, 26.97349],
        [78.947, 26.97349],
        [78.94691, 26.97349],
        [78.94679, 26.97344],
        [78.94672, 26.97341],
        [78.94655, 26.97333],
        [78.94622, 26.97306],
        [78.94477, 26.97055],
        [78.94408, 26.96931],
        [78.94397, 26.96923],
        [78.94384, 26.96917],
        [78.94371, 26.96917],
        [78.94187, 26.9701],
        [78.93849, 26.97184],
        [78.93664, 26.97246],
        [78.93646, 26.9725],
        [78.93635, 26.97261],
        [78.93629, 26.97269],
        [78.93625, 26.97293],
        [78.93654, 26.97503],
        [78.93654, 26.97537],
        [78.93649, 26.97557],
        [78.93644, 26.97582],
        [78.93635, 26.97599],
        [78.93556, 26.97708],
        [78.9355, 26.97724],
        [78.93547, 26.97753],
        [78.93547, 26.97783],
        [78.93553, 26.97958],
        [78.93559, 26.97997],
        [78.93556, 26.98046],
        [78.93545, 26.98063],
        [78.93409, 26.98159],
        [78.93268, 26.98237],
        [78.93208, 26.98263],
        [78.93103, 26.98274],
        [78.92999, 26.98276],
        [78.92961, 26.98283],
        [78.92885, 26.98326],
        [78.92826, 26.98351],
        [78.92734, 26.98358],
        [78.92704, 26.98358],
        [78.92679, 26.9836],
        [78.92662, 26.98365],
        [78.92645, 26.98374],
        [78.92606, 26.98421],
        [78.9256, 26.9845],
        [78.925, 26.98463],
        [78.92445, 26.98468],
        [78.92405, 26.98467],
        [78.92362, 26.98449],
        [78.92323, 26.98409],
        [78.92315, 26.98381],
        [78.92317, 26.98355],
        [78.92327, 26.98341],
        [78.92357, 26.98311],
        [78.92392, 26.98296],
        [78.92459, 26.98283],
        [78.92576, 26.98278],
        [78.92607, 26.98275],
        [78.92612, 26.98269],
        [78.92613, 26.9826],
        [78.9258, 26.9816],
        [78.92524, 26.98048],
        [78.9244, 26.979],
        [78.92357, 26.97802],
        [78.92295, 26.97743],
        [78.9216, 26.97651],
        [78.92042, 26.97564],
        [78.91928, 26.97444],
        [78.91866, 26.97341],
        [78.91864, 26.97331],
        [78.91867, 26.97326],
        [78.91877, 26.97317],
        [78.91991, 26.97284],
        [78.92028, 26.97271],
        [78.92035, 26.97265],
        [78.92038, 26.97261],
        [78.92043, 26.97251],
        [78.92041, 26.97242],
        [78.91969, 26.97173],
        [78.91964, 26.97162],
        [78.91962, 26.97143],
        [78.91972, 26.97127],
        [78.92011, 26.97096],
        [78.92207, 26.97011],
        [78.92315, 26.96955],
        [78.92325, 26.96948],
        [78.92345, 26.96951],
        [78.92362, 26.96953],
        [78.92379, 26.96954],
        [78.92417, 26.96933],
        [78.92517, 26.96859],
        [78.92525, 26.9685],
        [78.92528, 26.96839],
        [78.9253, 26.96825],
        [78.92527, 26.96812],
        [78.92494, 26.96721],
        [78.92338, 26.96455],
        [78.92243, 26.96325],
        [78.92234, 26.96323],
        [78.92225, 26.96322],
        [78.92204, 26.96325],
        [78.92057, 26.9645],
        [78.92018, 26.96477],
        [78.92007, 26.96476],
        [78.91903, 26.96398],
        [78.91893, 26.96394],
        [78.91886, 26.96393],
        [78.91872, 26.96395],
        [78.9181, 26.96407],
        [78.91801, 26.96408],
        [78.91795, 26.9641],
        [78.9179, 26.96408],
        [78.91781, 26.96405],
        [78.91716, 26.96323],
        [78.91606, 26.96167],
        [78.916, 26.96158],
        [78.91594, 26.96152],
        [78.91588, 26.96149],
        [78.91583, 26.96148],
        [78.91571, 26.96148],
        [78.91422, 26.96177],
        [78.91296, 26.9619],
        [78.91222, 26.96211],
        [78.91173, 26.96237],
        [78.91114, 26.96297],
        [78.91036, 26.96398],
        [78.91009, 26.96428],
        [78.91002, 26.96431],
        [78.90996, 26.96432],
        [78.90972, 26.96431],
        [78.90814, 26.96332],
        [78.90742, 26.96297],
        [78.90734, 26.96296],
        [78.90723, 26.963],
        [78.90703, 26.96325],
        [78.9065, 26.96356],
        [78.90638, 26.96354],
        [78.90632, 26.96351],
        [78.90625, 26.96346],
        [78.90468, 26.96407],
        [78.90275, 26.96484],
        [78.90164, 26.96544],
        [78.90137, 26.96551],
        [78.90106, 26.96555],
        [78.90025, 26.96555],
        [78.89943, 26.96557],
        [78.89908, 26.96563],
        [78.89832, 26.96614],
        [78.89691, 26.96735],
        [78.89677, 26.96739],
        [78.89664, 26.96741],
        [78.8956, 26.9665],
        [78.89493, 26.96587],
        [78.89478, 26.96579],
        [78.89468, 26.96579],
        [78.89461, 26.96587],
        [78.89445, 26.96597],
        [78.89427, 26.96603],
        [78.89399, 26.96604],
        [78.89335, 26.96599],
        [78.89313, 26.96591],
        [78.89297, 26.9659],
        [78.8928, 26.9659],
        [78.89274, 26.96593],
        [78.8927, 26.96599],
        [78.89268, 26.9661],
        [78.89267, 26.96626],
        [78.89261, 26.9664],
        [78.89257, 26.96643],
        [78.89235, 26.96643],
        [78.89227, 26.96638],
        [78.89211, 26.96629],
        [78.89202, 26.96613],
        [78.89201, 26.966],
        [78.89192, 26.96589],
        [78.88961, 26.96449],
        [78.88792, 26.96329],
        [78.88581, 26.96168],
        [78.88562, 26.9616],
        [78.8855, 26.96155],
        [78.88542, 26.96158],
        [78.88452, 26.96237],
        [78.88437, 26.96244],
        [78.88431, 26.96244],
        [78.88422, 26.96241],
        [78.8832, 26.96177],
        [78.88255, 26.96132],
        [78.88249, 26.96131],
        [78.8824, 26.96137],
        [78.88144, 26.9622],
        [78.88138, 26.9622],
        [78.88121, 26.9622],
        [78.88112, 26.96214],
        [78.88099, 26.96207],
        [78.88092, 26.96206],
        [78.88083, 26.96207],
        [78.88076, 26.96214],
        [78.88068, 26.96217],
        [78.88059, 26.96217],
        [78.88052, 26.96216],
        [78.88035, 26.96214],
        [78.88014, 26.96223],
        [78.87997, 26.9624],
        [78.87984, 26.96244],
        [78.87979, 26.96245],
        [78.87958, 26.96242],
        [78.87723, 26.96121],
        [78.87623, 26.96063],
        [78.87608, 26.96062],
        [78.876, 26.96064],
        [78.87591, 26.96069],
        [78.87569, 26.96062],
        [78.87558, 26.9605],
        [78.87549, 26.96044],
        [78.87541, 26.96037],
        [78.87521, 26.96036],
        [78.87492, 26.96043],
        [78.87466, 26.96056],
        [78.87441, 26.9606],
        [78.87436, 26.9606],
        [78.87427, 26.96057],
        [78.87414, 26.96044],
        [78.87377, 26.96017],
        [78.87367, 26.9601],
        [78.87358, 26.96008],
        [78.87348, 26.96011],
        [78.87315, 26.96044],
        [78.87299, 26.96057],
        [78.87295, 26.96063],
        [78.8729, 26.96069],
        [78.87285, 26.96069],
        [78.87267, 26.96066],
        [78.87201, 26.9602],
        [78.87172, 26.96014],
        [78.87141, 26.9601],
        [78.87121, 26.96006],
        [78.87104, 26.95998],
        [78.87101, 26.9599],
        [78.87101, 26.95972],
        [78.87102, 26.95957],
        [78.87099, 26.95944],
        [78.87067, 26.95901],
        [78.8694, 26.95785],
        [78.86932, 26.95781],
        [78.86925, 26.95781],
        [78.86886, 26.95807],
        [78.86871, 26.95808],
        [78.86863, 26.95808],
        [78.8685, 26.95799],
        [78.86843, 26.95789],
        [78.86834, 26.95781],
        [78.86827, 26.95776],
        [78.86821, 26.95779],
        [78.86782, 26.95809],
        [78.86774, 26.95812],
        [78.86762, 26.95814],
        [78.86751, 26.95805],
        [78.86742, 26.95797],
        [78.86733, 26.95781],
        [78.86723, 26.95776],
        [78.86713, 26.95774],
        [78.86692, 26.95779],
        [78.86569, 26.95858],
        [78.86451, 26.95947],
        [78.8638, 26.96019],
        [78.86261, 26.96158],
        [78.86071, 26.96313],
        [78.85999, 26.96361],
        [78.85935, 26.96368],
        [78.8584, 26.96405],
        [78.85797, 26.9643],
        [78.85733, 26.9654],
        [78.85592, 26.9685],
        [78.85549, 26.96919],
        [78.85547, 26.96936],
        [78.8555, 26.96958],
        [78.85551, 26.96974],
        [78.85546, 26.97],
        [78.85441, 26.97142],
        [78.85377, 26.97215],
        [78.85368, 26.97216],
        [78.85343, 26.97205],
        [78.85285, 26.9714],
        [78.85289, 26.97124],
        [78.85297, 26.9711],
        [78.85296, 26.97098],
        [78.85291, 26.9709],
        [78.85282, 26.97078],
        [78.85281, 26.97065],
        [78.85312, 26.97021],
        [78.85314, 26.97012],
        [78.85308, 26.97001],
        [78.85298, 26.96989],
        [78.85238, 26.96956],
        [78.85191, 26.9692],
        [78.85145, 26.96864],
        [78.85114, 26.96806],
        [78.85086, 26.96765],
        [78.85078, 26.96761],
        [78.85063, 26.96767],
        [78.8504, 26.96804],
        [78.85029, 26.96805],
        [78.85009, 26.96798],
        [78.84878, 26.96706],
        [78.84862, 26.96699],
        [78.84852, 26.96695],
        [78.84843, 26.96695],
        [78.84835, 26.96702],
        [78.84823, 26.96715],
        [78.84814, 26.96716],
        [78.84801, 26.96706],
        [78.84741, 26.96648],
        [78.84741, 26.96634],
        [78.84794, 26.96564],
        [78.84793, 26.96554],
        [78.8478, 26.96541],
        [78.84712, 26.96494],
        [78.84704, 26.96491],
        [78.84694, 26.96495],
        [78.84557, 26.96607],
        [78.84544, 26.96611],
        [78.84531, 26.96612],
        [78.84522, 26.96606],
        [78.84511, 26.96594],
        [78.8451, 26.96584],
        [78.84517, 26.96566],
        [78.8453, 26.96551],
        [78.84527, 26.96544],
        [78.84518, 26.96535],
        [78.84508, 26.9653],
        [78.84497, 26.96515],
        [78.84491, 26.96507],
        [78.84501, 26.96492],
        [78.84537, 26.96456],
        [78.84537, 26.96445],
        [78.84528, 26.96429],
        [78.84475, 26.96386],
        [78.84461, 26.96387],
        [78.84442, 26.96405],
        [78.8442, 26.96423],
        [78.84412, 26.96425],
        [78.84389, 26.96423],
        [78.84218, 26.96327],
        [78.84212, 26.96324],
        [78.84199, 26.9633],
        [78.8419, 26.96353],
        [78.84184, 26.96358],
        [78.84161, 26.96357],
        [78.84008, 26.9624],
        [78.84004, 26.96229],
        [78.84005, 26.96193],
        [78.8404, 26.96157],
        [78.84045, 26.96152],
        [78.84041, 26.96141],
        [78.84028, 26.96129],
        [78.83979, 26.96106],
        [78.83972, 26.96098],
        [78.83973, 26.96083],
        [78.83985, 26.96071],
        [78.83996, 26.96065],
        [78.84001, 26.96058],
        [78.84002, 26.96042],
        [78.83986, 26.9603],
        [78.83822, 26.95963],
        [78.83724, 26.9591],
        [78.83719, 26.95901],
        [78.83723, 26.95884],
        [78.83778, 26.95818],
        [78.83789, 26.95815],
        [78.83806, 26.95819],
        [78.83855, 26.95884],
        [78.83874, 26.95883],
        [78.83973, 26.95851],
        [78.83995, 26.95844],
        [78.83998, 26.95838],
        [78.83996, 26.95828],
        [78.83954, 26.95742],
        [78.8394, 26.95706],
        [78.83931, 26.95673],
        [78.83937, 26.9563],
        [78.83999, 26.95564],
        [78.84013, 26.95518],
        [78.84019, 26.9549],
        [78.84025, 26.95469],
        [78.84036, 26.95459],
        [78.84065, 26.95444],
        [78.84143, 26.95404],
        [78.84166, 26.95388],
        [78.84169, 26.95378],
        [78.84163, 26.95291],
        [78.84156, 26.95285],
        [78.84112, 26.95284],
        [78.83975, 26.95321],
        [78.83949, 26.95324],
        [78.83935, 26.95328],
        [78.83919, 26.95325],
        [78.83788, 26.95179],
        [78.8362, 26.95018],
        [78.83603, 26.94999],
        [78.83562, 26.94992],
        [78.83489, 26.94988],
        [78.83328, 26.94937],
        [78.83278, 26.94913],
        [78.83271, 26.9491],
        [78.83265, 26.94911],
        [78.83194, 26.94997],
        [78.83189, 26.94999],
        [78.8317, 26.94997],
        [78.83074, 26.94947],
        [78.83043, 26.94953],
        [78.82972, 26.95012],
        [78.82963, 26.95007],
        [78.8295, 26.94994],
        [78.82941, 26.94984],
        [78.82936, 26.9498],
        [78.8292, 26.94979],
        [78.82914, 26.94979],
        [78.82905, 26.94974],
        [78.82898, 26.94964],
        [78.82892, 26.94962],
        [78.82871, 26.9496],
        [78.82864, 26.94961],
        [78.82855, 26.94964],
        [78.82849, 26.94961],
        [78.82841, 26.94949],
        [78.82838, 26.9494],
        [78.82833, 26.94934],
        [78.828, 26.94939],
        [78.82792, 26.94957],
        [78.82792, 26.94966],
        [78.82802, 26.94983],
        [78.82809, 26.94996],
        [78.82795, 26.94999],
        [78.82788, 26.94992],
        [78.82772, 26.94972],
        [78.82767, 26.94964],
        [78.82762, 26.94959],
        [78.82753, 26.94958],
        [78.82741, 26.94958],
        [78.82624, 26.95032],
        [78.82526, 26.95104],
        [78.82345, 26.95179],
        [78.82344, 26.95185],
        [78.82351, 26.95195],
        [78.82357, 26.95212],
        [78.82355, 26.95221],
        [78.82342, 26.95233],
        [78.82321, 26.95248],
        [78.82311, 26.95249],
        [78.82302, 26.95245],
        [78.82295, 26.95239],
        [78.82276, 26.95236],
        [78.82265, 26.95239],
        [78.82256, 26.95246],
        [78.82249, 26.95254],
        [78.82237, 26.95249],
        [78.8223, 26.95238],
        [78.82223, 26.95229],
        [78.82214, 26.95225],
        [78.82204, 26.95223],
        [78.82187, 26.95228],
        [78.82082, 26.95285],
        [78.82076, 26.95292],
        [78.82073, 26.95308],
        [78.82069, 26.95324],
        [78.82066, 26.95343],
        [78.82059, 26.95367],
        [78.81999, 26.95418],
        [78.81989, 26.95422],
        [78.81982, 26.95421],
        [78.81946, 26.95382],
        [78.81939, 26.95375],
        [78.81925, 26.95373],
        [78.81913, 26.95376],
        [78.81894, 26.95391],
        [78.81886, 26.95391],
        [78.81874, 26.95385],
        [78.81867, 26.95373],
        [78.81861, 26.95368],
        [78.81857, 26.95361],
        [78.81848, 26.95358],
        [78.81812, 26.95369],
        [78.81771, 26.95418],
        [78.81752, 26.95428],
        [78.81735, 26.95438],
        [78.81717, 26.9544],
        [78.81709, 26.95435],
        [78.81702, 26.95427],
        [78.81687, 26.95424],
        [78.8168, 26.95427],
        [78.8166, 26.95435],
        [78.81653, 26.95442],
        [78.81647, 26.95445],
        [78.8164, 26.95444],
        [78.81633, 26.95434],
        [78.81615, 26.95408],
        [78.81611, 26.95405],
        [78.81594, 26.95405],
        [78.81585, 26.95411],
        [78.81554, 26.95432],
        [78.81536, 26.95435],
        [78.81525, 26.95435],
        [78.8146, 26.95405],
        [78.81404, 26.95383],
        [78.81394, 26.95379],
        [78.81374, 26.95378],
        [78.81354, 26.95383],
        [78.81237, 26.9546],
        [78.8101, 26.95674],
        [78.80852, 26.95795],
        [78.8077, 26.9584],
        [78.80764, 26.95842],
        [78.8076, 26.95845],
        [78.80747, 26.95851],
        [78.8074, 26.95848],
        [78.80736, 26.9584],
        [78.8073, 26.95828],
        [78.80709, 26.95825],
        [78.80615, 26.95864],
        [78.80582, 26.95989],
        [78.80515, 26.96355],
        [78.80388, 26.96615],
        [78.80247, 26.96929],
        [78.80843, 26.97437],
        [78.81285, 26.97795],
        [78.81482, 26.9798],
        [78.81702, 26.98255],
        [78.81879, 26.98505],
        [78.81915, 26.98762],
        [78.81739, 26.98956],
        [78.81465, 26.99185],
        [78.81158, 26.99348],
        [78.80876, 26.9924],
        [78.80719, 26.99067],
        [78.80582, 26.98751],
        [78.80398, 26.98476],
        [78.80083, 26.98691],
        [78.79756, 26.98927],
        [78.79317, 26.99262],
        [78.7896, 26.99562],
        [78.78625, 26.99793],
        [78.78405, 27.00015],
        [78.78248, 27.0053],
        [78.78241, 27.00779],
        [78.78361, 27.00939],
        [78.78536, 27.01056],
        [78.79267, 27.01476],
        [78.79302, 27.01555],
        [78.79275, 27.01668],
        [78.79169, 27.01813],
        [78.79004, 27.01944],
        [78.78812, 27.02041],
        [78.78682, 27.02175],
        [78.7858, 27.02353],
        [78.78426, 27.02417],
        [78.78099, 27.02456],
        [78.7787, 27.02519],
        [78.77706, 27.02515],
        [78.77607, 27.02445],
        [78.77398, 27.02215],
        [78.77249, 27.02123],
        [78.77186, 27.02155],
        [78.77108, 27.02254],
        [78.77053, 27.0248],
        [78.77046, 27.02762],
        [78.77087, 27.03055],
        [78.77135, 27.03146],
        [78.7735, 27.03206],
        [78.77691, 27.03576],
        [78.77974, 27.03839],
        [78.78125, 27.03911],
        [78.78213, 27.03911],
        [78.78401, 27.03881],
        [78.78579, 27.03908],
        [78.78621, 27.04111],
        [78.78695, 27.04259],
        [78.78642, 27.0435],
        [78.78451, 27.04447],
        [78.7826, 27.045],
        [78.78071, 27.04529],
        [78.77618, 27.04553],
        [78.77267, 27.0449],
        [78.77141, 27.04488],
        [78.77051, 27.04588],
        [78.76998, 27.04676],
        [78.76817, 27.04843],
        [78.76764, 27.04908],
        [78.76306, 27.05113],
        [78.76203, 27.05246],
        [78.76213, 27.05291],
        [78.76349, 27.05363],
        [78.76975, 27.05555],
        [78.77285, 27.05776],
        [78.77455, 27.05981],
        [78.77503, 27.06085],
        [78.77337, 27.06216],
        [78.767, 27.06485],
        [78.76597, 27.06562],
        [78.76607, 27.06652],
        [78.7688, 27.07173],
        [78.77027, 27.07473],
        [78.77182, 27.07847],
        [78.77192, 27.07948],
        [78.76961, 27.08125],
        [78.76868, 27.08281],
        [78.76893, 27.08337],
        [78.76992, 27.08396],
        [78.77143, 27.0842],
        [78.77282, 27.08424],
        [78.7738, 27.0846],
        [78.77451, 27.08618],
        [78.77577, 27.09658],
        [78.77434, 27.09837],
        [78.77379, 27.10015],
        [78.77377, 27.10128],
        [78.77286, 27.1025],
        [78.77067, 27.10381],
        [78.76571, 27.10619],
        [78.76518, 27.10673],
        [78.76566, 27.10811],
        [78.7691, 27.11189],
        [78.77047, 27.11248],
        [78.77261, 27.11252],
        [78.77412, 27.11211],
        [78.77604, 27.11091],
        [78.77709, 27.10924],
        [78.7784, 27.1079],
        [78.78005, 27.10693],
        [78.78373, 27.10543],
        [78.78758, 27.10301],
        [78.79256, 27.09939],
        [78.7949, 27.09663],
        [78.79578, 27.0971],
        [78.79775, 27.0985],
        [78.79899, 27.09965],
        [78.79947, 27.10066],
        [78.79871, 27.10583],
        [78.79942, 27.10743],
        [78.80177, 27.1095],
        [78.80238, 27.11076],
        [78.80241, 27.11404],
        [78.80289, 27.11471],
        [78.8056, 27.11748],
        [78.80643, 27.11917],
        [78.80679, 27.12032],
        [78.80672, 27.12289],
        [78.80556, 27.12411],
        [78.80355, 27.12464],
        [78.80254, 27.1245],
        [78.80092, 27.12358],
        [78.80042, 27.123],
        [78.80034, 27.12164],
        [78.79973, 27.12074],
        [78.79922, 27.12038],
        [78.79809, 27.12059],
        [78.79605, 27.1219],
        [78.79376, 27.1231],
        [78.79336, 27.12353],
        [78.79415, 27.1275],
        [78.79421, 27.12987],
        [78.7934, 27.13143],
        [78.79174, 27.13263],
        [78.78998, 27.13329],
        [78.78968, 27.13484],
        [78.79049, 27.13723],
        [78.79135, 27.13872],
        [78.79244, 27.13998],
        [78.79603, 27.1423],
        [78.79792, 27.14302],
        [78.80017, 27.14351],
        [78.80231, 27.14366],
        [78.80673, 27.14376],
        [78.80975, 27.14292],
        [78.8136, 27.14073],
        [78.81449, 27.13996],
        [78.81592, 27.13887],
        [78.81935, 27.13758],
        [78.82061, 27.13782],
        [78.82121, 27.13829],
        [78.82145, 27.13942],
        [78.82037, 27.14166],
        [78.8207, 27.1438],
        [78.82055, 27.14448],
        [78.8199, 27.14547],
        [78.81811, 27.14703],
        [78.81154, 27.15242],
        [78.80948, 27.15384],
        [78.80784, 27.15448],
        [78.80191, 27.15461],
        [78.80025, 27.15558],
        [78.79653, 27.15832],
        [78.79318, 27.16119],
        [78.7896, 27.16269],
        [78.78695, 27.1631],
        [78.78355, 27.16302],
        [78.78117, 27.16241],
        [78.77994, 27.16194],
        [78.7793, 27.16203],
        [78.77583, 27.1649],
        [78.77017, 27.16929],
        [78.76889, 27.1704],
        [78.76564, 27.17348],
        [78.76219, 27.17612],
        [78.76, 27.17755],
        [78.7572, 27.17883],
        [78.75226, 27.1801],
        [78.75113, 27.18007],
        [78.75049, 27.17993],
        [78.74812, 27.17876],
        [78.74711, 27.17863],
        [78.74482, 27.17961],
        [78.7424, 27.1809],
        [78.74046, 27.18254],
        [78.74021, 27.18322],
        [78.74215, 27.18529],
        [78.7384, 27.18916],
        [78.73699, 27.19026],
        [78.73457, 27.19155],
        [78.73099, 27.19307],
        [78.72643, 27.19465],
        [78.72489, 27.19542],
        [78.72512, 27.19644],
        [78.72646, 27.19838],
        [78.72705, 27.2002],
        [78.72735, 27.20246],
        [78.72731, 27.20393],
        [78.72766, 27.20483],
        [78.72953, 27.206],
        [78.73266, 27.20742],
        [78.73728, 27.20885],
        [78.7437, 27.209],
        [78.74713, 27.2085],
        [78.74978, 27.20856],
        [78.75091, 27.20869],
        [78.75228, 27.20939],
        [78.75349, 27.21088],
        [78.75873, 27.21854],
        [78.76015, 27.22149],
        [78.76084, 27.22399],
        [78.76082, 27.2258],
        [78.76054, 27.22657],
        [78.75924, 27.22858],
        [78.75561, 27.23177],
        [78.74906, 27.23649],
        [78.74674, 27.23848],
        [78.73968, 27.24328],
        [78.73836, 27.2441],
        [78.73456, 27.24645],
        [78.73264, 27.24697],
        [78.72949, 27.24758],
        [78.72846, 27.24801],
        [78.7282, 27.24824],
        [78.72816, 27.24971],
        [78.72861, 27.25151],
        [78.72857, 27.25365],
        [78.72713, 27.25544],
        [78.72338, 27.25953],
        [78.7195, 27.26306],
        [78.71773, 27.26369],
        [78.71417, 27.26408],
        [78.71038, 27.26422],
        [78.70571, 27.26481],
        [78.70329, 27.26543],
        [78.69986, 27.26672],
        [78.69845, 27.26758],
        [78.69603, 27.26866],
        [78.69255, 27.26657],
        [78.69143, 27.26632],
        [78.69063, 27.26732],
        [78.68944, 27.26976],
        [78.68955, 27.27023],
        [78.69104, 27.27183],
        [78.69902, 27.27931],
        [78.70198, 27.28174],
        [78.70299, 27.2821],
        [78.7059, 27.28205],
        [78.70666, 27.28185],
        [78.71148, 27.28083],
        [78.71425, 27.28075],
        [78.71577, 27.28091],
        [78.71615, 27.28109],
        [78.71703, 27.28152],
        [78.71686, 27.28172],
        [78.71749, 27.28375],
        [78.71837, 27.29052],
        [78.71913, 27.29255],
        [78.72158, 27.29629],
        [78.71641, 27.29906],
        [78.7128, 27.30122],
        [78.7123, 27.30393],
        [78.71193, 27.3081],
        [78.71204, 27.3099],
        [78.7128, 27.3121],
        [78.71361, 27.31457],
        [78.71457, 27.31542],
        [78.71445, 27.31622],
        [78.71395, 27.31678],
        [78.71367, 27.31926],
        [78.71418, 27.32039],
        [78.7138, 27.32152],
        [78.71434, 27.32235],
        [78.71479, 27.32427],
        [78.71498, 27.32664],
        [78.7149, 27.32923],
        [78.71513, 27.33036],
        [78.71506, 27.33341],
        [78.71426, 27.33496],
        [78.71242, 27.33718],
        [78.71341, 27.33833],
        [78.71538, 27.34029],
        [78.71751, 27.34157],
        [78.72031, 27.34415],
        [78.72136, 27.34373],
        [78.72328, 27.34251],
        [78.72471, 27.34158],
        [78.72499, 27.34147],
        [78.72523, 27.34144],
        [78.72551, 27.34145],
        [78.72591, 27.34145],
        [78.72634, 27.34145],
        [78.72664, 27.3414],
        [78.72695, 27.34136],
        [78.72734, 27.34116],
        [78.7284, 27.3401],
        [78.72961, 27.33857],
        [78.73073, 27.33647],
        [78.73095, 27.3359],
        [78.73141, 27.33528],
        [78.73282, 27.33417],
        [78.73434, 27.33274],
        [78.73447, 27.33263],
        [78.73462, 27.33261],
        [78.73497, 27.33265],
        [78.73518, 27.33276],
        [78.73542, 27.33287],
        [78.73564, 27.33302],
        [78.73594, 27.33317],
        [78.73625, 27.3333],
        [78.73638, 27.3333],
        [78.73651, 27.33328],
        [78.73729, 27.33285],
        [78.73746, 27.33278],
        [78.73772, 27.3328],
        [78.73785, 27.33293],
        [78.73796, 27.33319],
        [78.73807, 27.33337],
        [78.7382, 27.33345],
        [78.73848, 27.3335],
        [78.73876, 27.33352],
        [78.73907, 27.33354],
        [78.73952, 27.33361],
        [78.73989, 27.33371],
        [78.74046, 27.334],
        [78.74118, 27.33489],
        [78.74135, 27.33502],
        [78.74151, 27.33513],
        [78.74172, 27.33521],
        [78.74201, 27.33526],
        [78.74231, 27.33528],
        [78.74268, 27.33532],
        [78.74292, 27.33539],
        [78.74331, 27.33545],
        [78.74353, 27.33554],
        [78.74374, 27.33569],
        [78.74459, 27.33706],
        [78.74513, 27.33808],
        [78.74526, 27.33825],
        [78.74537, 27.33829],
        [78.74552, 27.33832],
        [78.74578, 27.33832],
        [78.7463, 27.33832],
        [78.74657, 27.33834],
        [78.74691, 27.33836],
        [78.74713, 27.3384],
        [78.74728, 27.33847],
        [78.74745, 27.33853],
        [78.74771, 27.33866],
        [78.74808, 27.33903],
        [78.7541, 27.34516],
        [78.75424, 27.34519],
        [78.75436, 27.34517],
        [78.75483, 27.34488],
        [78.75595, 27.34399],
        [78.75696, 27.34304],
        [78.75799, 27.34228],
        [78.75915, 27.34148],
        [78.75981, 27.34076],
        [78.76116, 27.33941],
        [78.76196, 27.3388],
        [78.76382, 27.33779],
        [78.76462, 27.33705],
        [78.76453, 27.33683],
        [78.76454, 27.33649]
      ]
    ]
  }
}
