{
  "type": "Feature",
  "id": "UP-AC-120",
  "properties": {
    "stateName": "UTTAR PRADESH",
    "stateCode": "UP",
    "districtName": "BAREILLY",
    "acNo": 120,
    "acName": "FARIDPUR (SC)",
    "seatType": null,
    "pcNo": null,
    "pcName": null,
    "quality": "unverified",
    "sources": [
      "TBD"
    ]
  },
  "geometry": {
    "type": "Polygon",
    "coordinates": [
      [
        [79.41736, 28.73698],
        [79.41851, 28.73766],
        [79.41935, 28.7379],
        [79.4202, 28.73785],
        [79.42096, 28.73757],
        [79.42145, 28.73747],
        [79.42083, 28.7371],
        [79.42041, 28.73671],
        [79.41995, 28.73597],
        [79.41935, 28.73459],
        [79.41914, 28.73351],
        [79.41913, 28.73223],
        [79.41986, 28.72825],
        [79.42173, 28.72648],
        [79.42264, 28.72551],
        [79.42305, 28.72531],
        [79.42352, 28.72528],
        [79.42411, 28.72556],
        [79.42527, 28.72587],
        [79.42661, 28.72608],
        [79.4276, 28.72607],
        [79.42933, 28.72591],
        [79.42975, 28.72596],
        [79.43049, 28.72582],
        [79.43145, 28.72552],
        [79.43186, 28.72515],
        [79.43221, 28.7247],
        [79.43244, 28.72364],
        [79.43263, 28.72227],
        [79.43281, 28.7216],
        [79.43318, 28.72127],
        [79.43514, 28.72057],
        [79.43591, 28.72022],
        [79.43684, 28.7195],
        [79.4379, 28.71843],
        [79.43852, 28.71821],
        [79.43883, 28.7182],
        [79.43923, 28.7182],
        [79.44008, 28.71832],
        [79.44081, 28.71885],
        [79.44176, 28.71971],
        [79.4424, 28.72068],
        [79.44254, 28.72193],
        [79.4427, 28.72339],
        [79.44315, 28.72448],
        [79.44355, 28.72506],
        [79.44402, 28.72538],
        [79.44419, 28.7254],
        [79.4447, 28.72546],
        [79.44548, 28.72532],
        [79.44592, 28.72488],
        [79.44602, 28.72416],
        [79.44582, 28.72312],
        [79.44576, 28.72239],
        [79.44591, 28.72189],
        [79.44623, 28.72135],
        [79.44681, 28.72116],
        [79.44829, 28.72076],
        [79.44928, 28.72017],
        [79.44992, 28.71914],
        [79.45033, 28.71779],
        [79.45041, 28.71646],
        [79.4504, 28.71628],
        [79.45542, 28.71399],
        [79.45581, 28.71401],
        [79.45599, 28.71407],
        [79.4583, 28.71732],
        [79.45876, 28.71828],
        [79.45888, 28.71871],
        [79.45892, 28.71922],
        [79.45906, 28.71978],
        [79.45927, 28.72027],
        [79.46118, 28.72316],
        [79.46236, 28.72495],
        [79.46746, 28.72244],
        [79.46757, 28.72221],
        [79.46759, 28.72193],
        [79.46743, 28.72146],
        [79.46639, 28.71754],
        [79.46631, 28.71698],
        [79.4663, 28.71689],
        [79.46646, 28.71666],
        [79.46679, 28.7164],
        [79.46815, 28.71704],
        [79.46984, 28.71751],
        [79.47095, 28.71766],
        [79.47221, 28.71759],
        [79.47354, 28.71725],
        [79.47439, 28.71698],
        [79.4754, 28.71694],
        [79.47643, 28.71677],
        [79.47739, 28.71608],
        [79.47803, 28.71524],
        [79.47824, 28.7146],
        [79.47846, 28.71274],
        [79.47864, 28.71229],
        [79.47931, 28.71161],
        [79.47978, 28.71209],
        [79.48064, 28.71312],
        [79.48141, 28.71424],
        [79.48226, 28.71571],
        [79.48321, 28.71714],
        [79.48355, 28.71764],
        [79.48522, 28.71976],
        [79.48611, 28.72064],
        [79.48654, 28.72154],
        [79.48676, 28.72213],
        [79.48676, 28.72241],
        [79.48676, 28.72286],
        [79.48644, 28.72347],
        [79.48588, 28.72402],
        [79.48301, 28.72511],
        [79.48204, 28.72564],
        [79.48064, 28.72672],
        [79.48118, 28.72723],
        [79.48179, 28.72741],
        [79.48328, 28.72784],
        [79.48451, 28.72839],
        [79.48619, 28.72999],
        [79.4867, 28.73074],
        [79.48693, 28.73147],
        [79.48713, 28.73187],
        [79.48738, 28.73213],
        [79.48757, 28.73224],
        [79.48822, 28.73237],
        [79.48893, 28.73284],
        [79.48912, 28.733],
        [79.49205, 28.73497],
        [79.49127, 28.73575],
        [79.49082, 28.7361],
        [79.49039, 28.73629],
        [79.48979, 28.73632],
        [79.48898, 28.73621],
        [79.48802, 28.73597],
        [79.48736, 28.73587],
        [79.48695, 28.73598],
        [79.48667, 28.73621],
        [79.48645, 28.73657],
        [79.48641, 28.73695],
        [79.48625, 28.73731],
        [79.48586, 28.73779],
        [79.48509, 28.73799],
        [79.4845, 28.73796],
        [79.48353, 28.73772],
        [79.48294, 28.73769],
        [79.48253, 28.73791],
        [79.48109, 28.74016],
        [79.48133, 28.74084],
        [79.48135, 28.7412],
        [79.48325, 28.74182],
        [79.48486, 28.7426],
        [79.48541, 28.743],
        [79.48604, 28.74381],
        [79.48698, 28.74503],
        [79.48717, 28.74521],
        [79.48612, 28.74626],
        [79.48576, 28.74672],
        [79.48561, 28.74729],
        [79.48555, 28.7479],
        [79.4855, 28.74904],
        [79.48659, 28.7503],
        [79.48717, 28.75134],
        [79.48718, 28.75162],
        [79.48727, 28.75213],
        [79.48718, 28.75265],
        [79.49037, 28.75406],
        [79.49116, 28.75451],
        [79.49226, 28.75493],
        [79.49316, 28.75514],
        [79.49352, 28.75535],
        [79.49374, 28.75564],
        [79.49389, 28.75618],
        [79.49397, 28.75644],
        [79.49435, 28.75741],
        [79.49441, 28.75769],
        [79.49457, 28.75789],
        [79.49475, 28.75802],
        [79.49517, 28.75814],
        [79.49589, 28.75843],
        [79.49597, 28.75846],
        [79.49619, 28.75863],
        [79.49625, 28.7587],
        [79.49625, 28.75891],
        [79.49611, 28.75929],
        [79.49597, 28.75959],
        [79.49598, 28.75981],
        [79.49622, 28.75997],
        [79.49649, 28.76005],
        [79.49691, 28.76014],
        [79.49709, 28.7603],
        [79.49964, 28.75976],
        [79.50047, 28.75954],
        [79.50088, 28.75947],
        [79.50121, 28.7595],
        [79.50193, 28.75969],
        [79.50229, 28.76002],
        [79.50292, 28.76031],
        [79.50346, 28.76037],
        [79.5045, 28.76038],
        [79.5049, 28.76042],
        [79.50521, 28.75984],
        [79.50549, 28.75903],
        [79.50559, 28.75821],
        [79.5059, 28.75756],
        [79.50734, 28.75597],
        [79.50758, 28.75583],
        [79.50787, 28.75576],
        [79.50817, 28.75587],
        [79.50857, 28.75627],
        [79.50909, 28.75676],
        [79.50949, 28.75691],
        [79.51026, 28.75696],
        [79.51118, 28.7568],
        [79.51289, 28.75609],
        [79.51372, 28.75563],
        [79.51441, 28.75553],
        [79.51566, 28.75564],
        [79.51591, 28.75501],
        [79.51629, 28.75454],
        [79.51704, 28.75379],
        [79.51844, 28.75285],
        [79.51865, 28.75268],
        [79.51875, 28.75232],
        [79.51877, 28.75191],
        [79.51997, 28.75207],
        [79.52112, 28.75258],
        [79.52137, 28.75272],
        [79.52198, 28.75298],
        [79.52243, 28.75298],
        [79.52278, 28.75276],
        [79.52283, 28.75239],
        [79.52275, 28.7519],
        [79.52258, 28.75127],
        [79.52249, 28.75058],
        [79.52248, 28.75027],
        [79.52251, 28.75003],
        [79.52267, 28.7497],
        [79.52296, 28.74932],
        [79.52343, 28.74905],
        [79.52506, 28.74855],
        [79.52633, 28.7483],
        [79.5269, 28.74829],
        [79.52723, 28.7484],
        [79.52761, 28.74877],
        [79.52833, 28.74945],
        [79.52904, 28.74997],
        [79.52989, 28.75031],
        [79.53132, 28.75067],
        [79.53244, 28.75074],
        [79.53232, 28.75002],
        [79.53238, 28.74782],
        [79.53249, 28.74711],
        [79.53284, 28.74656],
        [79.53345, 28.74575],
        [79.53352, 28.74514],
        [79.53346, 28.7447],
        [79.53336, 28.7444],
        [79.53319, 28.74391],
        [79.53242, 28.74304],
        [79.53165, 28.74231],
        [79.5266, 28.73995],
        [79.52546, 28.73911],
        [79.52528, 28.73895],
        [79.5246, 28.73838],
        [79.52219, 28.73499],
        [79.52156, 28.73441],
        [79.52151, 28.73307],
        [79.52158, 28.73235],
        [79.52221, 28.73127],
        [79.52296, 28.72946],
        [79.52351, 28.7278],
        [79.52356, 28.72677],
        [79.52379, 28.72473],
        [79.52401, 28.72427],
        [79.5258, 28.72362],
        [79.52637, 28.72304],
        [79.52691, 28.72214],
        [79.52713, 28.72169],
        [79.5276, 28.72121],
        [79.52791, 28.72061],
        [79.52834, 28.7196],
        [79.52858, 28.71858],
        [79.52855, 28.71815],
        [79.52834, 28.71764],
        [79.52805, 28.71725],
        [79.53111, 28.71407],
        [79.5312, 28.71425],
        [79.53176, 28.71526],
        [79.53262, 28.71636],
        [79.53369, 28.71762],
        [79.53468, 28.7183],
        [79.53555, 28.71893],
        [79.53582, 28.71929],
        [79.53589, 28.71981],
        [79.53601, 28.72052],
        [79.53626, 28.72114],
        [79.53666, 28.72152],
        [79.53779, 28.72234],
        [79.53864, 28.72284],
        [79.54088, 28.72366],
        [79.54236, 28.72426],
        [79.54318, 28.72485],
        [79.54379, 28.72546],
        [79.54444, 28.72659],
        [79.54471, 28.72788],
        [79.54722, 28.72595],
        [79.54797, 28.72497],
        [79.54838, 28.72414],
        [79.54893, 28.72303],
        [79.55397, 28.71706],
        [79.55488, 28.71546],
        [79.55526, 28.7141],
        [79.55525, 28.71312],
        [79.55524, 28.71255],
        [79.55491, 28.71155],
        [79.55433, 28.71087],
        [79.5475, 28.70449],
        [79.54655, 28.70313],
        [79.54549, 28.70112],
        [79.54443, 28.69842],
        [79.54363, 28.69712],
        [79.54211, 28.69583],
        [79.54269, 28.69472],
        [79.54313, 28.69384],
        [79.54347, 28.69296],
        [79.54341, 28.69225],
        [79.54337, 28.69171],
        [79.54349, 28.69129],
        [79.54383, 28.69105],
        [79.54582, 28.69002],
        [79.54648, 28.69001],
        [79.54709, 28.68995],
        [79.5464, 28.68693],
        [79.54537, 28.68486],
        [79.54442, 28.6837],
        [79.54366, 28.68304],
        [79.54206, 28.68199],
        [79.54207, 28.68217],
        [79.54184, 28.68248],
        [79.54136, 28.68254],
        [79.5402, 28.68221],
        [79.53664, 28.68069],
        [79.53596, 28.68041],
        [79.53525, 28.68036],
        [79.53442, 28.68035],
        [79.53331, 28.68065],
        [79.53226, 28.68079],
        [79.53171, 28.68086],
        [79.52909, 28.68087],
        [79.52694, 28.68078],
        [79.52633, 28.68088],
        [79.52566, 28.68116],
        [79.5249, 28.68153],
        [79.52414, 28.68185],
        [79.52345, 28.68199],
        [79.52284, 28.68199],
        [79.52222, 28.68186],
        [79.52178, 28.68193],
        [79.52132, 28.68213],
        [79.52071, 28.68223],
        [79.51944, 28.68221],
        [79.51923, 28.67957],
        [79.51918, 28.67896],
        [79.51933, 28.67837],
        [79.51977, 28.6774],
        [79.51975, 28.67655],
        [79.51966, 28.67546],
        [79.51949, 28.67455],
        [79.51935, 28.67395],
        [79.51911, 28.67344],
        [79.5186, 28.67292],
        [79.51827, 28.67251],
        [79.51795, 28.67194],
        [79.51775, 28.67139],
        [79.51773, 28.67114],
        [79.5177, 28.67074],
        [79.51779, 28.6701],
        [79.51779, 28.66956],
        [79.5177, 28.66901],
        [79.51738, 28.66816],
        [79.51676, 28.66704],
        [79.5219, 28.66558],
        [79.53236, 28.6621],
        [79.53415, 28.66115],
        [79.53364, 28.66022],
        [79.53338, 28.65931],
        [79.53321, 28.6584],
        [79.53337, 28.65798],
        [79.53402, 28.65727],
        [79.53764, 28.65494],
        [79.53925, 28.65433],
        [79.54017, 28.6541],
        [79.54298, 28.65343],
        [79.54997, 28.65124],
        [79.54803, 28.64544],
        [79.54669, 28.64195],
        [79.54625, 28.64127],
        [79.54603, 28.64094],
        [79.54242, 28.63672],
        [79.5421, 28.63596],
        [79.54198, 28.63533],
        [79.54215, 28.63474],
        [79.54217, 28.6343],
        [79.54202, 28.63381],
        [79.54094, 28.63249],
        [79.53929, 28.63048],
        [79.53905, 28.63003],
        [79.53899, 28.62974],
        [79.53903, 28.62935],
        [79.54256, 28.62562],
        [79.54278, 28.62519],
        [79.54277, 28.62475],
        [79.54248, 28.62445],
        [79.5423, 28.62443],
        [79.54251, 28.62299],
        [79.54248, 28.62177],
        [79.54222, 28.62026],
        [79.54118, 28.61777],
        [79.54097, 28.61786],
        [79.54043, 28.61831],
        [79.5399, 28.61886],
        [79.53946, 28.6195],
        [79.53846, 28.61974],
        [79.53792, 28.61962],
        [79.53755, 28.61914],
        [79.537, 28.61846],
        [79.53581, 28.61775],
        [79.53399, 28.61702],
        [79.5329, 28.61669],
        [79.53245, 28.61655],
        [79.53117, 28.61615],
        [79.52971, 28.6158],
        [79.52781, 28.61547],
        [79.52753, 28.61542],
        [79.52634, 28.61528],
        [79.5247, 28.61539],
        [79.52429, 28.61549],
        [79.5237, 28.61563],
        [79.52261, 28.61652],
        [79.52135, 28.6175],
        [79.52081, 28.61813],
        [79.52044, 28.6184],
        [79.52, 28.61885],
        [79.51872, 28.61908],
        [79.5179, 28.61904],
        [79.51717, 28.619],
        [79.51634, 28.61887],
        [79.51515, 28.61853],
        [79.51395, 28.61829],
        [79.51374, 28.61816],
        [79.5133, 28.61789],
        [79.51265, 28.61729],
        [79.51237, 28.61662],
        [79.51226, 28.61586],
        [79.51235, 28.61521],
        [79.51244, 28.61465],
        [79.51243, 28.6139],
        [79.51218, 28.61307],
        [79.51214, 28.61294],
        [79.51186, 28.61199],
        [79.51065, 28.60987],
        [79.50898, 28.60763],
        [79.50833, 28.60685],
        [79.50787, 28.60654],
        [79.50759, 28.60644],
        [79.50676, 28.6064],
        [79.50621, 28.60646],
        [79.50584, 28.60654],
        [79.5051, 28.60651],
        [79.50464, 28.60639],
        [79.50395, 28.60595],
        [79.502, 28.60566],
        [79.49988, 28.60575],
        [79.49877, 28.60551],
        [79.49784, 28.60499],
        [79.49691, 28.60391],
        [79.49561, 28.60223],
        [79.49495, 28.60138],
        [79.49356, 28.59972],
        [79.49315, 28.59933],
        [79.49263, 28.59883],
        [79.49188, 28.59841],
        [79.49095, 28.59809],
        [79.49021, 28.59786],
        [79.48891, 28.59742],
        [79.48723, 28.59715],
        [79.4862, 28.59691],
        [79.48565, 28.59679],
        [79.48425, 28.59625],
        [79.48275, 28.59543],
        [79.48182, 28.59463],
        [79.48042, 28.59353],
        [79.47939, 28.59216],
        [79.47826, 28.58958],
        [79.47883, 28.58692],
        [79.479, 28.58616],
        [79.47914, 28.58512],
        [79.47914, 28.58433],
        [79.47888, 28.58352],
        [79.47822, 28.58165],
        [79.4777, 28.58031],
        [79.47771, 28.5786],
        [79.47772, 28.57741],
        [79.47733, 28.57634],
        [79.47694, 28.57514],
        [79.47578, 28.57301],
        [79.47525, 28.57203],
        [79.47486, 28.57109],
        [79.47461, 28.57016],
        [79.47462, 28.56898],
        [79.47464, 28.56766],
        [79.47421, 28.56684],
        [79.47364, 28.56648],
        [79.47306, 28.56612],
        [79.47291, 28.56546],
        [79.47316, 28.5649],
        [79.4735, 28.56426],
        [79.47342, 28.56384],
        [79.47309, 28.5635],
        [79.47087, 28.56249],
        [79.46939, 28.56151],
        [79.46865, 28.56081],
        [79.46808, 28.5602],
        [79.46759, 28.55895],
        [79.46748, 28.5579],
        [79.4673, 28.55615],
        [79.46699, 28.55441],
        [79.46676, 28.55317],
        [79.46611, 28.55207],
        [79.46505, 28.55062],
        [79.46452, 28.5499],
        [79.46424, 28.54951],
        [79.46333, 28.54872],
        [79.46209, 28.54808],
        [79.46119, 28.5473],
        [79.4607, 28.54661],
        [79.46014, 28.54557],
        [79.45989, 28.54509],
        [79.45891, 28.54365],
        [79.45817, 28.54287],
        [79.45713, 28.54191],
        [79.45685, 28.54165],
        [79.4566, 28.54139],
        [79.45478, 28.53951],
        [79.45288, 28.53785],
        [79.45148, 28.53687],
        [79.45048, 28.53607],
        [79.45016, 28.53581],
        [79.44975, 28.53505],
        [79.44984, 28.53432],
        [79.45027, 28.53385],
        [79.45112, 28.53332],
        [79.45238, 28.53281],
        [79.4528, 28.53259],
        [79.45306, 28.53228],
        [79.45315, 28.53196],
        [79.45316, 28.53162],
        [79.453, 28.53088],
        [79.45227, 28.52994],
        [79.45145, 28.52899],
        [79.45096, 28.52798],
        [79.45056, 28.52689],
        [79.45036, 28.52659],
        [79.45015, 28.52629],
        [79.44982, 28.52611],
        [79.44932, 28.52608],
        [79.44822, 28.52635],
        [79.44763, 28.5264],
        [79.44713, 28.52621],
        [79.4468, 28.52602],
        [79.44647, 28.5256],
        [79.4464, 28.52537],
        [79.44631, 28.52509],
        [79.44632, 28.52468],
        [79.44658, 28.52396],
        [79.4466, 28.52338],
        [79.44636, 28.52268],
        [79.44612, 28.52201],
        [79.44596, 28.52151],
        [79.44597, 28.5211],
        [79.44607, 28.52061],
        [79.44616, 28.52021],
        [79.44608, 28.51979],
        [79.44593, 28.51904],
        [79.44553, 28.51828],
        [79.44528, 28.51794],
        [79.4452, 28.51752],
        [79.44505, 28.5171],
        [79.44506, 28.51669],
        [79.44515, 28.51629],
        [79.44541, 28.51605],
        [79.44566, 28.51582],
        [79.446, 28.51567],
        [79.44642, 28.51578],
        [79.44666, 28.51621],
        [79.44674, 28.51646],
        [79.44691, 28.51655],
        [79.44716, 28.51656],
        [79.44741, 28.51641],
        [79.44759, 28.51617],
        [79.44793, 28.51595],
        [79.44827, 28.5158],
        [79.44886, 28.51567],
        [79.44953, 28.51553],
        [79.44979, 28.51548],
        [79.45097, 28.5153],
        [79.45224, 28.51504],
        [79.45401, 28.51481],
        [79.45527, 28.51447],
        [79.4573, 28.51384],
        [79.45867, 28.51318],
        [79.46011, 28.51244],
        [79.46105, 28.51167],
        [79.46157, 28.51129],
        [79.46179, 28.51083],
        [79.46192, 28.51057],
        [79.46194, 28.50999],
        [79.4617, 28.50924],
        [79.46121, 28.5088],
        [79.45924, 28.50697],
        [79.45876, 28.50612],
        [79.45869, 28.50537],
        [79.45863, 28.50479],
        [79.45864, 28.5043],
        [79.4589, 28.5039],
        [79.45924, 28.50359],
        [79.4595, 28.50336],
        [79.45968, 28.50296],
        [79.45979, 28.50206],
        [79.45972, 28.50161],
        [79.45951, 28.50015],
        [79.45921, 28.49882],
        [79.45898, 28.4979],
        [79.45845, 28.49581],
        [79.45839, 28.4949],
        [79.45841, 28.49433],
        [79.45867, 28.49385],
        [79.45902, 28.49346],
        [79.45945, 28.49308],
        [79.46022, 28.49287],
        [79.46114, 28.49284],
        [79.46173, 28.49288],
        [79.4624, 28.49316],
        [79.46281, 28.49351],
        [79.4633, 28.49404],
        [79.46434, 28.49607],
        [79.4649, 28.49693],
        [79.46539, 28.49753],
        [79.46612, 28.49823],
        [79.46746, 28.49872],
        [79.46805, 28.49875],
        [79.46889, 28.49871],
        [79.4699, 28.49853],
        [79.47168, 28.49813],
        [79.47206, 28.49793],
        [79.47305, 28.4974],
        [79.47426, 28.49639],
        [79.47565, 28.49508],
        [79.47654, 28.49365],
        [79.47704, 28.49233],
        [79.47718, 28.49196],
        [79.47765, 28.49042],
        [79.47814, 28.48959],
        [79.47833, 28.48942],
        [79.47857, 28.4892],
        [79.47952, 28.48852],
        [79.48064, 28.488],
        [79.48158, 28.4874],
        [79.48286, 28.48707],
        [79.48371, 28.48695],
        [79.48497, 28.48702],
        [79.48694, 28.48741],
        [79.4874, 28.4875],
        [79.48882, 28.48783],
        [79.48991, 28.48789],
        [79.49153, 28.48766],
        [79.49205, 28.48728],
        [79.4924, 28.48689],
        [79.49293, 28.48626],
        [79.49375, 28.48434],
        [79.4942, 28.48354],
        [79.4949, 28.48284],
        [79.49534, 28.48254],
        [79.49628, 28.48227],
        [79.49754, 28.48226],
        [79.49855, 28.48232],
        [79.4999, 28.48256],
        [79.50107, 28.48263],
        [79.50268, 28.48265],
        [79.50344, 28.48253],
        [79.50412, 28.48233],
        [79.50532, 28.48182],
        [79.50629, 28.4809],
        [79.5065, 28.48049],
        [79.50675, 28.48002],
        [79.50702, 28.47954],
        [79.50705, 28.4788],
        [79.50707, 28.47831],
        [79.50708, 28.4779],
        [79.50727, 28.47734],
        [79.50763, 28.47695],
        [79.50848, 28.47667],
        [79.50918, 28.47622],
        [79.50945, 28.47582],
        [79.50973, 28.47518],
        [79.50974, 28.4749],
        [79.50978, 28.47379],
        [79.50955, 28.47131],
        [79.50912, 28.46931],
        [79.50852, 28.46754],
        [79.50782, 28.46621],
        [79.50742, 28.46578],
        [79.50642, 28.46539],
        [79.50556, 28.4655],
        [79.50444, 28.46609],
        [79.5018, 28.46857],
        [79.50093, 28.46917],
        [79.49991, 28.46927],
        [79.4994, 28.46924],
        [79.49907, 28.46922],
        [79.49815, 28.46876],
        [79.49581, 28.4664],
        [79.49457, 28.46516],
        [79.49434, 28.46449],
        [79.49438, 28.46351],
        [79.49458, 28.46261],
        [79.49486, 28.46189],
        [79.49514, 28.46141],
        [79.49541, 28.46101],
        [79.49552, 28.46044],
        [79.49545, 28.45986],
        [79.49508, 28.45852],
        [79.49494, 28.45785],
        [79.49504, 28.45736],
        [79.49532, 28.45697],
        [79.49618, 28.45653],
        [79.49909, 28.4558],
        [79.50246, 28.45474],
        [79.50502, 28.45394],
        [79.50744, 28.45293],
        [79.51198, 28.45112],
        [79.51263, 28.45086],
        [79.51557, 28.44956],
        [79.51661, 28.44913],
        [79.51723, 28.44851],
        [79.51735, 28.44786],
        [79.51738, 28.4472],
        [79.51708, 28.44619],
        [79.51645, 28.44508],
        [79.5159, 28.44414],
        [79.51592, 28.44356],
        [79.51611, 28.44316],
        [79.51647, 28.44286],
        [79.5169, 28.44264],
        [79.51809, 28.44271],
        [79.51918, 28.44303],
        [79.52087, 28.4433],
        [79.52198, 28.44329],
        [79.52302, 28.44294],
        [79.52399, 28.44218],
        [79.52452, 28.44163],
        [79.52499, 28.44137],
        [79.52534, 28.44131],
        [79.52593, 28.44135],
        [79.52644, 28.44124],
        [79.52714, 28.4411],
        [79.52775, 28.44072],
        [79.5317, 28.4385],
        [79.53325, 28.43802],
        [79.53402, 28.43807],
        [79.53444, 28.43826],
        [79.53485, 28.43846],
        [79.53536, 28.43849],
        [79.53605, 28.43845],
        [79.53632, 28.43814],
        [79.53659, 28.43783],
        [79.53687, 28.43743],
        [79.53691, 28.43716],
        [79.53617, 28.43662],
        [79.53594, 28.43616],
        [79.53552, 28.43541],
        [79.5353, 28.43463],
        [79.53513, 28.43387],
        [79.53494, 28.43323],
        [79.53466, 28.43249],
        [79.53437, 28.43189],
        [79.534, 28.43193],
        [79.53341, 28.43183],
        [79.5328, 28.43142],
        [79.53193, 28.43083],
        [79.53139, 28.43039],
        [79.53096, 28.42999],
        [79.53011, 28.42949],
        [79.52919, 28.42913],
        [79.52854, 28.42892],
        [79.52761, 28.42869],
        [79.52688, 28.42861],
        [79.52614, 28.42838],
        [79.52591, 28.42799],
        [79.52564, 28.4272],
        [79.52544, 28.42628],
        [79.52525, 28.4258],
        [79.52496, 28.42534],
        [79.52434, 28.42516],
        [79.52391, 28.42517],
        [79.52446, 28.42494],
        [79.52493, 28.42484],
        [79.5253, 28.42472],
        [79.52585, 28.42453],
        [79.52634, 28.42414],
        [79.52668, 28.42333],
        [79.5269, 28.42272],
        [79.52695, 28.42212],
        [79.52699, 28.42122],
        [79.52691, 28.42032],
        [79.52673, 28.41981],
        [79.52634, 28.41921],
        [79.52614, 28.41859],
        [79.52604, 28.41806],
        [79.5259, 28.4176],
        [79.52563, 28.41699],
        [79.52504, 28.41625],
        [79.52441, 28.41562],
        [79.52425, 28.41515],
        [79.52422, 28.41462],
        [79.52404, 28.4139],
        [79.52408, 28.41318],
        [79.52417, 28.41251],
        [79.52461, 28.41211],
        [79.52577, 28.41148],
        [79.52644, 28.41123],
        [79.5274, 28.41091],
        [79.52795, 28.41062],
        [79.52873, 28.41014],
        [79.52897, 28.40952],
        [79.52899, 28.40873],
        [79.5287, 28.40784],
        [79.52831, 28.40711],
        [79.52773, 28.40649],
        [79.52734, 28.40647],
        [79.52676, 28.40619],
        [79.52672, 28.40565],
        [79.52712, 28.40527],
        [79.52742, 28.40482],
        [79.52749, 28.40425],
        [79.52745, 28.4037],
        [79.52762, 28.4031],
        [79.52828, 28.40254],
        [79.52838, 28.40251],
        [79.52881, 28.4022],
        [79.52905, 28.40174],
        [79.52909, 28.40144],
        [79.52875, 28.40132],
        [79.52809, 28.40141],
        [79.52734, 28.40163],
        [79.52635, 28.40184],
        [79.52554, 28.40206],
        [79.52444, 28.4022],
        [79.52385, 28.40216],
        [79.52292, 28.40216],
        [79.52239, 28.40243],
        [79.52191, 28.40291],
        [79.52171, 28.40341],
        [79.52127, 28.40375],
        [79.52078, 28.40395],
        [79.51947, 28.40421],
        [79.51778, 28.40444],
        [79.51746, 28.40456],
        [79.51654, 28.40487],
        [79.51495, 28.40518],
        [79.51327, 28.4053],
        [79.5125, 28.40546],
        [79.51198, 28.40597],
        [79.51123, 28.40636],
        [79.5108, 28.40667],
        [79.51022, 28.40704],
        [79.50985, 28.40742],
        [79.5091, 28.40791],
        [79.50817, 28.4083],
        [79.50757, 28.40843],
        [79.50719, 28.40847],
        [79.50646, 28.40839],
        [79.50616, 28.40837],
        [79.50533, 28.4083],
        [79.50456, 28.40832],
        [79.50248, 28.40803],
        [79.50179, 28.40798],
        [79.5007, 28.40802],
        [79.49961, 28.40825],
        [79.49813, 28.4088],
        [79.49651, 28.40917],
        [79.4958, 28.40947],
        [79.49505, 28.40983],
        [79.49374, 28.40848],
        [79.49281, 28.40751],
        [79.4918, 28.40643],
        [79.49149, 28.40535],
        [79.49124, 28.40442],
        [79.49099, 28.4036],
        [79.4908, 28.40315],
        [79.49184, 28.40269],
        [79.49285, 28.40191],
        [79.49358, 28.40118],
        [79.49403, 28.39987],
        [79.4944, 28.39905],
        [79.49505, 28.39828],
        [79.49573, 28.39779],
        [79.49684, 28.39723],
        [79.49889, 28.39662],
        [79.49958, 28.39673],
        [79.50021, 28.39667],
        [79.50091, 28.39645],
        [79.50173, 28.39613],
        [79.5024, 28.3959],
        [79.50324, 28.39568],
        [79.50413, 28.39543],
        [79.50546, 28.39481],
        [79.50617, 28.39455],
        [79.50705, 28.39437],
        [79.50784, 28.39422],
        [79.50764, 28.39332],
        [79.5076, 28.39268],
        [79.50752, 28.39252],
        [79.50726, 28.39195],
        [79.50708, 28.39127],
        [79.5069, 28.39072],
        [79.50664, 28.39026],
        [79.5065, 28.38965],
        [79.50649, 28.38927],
        [79.50649, 28.38908],
        [79.50649, 28.38759],
        [79.50621, 28.38687],
        [79.50586, 28.38611],
        [79.50577, 28.38509],
        [79.50583, 28.38384],
        [79.50624, 28.38258],
        [79.50666, 28.38119],
        [79.50716, 28.38023],
        [79.50697, 28.37962],
        [79.50693, 28.37911],
        [79.50707, 28.37848],
        [79.50734, 28.37789],
        [79.50819, 28.37747],
        [79.50883, 28.3773],
        [79.50945, 28.3767],
        [79.50962, 28.37614],
        [79.50968, 28.37554],
        [79.50991, 28.37459],
        [79.51016, 28.3737],
        [79.51044, 28.3729],
        [79.51082, 28.37215],
        [79.51107, 28.37146],
        [79.51114, 28.37126],
        [79.51123, 28.37086],
        [79.51123, 28.37027],
        [79.51049, 28.37066],
        [79.50837, 28.37149],
        [79.50684, 28.3719],
        [79.50614, 28.372],
        [79.50586, 28.37135],
        [79.50555, 28.37077],
        [79.50558, 28.37002],
        [79.50589, 28.36967],
        [79.50639, 28.36918],
        [79.50672, 28.36845],
        [79.50691, 28.36744],
        [79.5069, 28.36673],
        [79.50674, 28.36602],
        [79.50627, 28.36566],
        [79.5056, 28.36539],
        [79.50533, 28.36495],
        [79.50518, 28.36414],
        [79.50526, 28.36345],
        [79.50529, 28.36279],
        [79.50509, 28.36189],
        [79.50467, 28.36133],
        [79.50557, 28.36105],
        [79.50589, 28.36041],
        [79.50621, 28.35969],
        [79.50631, 28.35853],
        [79.50636, 28.35756],
        [79.50636, 28.35658],
        [79.50658, 28.35581],
        [79.50695, 28.35527],
        [79.50609, 28.3546],
        [79.50539, 28.35405],
        [79.50482, 28.35373],
        [79.50437, 28.35305],
        [79.50396, 28.35251],
        [79.5034, 28.35196],
        [79.5025, 28.35153],
        [79.50159, 28.35138],
        [79.50076, 28.35143],
        [79.50051, 28.35151],
        [79.50008, 28.35167],
        [79.49938, 28.35209],
        [79.49882, 28.35262],
        [79.49822, 28.3531],
        [79.49709, 28.35369],
        [79.49593, 28.35366],
        [79.49535, 28.35349],
        [79.49483, 28.35317],
        [79.49419, 28.35252],
        [79.49383, 28.35189],
        [79.49353, 28.35113],
        [79.49308, 28.35039],
        [79.49253, 28.34975],
        [79.49197, 28.34925],
        [79.49131, 28.34794],
        [79.49106, 28.3469],
        [79.48947, 28.34724],
        [79.48738, 28.34833],
        [79.48513, 28.34986],
        [79.48444, 28.35071],
        [79.48361, 28.35137],
        [79.48289, 28.35163],
        [79.48241, 28.3518],
        [79.48135, 28.35199],
        [79.47949, 28.3522],
        [79.47836, 28.35238],
        [79.47611, 28.3527],
        [79.47459, 28.35292],
        [79.47418, 28.35302],
        [79.47405, 28.35312],
        [79.47353, 28.35204],
        [79.47316, 28.35176],
        [79.47288, 28.35161],
        [79.47094, 28.35183],
        [79.47025, 28.35212],
        [79.46943, 28.35276],
        [79.46888, 28.35346],
        [79.46855, 28.3541],
        [79.46827, 28.35455],
        [79.46787, 28.35497],
        [79.46729, 28.35522],
        [79.46623, 28.35549],
        [79.46533, 28.35557],
        [79.4642, 28.3555],
        [79.46304, 28.35543],
        [79.46192, 28.35529],
        [79.45937, 28.35506],
        [79.45814, 28.35484],
        [79.45636, 28.35458],
        [79.45598, 28.3552],
        [79.45525, 28.35691],
        [79.45524, 28.35834],
        [79.45534, 28.35989],
        [79.45545, 28.36111],
        [79.45554, 28.36276],
        [79.45559, 28.36409],
        [79.45528, 28.36487],
        [79.45456, 28.36524],
        [79.45406, 28.36543],
        [79.45389, 28.36547],
        [79.45246, 28.36561],
        [79.4513, 28.36601],
        [79.45003, 28.36635],
        [79.44865, 28.3668],
        [79.44722, 28.36703],
        [79.44657, 28.36704],
        [79.44527, 28.3669],
        [79.44401, 28.36668],
        [79.44206, 28.36645],
        [79.4408, 28.36674],
        [79.4401, 28.36776],
        [79.44016, 28.36893],
        [79.44067, 28.3697],
        [79.44124, 28.37016],
        [79.44295, 28.37106],
        [79.44401, 28.37177],
        [79.44544, 28.37255],
        [79.4465, 28.37325],
        [79.44724, 28.37393],
        [79.44797, 28.37467],
        [79.44826, 28.37543],
        [79.44821, 28.37654],
        [79.44817, 28.3774],
        [79.44814, 28.37802],
        [79.44793, 28.37912],
        [79.44723, 28.38035],
        [79.44658, 28.38142],
        [79.44581, 28.38291],
        [79.44528, 28.38383],
        [79.44418, 28.38516],
        [79.44362, 28.38566],
        [79.44318, 28.38594],
        [79.44249, 28.38638],
        [79.44197, 28.3872],
        [79.44187, 28.3882],
        [79.44205, 28.38922],
        [79.44254, 28.39031],
        [79.44367, 28.3931],
        [79.44455, 28.39432],
        [79.44569, 28.39566],
        [79.44744, 28.39784],
        [79.44843, 28.39901],
        [79.45083, 28.40142],
        [79.45146, 28.40188],
        [79.45231, 28.40241],
        [79.45333, 28.40295],
        [79.45395, 28.40363],
        [79.45456, 28.40446],
        [79.45442, 28.40525],
        [79.45346, 28.40608],
        [79.45234, 28.40686],
        [79.45107, 28.40747],
        [79.44787, 28.40945],
        [79.44703, 28.41009],
        [79.44591, 28.41081],
        [79.44487, 28.41107],
        [79.44312, 28.41133],
        [79.44146, 28.41202],
        [79.44028, 28.41306],
        [79.43942, 28.41401],
        [79.43821, 28.41457],
        [79.437, 28.41492],
        [79.43602, 28.41502],
        [79.43506, 28.41463],
        [79.43468, 28.41433],
        [79.43443, 28.41412],
        [79.43334, 28.41278],
        [79.43241, 28.41145],
        [79.43212, 28.41048],
        [79.43204, 28.40968],
        [79.43174, 28.40929],
        [79.43076, 28.40918],
        [79.42988, 28.40944],
        [79.42916, 28.40982],
        [79.4285, 28.4102],
        [79.42794, 28.41048],
        [79.42639, 28.41103],
        [79.42512, 28.41158],
        [79.42292, 28.41213],
        [79.42067, 28.41284],
        [79.41969, 28.41293],
        [79.41852, 28.41329],
        [79.41767, 28.41414],
        [79.41651, 28.4148],
        [79.41498, 28.41481],
        [79.41348, 28.41424],
        [79.41145, 28.41332],
        [79.41028, 28.41272],
        [79.4084, 28.41239],
        [79.40692, 28.41266],
        [79.40597, 28.41345],
        [79.40485, 28.41434],
        [79.4029, 28.41638],
        [79.40212, 28.41686],
        [79.39998, 28.41758],
        [79.3985, 28.41791],
        [79.39704, 28.41787],
        [79.39607, 28.41734],
        [79.39582, 28.41721],
        [79.39475, 28.41661],
        [79.39362, 28.41622],
        [79.39255, 28.41589],
        [79.39159, 28.41546],
        [79.39032, 28.41464],
        [79.38926, 28.41377],
        [79.38794, 28.41269],
        [79.38653, 28.41137],
        [79.38564, 28.41047],
        [79.38443, 28.40944],
        [79.38335, 28.40916],
        [79.38214, 28.4095],
        [79.38102, 28.41039],
        [79.38012, 28.41129],
        [79.37956, 28.41173],
        [79.3775, 28.413],
        [79.37326, 28.41602],
        [79.37221, 28.41643],
        [79.37091, 28.41635],
        [79.37065, 28.41612],
        [79.37007, 28.41571],
        [79.36953, 28.41547],
        [79.36872, 28.41536],
        [79.36693, 28.41535],
        [79.36578, 28.41544],
        [79.36496, 28.41566],
        [79.36468, 28.41601],
        [79.36472, 28.41644],
        [79.36486, 28.41698],
        [79.36511, 28.41752],
        [79.36536, 28.41807],
        [79.3654, 28.41855],
        [79.36521, 28.41934],
        [79.36475, 28.42015],
        [79.36429, 28.42066],
        [79.36394, 28.42159],
        [79.36378, 28.42285],
        [79.36374, 28.42412],
        [79.36368, 28.42587],
        [79.36366, 28.42789],
        [79.36379, 28.42891],
        [79.364, 28.42923],
        [79.36432, 28.42936],
        [79.36454, 28.42927],
        [79.36487, 28.42908],
        [79.3656, 28.42854],
        [79.3666, 28.42802],
        [79.36833, 28.42797],
        [79.36902, 28.42838],
        [79.36965, 28.42927],
        [79.36995, 28.42998],
        [79.36982, 28.43064],
        [79.36967, 28.43169],
        [79.36904, 28.43282],
        [79.36865, 28.43322],
        [79.36802, 28.43398],
        [79.3674, 28.43479],
        [79.36693, 28.43577],
        [79.3664, 28.43695],
        [79.36595, 28.43746],
        [79.36524, 28.43778],
        [79.36366, 28.43779],
        [79.36313, 28.43755],
        [79.36232, 28.43728],
        [79.3614, 28.43718],
        [79.36008, 28.43742],
        [79.35871, 28.43797],
        [79.35787, 28.43876],
        [79.35692, 28.43972],
        [79.35573, 28.44086],
        [79.35506, 28.44183],
        [79.35398, 28.44309],
        [79.3529, 28.44421],
        [79.35101, 28.4453],
        [79.35024, 28.44575],
        [79.3493, 28.44643],
        [79.34804, 28.44678],
        [79.34678, 28.44686],
        [79.34613, 28.44677],
        [79.34558, 28.44671],
        [79.3453, 28.44545],
        [79.34462, 28.44449],
        [79.34416, 28.44396],
        [79.34207, 28.44175],
        [79.34091, 28.43995],
        [79.34041, 28.43823],
        [79.34029, 28.436],
        [79.34032, 28.43501],
        [79.34044, 28.43367],
        [79.34044, 28.43252],
        [79.33996, 28.43176],
        [79.3393, 28.43138],
        [79.3384, 28.43136],
        [79.33642, 28.43181],
        [79.33507, 28.4323],
        [79.33347, 28.43309],
        [79.33192, 28.43368],
        [79.33002, 28.43395],
        [79.32779, 28.43385],
        [79.3263, 28.43338],
        [79.32539, 28.43271],
        [79.32485, 28.43218],
        [79.32383, 28.43089],
        [79.32342, 28.43012],
        [79.32371, 28.42915],
        [79.32395, 28.42544],
        [79.32417, 28.42365],
        [79.32479, 28.42026],
        [79.32549, 28.41909],
        [79.32629, 28.41791],
        [79.32696, 28.41737],
        [79.32747, 28.41538],
        [79.32753, 28.41374],
        [79.32742, 28.41219],
        [79.32741, 28.41091],
        [79.32749, 28.41049],
        [79.32854, 28.40992],
        [79.33012, 28.40916],
        [79.33191, 28.40833],
        [79.33299, 28.40762],
        [79.33688, 28.40444],
        [79.33781, 28.40312],
        [79.33904, 28.40198],
        [79.33945, 28.4016],
        [79.34117, 28.40008],
        [79.34155, 28.39933],
        [79.34247, 28.39819],
        [79.34349, 28.3968],
        [79.34386, 28.39639],
        [79.34512, 28.39544],
        [79.34576, 28.39488],
        [79.34612, 28.39456],
        [79.34658, 28.39399],
        [79.34689, 28.39281],
        [79.34688, 28.39101],
        [79.34692, 28.3899],
        [79.34692, 28.38776],
        [79.34638, 28.38584],
        [79.34566, 28.38481],
        [79.34519, 28.3861],
        [79.34462, 28.38727],
        [79.34387, 28.38849],
        [79.34275, 28.38985],
        [79.3424, 28.39012],
        [79.34167, 28.39069],
        [79.33975, 28.39172],
        [79.33503, 28.39383],
        [79.333, 28.39468],
        [79.33174, 28.39534],
        [79.33071, 28.39609],
        [79.33042, 28.39629],
        [79.32932, 28.39731],
        [79.32828, 28.39856],
        [79.32758, 28.39984],
        [79.32658, 28.40214],
        [79.32642, 28.40251],
        [79.32578, 28.40373],
        [79.32485, 28.40505],
        [79.32387, 28.40602],
        [79.32299, 28.4066],
        [79.32269, 28.4068],
        [79.32092, 28.40795],
        [79.31845, 28.40981],
        [79.31712, 28.4107],
        [79.31627, 28.41168],
        [79.31503, 28.41327],
        [79.31392, 28.41475],
        [79.31283, 28.41577],
        [79.31125, 28.41705],
        [79.30938, 28.41831],
        [79.30788, 28.41925],
        [79.30739, 28.41986],
        [79.30712, 28.42087],
        [79.3072, 28.42185],
        [79.30752, 28.42291],
        [79.3077, 28.42377],
        [79.30762, 28.42456],
        [79.30728, 28.42574],
        [79.30693, 28.42733],
        [79.3069, 28.42819],
        [79.30698, 28.42922],
        [79.3073, 28.43033],
        [79.30751, 28.43109],
        [79.30748, 28.43178],
        [79.30723, 28.43245],
        [79.30643, 28.43326],
        [79.30612, 28.43382],
        [79.30604, 28.43456],
        [79.30606, 28.43571],
        [79.30642, 28.43888],
        [79.30659, 28.43924],
        [79.30693, 28.43966],
        [79.30769, 28.43982],
        [79.30857, 28.43981],
        [79.30975, 28.43966],
        [79.31051, 28.43982],
        [79.31121, 28.44003],
        [79.31167, 28.44029],
        [79.31207, 28.4406],
        [79.31229, 28.44107],
        [79.31233, 28.4417],
        [79.31213, 28.44249],
        [79.31162, 28.44389],
        [79.31102, 28.44592],
        [79.31069, 28.44705],
        [79.30976, 28.45081],
        [79.30985, 28.45168],
        [79.31013, 28.45244],
        [79.31063, 28.45321],
        [79.31121, 28.45354],
        [79.31238, 28.45366],
        [79.31362, 28.45351],
        [79.31752, 28.45277],
        [79.31946, 28.45271],
        [79.32093, 28.4528],
        [79.32199, 28.45292],
        [79.32281, 28.45315],
        [79.32304, 28.45321],
        [79.32396, 28.45373],
        [79.32505, 28.45454],
        [79.32585, 28.4555],
        [79.32639, 28.45685],
        [79.3267, 28.45848],
        [79.32666, 28.45979],
        [79.32688, 28.46049],
        [79.32708, 28.46068],
        [79.32728, 28.46086],
        [79.3278, 28.46112],
        [79.32844, 28.46122],
        [79.32943, 28.46111],
        [79.3298, 28.46107],
        [79.33087, 28.46062],
        [79.33224, 28.45967],
        [79.33523, 28.45773],
        [79.33756, 28.4565],
        [79.3412, 28.45455],
        [79.34575, 28.45236],
        [79.34687, 28.45191],
        [79.34783, 28.45134],
        [79.34867, 28.4507],
        [79.3503, 28.44937],
        [79.35142, 28.44881],
        [79.35237, 28.44858],
        [79.35342, 28.44865],
        [79.35389, 28.44873],
        [79.35423, 28.44898],
        [79.35446, 28.44928],
        [79.35456, 28.44969],
        [79.3546, 28.45038],
        [79.35441, 28.45088],
        [79.35416, 28.45144],
        [79.3533, 28.45259],
        [79.35174, 28.45404],
        [79.34962, 28.4562],
        [79.34864, 28.45763],
        [79.3482, 28.45869],
        [79.34816, 28.45901],
        [79.34805, 28.45994],
        [79.3483, 28.46144],
        [79.34862, 28.46249],
        [79.34947, 28.46375],
        [79.35113, 28.46488],
        [79.35286, 28.46571],
        [79.35362, 28.46604],
        [79.35408, 28.46641],
        [79.35447, 28.46695],
        [79.35449, 28.46703],
        [79.35463, 28.46753],
        [79.35477, 28.4688],
        [79.35461, 28.47045],
        [79.35441, 28.4713],
        [79.35399, 28.47167],
        [79.35334, 28.47187],
        [79.35228, 28.47208],
        [79.35047, 28.47203],
        [79.34846, 28.47237],
        [79.3464, 28.47282],
        [79.34551, 28.47322],
        [79.34438, 28.47384],
        [79.34361, 28.47431],
        [79.34301, 28.47479],
        [79.34246, 28.4755],
        [79.34226, 28.47624],
        [79.34226, 28.47649],
        [79.34224, 28.47726],
        [79.34243, 28.47882],
        [79.34302, 28.48132],
        [79.3436, 28.48356],
        [79.34364, 28.48364],
        [79.34417, 28.48463],
        [79.34474, 28.48529],
        [79.34537, 28.48573],
        [79.34595, 28.48611],
        [79.34629, 28.48664],
        [79.34645, 28.48711],
        [79.34649, 28.4878],
        [79.34642, 28.4886],
        [79.3461, 28.48955],
        [79.346, 28.48992],
        [79.34514, 28.49305],
        [79.34503, 28.49387],
        [79.34492, 28.49469],
        [79.34496, 28.49556],
        [79.34517, 28.49654],
        [79.3454, 28.49724],
        [79.34596, 28.4982],
        [79.3467, 28.49887],
        [79.3475, 28.49946],
        [79.34803, 28.49986],
        [79.34937, 28.50051],
        [79.35158, 28.50145],
        [79.35277, 28.50186],
        [79.35482, 28.5025],
        [79.35516, 28.50261],
        [79.35625, 28.50314],
        [79.35692, 28.50365],
        [79.35732, 28.50435],
        [79.35734, 28.50508],
        [79.35722, 28.50581],
        [79.35693, 28.5065],
        [79.35541, 28.50866],
        [79.35523, 28.50906],
        [79.35522, 28.50949],
        [79.35535, 28.50987],
        [79.35562, 28.51022],
        [79.35603, 28.51034],
        [79.35658, 28.51037],
        [79.35785, 28.51018],
        [79.36158, 28.50923],
        [79.36281, 28.5093],
        [79.36367, 28.50948],
        [79.36517, 28.5099],
        [79.36714, 28.51065],
        [79.36897, 28.5117],
        [79.37173, 28.51383],
        [79.37357, 28.51525],
        [79.37431, 28.516],
        [79.37476, 28.51661],
        [79.37503, 28.51716],
        [79.37529, 28.51802],
        [79.37541, 28.51896],
        [79.37536, 28.51983],
        [79.37528, 28.52046],
        [79.37527, 28.52103],
        [79.3753, 28.5216],
        [79.37546, 28.52208],
        [79.37562, 28.52256],
        [79.37562, 28.52303],
        [79.3755, 28.52349],
        [79.37526, 28.52385],
        [79.3747, 28.52458],
        [79.37394, 28.52517],
        [79.37282, 28.52602],
        [79.36959, 28.52796],
        [79.36835, 28.52839],
        [79.36767, 28.52849],
        [79.36705, 28.52839],
        [79.36637, 28.52798],
        [79.36586, 28.52755],
        [79.36568, 28.52747],
        [79.36549, 28.52739],
        [79.36477, 28.52739],
        [79.36421, 28.52755],
        [79.36288, 28.52845],
        [79.36155, 28.52935],
        [79.36102, 28.52995],
        [79.36071, 28.53068],
        [79.36045, 28.53153],
        [79.35989, 28.53481],
        [79.35988, 28.53544],
        [79.35994, 28.53608],
        [79.36015, 28.5366],
        [79.36049, 28.53689],
        [79.36107, 28.53702],
        [79.36192, 28.53697],
        [79.36334, 28.53677],
        [79.36378, 28.5368],
        [79.36423, 28.53683],
        [79.36567, 28.53701],
        [79.36847, 28.53783],
        [79.37042, 28.53858],
        [79.37165, 28.53905],
        [79.37247, 28.53916],
        [79.37353, 28.53922],
        [79.37465, 28.53911],
        [79.37483, 28.53909],
        [79.37624, 28.539],
        [79.37693, 28.53911],
        [79.37723, 28.53943],
        [79.37729, 28.5399],
        [79.37708, 28.54039],
        [79.37688, 28.54065],
        [79.37646, 28.54092],
        [79.37546, 28.5414],
        [79.37326, 28.54218],
        [79.37281, 28.54246],
        [79.37229, 28.54313],
        [79.37222, 28.54376],
        [79.37235, 28.54471],
        [79.37265, 28.54563],
        [79.37356, 28.54779],
        [79.37455, 28.54938],
        [79.37545, 28.55068],
        [79.37555, 28.55081],
        [79.37655, 28.55175],
        [79.37856, 28.55254],
        [79.38085, 28.55307],
        [79.38137, 28.55319],
        [79.38228, 28.55343],
        [79.38267, 28.55394],
        [79.38287, 28.55454],
        [79.38287, 28.55509],
        [79.38287, 28.55523],
        [79.38257, 28.55629],
        [79.38176, 28.55752],
        [79.38026, 28.55989],
        [79.38006, 28.56085],
        [79.38026, 28.56185],
        [79.38056, 28.56265],
        [79.38259, 28.56529],
        [79.38279, 28.56619],
        [79.3828, 28.56655],
        [79.3828, 28.56707],
        [79.3825, 28.56783],
        [79.38181, 28.56858],
        [79.38079, 28.56918],
        [79.37511, 28.57252],
        [79.37406, 28.5734],
        [79.37308, 28.57453],
        [79.37273, 28.57582],
        [79.37273, 28.57606],
        [79.37274, 28.57699],
        [79.37296, 28.57808],
        [79.37329, 28.57936],
        [79.3735, 28.58045],
        [79.37352, 28.58123],
        [79.37353, 28.58172],
        [79.37334, 28.58249],
        [79.37326, 28.58366],
        [79.37307, 28.58433],
        [79.3721, 28.58584],
        [79.37033, 28.58799],
        [79.36974, 28.58874],
        [79.36956, 28.58951],
        [79.36978, 28.5906],
        [79.37032, 28.5918],
        [79.37115, 28.59311],
        [79.3729, 28.59602],
        [79.37257, 28.59662],
        [79.37204, 28.59782],
        [79.37136, 28.59881],
        [79.37062, 28.59952],
        [79.36979, 28.60009],
        [79.36855, 28.60077],
        [79.36551, 28.60251],
        [79.36483, 28.60309],
        [79.36422, 28.60374],
        [79.36376, 28.60467],
        [79.36351, 28.60561],
        [79.36346, 28.60615],
        [79.36355, 28.60653],
        [79.36363, 28.60691],
        [79.36415, 28.60756],
        [79.36465, 28.60793],
        [79.36494, 28.60801],
        [79.36551, 28.60818],
        [79.36572, 28.60826],
        [79.366, 28.60827],
        [79.36636, 28.60829],
        [79.36664, 28.60831],
        [79.36692, 28.60832],
        [79.36713, 28.60841],
        [79.36735, 28.60869],
        [79.36758, 28.60898],
        [79.36773, 28.6094],
        [79.36802, 28.60962],
        [79.36881, 28.60991],
        [79.36965, 28.60995],
        [79.37056, 28.60987],
        [79.3716, 28.60972],
        [79.37217, 28.60975],
        [79.37359, 28.61024],
        [79.37395, 28.6106],
        [79.37417, 28.61096],
        [79.37398, 28.61136],
        [79.3735, 28.61154],
        [79.37315, 28.61159],
        [79.37239, 28.61175],
        [79.37212, 28.61207],
        [79.37165, 28.61266],
        [79.37132, 28.61312],
        [79.37091, 28.61337],
        [79.36982, 28.61406],
        [79.3695, 28.61452],
        [79.36938, 28.6152],
        [79.36962, 28.61569],
        [79.37006, 28.61619],
        [79.37057, 28.61656],
        [79.37087, 28.61699],
        [79.37084, 28.61718],
        [79.37082, 28.61739],
        [79.37062, 28.61759],
        [79.36992, 28.61761],
        [79.36914, 28.61757],
        [79.36831, 28.61752],
        [79.36797, 28.61778],
        [79.36777, 28.61811],
        [79.36779, 28.61852],
        [79.36795, 28.61894],
        [79.36839, 28.61931],
        [79.36947, 28.61991],
        [79.37005, 28.62029],
        [79.37035, 28.62065],
        [79.37054, 28.62155],
        [79.37055, 28.62182],
        [79.37056, 28.62209],
        [79.37043, 28.62229],
        [79.37009, 28.62248],
        [79.36932, 28.62243],
        [79.36834, 28.62231],
        [79.36756, 28.62206],
        [79.36625, 28.6213],
        [79.36559, 28.62058],
        [79.3652, 28.61987],
        [79.36496, 28.61939],
        [79.36487, 28.61897],
        [79.36477, 28.61842],
        [79.3646, 28.61765],
        [79.36406, 28.61681],
        [79.3634, 28.61622],
        [79.3629, 28.61592],
        [79.36227, 28.61595],
        [79.3613, 28.61631],
        [79.36077, 28.61696],
        [79.36053, 28.61763],
        [79.36054, 28.61783],
        [79.36056, 28.61825],
        [79.36073, 28.6188],
        [79.36077, 28.61949],
        [79.36093, 28.62004],
        [79.36152, 28.62062],
        [79.36176, 28.62111],
        [79.3617, 28.62131],
        [79.3615, 28.62137],
        [79.36122, 28.62135],
        [79.36078, 28.62112],
        [79.35993, 28.62101],
        [79.35973, 28.62113],
        [79.3592, 28.62164],
        [79.35895, 28.62224],
        [79.3587, 28.62271],
        [79.35857, 28.62297],
        [79.35831, 28.62316],
        [79.35783, 28.62347],
        [79.35734, 28.62344],
        [79.35663, 28.6232],
        [79.35639, 28.62291],
        [79.3561, 28.62262],
        [79.35579, 28.62219],
        [79.35564, 28.62198],
        [79.35535, 28.62176],
        [79.35514, 28.62174],
        [79.35486, 28.6218],
        [79.35473, 28.62206],
        [79.35447, 28.62239],
        [79.35368, 28.62329],
        [79.35334, 28.62348],
        [79.35292, 28.62345],
        [79.35255, 28.62316],
        [79.35216, 28.62252],
        [79.35177, 28.62182],
        [79.35117, 28.6211],
        [79.35012, 28.62002],
        [79.34938, 28.61943],
        [79.3488, 28.61912],
        [79.34815, 28.61881],
        [79.34716, 28.61868],
        [79.34645, 28.61864],
        [79.34601, 28.61855],
        [79.34565, 28.61847],
        [79.34159, 28.61626],
        [79.34032, 28.61553],
        [79.33961, 28.61497],
        [79.33904, 28.61441],
        [79.33846, 28.61372],
        [79.33746, 28.61301],
        [79.33691, 28.61271],
        [79.3362, 28.61228],
        [79.33599, 28.61207],
        [79.33577, 28.61186],
        [79.33533, 28.61131],
        [79.33358, 28.60611],
        [79.33299, 28.60529],
        [79.33271, 28.60508],
        [79.33243, 28.60487],
        [79.33159, 28.60456],
        [79.33104, 28.60453],
        [79.33024, 28.60487],
        [79.32267, 28.6095],
        [79.32057, 28.61131],
        [79.32032, 28.61157],
        [79.31916, 28.61278],
        [79.31869, 28.61418],
        [79.31848, 28.61507],
        [79.31829, 28.61636],
        [79.31786, 28.61814],
        [79.31742, 28.61967],
        [79.31668, 28.62078],
        [79.31595, 28.6219],
        [79.31546, 28.62264],
        [79.3153, 28.62405],
        [79.31553, 28.62523],
        [79.31589, 28.62629],
        [79.31637, 28.6271],
        [79.3171, 28.6278],
        [79.31801, 28.62887],
        [79.32024, 28.63098],
        [79.32111, 28.63169],
        [79.32236, 28.63204],
        [79.32332, 28.63224],
        [79.32453, 28.63207],
        [79.32544, 28.63198],
        [79.3268, 28.63184],
        [79.32778, 28.63217],
        [79.32824, 28.63285],
        [79.32842, 28.63339],
        [79.32835, 28.63403],
        [79.3281, 28.6342],
        [79.32784, 28.63439],
        [79.32624, 28.63466],
        [79.32478, 28.63482],
        [79.32399, 28.63502],
        [79.32334, 28.63536],
        [79.32246, 28.63594],
        [79.31179, 28.64244],
        [79.31058, 28.64336],
        [79.30993, 28.64446],
        [79.30971, 28.64572],
        [79.30966, 28.64727],
        [79.31009, 28.64938],
        [79.31019, 28.65011],
        [79.3103, 28.65083],
        [79.31054, 28.65131],
        [79.3114, 28.65302],
        [79.31251, 28.65431],
        [79.31362, 28.65492],
        [79.31423, 28.65525],
        [79.31606, 28.65608],
        [79.31704, 28.65644],
        [79.31864, 28.65658],
        [79.3198, 28.6555],
        [79.32069, 28.6553],
        [79.32108, 28.65522],
        [79.32216, 28.65544],
        [79.32322, 28.65632],
        [79.32468, 28.65736],
        [79.32655, 28.65845],
        [79.32713, 28.65865],
        [79.3285, 28.65913],
        [79.33035, 28.6592],
        [79.33141, 28.65924],
        [79.33344, 28.65966],
        [79.33444, 28.66013],
        [79.33523, 28.66112],
        [79.33575, 28.66195],
        [79.33587, 28.66276],
        [79.33573, 28.66368],
        [79.335, 28.66588],
        [79.33475, 28.66694],
        [79.33506, 28.66816],
        [79.33554, 28.66931],
        [79.33565, 28.66955],
        [79.33595, 28.67034],
        [79.33649, 28.67177],
        [79.33685, 28.67342],
        [79.33685, 28.67437],
        [79.33686, 28.67532],
        [79.33638, 28.67666],
        [79.33644, 28.67803],
        [79.33692, 28.67958],
        [79.33773, 28.68074],
        [79.34155, 28.68425],
        [79.34212, 28.68478],
        [79.34276, 28.68566],
        [79.34316, 28.68679],
        [79.34341, 28.68752],
        [79.34376, 28.68992],
        [79.34479, 28.69168],
        [79.34574, 28.69287],
        [79.34726, 28.69438],
        [79.3482, 28.69543],
        [79.34918, 28.69793],
        [79.34957, 28.70083],
        [79.35057, 28.70332],
        [79.35152, 28.70451],
        [79.35295, 28.7053],
        [79.3546, 28.7058],
        [79.35568, 28.70599],
        [79.35643, 28.70659],
        [79.35752, 28.70389],
        [79.35825, 28.70279],
        [79.35923, 28.7018],
        [79.36039, 28.7009],
        [79.36111, 28.69973],
        [79.36252, 28.69742],
        [79.36386, 28.69776],
        [79.36643, 28.69809],
        [79.36712, 28.69832],
        [79.36733, 28.69849],
        [79.36799, 28.69901],
        [79.36868, 28.70014],
        [79.36975, 28.70195],
        [79.37041, 28.70289],
        [79.37293, 28.70505],
        [79.37918, 28.71043],
        [79.38019, 28.7113],
        [79.38148, 28.71264],
        [79.38185, 28.71324],
        [79.38188, 28.71353],
        [79.38206, 28.7152],
        [79.38218, 28.71611],
        [79.38261, 28.71671],
        [79.38643, 28.71909],
        [79.39307, 28.72398],
        [79.39353, 28.72433],
        [79.39446, 28.72487],
        [79.39709, 28.72565],
        [79.39802, 28.72626],
        [79.39862, 28.72691],
        [79.3992, 28.728],
        [79.40037, 28.73114],
        [79.40051, 28.73233],
        [79.4004, 28.73333],
        [79.39993, 28.73465],
        [79.39965, 28.7357],
        [79.39973, 28.73633],
        [79.40013, 28.7369],
        [79.40303, 28.73865],
        [79.40427, 28.73969],
        [79.40469, 28.74044],
        [79.40475, 28.74162],
        [79.40446, 28.74253],
        [79.40389, 28.74301],
        [79.40212, 28.74425],
        [79.40172, 28.74473],
        [79.40162, 28.74512],
        [79.40095, 28.74776],
        [79.40064, 28.74926],
        [79.3999, 28.75123],
        [79.39762, 28.7572],
        [79.39717, 28.75814],
        [79.4001, 28.76151],
        [79.40035, 28.76216],
        [79.40051, 28.76333],
        [79.40272, 28.76327],
        [79.40487, 28.76317],
        [79.40662, 28.76297],
        [79.40659, 28.76284],
        [79.40741, 28.76161],
        [79.40765, 28.7608],
        [79.40806, 28.7591],
        [79.4085, 28.75806],
        [79.40923, 28.75713],
        [79.40957, 28.75693],
        [79.41035, 28.75646],
        [79.41109, 28.75589],
        [79.41187, 28.75491],
        [79.4125, 28.7529],
        [79.41316, 28.75101],
        [79.41361, 28.75025],
        [79.41425, 28.74985],
        [79.41502, 28.74963],
        [79.41552, 28.74952],
        [79.41564, 28.74945],
        [79.41589, 28.74929],
        [79.41619, 28.74876],
        [79.41631, 28.7481],
        [79.41626, 28.74743],
        [79.41621, 28.74676],
        [79.41624, 28.74646],
        [79.42018, 28.74494],
        [79.4206, 28.74459],
        [79.42063, 28.74422],
        [79.42062, 28.7441],
        [79.42038, 28.74385],
        [79.4191, 28.74277],
        [79.41809, 28.74151],
        [79.41735, 28.74014],
        [79.41682, 28.73859],
        [79.41664, 28.73678],
        [79.4165, 28.73646],
        [79.41736, 28.73698]
      ]
    ]
  }
}
