{
  "type": "Feature",
  "id": "UP-AC-133",
  "properties": {
    "stateName": "UTTAR PRADESH",
    "stateCode": "UP",
    "districtName": "SHAHJAHANPUR",
    "acNo": 133,
    "acName": "GOLA GOKRANNATH",
    "seatType": null,
    "pcNo": null,
    "pcName": null,
    "quality": "unverified",
    "sources": [
      "TBD"
    ]
  },
  "geometry": {
    "type": "Polygon",
    "coordinates": [
      [
        [79.88549, 28.18163],
        [79.88522, 28.18157],
        [79.88498, 28.18136],
        [79.88478, 28.18067],
        [79.88447, 28.1797],
        [79.88426, 28.17906],
        [79.88419, 28.17868],
        [79.88432, 28.17838],
        [79.88469, 28.17808],
        [79.88491, 28.17794],
        [79.88508, 28.17781],
        [79.88534, 28.17745],
        [79.88567, 28.17712],
        [79.88601, 28.17706],
        [79.88621, 28.177],
        [79.88662, 28.17699],
        [79.88737, 28.17706],
        [79.88792, 28.17728],
        [79.88812, 28.17738],
        [79.88848, 28.17764],
        [79.88875, 28.17767],
        [79.8891, 28.17775],
        [79.88928, 28.17785],
        [79.88992, 28.17848],
        [79.89042, 28.1787],
        [79.89062, 28.17875],
        [79.89098, 28.17879],
        [79.89135, 28.17879],
        [79.89186, 28.17875],
        [79.89264, 28.17858],
        [79.8931, 28.17855],
        [79.89357, 28.17863],
        [79.89414, 28.17872],
        [79.89436, 28.17874],
        [79.89466, 28.17867],
        [79.89495, 28.17853],
        [79.89509, 28.17825],
        [79.8953, 28.17806],
        [79.89571, 28.17766],
        [79.89595, 28.17737],
        [79.8963, 28.17706],
        [79.8971, 28.17597],
        [79.8973, 28.17566],
        [79.89732, 28.17537],
        [79.89734, 28.17509],
        [79.89743, 28.17479],
        [79.89842, 28.17347],
        [79.8986, 28.1733],
        [79.89876, 28.17316],
        [79.8991, 28.17316],
        [79.89981, 28.17372],
        [79.90043, 28.17442],
        [79.90079, 28.17456],
        [79.90109, 28.17459],
        [79.90146, 28.17462],
        [79.90221, 28.17476],
        [79.90258, 28.17463],
        [79.90276, 28.17436],
        [79.90277, 28.17416],
        [79.90277, 28.17387],
        [79.90287, 28.17351],
        [79.90301, 28.17322],
        [79.90315, 28.17303],
        [79.90326, 28.17275],
        [79.90326, 28.17245],
        [79.90331, 28.17219],
        [79.9034, 28.17197],
        [79.90362, 28.1716],
        [79.90392, 28.17102],
        [79.90408, 28.17082],
        [79.90441, 28.17048],
        [79.90484, 28.17019],
        [79.90503, 28.17],
        [79.90517, 28.16984],
        [79.90537, 28.16953],
        [79.90587, 28.16908],
        [79.90607, 28.16898],
        [79.90649, 28.16855],
        [79.90689, 28.16833],
        [79.90731, 28.16831],
        [79.90751, 28.16846],
        [79.90758, 28.16874],
        [79.90756, 28.16893],
        [79.90749, 28.16913],
        [79.90748, 28.16943],
        [79.90773, 28.16987],
        [79.90801, 28.17034],
        [79.90804, 28.17061],
        [79.90803, 28.1709],
        [79.90796, 28.17157],
        [79.908, 28.17203],
        [79.90807, 28.17245],
        [79.90843, 28.17304],
        [79.90877, 28.17307],
        [79.9092, 28.17301],
        [79.90945, 28.1728],
        [79.90949, 28.17259],
        [79.90955, 28.17233],
        [79.90958, 28.17205],
        [79.90966, 28.17181],
        [79.90976, 28.17163],
        [79.90998, 28.1713],
        [79.91054, 28.17084],
        [79.91119, 28.16997],
        [79.91134, 28.1698],
        [79.91189, 28.16959],
        [79.9125, 28.16942],
        [79.91281, 28.16928],
        [79.91298, 28.16876],
        [79.91324, 28.16814],
        [79.91353, 28.16788],
        [79.91416, 28.1674],
        [79.91429, 28.16725],
        [79.91431, 28.16701],
        [79.9143, 28.16669],
        [79.91418, 28.16635],
        [79.91416, 28.166],
        [79.9142, 28.16575],
        [79.91427, 28.16524],
        [79.91418, 28.16483],
        [79.91413, 28.16446],
        [79.91411, 28.16346],
        [79.91411, 28.16307],
        [79.91409, 28.16272],
        [79.91392, 28.16241],
        [79.91373, 28.1622],
        [79.91341, 28.16199],
        [79.91348, 28.16176],
        [79.91358, 28.1615],
        [79.91357, 28.1613],
        [79.91323, 28.16113],
        [79.91302, 28.16117],
        [79.91267, 28.16129],
        [79.91235, 28.16134],
        [79.91212, 28.16115],
        [79.91218, 28.16092],
        [79.91253, 28.16044],
        [79.91255, 28.1602],
        [79.9124, 28.15994],
        [79.91221, 28.15985],
        [79.91199, 28.15979],
        [79.91177, 28.15967],
        [79.91147, 28.15947],
        [79.91119, 28.15925],
        [79.91109, 28.15903],
        [79.91104, 28.1588],
        [79.91098, 28.15856],
        [79.9102, 28.15846],
        [79.90918, 28.15871],
        [79.9082, 28.15917],
        [79.90775, 28.15921],
        [79.90752, 28.15919],
        [79.90732, 28.15914],
        [79.90712, 28.15906],
        [79.90653, 28.15879],
        [79.90626, 28.15869],
        [79.90594, 28.15859],
        [79.90572, 28.15856],
        [79.90545, 28.15856],
        [79.90514, 28.15842],
        [79.90492, 28.15814],
        [79.90483, 28.15788],
        [79.90472, 28.15769],
        [79.90461, 28.1575],
        [79.90431, 28.1573],
        [79.90402, 28.15719],
        [79.90313, 28.15692],
        [79.90275, 28.15679],
        [79.90217, 28.15651],
        [79.90174, 28.15608],
        [79.90147, 28.15562],
        [79.90137, 28.15513],
        [79.90134, 28.15475],
        [79.90137, 28.15431],
        [79.90142, 28.15394],
        [79.90154, 28.15348],
        [79.90173, 28.15301],
        [79.90228, 28.15242],
        [79.90276, 28.15222],
        [79.90372, 28.15199],
        [79.9046, 28.15181],
        [79.90518, 28.15155],
        [79.9064, 28.15087],
        [79.9068, 28.15072],
        [79.90731, 28.1506],
        [79.90794, 28.15054],
        [79.90934, 28.15059],
        [79.91042, 28.15076],
        [79.91114, 28.15104],
        [79.91148, 28.15085],
        [79.91233, 28.14961],
        [79.91257, 28.14948],
        [79.91302, 28.14931],
        [79.91369, 28.14918],
        [79.9145, 28.14883],
        [79.91517, 28.14831],
        [79.91525, 28.14799],
        [79.91519, 28.14769],
        [79.91453, 28.14693],
        [79.9144, 28.14673],
        [79.91437, 28.14636],
        [79.91436, 28.14618],
        [79.91427, 28.14594],
        [79.91395, 28.1458],
        [79.91364, 28.14568],
        [79.91323, 28.1456],
        [79.913, 28.14548],
        [79.91282, 28.14523],
        [79.9125, 28.14516],
        [79.91235, 28.1453],
        [79.91223, 28.14555],
        [79.91195, 28.14568],
        [79.91163, 28.14533],
        [79.91127, 28.14516],
        [79.91061, 28.14489],
        [79.90975, 28.14463],
        [79.90934, 28.14461],
        [79.90905, 28.14464],
        [79.90876, 28.14466],
        [79.9085, 28.14452],
        [79.90819, 28.14432],
        [79.90795, 28.14418],
        [79.90765, 28.14416],
        [79.90725, 28.14419],
        [79.90697, 28.1442],
        [79.90655, 28.14403],
        [79.90641, 28.14389],
        [79.90619, 28.14378],
        [79.90595, 28.14367],
        [79.90571, 28.14362],
        [79.90533, 28.14364],
        [79.90505, 28.14364],
        [79.90476, 28.14362],
        [79.90455, 28.14353],
        [79.90434, 28.14324],
        [79.9043, 28.14296],
        [79.9042, 28.14276],
        [79.90394, 28.14256],
        [79.90369, 28.14234],
        [79.90369, 28.14215],
        [79.90373, 28.14184],
        [79.90429, 28.14118],
        [79.90436, 28.14086],
        [79.90455, 28.14052],
        [79.90514, 28.13999],
        [79.90537, 28.1397],
        [79.90554, 28.13941],
        [79.9065, 28.13886],
        [79.90748, 28.13852],
        [79.90771, 28.13857],
        [79.9079, 28.13868],
        [79.908, 28.13895],
        [79.90813, 28.13929],
        [79.9082, 28.13968],
        [79.90844, 28.13985],
        [79.90868, 28.1399],
        [79.90917, 28.13985],
        [79.90943, 28.13977],
        [79.90953, 28.13958],
        [79.90953, 28.13932],
        [79.90953, 28.13902],
        [79.90956, 28.13878],
        [79.91, 28.13865],
        [79.91033, 28.13875],
        [79.91075, 28.13857],
        [79.91128, 28.13777],
        [79.91142, 28.13757],
        [79.91169, 28.13726],
        [79.91198, 28.13712],
        [79.91222, 28.13697],
        [79.91266, 28.13692],
        [79.91292, 28.13689],
        [79.91315, 28.13666],
        [79.91342, 28.13654],
        [79.91361, 28.13644],
        [79.91385, 28.13611],
        [79.91397, 28.1359],
        [79.9141, 28.13563],
        [79.9142, 28.13542],
        [79.91434, 28.13523],
        [79.91488, 28.13498],
        [79.91506, 28.13485],
        [79.91508, 28.13467],
        [79.91506, 28.13441],
        [79.91494, 28.13424],
        [79.91467, 28.13414],
        [79.91444, 28.13414],
        [79.914, 28.13426],
        [79.91375, 28.1343],
        [79.91342, 28.13424],
        [79.91315, 28.13417],
        [79.9129, 28.13416],
        [79.91266, 28.13417],
        [79.91223, 28.1344],
        [79.91196, 28.13467],
        [79.91166, 28.13489],
        [79.9113, 28.13489],
        [79.91087, 28.13496],
        [79.91042, 28.13511],
        [79.90995, 28.13526],
        [79.90972, 28.13523],
        [79.90941, 28.13518],
        [79.90917, 28.13504],
        [79.90893, 28.13474],
        [79.90858, 28.13464],
        [79.90831, 28.13468],
        [79.90745, 28.13496],
        [79.90499, 28.13641],
        [79.90347, 28.13739],
        [79.90048, 28.13992],
        [79.89895, 28.14137],
        [79.89871, 28.1414],
        [79.89831, 28.14143],
        [79.89791, 28.14143],
        [79.89743, 28.14146],
        [79.89712, 28.14146],
        [79.89689, 28.14141],
        [79.89667, 28.14105],
        [79.8965, 28.14085],
        [79.89643, 28.14062],
        [79.89653, 28.14024],
        [79.89674, 28.14014],
        [79.87056, 28.12178],
        [79.86881, 28.11884],
        [79.86863, 28.11811],
        [79.86798, 28.11553],
        [79.86804, 28.11475],
        [79.86793, 28.11342],
        [79.86842, 28.10957],
        [79.86853, 28.10916],
        [79.8688, 28.10816],
        [79.87494, 28.10216],
        [79.87538, 28.10173],
        [79.87658, 28.10099],
        [79.8779, 28.10058],
        [79.87846, 28.10078],
        [79.88042, 28.10173],
        [79.88198, 28.1018],
        [79.88376, 28.10186],
        [79.89463, 28.09708],
        [79.89568, 28.09673],
        [79.89642, 28.09687],
        [79.897, 28.09701],
        [79.8977, 28.09779],
        [79.89808, 28.09922],
        [79.89953, 28.10296],
        [79.90062, 28.10468],
        [79.90174, 28.10584],
        [79.90225, 28.10576],
        [79.90443, 28.10541],
        [79.90652, 28.10494],
        [79.9085, 28.1038],
        [79.90927, 28.09961],
        [79.90921, 28.09926],
        [79.90904, 28.09811],
        [79.90902, 28.09534],
        [79.90913, 28.09324],
        [79.90964, 28.09182],
        [79.90964, 28.09146],
        [79.90962, 28.08923],
        [79.90901, 28.08701],
        [79.91371, 28.0833],
        [79.91438, 28.08264],
        [79.91529, 28.08221],
        [79.91724, 28.08145],
        [79.91879, 28.08092],
        [79.91952, 28.08043],
        [79.91976, 28.08014],
        [79.92034, 28.07866],
        [79.92051, 28.0778],
        [79.92134, 28.07808],
        [79.92165, 28.07816],
        [79.9219, 28.07831],
        [79.92214, 28.07853],
        [79.92395, 28.07554],
        [79.92476, 28.07467],
        [79.92538, 28.07395],
        [79.92597, 28.07348],
        [79.92809, 28.07246],
        [79.93011, 28.07175],
        [79.93239, 28.0711],
        [79.93448, 28.07065],
        [79.93564, 28.07048],
        [79.93843, 28.07023],
        [79.94037, 28.07002],
        [79.94199, 28.06993],
        [79.94328, 28.07002],
        [79.94412, 28.0702],
        [79.94501, 28.07048],
        [79.94559, 28.07065],
        [79.94637, 28.07065],
        [79.94733, 28.07065],
        [79.94807, 28.06939],
        [79.9485, 28.06847],
        [79.95038, 28.06802],
        [79.95135, 28.06805],
        [79.95329, 28.06866],
        [79.95394, 28.06864],
        [79.95565, 28.06823],
        [79.95685, 28.06782],
        [79.95779, 28.06718],
        [79.9586, 28.06633],
        [79.95929, 28.06522],
        [79.95969, 28.06331],
        [79.96007, 28.06174],
        [79.96033, 28.06121],
        [79.96075, 28.06314],
        [79.96094, 28.06359],
        [79.96128, 28.06397],
        [79.96222, 28.06491],
        [79.96276, 28.06556],
        [79.96333, 28.06692],
        [79.96343, 28.06719],
        [79.96442, 28.0666],
        [79.96515, 28.06624],
        [79.9664, 28.0659],
        [79.9675, 28.06554],
        [79.9714, 28.06473],
        [79.97132, 28.0644],
        [79.9718, 28.06397],
        [79.97217, 28.0636],
        [79.97249, 28.06296],
        [79.97306, 28.06092],
        [79.97343, 28.06036],
        [79.97412, 28.05989],
        [79.97631, 28.05911],
        [79.97846, 28.05877],
        [79.97978, 28.05855],
        [79.98083, 28.05859],
        [79.98183, 28.05874],
        [79.98346, 28.05895],
        [79.98468, 28.05908],
        [79.98497, 28.05852],
        [79.9853, 28.05811],
        [79.98594, 28.05785],
        [79.98935, 28.0568],
        [79.99191, 28.05638],
        [79.9948, 28.05617],
        [79.99555, 28.05586],
        [79.99598, 28.05558],
        [79.99652, 28.05506],
        [79.9966, 28.05485],
        [79.9977, 28.05405],
        [79.99813, 28.05372],
        [79.99856, 28.05368],
        [79.99899, 28.05378],
        [79.99969, 28.0539],
        [80.00054, 28.05386],
        [80.00587, 28.05321],
        [80.00603, 28.05393],
        [80.00713, 28.05596],
        [80.00885, 28.0578],
        [80.01008, 28.05894],
        [80.01288, 28.06078],
        [80.01501, 28.06194],
        [80.01586, 28.06267],
        [80.01926, 28.06202],
        [80.0196, 28.06203],
        [80.02037, 28.06205],
        [80.02118, 28.0623],
        [80.02182, 28.06262],
        [80.02332, 28.06371],
        [80.0241, 28.06427],
        [80.02654, 28.06608],
        [80.02805, 28.06774],
        [80.03039, 28.0669],
        [80.03229, 28.06598],
        [80.03428, 28.06474],
        [80.03579, 28.06348],
        [80.03708, 28.06266],
        [80.03777, 28.06171],
        [80.03832, 28.06255],
        [80.03893, 28.06476],
        [80.04, 28.06442],
        [80.04122, 28.06354],
        [80.04202, 28.06275],
        [80.04281, 28.06221],
        [80.04429, 28.06156],
        [80.04522, 28.06107],
        [80.04594, 28.06066],
        [80.04694, 28.06139],
        [80.04801, 28.06224],
        [80.04981, 28.06366],
        [80.05108, 28.06449],
        [80.05194, 28.0653],
        [80.05238, 28.06594],
        [80.05328, 28.06601],
        [80.05437, 28.06533],
        [80.0561, 28.06417],
        [80.05813, 28.06288],
        [80.05977, 28.06223],
        [80.06135, 28.06146],
        [80.06202, 28.06197],
        [80.06372, 28.0626],
        [80.06421, 28.06291],
        [80.06511, 28.06166],
        [80.06572, 28.06076],
        [80.06692, 28.05934],
        [80.06804, 28.05811],
        [80.06896, 28.05682],
        [80.07001, 28.0556],
        [80.07068, 28.05476],
        [80.07119, 28.05442],
        [80.07248, 28.05397],
        [80.07361, 28.05391],
        [80.07412, 28.05399],
        [80.075, 28.0529],
        [80.07526, 28.05203],
        [80.07504, 28.05075],
        [80.07503, 28.04947],
        [80.07535, 28.04859],
        [80.07599, 28.04718],
        [80.07675, 28.04761],
        [80.07765, 28.04766],
        [80.07886, 28.04748],
        [80.08044, 28.04713],
        [80.08264, 28.04681],
        [80.08352, 28.04668],
        [80.0848, 28.04645],
        [80.08642, 28.04651],
        [80.08768, 28.04654],
        [80.08883, 28.04658],
        [80.09043, 28.04712],
        [80.09083, 28.04676],
        [80.09114, 28.04658],
        [80.09164, 28.04629],
        [80.09201, 28.04612],
        [80.0925, 28.04609],
        [80.09292, 28.04612],
        [80.09351, 28.04634],
        [80.09408, 28.04543],
        [80.09439, 28.04484],
        [80.09482, 28.04409],
        [80.0953, 28.04338],
        [80.09719, 28.04153],
        [80.09846, 28.04059],
        [80.09967, 28.03994],
        [80.10081, 28.03973],
        [80.10138, 28.03975],
        [80.10232, 28.03979],
        [80.10399, 28.04012],
        [80.10475, 28.04052],
        [80.10525, 28.03981],
        [80.10584, 28.03929],
        [80.107, 28.03854],
        [80.10811, 28.0378],
        [80.10962, 28.03679],
        [80.11094, 28.03567],
        [80.11175, 28.03514],
        [80.11274, 28.0345],
        [80.11501, 28.0332],
        [80.1178, 28.03156],
        [80.11984, 28.03035],
        [80.12095, 28.02959],
        [80.12201, 28.02868],
        [80.12289, 28.02779],
        [80.12371, 28.02705],
        [80.12418, 28.02662],
        [80.12521, 28.02547],
        [80.12566, 28.0253],
        [80.12608, 28.02651],
        [80.12642, 28.02717],
        [80.12677, 28.02754],
        [80.12716, 28.02783],
        [80.12747, 28.02806],
        [80.12962, 28.0277],
        [80.13036, 28.02733],
        [80.13184, 28.02649],
        [80.13436, 28.02598],
        [80.13472, 28.02598],
        [80.13705, 28.02597],
        [80.13864, 28.02617],
        [80.14087, 28.02666],
        [80.14231, 28.02707],
        [80.14364, 28.02793],
        [80.14462, 28.02893],
        [80.14463, 28.02962],
        [80.14827, 28.02534],
        [80.14868, 28.0245],
        [80.15158, 28.02424],
        [80.15262, 28.0243],
        [80.15355, 28.02464],
        [80.15438, 28.02497],
        [80.15494, 28.02552],
        [80.15501, 28.02562],
        [80.16007, 28.02281],
        [80.15855, 28.02156],
        [80.15532, 28.01992],
        [80.15459, 28.01895],
        [80.15415, 28.01881],
        [80.15366, 28.01909],
        [80.15285, 28.01984],
        [80.15205, 28.02067],
        [80.15154, 28.02043],
        [80.15054, 28.01974],
        [80.14855, 28.0183],
        [80.14777, 28.01767],
        [80.14769, 28.01735],
        [80.14796, 28.01678],
        [80.14771, 28.01636],
        [80.14713, 28.01553],
        [80.14588, 28.01397],
        [80.14546, 28.01389],
        [80.14478, 28.01427],
        [80.144, 28.01492],
        [80.14352, 28.01433],
        [80.14521, 28.01281],
        [80.14703, 28.0115],
        [80.14521, 28.00982],
        [80.14319, 28.00794],
        [80.14277, 28.00778],
        [80.14162, 28.0078],
        [80.14089, 28.00741],
        [80.13841, 28.00608],
        [80.13632, 28.0049],
        [80.13603, 28.0049],
        [80.13453, 28.00595],
        [80.13296, 28.00737],
        [80.13236, 28.00715],
        [80.13082, 28.00605],
        [80.12761, 28.00365],
        [80.12554, 28.00217],
        [80.12461, 28.00263],
        [80.124, 28.00211],
        [80.12305, 28.00101],
        [80.12156, 27.99601],
        [80.12085, 27.99394],
        [80.11947, 27.99105],
        [80.1176, 27.98796],
        [80.11726, 27.98812],
        [80.11693, 27.98749],
        [80.11713, 27.98731],
        [80.11656, 27.98621],
        [80.1158, 27.98521],
        [80.11512, 27.98443],
        [80.11501, 27.98385],
        [80.1153, 27.98278],
        [80.11548, 27.98202],
        [80.11601, 27.9811],
        [80.11766, 27.97953],
        [80.11808, 27.97895],
        [80.11797, 27.97869],
        [80.11742, 27.97838],
        [80.11606, 27.97798],
        [80.11574, 27.97675],
        [80.11506, 27.97429],
        [80.1149, 27.97345],
        [80.11485, 27.97261],
        [80.11417, 27.97199],
        [80.11323, 27.97086],
        [80.11258, 27.97018],
        [80.11168, 27.96963],
        [80.11056, 27.96949],
        [80.10895, 27.96965],
        [80.10586, 27.96963],
        [80.10466, 27.9697],
        [80.10343, 27.9697],
        [80.10214, 27.9696],
        [80.1019, 27.96952],
        [80.10167, 27.96928],
        [80.10165, 27.96908],
        [80.10165, 27.96874],
        [80.10178, 27.96834],
        [80.10319, 27.96769],
        [80.10437, 27.96687],
        [80.10492, 27.96661],
        [80.10532, 27.96596],
        [80.10545, 27.96449],
        [80.10154, 27.96292],
        [80.09706, 27.96074],
        [80.09661, 27.96043],
        [80.09504, 27.96012],
        [80.09394, 27.95988],
        [80.0936, 27.95944],
        [80.09294, 27.9581],
        [80.09258, 27.95563],
        [80.09182, 27.9537],
        [80.09093, 27.95236],
        [80.09145, 27.95131],
        [80.09148, 27.9505],
        [80.09127, 27.94951],
        [80.09069, 27.94872],
        [80.08996, 27.94859],
        [80.09082, 27.94697],
        [80.09177, 27.94508],
        [80.0919, 27.94448],
        [80.09211, 27.94031],
        [80.09405, 27.93787],
        [80.09491, 27.9368],
        [80.09412, 27.93607],
        [80.09229, 27.93497],
        [80.0915, 27.93447],
        [80.08991, 27.93394],
        [80.08859, 27.93329],
        [80.08802, 27.93311],
        [80.08724, 27.93311],
        [80.08569, 27.93201],
        [80.08399, 27.93062],
        [80.08259, 27.93156],
        [80.08162, 27.93059],
        [80.08089, 27.92954],
        [80.08021, 27.92889],
        [80.07866, 27.92831],
        [80.07835, 27.92826],
        [80.07601, 27.9297],
        [80.07174, 27.93235],
        [80.07109, 27.93258],
        [80.07256, 27.93471],
        [80.0736, 27.93628],
        [80.07331, 27.93698],
        [80.07313, 27.9378],
        [80.07326, 27.93837],
        [80.0734, 27.93877],
        [80.07316, 27.93953],
        [80.07238, 27.94016],
        [80.07227, 27.94065],
        [80.07193, 27.94099],
        [80.07064, 27.94139],
        [80.07012, 27.94131],
        [80.06894, 27.94003],
        [80.06679, 27.93788],
        [80.06579, 27.93651],
        [80.06551, 27.93588],
        [80.06514, 27.93565],
        [80.06493, 27.93565],
        [80.06491, 27.93588],
        [80.06493, 27.9362],
        [80.06482, 27.93646],
        [80.06414, 27.93683],
        [80.06391, 27.93719],
        [80.06398, 27.93756],
        [80.06391, 27.93785],
        [80.06352, 27.93801],
        [80.06281, 27.93837],
        [80.06254, 27.93843],
        [80.0625, 27.93811],
        [80.06252, 27.93782],
        [80.0621, 27.9378],
        [80.06168, 27.93811],
        [80.06142, 27.93819],
        [80.06121, 27.93821],
        [80.06095, 27.93816],
        [80.0609, 27.93785],
        [80.0605, 27.93795],
        [80.05887, 27.93793],
        [80.05578, 27.9384],
        [80.05392, 27.93877],
        [80.05321, 27.93837],
        [80.05141, 27.93601],
        [80.05052, 27.93586],
        [80.04994, 27.93596],
        [80.04861, 27.93536],
        [80.04839, 27.93528],
        [80.0489, 27.9346],
        [80.04941, 27.93418],
        [80.04983, 27.93442],
        [80.0501, 27.93439],
        [80.05204, 27.93339],
        [80.05235, 27.93326],
        [80.05251, 27.93298],
        [80.05224, 27.93224],
        [80.05159, 27.93022],
        [80.05125, 27.92905],
        [80.0512, 27.92863],
        [80.0512, 27.9276],
        [80.04978, 27.92739],
        [80.04918, 27.92724],
        [80.04813, 27.92622],
        [80.04677, 27.92517],
        [80.04587, 27.92407],
        [80.04514, 27.92394],
        [80.04444, 27.92258],
        [80.03896, 27.92266],
        [80.03668, 27.92276],
        [80.03605, 27.92349],
        [80.0338, 27.92446],
        [80.0332, 27.92433],
        [80.03293, 27.9241],
        [80.03322, 27.92357],
        [80.03309, 27.92247],
        [80.03359, 27.92127],
        [80.03413, 27.92087],
        [80.03521, 27.92024],
        [80.03532, 27.91938],
        [80.03558, 27.91854],
        [80.03581, 27.91809],
        [80.03621, 27.9178],
        [80.03629, 27.91749],
        [80.03645, 27.91718],
        [80.03689, 27.91686],
        [80.03694, 27.9166],
        [80.03663, 27.91629],
        [80.03639, 27.91603],
        [80.03629, 27.91574],
        [80.03621, 27.91529],
        [80.03608, 27.91506],
        [80.03464, 27.91477],
        [80.03367, 27.91469],
        [80.0333, 27.91467],
        [80.0332, 27.9144],
        [80.03325, 27.91406],
        [80.03356, 27.91372],
        [80.03346, 27.91155],
        [80.03382, 27.9105],
        [80.03401, 27.91003],
        [80.03388, 27.90922],
        [80.0338, 27.90894],
        [80.02501, 27.91021],
        [80.01945, 27.91098],
        [80.01787, 27.91117],
        [80.0165, 27.91132],
        [80.01378, 27.91167],
        [80.01251, 27.91117],
        [80.01213, 27.91102],
        [80.01112, 27.90975],
        [80.01094, 27.90924],
        [80.01034, 27.90755],
        [80.00993, 27.90638],
        [80.00935, 27.90452],
        [80.00846, 27.90376],
        [80.00729, 27.90392],
        [80.00611, 27.90427],
        [80.00431, 27.90505],
        [80.00234, 27.90567],
        [80.00193, 27.90573],
        [80.00059, 27.90592],
        [79.99894, 27.90507],
        [79.9979, 27.90379],
        [79.99637, 27.9015],
        [79.99549, 27.90054],
        [79.99417, 27.90018],
        [79.99282, 27.90017],
        [79.99165, 27.90031],
        [79.98908, 27.90099],
        [79.98588, 27.90244],
        [79.98442, 27.90368],
        [79.9832, 27.90472],
        [79.97647, 27.9152],
        [79.97642, 27.91529],
        [79.97538, 27.91713],
        [79.97507, 27.9188],
        [79.97525, 27.92047],
        [79.9753, 27.92095],
        [79.97597, 27.92234],
        [79.97885, 27.9262],
        [79.98225, 27.93073],
        [79.98222, 27.93118],
        [79.98217, 27.93183],
        [79.98153, 27.93301],
        [79.97954, 27.93416],
        [79.9749, 27.93524],
        [79.97294, 27.936],
        [79.97234, 27.93643],
        [79.9717, 27.9376],
        [79.97102, 27.93932],
        [79.97082, 27.9402],
        [79.97046, 27.94182],
        [79.96918, 27.94762],
        [79.96828, 27.94935],
        [79.96767, 27.95054],
        [79.96086, 27.95832],
        [79.95926, 27.96014],
        [79.95634, 27.96347],
        [79.95357, 27.96662],
        [79.95182, 27.96712],
        [79.94971, 27.96708],
        [79.9464, 27.96468],
        [79.9444, 27.96293],
        [79.94349, 27.96237],
        [79.94274, 27.96191],
        [79.94121, 27.96181],
        [79.9393, 27.96191],
        [79.93841, 27.96195],
        [79.93757, 27.96199],
        [79.93508, 27.96387],
        [79.93212, 27.96611],
        [79.93009, 27.96763],
        [79.92938, 27.96816],
        [79.92628, 27.96884],
        [79.92396, 27.96929],
        [79.92205, 27.96935],
        [79.91883, 27.96887],
        [79.91734, 27.96816],
        [79.91483, 27.9654],
        [79.91338, 27.96393],
        [79.91212, 27.96264],
        [79.91136, 27.96247],
        [79.9106, 27.96248],
        [79.90868, 27.9627],
        [79.90691, 27.96347],
        [79.9036, 27.96638],
        [79.89855, 27.97079],
        [79.89307, 27.97558],
        [79.89294, 27.9757],
        [79.89206, 27.97652],
        [79.89123, 27.97784],
        [79.89052, 27.98029],
        [79.89029, 27.98553],
        [79.89024, 27.98684],
        [79.88999, 27.9926],
        [79.88986, 27.99561],
        [79.88981, 27.99663],
        [79.88852, 27.99949],
        [79.88209, 28.00931],
        [79.88165, 28.01],
        [79.88042, 28.0117],
        [79.87902, 28.01301],
        [79.87417, 28.01695],
        [79.87269, 28.01202],
        [79.87178, 28.01081],
        [79.87122, 28.0104],
        [79.86951, 28.00974],
        [79.86697, 28.00984],
        [79.86385, 28.01011],
        [79.86133, 28.0102],
        [79.8602, 28.00956],
        [79.85994, 28.00941],
        [79.85906, 28.00892],
        [79.85771, 28.00886],
        [79.85713, 28.00883],
        [79.85553, 28.00973],
        [79.85455, 28.00988],
        [79.85435, 28.00987],
        [79.85359, 28.00983],
        [79.85266, 28.009],
        [79.85128, 28.00768],
        [79.85053, 28.00706],
        [79.84919, 28.00679],
        [79.84805, 28.00634],
        [79.8475, 28.00573],
        [79.84715, 28.00461],
        [79.84583, 28.0004],
        [79.84433, 27.99936],
        [79.84222, 27.99905],
        [79.84067, 27.99916],
        [79.83795, 27.9994],
        [79.83582, 27.99947],
        [79.83447, 27.99939],
        [79.83437, 27.99746],
        [79.83482, 27.99668],
        [79.83564, 27.99523],
        [79.83707, 27.99357],
        [79.83772, 27.99226],
        [79.83682, 27.99087],
        [79.83034, 27.98516],
        [79.82964, 27.98495],
        [79.82881, 27.9847],
        [79.82857, 27.98473],
        [79.82765, 27.98483],
        [79.8257, 27.98529],
        [79.82277, 27.98608],
        [79.8172, 27.98616],
        [79.81506, 27.98619],
        [79.81159, 27.98636],
        [79.80986, 27.98625],
        [79.8083, 27.98672],
        [79.80695, 27.98791],
        [79.8065, 27.9883],
        [79.80487, 27.99028],
        [79.80385, 27.99153],
        [79.80229, 27.99316],
        [79.80163, 27.99384],
        [79.79897, 27.99521],
        [79.79809, 27.99567],
        [79.79662, 27.99613],
        [79.79517, 27.99658],
        [79.78596, 27.99696],
        [79.78558, 27.99698],
        [79.78465, 27.99634],
        [79.78431, 27.99585],
        [79.78411, 27.99555],
        [79.78362, 27.99382],
        [79.78342, 27.9914],
        [79.7834, 27.99112],
        [79.78337, 27.9908],
        [79.78322, 27.98986],
        [79.78387, 27.98822],
        [79.7849, 27.98679],
        [79.78533, 27.9857],
        [79.78502, 27.98315],
        [79.78491, 27.9823],
        [79.78461, 27.98059],
        [79.78467, 27.9791],
        [79.78574, 27.97786],
        [79.7871, 27.97627],
        [79.78754, 27.97518],
        [79.78703, 27.97365],
        [79.78603, 27.97143],
        [79.78564, 27.97056],
        [79.78569, 27.96945],
        [79.78629, 27.96893],
        [79.79082, 27.96705],
        [79.79372, 27.96584],
        [79.7945, 27.9657],
        [79.79559, 27.96689],
        [79.79713, 27.9668],
        [79.798, 27.96566],
        [79.79836, 27.96519],
        [79.79841, 27.96407],
        [79.79789, 27.96291],
        [79.79716, 27.96212],
        [79.79588, 27.96074],
        [79.79616, 27.95888],
        [79.79638, 27.95815],
        [79.79643, 27.95703],
        [79.79632, 27.9569],
        [79.79607, 27.95663],
        [79.79548, 27.95679],
        [79.79508, 27.95714],
        [79.79432, 27.95709],
        [79.79415, 27.95652],
        [79.79424, 27.95466],
        [79.79506, 27.9534],
        [79.7956, 27.95306],
        [79.79586, 27.95289],
        [79.7976, 27.95261],
        [79.80334, 27.95311],
        [79.8047, 27.95281],
        [79.80551, 27.95192],
        [79.80596, 27.95063],
        [79.80582, 27.9495],
        [79.80529, 27.94875],
        [79.8026, 27.9484],
        [79.80165, 27.94797],
        [79.80132, 27.94684],
        [79.80117, 27.94608],
        [79.80022, 27.94566],
        [79.79933, 27.94513],
        [79.79895, 27.94509],
        [79.7931, 27.94446],
        [79.79044, 27.94431],
        [79.78849, 27.94387],
        [79.78737, 27.94314],
        [79.78688, 27.94224],
        [79.78598, 27.9406],
        [79.78498, 27.93954],
        [79.7833, 27.93821],
        [79.78138, 27.93722],
        [79.78036, 27.93671],
        [79.7792, 27.93665],
        [79.77724, 27.93665],
        [79.77654, 27.93661],
        [79.77621, 27.93619],
        [79.776, 27.93591],
        [79.77594, 27.93524],
        [79.77592, 27.93502],
        [79.77604, 27.93459],
        [79.77742, 27.92986],
        [79.77701, 27.92861],
        [79.776, 27.92789],
        [79.7756, 27.9274],
        [79.77523, 27.92696],
        [79.77448, 27.92558],
        [79.77441, 27.92524],
        [79.7741, 27.92378],
        [79.77416, 27.92223],
        [79.77723, 27.9155],
        [79.77717, 27.91427],
        [79.77699, 27.91387],
        [79.77675, 27.91336],
        [79.77576, 27.91209],
        [79.77565, 27.91102],
        [79.7756, 27.91042],
        [79.77589, 27.90888],
        [79.77585, 27.9071],
        [79.77544, 27.90586],
        [79.77419, 27.90547],
        [79.774, 27.90546],
        [79.77338, 27.90543],
        [79.77256, 27.9055],
        [79.77012, 27.90504],
        [79.76966, 27.90491],
        [79.76692, 27.904],
        [79.76617, 27.90344],
        [79.76502, 27.90258],
        [79.76348, 27.90062],
        [79.76282, 27.89992],
        [79.76124, 27.89896],
        [79.76009, 27.89879],
        [79.75798, 27.89859],
        [79.75674, 27.89885],
        [79.75243, 27.89995],
        [79.75226, 27.90001],
        [79.75044, 27.90063],
        [79.7502, 27.90071],
        [79.74834, 27.90117],
        [79.748, 27.90124],
        [79.74768, 27.9013],
        [79.74613, 27.9016],
        [79.74515, 27.90155],
        [79.74429, 27.9015],
        [79.74282, 27.90098],
        [79.74169, 27.90048],
        [79.73965, 27.89971],
        [79.73655, 27.89965],
        [79.73378, 27.89983],
        [79.73262, 27.90009],
        [79.73133, 27.90079],
        [79.73002, 27.90181],
        [79.727, 27.90538],
        [79.72639, 27.90622],
        [79.7262, 27.90638],
        [79.72604, 27.90653],
        [79.72498, 27.90712],
        [79.71669, 27.90935],
        [79.70715, 27.91189],
        [79.70315, 27.91295],
        [79.70129, 27.91344],
        [79.69904, 27.91286],
        [79.69727, 27.91165],
        [79.69572, 27.91068],
        [79.69321, 27.90908],
        [79.69306, 27.90899],
        [79.69016, 27.90771],
        [79.68887, 27.90763],
        [79.68767, 27.90755],
        [79.68374, 27.90696],
        [79.68248, 27.90678],
        [79.68003, 27.90575],
        [79.67851, 27.90435],
        [79.67718, 27.90361],
        [79.67696, 27.90353],
        [79.67495, 27.90281],
        [79.67382, 27.90274],
        [79.6716, 27.90173],
        [79.67052, 27.90079],
        [79.66935, 27.8996],
        [79.66899, 27.89915],
        [79.66739, 27.9011],
        [79.66644, 27.90232],
        [79.66559, 27.90317],
        [79.6644, 27.90414],
        [79.66388, 27.90481],
        [79.66358, 27.90545],
        [79.66295, 27.90732],
        [79.66258, 27.90813],
        [79.66175, 27.90936],
        [79.66117, 27.91037],
        [79.66081, 27.91109],
        [79.66019, 27.9118],
        [79.65932, 27.91246],
        [79.65792, 27.91358],
        [79.65696, 27.91413],
        [79.65605, 27.91446],
        [79.65514, 27.91467],
        [79.65371, 27.91484],
        [79.65176, 27.91489],
        [79.65103, 27.91492],
        [79.65069, 27.91504],
        [79.65019, 27.91529],
        [79.64889, 27.91628],
        [79.64784, 27.91691],
        [79.64773, 27.91696],
        [79.6489, 27.91925],
        [79.64961, 27.92092],
        [79.6498, 27.92169],
        [79.64986, 27.92241],
        [79.64974, 27.92285],
        [79.64945, 27.92319],
        [79.64838, 27.92396],
        [79.64786, 27.9241],
        [79.64762, 27.92408],
        [79.64825, 27.92512],
        [79.64845, 27.92551],
        [79.64853, 27.92604],
        [79.6485, 27.92667],
        [79.64824, 27.92755],
        [79.64821, 27.92764],
        [79.64811, 27.92792],
        [79.64805, 27.92827],
        [79.6481, 27.92873],
        [79.64824, 27.92898],
        [79.64841, 27.92916],
        [79.64667, 27.93025],
        [79.6459, 27.93082],
        [79.64517, 27.93143],
        [79.64467, 27.9321],
        [79.64425, 27.93273],
        [79.64377, 27.93375],
        [79.64438, 27.93501],
        [79.64475, 27.93612],
        [79.64478, 27.93697],
        [79.64471, 27.93749],
        [79.64448, 27.93828],
        [79.64371, 27.94022],
        [79.64327, 27.94119],
        [79.64272, 27.94211],
        [79.64261, 27.94224],
        [79.6441, 27.94383],
        [79.64485, 27.94438],
        [79.64543, 27.94455],
        [79.64571, 27.94455],
        [79.64639, 27.94536],
        [79.64751, 27.94669],
        [79.64846, 27.94795],
        [79.64921, 27.94968],
        [79.64937, 27.95093],
        [79.64932, 27.95195],
        [79.64905, 27.95274],
        [79.64867, 27.95346],
        [79.64974, 27.9533],
        [79.65043, 27.95331],
        [79.6515, 27.9534],
        [79.65346, 27.95356],
        [79.65628, 27.95403],
        [79.65854, 27.95438],
        [79.6594, 27.95432],
        [79.65988, 27.95412],
        [79.65998, 27.95408],
        [79.66088, 27.95333],
        [79.66238, 27.95169],
        [79.66312, 27.95081],
        [79.66372, 27.9503],
        [79.66433, 27.95058],
        [79.66491, 27.95076],
        [79.66561, 27.95087],
        [79.66647, 27.95094],
        [79.66771, 27.95095],
        [79.66901, 27.95091],
        [79.67017, 27.95078],
        [79.67144, 27.95068],
        [79.67233, 27.95069],
        [79.67312, 27.95081],
        [79.67349, 27.95104],
        [79.67433, 27.95155],
        [79.67501, 27.95202],
        [79.67545, 27.95217],
        [79.67589, 27.95215],
        [79.67615, 27.95211],
        [79.67616, 27.95221],
        [79.67645, 27.95259],
        [79.67665, 27.953],
        [79.67695, 27.95396],
        [79.67719, 27.95434],
        [79.67751, 27.95484],
        [79.67774, 27.95511],
        [79.67783, 27.95522],
        [79.67828, 27.95547],
        [79.67884, 27.95563],
        [79.67932, 27.95588],
        [79.68008, 27.95666],
        [79.68067, 27.95715],
        [79.68107, 27.95736],
        [79.68152, 27.9575],
        [79.68187, 27.95749],
        [79.68214, 27.95737],
        [79.68257, 27.95704],
        [79.68306, 27.95669],
        [79.68391, 27.95606],
        [79.68507, 27.95496],
        [79.68615, 27.95374],
        [79.68754, 27.95174],
        [79.68906, 27.94947],
        [79.69032, 27.94746],
        [79.69104, 27.94862],
        [79.69125, 27.94879],
        [79.69149, 27.94892],
        [79.69209, 27.94911],
        [79.69268, 27.94919],
        [79.69416, 27.94929],
        [79.69543, 27.94951],
        [79.69693, 27.9499],
        [79.69741, 27.9501],
        [79.6977, 27.9503],
        [79.69787, 27.9505],
        [79.69802, 27.95082],
        [79.69823, 27.95122],
        [79.69832, 27.95128],
        [79.6985, 27.95128],
        [79.6986, 27.95118],
        [79.69867, 27.95095],
        [79.6988, 27.95043],
        [79.69894, 27.95021],
        [79.69916, 27.95005],
        [79.69953, 27.94993],
        [79.69996, 27.94988],
        [79.70054, 27.94997],
        [79.70106, 27.95023],
        [79.70177, 27.95061],
        [79.70232, 27.95083],
        [79.70289, 27.95096],
        [79.70353, 27.95106],
        [79.70422, 27.95107],
        [79.7047, 27.95102],
        [79.70548, 27.95085],
        [79.70557, 27.95099],
        [79.70613, 27.95157],
        [79.7065, 27.95203],
        [79.70666, 27.95234],
        [79.70681, 27.95263],
        [79.70697, 27.95323],
        [79.70698, 27.95376],
        [79.70687, 27.95459],
        [79.70679, 27.95503],
        [79.70631, 27.95511],
        [79.70594, 27.95529],
        [79.7057, 27.95539],
        [79.70563, 27.95547],
        [79.70545, 27.95568],
        [79.70526, 27.95607],
        [79.70506, 27.95667],
        [79.7049, 27.95729],
        [79.70469, 27.95821],
        [79.70453, 27.95889],
        [79.70444, 27.95955],
        [79.70444, 27.95998],
        [79.70449, 27.96029],
        [79.70467, 27.96066],
        [79.70474, 27.9608],
        [79.70512, 27.96138],
        [79.7054, 27.96175],
        [79.7059, 27.96211],
        [79.70675, 27.96254],
        [79.70763, 27.96295],
        [79.70859, 27.96353],
        [79.70886, 27.96375],
        [79.70931, 27.96412],
        [79.70959, 27.96448],
        [79.70971, 27.96478],
        [79.70968, 27.96522],
        [79.70965, 27.96561],
        [79.70947, 27.96611],
        [79.70915, 27.96659],
        [79.7085, 27.96725],
        [79.70721, 27.96834],
        [79.70628, 27.96916],
        [79.70577, 27.96955],
        [79.70533, 27.96982],
        [79.70508, 27.97008],
        [79.705, 27.97035],
        [79.70496, 27.97071],
        [79.70499, 27.97104],
        [79.70511, 27.97129],
        [79.70541, 27.97162],
        [79.70577, 27.97196],
        [79.70521, 27.97246],
        [79.70479, 27.97271],
        [79.70437, 27.97287],
        [79.7039, 27.97297],
        [79.70358, 27.97297],
        [79.70326, 27.97289],
        [79.70303, 27.97284],
        [79.70285, 27.97283],
        [79.7027, 27.9729],
        [79.70255, 27.97303],
        [79.70251, 27.97328],
        [79.70258, 27.97362],
        [79.70283, 27.97459],
        [79.70284, 27.97489],
        [79.70278, 27.97508],
        [79.70256, 27.97532],
        [79.7021, 27.97564],
        [79.69829, 27.97764],
        [79.6984, 27.97797],
        [79.69833, 27.97855],
        [79.6983, 27.97917],
        [79.6984, 27.97989],
        [79.69864, 27.98061],
        [79.69908, 27.98152],
        [79.70002, 27.98297],
        [79.70084, 27.98434],
        [79.70124, 27.98516],
        [79.70142, 27.98589],
        [79.70154, 27.98703],
        [79.70152, 27.9884],
        [79.70121, 27.99177],
        [79.70145, 27.99121],
        [79.70191, 27.99038],
        [79.70235, 27.99],
        [79.70363, 27.98936],
        [79.70537, 27.98876],
        [79.70622, 27.98852],
        [79.70643, 27.98839],
        [79.70832, 27.99019],
        [79.70948, 27.9912],
        [79.71038, 27.99169],
        [79.7111, 27.99196],
        [79.71183, 27.99203],
        [79.71249, 27.99201],
        [79.71282, 27.99207],
        [79.71307, 27.99224],
        [79.71359, 27.9927],
        [79.71489, 27.99393],
        [79.71586, 27.99484],
        [79.71637, 27.99419],
        [79.71742, 27.99295],
        [79.71774, 27.99325],
        [79.71805, 27.99346],
        [79.71852, 27.99369],
        [79.71914, 27.99386],
        [79.71984, 27.99418],
        [79.7205, 27.99466],
        [79.72156, 27.99577],
        [79.72896, 28.00531],
        [79.72938, 28.00552],
        [79.73018, 28.00624],
        [79.73042, 28.00635],
        [79.73078, 28.00632],
        [79.731, 28.00622],
        [79.73167, 28.00564],
        [79.73409, 28.00328],
        [79.7347, 28.00249],
        [79.73568, 28.00105],
        [79.73612, 28.00039],
        [79.73615, 28.00014],
        [79.7371, 28.00184],
        [79.7377, 28.00287],
        [79.73821, 28.0038],
        [79.73849, 28.00436],
        [79.73872, 28.00473],
        [79.73896, 28.00493],
        [79.73959, 28.00528],
        [79.74007, 28.00559],
        [79.74045, 28.00589],
        [79.7407, 28.006],
        [79.74085, 28.00601],
        [79.74105, 28.00602],
        [79.74077, 28.00744],
        [79.74075, 28.00775],
        [79.74079, 28.00794],
        [79.74091, 28.00805],
        [79.74114, 28.00804],
        [79.74127, 28.00789],
        [79.74171, 28.00726],
        [79.74203, 28.00691],
        [79.74236, 28.00661],
        [79.74266, 28.00649],
        [79.74291, 28.00651],
        [79.74317, 28.00658],
        [79.74329, 28.00669],
        [79.74338, 28.00694],
        [79.74336, 28.00731],
        [79.74328, 28.00807],
        [79.74306, 28.00867],
        [79.74281, 28.00929],
        [79.74272, 28.00968],
        [79.7427, 28.01001],
        [79.74276, 28.0103],
        [79.74293, 28.01056],
        [79.74317, 28.0107],
        [79.74373, 28.01075],
        [79.74575, 28.01081],
        [79.74635, 28.01072],
        [79.74672, 28.01073],
        [79.74699, 28.0108],
        [79.7472, 28.01094],
        [79.74732, 28.01112],
        [79.74733, 28.01138],
        [79.74727, 28.01176],
        [79.7471, 28.0121],
        [79.74676, 28.0125],
        [79.7466, 28.01282],
        [79.74659, 28.01308],
        [79.74672, 28.01359],
        [79.74714, 28.01468],
        [79.74737, 28.01494],
        [79.74794, 28.01544],
        [79.74907, 28.01621],
        [79.7494, 28.01646],
        [79.74965, 28.0167],
        [79.74981, 28.01679],
        [79.75003, 28.01679],
        [79.75044, 28.01661],
        [79.75071, 28.01657],
        [79.75111, 28.01648],
        [79.75184, 28.01624],
        [79.75254, 28.01592],
        [79.75305, 28.01561],
        [79.75454, 28.01467],
        [79.75502, 28.01445],
        [79.75557, 28.01429],
        [79.75615, 28.01405],
        [79.75666, 28.01377],
        [79.75725, 28.01328],
        [79.75768, 28.01368],
        [79.75833, 28.01433],
        [79.75858, 28.01488],
        [79.75862, 28.01548],
        [79.75839, 28.01606],
        [79.75731, 28.01748],
        [79.75608, 28.01895],
        [79.75586, 28.0194],
        [79.75584, 28.01979],
        [79.75602, 28.02047],
        [79.7565, 28.02204],
        [79.757, 28.02308],
        [79.75737, 28.02384],
        [79.75742, 28.02424],
        [79.75733, 28.02483],
        [79.75702, 28.02558],
        [79.75629, 28.02656],
        [79.75601, 28.02723],
        [79.75579, 28.02719],
        [79.75454, 28.02706],
        [79.75277, 28.02707],
        [79.75179, 28.02715],
        [79.75136, 28.0272],
        [79.75127, 28.02724],
        [79.74976, 28.02777],
        [79.74919, 28.02798],
        [79.7489, 28.02798],
        [79.74881, 28.02799],
        [79.7484, 28.02786],
        [79.74794, 28.02768],
        [79.74734, 28.02758],
        [79.74725, 28.02756],
        [79.74668, 28.0276],
        [79.74462, 28.02797],
        [79.74304, 28.02841],
        [79.74208, 28.02745],
        [79.74115, 28.02656],
        [79.74016, 28.02593],
        [79.73932, 28.02563],
        [79.73853, 28.02559],
        [79.73812, 28.02565],
        [79.73781, 28.02584],
        [79.73743, 28.02616],
        [79.73704, 28.02644],
        [79.73663, 28.02651],
        [79.73629, 28.02648],
        [79.736, 28.02627],
        [79.73564, 28.02595],
        [79.73546, 28.02589],
        [79.73523, 28.02591],
        [79.73497, 28.02602],
        [79.73465, 28.02631],
        [79.73426, 28.02685],
        [79.73401, 28.02736],
        [79.73384, 28.02799],
        [79.7336, 28.02832],
        [79.73325, 28.02854],
        [79.7328, 28.0286],
        [79.73217, 28.0285],
        [79.7318, 28.02839],
        [79.73094, 28.02842],
        [79.73053, 28.02841],
        [79.73031, 28.02831],
        [79.7302, 28.02816],
        [79.73018, 28.02787],
        [79.73026, 28.0276],
        [79.73042, 28.02736],
        [79.73066, 28.02717],
        [79.73092, 28.02705],
        [79.73134, 28.02688],
        [79.73168, 28.0267],
        [79.73188, 28.02654],
        [79.73213, 28.02603],
        [79.73246, 28.02524],
        [79.73263, 28.02482],
        [79.7329, 28.02456],
        [79.73324, 28.02438],
        [79.73412, 28.024],
        [79.73458, 28.02362],
        [79.73482, 28.02321],
        [79.73487, 28.02293],
        [79.73485, 28.02264],
        [79.73467, 28.02237],
        [79.73446, 28.02217],
        [79.73416, 28.02211],
        [79.73382, 28.02218],
        [79.73344, 28.02236],
        [79.7329, 28.02277],
        [79.73189, 28.02368],
        [79.73134, 28.02419],
        [79.73092, 28.02455],
        [79.73038, 28.02478],
        [79.72959, 28.02502],
        [79.7291, 28.02508],
        [79.72847, 28.02502],
        [79.72732, 28.02483],
        [79.72583, 28.02472],
        [79.72501, 28.02464],
        [79.72463, 28.02464],
        [79.72441, 28.02469],
        [79.72365, 28.02516],
        [79.72298, 28.02436],
        [79.72202, 28.02348],
        [79.7217, 28.02337],
        [79.72138, 28.02336],
        [79.72105, 28.02347],
        [79.72087, 28.02348],
        [79.72059, 28.02337],
        [79.72022, 28.02303],
        [79.7192, 28.02223],
        [79.71891, 28.02214],
        [79.71868, 28.02215],
        [79.7183, 28.02232],
        [79.71833, 28.0226],
        [79.71824, 28.02287],
        [79.71805, 28.02317],
        [79.71771, 28.02334],
        [79.71731, 28.02344],
        [79.71694, 28.02347],
        [79.71654, 28.02343],
        [79.71618, 28.02329],
        [79.71565, 28.02307],
        [79.71539, 28.02304],
        [79.71485, 28.02309],
        [79.71451, 28.02323],
        [79.71417, 28.02344],
        [79.71398, 28.0237],
        [79.71374, 28.02429],
        [79.7129, 28.02583],
        [79.71237, 28.02686],
        [79.71266, 28.02722],
        [79.71342, 28.02852],
        [79.71443, 28.03009],
        [79.71537, 28.03156],
        [79.71606, 28.03263],
        [79.71688, 28.0338],
        [79.71749, 28.03443],
        [79.71802, 28.03492],
        [79.71801, 28.03457],
        [79.71808, 28.03392],
        [79.71829, 28.03354],
        [79.71862, 28.03331],
        [79.71928, 28.03329],
        [79.72024, 28.03365],
        [79.72107, 28.03396],
        [79.72149, 28.03392],
        [79.72206, 28.03371],
        [79.72269, 28.03315],
        [79.72337, 28.03251],
        [79.72375, 28.03233],
        [79.72436, 28.03222],
        [79.72478, 28.0323],
        [79.72518, 28.03261],
        [79.72527, 28.03271],
        [79.72563, 28.03315],
        [79.72642, 28.03532],
        [79.72763, 28.03759],
        [79.72784, 28.0378],
        [79.72808, 28.03804],
        [79.72822, 28.03814],
        [79.72867, 28.03842],
        [79.73001, 28.03883],
        [79.73182, 28.03902],
        [79.7329, 28.03891],
        [79.73372, 28.03874],
        [79.73362, 28.03984],
        [79.73356, 28.04115],
        [79.73364, 28.04238],
        [79.7338, 28.04303],
        [79.73407, 28.04338],
        [79.73446, 28.04357],
        [79.73505, 28.04364],
        [79.73565, 28.04359],
        [79.73697, 28.04332],
        [79.73932, 28.04274],
        [79.7413, 28.04232],
        [79.7428, 28.04218],
        [79.74396, 28.0421],
        [79.74498, 28.04215],
        [79.74549, 28.04224],
        [79.74597, 28.04232],
        [79.74671, 28.04261],
        [79.74843, 28.04377],
        [79.74896, 28.04429],
        [79.75042, 28.04258],
        [79.75083, 28.04356],
        [79.751, 28.04411],
        [79.75118, 28.04478],
        [79.75135, 28.04574],
        [79.75141, 28.04638],
        [79.75148, 28.04682],
        [79.75169, 28.04727],
        [79.75183, 28.04745],
        [79.75263, 28.04819],
        [79.75283, 28.04778],
        [79.75322, 28.04743],
        [79.75371, 28.04705],
        [79.7543, 28.04643],
        [79.75612, 28.04443],
        [79.75806, 28.04254],
        [79.75884, 28.04168],
        [79.75918, 28.04139],
        [79.75956, 28.04125],
        [79.76053, 28.04118],
        [79.76125, 28.04105],
        [79.76185, 28.04086],
        [79.76204, 28.04072],
        [79.76191, 28.04151],
        [79.76182, 28.0424],
        [79.76188, 28.0434],
        [79.76229, 28.04455],
        [79.76373, 28.04671],
        [79.76409, 28.04763],
        [79.76487, 28.04967],
        [79.76495, 28.05023],
        [79.76487, 28.05087],
        [79.76389, 28.05486],
        [79.76359, 28.05598],
        [79.76351, 28.05667],
        [79.7636, 28.05713],
        [79.76394, 28.05863],
        [79.76416, 28.0597],
        [79.76424, 28.06021],
        [79.76422, 28.06066],
        [79.7641, 28.06115],
        [79.76383, 28.06162],
        [79.76319, 28.06224],
        [79.7623, 28.06298],
        [79.76151, 28.06363],
        [79.76072, 28.06443],
        [79.75883, 28.06641],
        [79.75866, 28.06622],
        [79.75802, 28.06535],
        [79.75747, 28.06427],
        [79.75646, 28.06247],
        [79.75634, 28.06231],
        [79.7558, 28.06244],
        [79.75491, 28.06266],
        [79.75392, 28.06282],
        [79.75279, 28.06301],
        [79.75216, 28.06298],
        [79.75163, 28.06272],
        [79.7505, 28.06172],
        [79.74831, 28.05889],
        [79.74721, 28.05714],
        [79.74684, 28.05638],
        [79.74654, 28.05544],
        [79.74604, 28.05345],
        [79.74589, 28.0535],
        [79.74489, 28.05375],
        [79.74196, 28.05438],
        [79.7404, 28.05465],
        [79.73892, 28.05483],
        [79.73745, 28.05513],
        [79.73634, 28.05551],
        [79.73438, 28.0565],
        [79.73387, 28.05665],
        [79.73373, 28.05666],
        [79.73325, 28.05672],
        [79.73228, 28.05687],
        [79.7313, 28.05723],
        [79.72984, 28.05797],
        [79.72851, 28.05847],
        [79.72787, 28.05883],
        [79.72769, 28.05901],
        [79.72738, 28.0585],
        [79.72722, 28.05793],
        [79.72725, 28.0573],
        [79.72753, 28.05581],
        [79.72792, 28.05361],
        [79.72808, 28.05287],
        [79.72815, 28.05228],
        [79.72819, 28.05152],
        [79.72735, 28.05216],
        [79.72614, 28.05284],
        [79.72274, 28.05493],
        [79.7173, 28.05812],
        [79.71359, 28.06008],
        [79.71284, 28.0603],
        [79.71237, 28.06033],
        [79.71214, 28.06025],
        [79.71197, 28.06015],
        [79.71225, 28.06098],
        [79.71239, 28.06152],
        [79.71247, 28.06213],
        [79.71247, 28.06285],
        [79.71241, 28.06391],
        [79.71233, 28.06449],
        [79.71213, 28.06504],
        [79.71199, 28.06529],
        [79.71166, 28.06558],
        [79.71134, 28.06573],
        [79.71102, 28.0658],
        [79.71006, 28.06588],
        [79.70912, 28.06636],
        [79.70879, 28.06666],
        [79.70862, 28.06693],
        [79.70858, 28.06728],
        [79.70858, 28.06747],
        [79.70865, 28.06773],
        [79.7093, 28.06868],
        [79.71001, 28.06964],
        [79.71041, 28.07036],
        [79.71071, 28.07106],
        [79.71076, 28.07127],
        [79.71087, 28.07173],
        [79.71102, 28.07276],
        [79.7111, 28.07378],
        [79.71122, 28.07397],
        [79.71138, 28.07407],
        [79.71159, 28.0741],
        [79.71185, 28.07403],
        [79.71213, 28.07382],
        [79.7124, 28.07358],
        [79.7128, 28.07332],
        [79.71445, 28.07242],
        [79.71544, 28.07186],
        [79.71593, 28.07147],
        [79.71614, 28.07145],
        [79.71648, 28.07152],
        [79.71661, 28.07161],
        [79.71674, 28.07193],
        [79.7168, 28.07226],
        [79.71676, 28.07268],
        [79.71639, 28.07345],
        [79.71606, 28.0738],
        [79.71561, 28.07409],
        [79.7162, 28.07454],
        [79.71657, 28.07464],
        [79.71702, 28.07461],
        [79.71735, 28.07448],
        [79.71771, 28.07445],
        [79.71812, 28.07442],
        [79.7185, 28.07417],
        [79.71985, 28.07319],
        [79.72066, 28.0723],
        [79.72255, 28.07044],
        [79.72372, 28.06964],
        [79.72511, 28.06891],
        [79.726, 28.06838],
        [79.72679, 28.06779],
        [79.7277, 28.06718],
        [79.72778, 28.06726],
        [79.72862, 28.06831],
        [79.72917, 28.06933],
        [79.72993, 28.07139],
        [79.73099, 28.07402],
        [79.73156, 28.07569],
        [79.732, 28.07753],
        [79.73226, 28.07913],
        [79.73238, 28.08016],
        [79.73238, 28.08074],
        [79.73341, 28.08071],
        [79.7343, 28.08059],
        [79.73531, 28.08014],
        [79.73767, 28.07909],
        [79.739, 28.07873],
        [79.74001, 28.07851],
        [79.74133, 28.07851],
        [79.74257, 28.07881],
        [79.74407, 28.0792],
        [79.74521, 28.07953],
        [79.74612, 28.07974],
        [79.74621, 28.07974],
        [79.74681, 28.0797],
        [79.74739, 28.07936],
        [79.74867, 28.07839],
        [79.74932, 28.07757],
        [79.75024, 28.07636],
        [79.75089, 28.07571],
        [79.75122, 28.07521],
        [79.75142, 28.07481],
        [79.75181, 28.07438],
        [79.7522, 28.07419],
        [79.75264, 28.07419],
        [79.75301, 28.0743],
        [79.75325, 28.07464],
        [79.75348, 28.07528],
        [79.75408, 28.07798],
        [79.75459, 28.0797],
        [79.75542, 28.08134],
        [79.75589, 28.08257],
        [79.75659, 28.08462],
        [79.75734, 28.08811],
        [79.75763, 28.08797],
        [79.76011, 28.08724],
        [79.76429, 28.08621],
        [79.7647, 28.08614],
        [79.76456, 28.08454],
        [79.76442, 28.08408],
        [79.76424, 28.08373],
        [79.76396, 28.08347],
        [79.76359, 28.08345],
        [79.76303, 28.08355],
        [79.76277, 28.08348],
        [79.76251, 28.08333],
        [79.76234, 28.08294],
        [79.76184, 28.08106],
        [79.76148, 28.07924],
        [79.76134, 28.07787],
        [79.76127, 28.07663],
        [79.76131, 28.07547],
        [79.76141, 28.0745],
        [79.76159, 28.07376],
        [79.76176, 28.0731],
        [79.76179, 28.07277],
        [79.76226, 28.07268],
        [79.76274, 28.07275],
        [79.76344, 28.07302],
        [79.76423, 28.07353],
        [79.76585, 28.07514],
        [79.7665, 28.07574],
        [79.76726, 28.07625],
        [79.76821, 28.07656],
        [79.76888, 28.07662],
        [79.76951, 28.07656],
        [79.77041, 28.07632],
        [79.7708, 28.07626],
        [79.77228, 28.07898],
        [79.77256, 28.07961],
        [79.77262, 28.08002],
        [79.77254, 28.08031],
        [79.77231, 28.08071],
        [79.77225, 28.08115],
        [79.77248, 28.08213],
        [79.77395, 28.08676],
        [79.774, 28.08669],
        [79.77471, 28.08652],
        [79.7752, 28.08659],
        [79.77626, 28.08654],
        [79.77842, 28.08722],
        [79.77923, 28.08728],
        [79.77985, 28.08892],
        [79.78044, 28.09041],
        [79.78074, 28.09145],
        [79.78085, 28.09234],
        [79.77992, 28.09282],
        [79.77951, 28.09294],
        [79.77895, 28.093],
        [79.77851, 28.09312],
        [79.77798, 28.09347],
        [79.77726, 28.09398],
        [79.77536, 28.09495],
        [79.77454, 28.09526],
        [79.77357, 28.09547],
        [79.77268, 28.09562],
        [79.77227, 28.09577],
        [79.7686, 28.09801],
        [79.76833, 28.09851],
        [79.76788, 28.09908],
        [79.7675, 28.09966],
        [79.76711, 28.10088],
        [79.76664, 28.10244],
        [79.76629, 28.1032],
        [79.76592, 28.10388],
        [79.76513, 28.10499],
        [79.76378, 28.10694],
        [79.76289, 28.10829],
        [79.76252, 28.10906],
        [79.76228, 28.10988],
        [79.76298, 28.11008],
        [79.76393, 28.11048],
        [79.76474, 28.11099],
        [79.76543, 28.11169],
        [79.76587, 28.11214],
        [79.7662, 28.11227],
        [79.7666, 28.11227],
        [79.76719, 28.11195],
        [79.76749, 28.1119],
        [79.76789, 28.112],
        [79.76848, 28.11231],
        [79.7688, 28.11274],
        [79.76942, 28.11381],
        [79.77005, 28.11457],
        [79.77056, 28.11489],
        [79.77111, 28.11512],
        [79.77243, 28.11542],
        [79.77319, 28.11559],
        [79.7735, 28.11577],
        [79.77371, 28.11602],
        [79.77418, 28.11709],
        [79.775, 28.11922],
        [79.77535, 28.12029],
        [79.77555, 28.12116],
        [79.7757, 28.12202],
        [79.77596, 28.12199],
        [79.77633, 28.12206],
        [79.77698, 28.12215],
        [79.77731, 28.12214],
        [79.77775, 28.12202],
        [79.77865, 28.12179],
        [79.77934, 28.12166],
        [79.77983, 28.12289],
        [79.78021, 28.12364],
        [79.78074, 28.12448],
        [79.78167, 28.12568],
        [79.78212, 28.12637],
        [79.78236, 28.12695],
        [79.78249, 28.12797],
        [79.78206, 28.12796],
        [79.78146, 28.12816],
        [79.78103, 28.1284],
        [79.78047, 28.12883],
        [79.77967, 28.12956],
        [79.77783, 28.13149],
        [79.77835, 28.1317],
        [79.779, 28.13231],
        [79.77957, 28.13296],
        [79.78025, 28.13399],
        [79.78086, 28.13506],
        [79.78114, 28.13597],
        [79.78134, 28.13706],
        [79.7814, 28.13771],
        [79.78122, 28.13814],
        [79.78089, 28.13842],
        [79.7791, 28.1391],
        [79.77999, 28.13968],
        [79.78046, 28.14004],
        [79.78111, 28.14067],
        [79.78153, 28.14119],
        [79.78144, 28.14118],
        [79.78119, 28.14125],
        [79.77818, 28.14401],
        [79.7778, 28.14432],
        [79.77755, 28.14436],
        [79.77712, 28.14432],
        [79.77682, 28.14424],
        [79.77638, 28.14399],
        [79.77567, 28.14361],
        [79.77526, 28.14351],
        [79.77487, 28.14353],
        [79.77446, 28.14365],
        [79.77323, 28.14433],
        [79.77383, 28.14444],
        [79.77443, 28.14465],
        [79.77505, 28.14495],
        [79.77741, 28.14655],
        [79.77872, 28.14759],
        [79.7798, 28.14858],
        [79.77896, 28.14842],
        [79.77821, 28.14841],
        [79.77636, 28.14892],
        [79.77477, 28.14958],
        [79.77388, 28.15042],
        [79.7728, 28.15192],
        [79.77235, 28.15293],
        [79.77158, 28.15583],
        [79.77122, 28.15678],
        [79.77092, 28.15725],
        [79.77032, 28.1578],
        [79.76893, 28.15906],
        [79.76855, 28.15947],
        [79.76803, 28.16003],
        [79.76712, 28.16131],
        [79.76643, 28.16255],
        [79.76578, 28.16418],
        [79.76602, 28.16419],
        [79.76889, 28.16464],
        [79.77856, 28.1656],
        [79.77892, 28.16541],
        [79.77964, 28.16511],
        [79.78127, 28.16464],
        [79.78203, 28.16442],
        [79.78222, 28.16431],
        [79.78242, 28.16417],
        [79.78269, 28.16374],
        [79.78318, 28.16298],
        [79.78373, 28.16239],
        [79.78405, 28.16216],
        [79.78503, 28.16156],
        [79.78705, 28.16058],
        [79.7882, 28.16009],
        [79.78866, 28.15983],
        [79.78895, 28.15978],
        [79.78921, 28.15979],
        [79.79071, 28.16006],
        [79.79197, 28.16031],
        [79.79221, 28.16028],
        [79.79253, 28.1603],
        [79.79291, 28.16017],
        [79.79337, 28.15976],
        [79.79412, 28.15931],
        [79.79475, 28.15898],
        [79.79588, 28.15866],
        [79.79653, 28.15845],
        [79.79714, 28.15833],
        [79.79813, 28.1583],
        [79.79936, 28.15845],
        [79.80032, 28.15869],
        [79.801, 28.15883],
        [79.80153, 28.15877],
        [79.80185, 28.15861],
        [79.80211, 28.15851],
        [79.80254, 28.15855],
        [79.80267, 28.15876],
        [79.80269, 28.15951],
        [79.8027, 28.16019],
        [79.80266, 28.16037],
        [79.80256, 28.16062],
        [79.80239, 28.16083],
        [79.80133, 28.16135],
        [79.80056, 28.16178],
        [79.80023, 28.1621],
        [79.79999, 28.16262],
        [79.79986, 28.16297],
        [79.79976, 28.1637],
        [79.79979, 28.1643],
        [79.79983, 28.1647],
        [79.80001, 28.16519],
        [79.80018, 28.16532],
        [79.80064, 28.16561],
        [79.80117, 28.16571],
        [79.80155, 28.16575],
        [79.8024, 28.16596],
        [79.80324, 28.16603],
        [79.80369, 28.16609],
        [79.80424, 28.16618],
        [79.80463, 28.16628],
        [79.80494, 28.16636],
        [79.80519, 28.16636],
        [79.80566, 28.1661],
        [79.8058, 28.16584],
        [79.80605, 28.16531],
        [79.80644, 28.16443],
        [79.80656, 28.16423],
        [79.807, 28.16415],
        [79.80718, 28.16424],
        [79.80811, 28.1654],
        [79.80882, 28.16622],
        [79.8092, 28.16628],
        [79.80951, 28.16626],
        [79.80974, 28.16618],
        [79.81018, 28.16593],
        [79.81036, 28.16575],
        [79.81046, 28.16544],
        [79.81052, 28.1646],
        [79.81055, 28.16371],
        [79.81056, 28.16347],
        [79.8107, 28.16328],
        [79.81087, 28.16308],
        [79.81121, 28.16275],
        [79.81154, 28.16258],
        [79.8118, 28.16252],
        [79.81201, 28.16251],
        [79.81225, 28.16251],
        [79.81246, 28.16259],
        [79.81308, 28.16291],
        [79.81417, 28.1637],
        [79.81502, 28.16416],
        [79.81569, 28.16444],
        [79.81594, 28.16452],
        [79.81654, 28.16453],
        [79.81732, 28.16443],
        [79.81767, 28.16443],
        [79.81818, 28.16448],
        [79.81845, 28.16457],
        [79.81866, 28.16474],
        [79.81895, 28.16499],
        [79.81917, 28.16544],
        [79.81926, 28.16572],
        [79.81931, 28.16591],
        [79.81934, 28.16615],
        [79.81923, 28.16646],
        [79.81879, 28.16684],
        [79.8173, 28.16781],
        [79.81694, 28.16821],
        [79.81683, 28.16843],
        [79.81675, 28.16873],
        [79.81674, 28.16893],
        [79.81682, 28.16923],
        [79.81718, 28.1697],
        [79.81751, 28.16988],
        [79.81789, 28.17009],
        [79.81817, 28.17013],
        [79.81846, 28.17011],
        [79.81877, 28.17004],
        [79.81914, 28.16981],
        [79.81942, 28.16936],
        [79.81991, 28.16829],
        [79.82019, 28.1676],
        [79.82058, 28.16705],
        [79.82118, 28.16653],
        [79.82162, 28.16628],
        [79.822, 28.16616],
        [79.82243, 28.16611],
        [79.82272, 28.16613],
        [79.82311, 28.16619],
        [79.82337, 28.16631],
        [79.82383, 28.16667],
        [79.82428, 28.16712],
        [79.82481, 28.16771],
        [79.82492, 28.16799],
        [79.82501, 28.16839],
        [79.82505, 28.16874],
        [79.82506, 28.16908],
        [79.82498, 28.16948],
        [79.82462, 28.17033],
        [79.82412, 28.17137],
        [79.82387, 28.17167],
        [79.82369, 28.17178],
        [79.82333, 28.17181],
        [79.82297, 28.17181],
        [79.82277, 28.17176],
        [79.82176, 28.17117],
        [79.82088, 28.17089],
        [79.8202, 28.17084],
        [79.8195, 28.17091],
        [79.81891, 28.17106],
        [79.81848, 28.17132],
        [79.81813, 28.17169],
        [79.81784, 28.17194],
        [79.81773, 28.17228],
        [79.81767, 28.17251],
        [79.81766, 28.17275],
        [79.81769, 28.17309],
        [79.81783, 28.17348],
        [79.81818, 28.17382],
        [79.81891, 28.17422],
        [79.81972, 28.1745],
        [79.82013, 28.17452],
        [79.82112, 28.17449],
        [79.82266, 28.17434],
        [79.82451, 28.17402],
        [79.82528, 28.17393],
        [79.82571, 28.17399],
        [79.82572, 28.17425],
        [79.82566, 28.17454],
        [79.82511, 28.17604],
        [79.82509, 28.17631],
        [79.82509, 28.17661],
        [79.82512, 28.17687],
        [79.82532, 28.17722],
        [79.82622, 28.17786],
        [79.82735, 28.17824],
        [79.82809, 28.17874],
        [79.82896, 28.17935],
        [79.82953, 28.18003],
        [79.83001, 28.18051],
        [79.83038, 28.1807],
        [79.83085, 28.18087],
        [79.83128, 28.18111],
        [79.83146, 28.18128],
        [79.83155, 28.18155],
        [79.8309, 28.18283],
        [79.83056, 28.18375],
        [79.83042, 28.18421],
        [79.83046, 28.18448],
        [79.83085, 28.18499],
        [79.83158, 28.18553],
        [79.83166, 28.18583],
        [79.83164, 28.18618],
        [79.83158, 28.18641],
        [79.83138, 28.18668],
        [79.83054, 28.18707],
        [79.82946, 28.18737],
        [79.82848, 28.1876],
        [79.8281, 28.18776],
        [79.82791, 28.18785],
        [79.82759, 28.18801],
        [79.82749, 28.18829],
        [79.82748, 28.18898],
        [79.82761, 28.18955],
        [79.82784, 28.18981],
        [79.82824, 28.19005],
        [79.82874, 28.19024],
        [79.8293, 28.19036],
        [79.82951, 28.19035],
        [79.83046, 28.19024],
        [79.83124, 28.19005],
        [79.83207, 28.18991],
        [79.83236, 28.18991],
        [79.83331, 28.19009],
        [79.8349, 28.19039],
        [79.83584, 28.1906],
        [79.83734, 28.19121],
        [79.83845, 28.19168],
        [79.83893, 28.19194],
        [79.8395, 28.19237],
        [79.83987, 28.19275],
        [79.84012, 28.19311],
        [79.84023, 28.19339],
        [79.84036, 28.19404],
        [79.84043, 28.19462],
        [79.8406, 28.19557],
        [79.84067, 28.19644],
        [79.84069, 28.19683],
        [79.84068, 28.19712],
        [79.8405, 28.19763],
        [79.83989, 28.1984],
        [79.83848, 28.19974],
        [79.83805, 28.20029],
        [79.83799, 28.20055],
        [79.83801, 28.20079],
        [79.83811, 28.20126],
        [79.83828, 28.20162],
        [79.83854, 28.20192],
        [79.83884, 28.20221],
        [79.83952, 28.20248],
        [79.84005, 28.20281],
        [79.84026, 28.20297],
        [79.84029, 28.20319],
        [79.84027, 28.20345],
        [79.84022, 28.20367],
        [79.84016, 28.20397],
        [79.84003, 28.20421],
        [79.83992, 28.20441],
        [79.83968, 28.20459],
        [79.83881, 28.20478],
        [79.83851, 28.20488],
        [79.8381, 28.20515],
        [79.83719, 28.20565],
        [79.83674, 28.20571],
        [79.83631, 28.20573],
        [79.83531, 28.20572],
        [79.83395, 28.20564],
        [79.83355, 28.20558],
        [79.83297, 28.20542],
        [79.83139, 28.20411],
        [79.83089, 28.20392],
        [79.83064, 28.20392],
        [79.83027, 28.20397],
        [79.82996, 28.20405],
        [79.82938, 28.20446],
        [79.8288, 28.20513],
        [79.82858, 28.20553],
        [79.82845, 28.20598],
        [79.82848, 28.20649],
        [79.82882, 28.20709],
        [79.82933, 28.20766],
        [79.83004, 28.20814],
        [79.83022, 28.2083],
        [79.83058, 28.20837],
        [79.83132, 28.20845],
        [79.83261, 28.20838],
        [79.83305, 28.20838],
        [79.83336, 28.2084],
        [79.83369, 28.20852],
        [79.8342, 28.20882],
        [79.8348, 28.20944],
        [79.83508, 28.21005],
        [79.83514, 28.21038],
        [79.83519, 28.21076],
        [79.83519, 28.21095],
        [79.8351, 28.21137],
        [79.83481, 28.21179],
        [79.83462, 28.21206],
        [79.83398, 28.21255],
        [79.83357, 28.21271],
        [79.83321, 28.21272],
        [79.83299, 28.21271],
        [79.83176, 28.21207],
        [79.8311, 28.21189],
        [79.83086, 28.21187],
        [79.83051, 28.21188],
        [79.83017, 28.21195],
        [79.82985, 28.21232],
        [79.82987, 28.21263],
        [79.82995, 28.21284],
        [79.83017, 28.21304],
        [79.83051, 28.21327],
        [79.83073, 28.21355],
        [79.83088, 28.21375],
        [79.83098, 28.2141],
        [79.83099, 28.21446],
        [79.83096, 28.21474],
        [79.83082, 28.21496],
        [79.83033, 28.21557],
        [79.8298, 28.21617],
        [79.82955, 28.2167],
        [79.82936, 28.21719],
        [79.82884, 28.218],
        [79.82863, 28.21836],
        [79.82857, 28.21861],
        [79.8286, 28.21888],
        [79.82878, 28.21908],
        [79.8299, 28.22094],
        [79.83032, 28.22186],
        [79.83038, 28.22216],
        [79.83037, 28.22236],
        [79.83029, 28.22256],
        [79.82987, 28.22303],
        [79.8292, 28.22344],
        [79.82804, 28.22389],
        [79.82723, 28.22453],
        [79.82708, 28.22483],
        [79.827, 28.22517],
        [79.82703, 28.22556],
        [79.82713, 28.2258],
        [79.82802, 28.22679],
        [79.82833, 28.22719],
        [79.82857, 28.22755],
        [79.82862, 28.22779],
        [79.8287, 28.22815],
        [79.8287, 28.22896],
        [79.82876, 28.22939],
        [79.82894, 28.22964],
        [79.82939, 28.23004],
        [79.82964, 28.23022],
        [79.82972, 28.23053],
        [79.82959, 28.23095],
        [79.82936, 28.23112],
        [79.82883, 28.23133],
        [79.82718, 28.23178],
        [79.82617, 28.23216],
        [79.82604, 28.23241],
        [79.82601, 28.23259],
        [79.82631, 28.23359],
        [79.82656, 28.23422],
        [79.82674, 28.23439],
        [79.82713, 28.23443],
        [79.82762, 28.23443],
        [79.82879, 28.23479],
        [79.82952, 28.23524],
        [79.82999, 28.23543],
        [79.8302, 28.2355],
        [79.83084, 28.23553],
        [79.83266, 28.23553],
        [79.834, 28.23534],
        [79.83469, 28.23525],
        [79.83507, 28.2351],
        [79.83516, 28.23482],
        [79.83526, 28.23451],
        [79.83561, 28.23456],
        [79.83586, 28.23474],
        [79.83608, 28.23477],
        [79.8363, 28.23449],
        [79.83635, 28.2343],
        [79.8362, 28.23403],
        [79.83617, 28.23377],
        [79.83639, 28.23367],
        [79.83665, 28.23358],
        [79.83691, 28.23359],
        [79.83707, 28.23382],
        [79.83701, 28.23405],
        [79.8368, 28.23418],
        [79.8369, 28.23436],
        [79.83714, 28.2343],
        [79.83736, 28.23419],
        [79.83772, 28.23413],
        [79.83823, 28.23397],
        [79.83846, 28.23392],
        [79.83857, 28.23375],
        [79.83883, 28.23358],
        [79.83926, 28.23362],
        [79.83932, 28.23339],
        [79.83925, 28.23305],
        [79.83927, 28.23252],
        [79.83931, 28.23232],
        [79.83951, 28.23219],
        [79.84035, 28.23209],
        [79.84057, 28.23205],
        [79.84084, 28.23199],
        [79.84102, 28.23162],
        [79.84127, 28.23145],
        [79.84162, 28.23133],
        [79.84182, 28.23083],
        [79.84195, 28.23055],
        [79.84206, 28.23034],
        [79.84221, 28.2301],
        [79.84252, 28.22998],
        [79.843, 28.2298],
        [79.84339, 28.22975],
        [79.84368, 28.22975],
        [79.84391, 28.22967],
        [79.84421, 28.22964],
        [79.84445, 28.22967],
        [79.8449, 28.22977],
        [79.84548, 28.23012],
        [79.84651, 28.23094],
        [79.84688, 28.23107],
        [79.84735, 28.2309],
        [79.84756, 28.23079],
        [79.84792, 28.23086],
        [79.84817, 28.23109],
        [79.84839, 28.23126],
        [79.8487, 28.2313],
        [79.84908, 28.23134],
        [79.84938, 28.23138],
        [79.84973, 28.23152],
        [79.85017, 28.23187],
        [79.85039, 28.23196],
        [79.85072, 28.23202],
        [79.85107, 28.2322],
        [79.85127, 28.23269],
        [79.85148, 28.23306],
        [79.85175, 28.23319],
        [79.852, 28.23337],
        [79.85205, 28.23355],
        [79.8521, 28.2338],
        [79.85223, 28.23401],
        [79.85267, 28.23388],
        [79.85351, 28.23375],
        [79.85411, 28.23362],
        [79.85471, 28.23372],
        [79.85519, 28.23368],
        [79.85564, 28.23346],
        [79.85602, 28.23319],
        [79.85586, 28.23296],
        [79.85498, 28.23206],
        [79.85507, 28.23187],
        [79.85528, 28.23167],
        [79.85433, 28.23056],
        [79.85349, 28.22976],
        [79.85363, 28.22962],
        [79.85441, 28.22959],
        [79.85483, 28.22956],
        [79.85509, 28.22967],
        [79.85603, 28.23048],
        [79.85637, 28.23077],
        [79.8566, 28.23093],
        [79.85745, 28.23167],
        [79.85799, 28.23203],
        [79.85819, 28.23203],
        [79.85844, 28.23197],
        [79.85933, 28.23124],
        [79.85947, 28.23108],
        [79.85834, 28.2303],
        [79.8584, 28.23001],
        [79.85864, 28.2299],
        [79.85903, 28.2296],
        [79.85919, 28.22941],
        [79.85946, 28.22923],
        [79.8598, 28.22898],
        [79.8599, 28.22881],
        [79.85997, 28.2286],
        [79.86005, 28.22826],
        [79.86016, 28.22801],
        [79.86031, 28.22782],
        [79.86088, 28.22747],
        [79.86102, 28.22728],
        [79.8611, 28.2271],
        [79.86114, 28.22688],
        [79.86119, 28.2267],
        [79.86127, 28.2263],
        [79.86135, 28.22606],
        [79.8617, 28.22535],
        [79.86189, 28.22504],
        [79.8619, 28.22474],
        [79.86192, 28.22454],
        [79.86199, 28.22407],
        [79.86202, 28.22387],
        [79.86215, 28.22367],
        [79.86268, 28.22333],
        [79.86358, 28.22229],
        [79.86508, 28.22111],
        [79.86529, 28.22101],
        [79.86556, 28.22085],
        [79.86565, 28.22053],
        [79.86559, 28.22032],
        [79.8655, 28.22008],
        [79.86539, 28.21988],
        [79.86538, 28.2196],
        [79.86591, 28.21783],
        [79.86628, 28.21647],
        [79.86663, 28.21557],
        [79.8673, 28.21461],
        [79.86783, 28.21415],
        [79.86801, 28.21375],
        [79.86809, 28.21355],
        [79.86815, 28.2129],
        [79.86809, 28.21216],
        [79.86787, 28.21128],
        [79.86758, 28.20985],
        [79.86706, 28.2084],
        [79.86638, 28.20666],
        [79.86574, 28.20512],
        [79.865, 28.20394],
        [79.86454, 28.20298],
        [79.86444, 28.20248],
        [79.86436, 28.20205],
        [79.86436, 28.20171],
        [79.86443, 28.20116],
        [79.86461, 28.20076],
        [79.86494, 28.20026],
        [79.86524, 28.19996],
        [79.86607, 28.19932],
        [79.86628, 28.19905],
        [79.8662, 28.1988],
        [79.86621, 28.19858],
        [79.86638, 28.19833],
        [79.8669, 28.19762],
        [79.86745, 28.19674],
        [79.86786, 28.19561],
        [79.86788, 28.1949],
        [79.86788, 28.19464],
        [79.86784, 28.19437],
        [79.86775, 28.19416],
        [79.86784, 28.19395],
        [79.86842, 28.19395],
        [79.86933, 28.19361],
        [79.87178, 28.19277],
        [79.87307, 28.19223],
        [79.87335, 28.19208],
        [79.87367, 28.19188],
        [79.87395, 28.19183],
        [79.87463, 28.19239],
        [79.87549, 28.19359],
        [79.87606, 28.19406],
        [79.87672, 28.19445],
        [79.8773, 28.19462],
        [79.87773, 28.19467],
        [79.87819, 28.19466],
        [79.87967, 28.19445],
        [79.8807, 28.19425],
        [79.88147, 28.19425],
        [79.8824, 28.19422],
        [79.88337, 28.19437],
        [79.88415, 28.19455],
        [79.88469, 28.19462],
        [79.88546, 28.1945],
        [79.88679, 28.19418],
        [79.88837, 28.19366],
        [79.88902, 28.19349],
        [79.88923, 28.19336],
        [79.88941, 28.19318],
        [79.88941, 28.19288],
        [79.88911, 28.19277],
        [79.88889, 28.19265],
        [79.88871, 28.19251],
        [79.88867, 28.19228],
        [79.88874, 28.19202],
        [79.88882, 28.19184],
        [79.8891, 28.19141],
        [79.88966, 28.19056],
        [79.88986, 28.19042],
        [79.89026, 28.19013],
        [79.89049, 28.18998],
        [79.89063, 28.18971],
        [79.89076, 28.18947],
        [79.89092, 28.18921],
        [79.89106, 28.18861],
        [79.89104, 28.1883],
        [79.89117, 28.18798],
        [79.89121, 28.18756],
        [79.89126, 28.18726],
        [79.89139, 28.18712],
        [79.89156, 28.18699],
        [79.89181, 28.18679],
        [79.89196, 28.18652],
        [79.89205, 28.1862],
        [79.89207, 28.18586],
        [79.89157, 28.18582],
        [79.89129, 28.18596],
        [79.89103, 28.186],
        [79.89078, 28.18601],
        [79.88991, 28.18595],
        [79.88957, 28.186],
        [79.88858, 28.18652],
        [79.88828, 28.18659],
        [79.88806, 28.18642],
        [79.88802, 28.18621],
        [79.888, 28.18602],
        [79.88786, 28.18575],
        [79.88763, 28.18554],
        [79.88755, 28.18522],
        [79.88751, 28.18498],
        [79.88744, 28.18479],
        [79.88722, 28.18454],
        [79.88703, 28.18441],
        [79.88689, 28.18392],
        [79.88685, 28.1836],
        [79.88676, 28.18342],
        [79.88657, 28.18326],
        [79.8864, 28.18305],
        [79.8864, 28.1828],
        [79.88627, 28.18245],
        [79.88612, 28.18231],
        [79.88602, 28.18201],
        [79.88592, 28.18184],
        [79.88575, 28.18172],
        [79.88549, 28.18163]
      ]
    ]
  }
}
