{
  "type": "Feature",
  "id": "UP-AC-168",
  "properties": {
    "stateName": "UTTAR PRADESH",
    "stateCode": "UP",
    "districtName": "LUCKNOW",
    "acNo": 168,
    "acName": "TILOI",
    "seatType": null,
    "pcNo": null,
    "pcName": null,
    "quality": "unverified",
    "sources": [
      "TBD"
    ]
  },
  "geometry": {
    "type": "Polygon",
    "coordinates": [
      [
        [80.82957, 27.09941],
        [80.83108, 27.10011],
        [80.83267, 27.10103],
        [80.8338, 27.10229],
        [80.83453, 27.10291],
        [80.83528, 27.10331],
        [80.83551, 27.10301],
        [80.83652, 27.10176],
        [80.8366, 27.10139],
        [80.83678, 27.10051],
        [80.83623, 27.09898],
        [80.8353, 27.09827],
        [80.83403, 27.09797],
        [80.83044, 27.0977],
        [80.82918, 27.09732],
        [80.82885, 27.09675],
        [80.82882, 27.09633],
        [80.82917, 27.09518],
        [80.82964, 27.09471],
        [80.83122, 27.09422],
        [80.83365, 27.09316],
        [80.83437, 27.09212],
        [80.83495, 27.0906],
        [80.835, 27.08986],
        [80.83508, 27.08852],
        [80.83475, 27.08549],
        [80.83413, 27.08379],
        [80.83317, 27.08218],
        [80.83311, 27.08209],
        [80.83109, 27.08009],
        [80.83061, 27.07868],
        [80.83062, 27.07834],
        [80.83064, 27.07747],
        [80.83109, 27.07673],
        [80.83232, 27.07554],
        [80.83357, 27.07466],
        [80.83393, 27.07411],
        [80.83419, 27.07355],
        [80.83415, 27.07272],
        [80.83439, 27.0716],
        [80.83503, 27.07064],
        [80.83585, 27.07],
        [80.83618, 27.06969],
        [80.83632, 27.06905],
        [80.83609, 27.06808],
        [80.83495, 27.06613],
        [80.83503, 27.06543],
        [80.83507, 27.06501],
        [80.83522, 27.06469],
        [80.83571, 27.06422],
        [80.83687, 27.06408],
        [80.84136, 27.06398],
        [80.84305, 27.06352],
        [80.8437, 27.06305],
        [80.84397, 27.0626],
        [80.84417, 27.06226],
        [80.8443, 27.06146],
        [80.84424, 27.06051],
        [80.8435, 27.05922],
        [80.84329, 27.05843],
        [80.84342, 27.05763],
        [80.84422, 27.05653],
        [80.84436, 27.0559],
        [80.84432, 27.05494],
        [80.84393, 27.05399],
        [80.84252, 27.05163],
        [80.8423, 27.05127],
        [80.8421, 27.05047],
        [80.84208, 27.04984],
        [80.84221, 27.04889],
        [80.84269, 27.04811],
        [80.84483, 27.04593],
        [80.84548, 27.04499],
        [80.84612, 27.0439],
        [80.84675, 27.04233],
        [80.84724, 27.0417],
        [80.8479, 27.04124],
        [80.85008, 27.04049],
        [80.8509, 27.03987],
        [80.85138, 27.03893],
        [80.85153, 27.03799],
        [80.851, 27.03688],
        [80.85031, 27.03624],
        [80.84928, 27.03512],
        [80.84841, 27.03386],
        [80.84705, 27.03289],
        [80.84382, 27.03143],
        [80.84196, 27.03061],
        [80.84077, 27.02996],
        [80.83907, 27.02899],
        [80.83755, 27.02865],
        [80.83502, 27.02813],
        [80.83096, 27.02679],
        [80.82791, 27.02516],
        [80.82758, 27.0249],
        [80.82622, 27.02387],
        [80.82487, 27.02227],
        [80.82452, 27.02085],
        [80.82461, 27.02006],
        [80.82469, 27.01945],
        [80.82603, 27.01807],
        [80.82755, 27.01795],
        [80.83007, 27.01832],
        [80.8331, 27.01979],
        [80.83665, 27.0219],
        [80.83867, 27.02272],
        [80.84002, 27.0229],
        [80.84203, 27.02279],
        [80.84371, 27.02219],
        [80.8447, 27.02112],
        [80.84503, 27.01972],
        [80.84484, 27.01723],
        [80.84379, 27.01307],
        [80.84312, 27.01196],
        [80.84244, 27.01101],
        [80.84077, 27.00942],
        [80.8355, 27.00522],
        [80.83357, 27.00367],
        [80.82983, 27.00059],
        [80.82854, 26.99971],
        [80.82708, 26.99614],
        [80.8273, 26.99463],
        [80.82777, 26.99377],
        [80.82813, 26.99313],
        [80.82978, 26.99184],
        [80.83573, 26.98935],
        [80.84249, 26.98706],
        [80.8472, 26.98491],
        [80.85088, 26.98273],
        [80.85277, 26.98104],
        [80.85314, 26.98071],
        [80.85429, 26.97891],
        [80.8548, 26.97811],
        [80.85504, 26.97585],
        [80.85467, 26.9734],
        [80.85409, 26.97206],
        [80.85229, 26.97051],
        [80.85046, 26.97027],
        [80.84923, 26.97062],
        [80.84656, 26.97167],
        [80.84202, 26.97495],
        [80.84056, 26.97717],
        [80.8393, 26.97959],
        [80.83825, 26.98203],
        [80.83702, 26.98313],
        [80.83498, 26.98308],
        [80.83275, 26.98188],
        [80.83092, 26.98051],
        [80.83033, 26.97897],
        [80.83036, 26.97708],
        [80.83033, 26.96763],
        [80.82936, 26.96553],
        [80.82835, 26.96474],
        [80.82735, 26.96414],
        [80.82371, 26.96233],
        [80.82209, 26.96152],
        [80.8215, 26.96037],
        [80.82153, 26.95924],
        [80.82362, 26.95741],
        [80.82406, 26.95629],
        [80.82473, 26.95405],
        [80.8246, 26.95122],
        [80.82486, 26.94934],
        [80.82571, 26.94805],
        [80.82738, 26.94716],
        [80.84241, 26.94331],
        [80.84425, 26.94337],
        [80.8454, 26.94371],
        [80.84566, 26.94379],
        [80.84749, 26.94403],
        [80.84824, 26.94386],
        [80.84893, 26.9437],
        [80.84997, 26.94298],
        [80.85123, 26.94189],
        [80.85272, 26.94006],
        [80.85305, 26.93907],
        [80.8534, 26.93801],
        [80.85366, 26.93614],
        [80.85373, 26.93427],
        [80.85478, 26.93318],
        [80.856, 26.93322],
        [80.85742, 26.93364],
        [80.85882, 26.93424],
        [80.85977, 26.93472],
        [80.86002, 26.93484],
        [80.86081, 26.93441],
        [80.86122, 26.93422],
        [80.86155, 26.93417],
        [80.86195, 26.93413],
        [80.86261, 26.93418],
        [80.86336, 26.93424],
        [80.86414, 26.9342],
        [80.86483, 26.93412],
        [80.86552, 26.93413],
        [80.86603, 26.93408],
        [80.86653, 26.93408],
        [80.86695, 26.9341],
        [80.86734, 26.93415],
        [80.86779, 26.93418],
        [80.86818, 26.93426],
        [80.8682, 26.9336],
        [80.86784, 26.93246],
        [80.86768, 26.93133],
        [80.86791, 26.93059],
        [80.86874, 26.93006],
        [80.86808, 26.92908],
        [80.8678, 26.92845],
        [80.86743, 26.92762],
        [80.86728, 26.92712],
        [80.8673, 26.92635],
        [80.86726, 26.92552],
        [80.86713, 26.92468],
        [80.8669, 26.92421],
        [80.86671, 26.92398],
        [80.86633, 26.92371],
        [80.86528, 26.92323],
        [80.86384, 26.92243],
        [80.86319, 26.92193],
        [80.8629, 26.92144],
        [80.86279, 26.9208],
        [80.86278, 26.92037],
        [80.86302, 26.91964],
        [80.86334, 26.91913],
        [80.86355, 26.91882],
        [80.86399, 26.9185],
        [80.86458, 26.9183],
        [80.86509, 26.91818],
        [80.86568, 26.91803],
        [80.86605, 26.91782],
        [80.86622, 26.91766],
        [80.8663, 26.91733],
        [80.86597, 26.91563],
        [80.86576, 26.91521],
        [80.8653, 26.91469],
        [80.8652, 26.91463],
        [80.86491, 26.91444],
        [80.86451, 26.91426],
        [80.86427, 26.91416],
        [80.86379, 26.91411],
        [80.86337, 26.91407],
        [80.86253, 26.91414],
        [80.86213, 26.91414],
        [80.86193, 26.9141],
        [80.86171, 26.91403],
        [80.86137, 26.91391],
        [80.86106, 26.91372],
        [80.85928, 26.91206],
        [80.85714, 26.91007],
        [80.85611, 26.9091],
        [80.85576, 26.90866],
        [80.85551, 26.9083],
        [80.85536, 26.90804],
        [80.85517, 26.90769],
        [80.85484, 26.90707],
        [80.85448, 26.90617],
        [80.85434, 26.90553],
        [80.85428, 26.90499],
        [80.85421, 26.90409],
        [80.85407, 26.90368],
        [80.85388, 26.90339],
        [80.85341, 26.90291],
        [80.85303, 26.90245],
        [80.85281, 26.90213],
        [80.8526, 26.90177],
        [80.85229, 26.90105],
        [80.85203, 26.90031],
        [80.85186, 26.9001],
        [80.85164, 26.89998],
        [80.85142, 26.89996],
        [80.85124, 26.89997],
        [80.85102, 26.90001],
        [80.85081, 26.90018],
        [80.85035, 26.90044],
        [80.84988, 26.90063],
        [80.84953, 26.90071],
        [80.849, 26.90082],
        [80.8481, 26.90101],
        [80.84742, 26.90123],
        [80.8469, 26.90145],
        [80.84609, 26.90178],
        [80.84546, 26.90189],
        [80.8453, 26.90191],
        [80.84413, 26.90205],
        [80.8432, 26.90204],
        [80.8426, 26.90192],
        [80.84168, 26.90166],
        [80.84106, 26.9014],
        [80.84022, 26.90115],
        [80.83962, 26.90109],
        [80.83869, 26.90104],
        [80.83797, 26.90094],
        [80.83767, 26.90078],
        [80.83738, 26.90053],
        [80.83712, 26.90026],
        [80.83693, 26.89991],
        [80.83688, 26.89969],
        [80.83683, 26.89947],
        [80.8367, 26.89869],
        [80.83655, 26.89839],
        [80.83641, 26.8982],
        [80.83624, 26.89805],
        [80.83606, 26.89795],
        [80.83581, 26.89784],
        [80.83539, 26.89766],
        [80.83498, 26.89737],
        [80.83475, 26.89701],
        [80.83466, 26.89669],
        [80.83466, 26.8962],
        [80.8348, 26.89571],
        [80.83489, 26.89554],
        [80.83499, 26.89532],
        [80.83519, 26.89507],
        [80.8355, 26.89486],
        [80.84021, 26.89264],
        [80.84098, 26.89228],
        [80.84218, 26.89168],
        [80.84275, 26.8915],
        [80.843, 26.89141],
        [80.84339, 26.89136],
        [80.84416, 26.89129],
        [80.8449, 26.89115],
        [80.84545, 26.89094],
        [80.84577, 26.89075],
        [80.846, 26.89052],
        [80.84629, 26.89021],
        [80.84661, 26.88979],
        [80.84699, 26.88949],
        [80.84728, 26.8893],
        [80.84778, 26.88907],
        [80.84924, 26.8886],
        [80.85083, 26.88804],
        [80.8513, 26.88782],
        [80.85157, 26.88764],
        [80.85168, 26.88752],
        [80.85181, 26.8873],
        [80.85184, 26.88713],
        [80.85181, 26.88692],
        [80.85171, 26.88674],
        [80.85156, 26.8866],
        [80.85124, 26.88635],
        [80.85093, 26.88611],
        [80.85045, 26.88565],
        [80.84993, 26.88498],
        [80.84922, 26.88408],
        [80.84855, 26.88311],
        [80.84839, 26.88273],
        [80.8482, 26.88226],
        [80.84808, 26.88181],
        [80.84796, 26.88154],
        [80.84783, 26.88132],
        [80.84768, 26.88114],
        [80.84647, 26.88004],
        [80.84612, 26.87969],
        [80.84601, 26.87946],
        [80.84597, 26.87924],
        [80.84598, 26.87878],
        [80.84628, 26.87822],
        [80.84663, 26.87777],
        [80.84684, 26.87757],
        [80.84707, 26.87749],
        [80.84735, 26.8775],
        [80.84757, 26.87753],
        [80.84867, 26.8778],
        [80.84894, 26.87781],
        [80.84915, 26.87777],
        [80.84935, 26.87757],
        [80.84951, 26.87739],
        [80.85043, 26.87645],
        [80.85057, 26.87621],
        [80.85061, 26.87588],
        [80.85059, 26.87547],
        [80.85064, 26.87498],
        [80.85074, 26.87453],
        [80.85087, 26.87427],
        [80.85135, 26.87378],
        [80.85156, 26.87345],
        [80.85166, 26.87303],
        [80.85169, 26.87276],
        [80.85171, 26.8725],
        [80.85159, 26.8722],
        [80.85121, 26.87179],
        [80.85087, 26.87153],
        [80.85057, 26.87145],
        [80.85016, 26.87146],
        [80.84994, 26.87149],
        [80.84966, 26.87155],
        [80.8494, 26.87175],
        [80.84892, 26.87231],
        [80.8486, 26.87262],
        [80.84842, 26.87273],
        [80.84806, 26.87286],
        [80.84763, 26.87289],
        [80.84726, 26.87285],
        [80.84698, 26.87277],
        [80.84681, 26.87263],
        [80.84657, 26.87237],
        [80.84626, 26.87198],
        [80.84607, 26.87168],
        [80.84593, 26.87149],
        [80.84566, 26.87134],
        [80.84521, 26.87125],
        [80.84491, 26.87124],
        [80.84453, 26.8713],
        [80.84366, 26.87148],
        [80.84282, 26.87163],
        [80.84199, 26.87169],
        [80.84109, 26.87163],
        [80.84074, 26.87155],
        [80.84051, 26.87145],
        [80.84042, 26.87133],
        [80.8404, 26.87119],
        [80.84043, 26.87101],
        [80.84062, 26.87074],
        [80.84078, 26.87058],
        [80.84099, 26.87036],
        [80.84119, 26.87004],
        [80.84133, 26.86973],
        [80.8415, 26.86948],
        [80.84176, 26.86917],
        [80.84197, 26.86887],
        [80.84207, 26.86855],
        [80.84208, 26.8683],
        [80.84204, 26.86797],
        [80.84192, 26.86776],
        [80.84171, 26.86745],
        [80.84127, 26.86697],
        [80.84001, 26.86554],
        [80.83937, 26.86457],
        [80.83865, 26.86313],
        [80.8385, 26.86246],
        [80.83852, 26.86197],
        [80.83856, 26.86172],
        [80.83864, 26.86158],
        [80.83895, 26.8613],
        [80.83947, 26.86099],
        [80.84016, 26.86081],
        [80.84077, 26.86074],
        [80.84195, 26.86076],
        [80.84339, 26.86086],
        [80.84397, 26.8609],
        [80.84425, 26.86089],
        [80.84442, 26.86083],
        [80.84461, 26.86062],
        [80.84462, 26.86039],
        [80.8446, 26.86012],
        [80.84457, 26.85984],
        [80.84445, 26.85955],
        [80.84429, 26.85925],
        [80.84387, 26.85866],
        [80.84108, 26.85528],
        [80.84081, 26.85481],
        [80.84065, 26.85414],
        [80.84064, 26.8536],
        [80.84074, 26.85297],
        [80.84104, 26.85208],
        [80.84135, 26.85162],
        [80.84158, 26.85133],
        [80.84181, 26.85117],
        [80.84196, 26.85108],
        [80.84262, 26.85103],
        [80.84298, 26.85095],
        [80.84325, 26.85086],
        [80.84339, 26.85073],
        [80.84366, 26.85051],
        [80.84386, 26.85015],
        [80.84393, 26.84971],
        [80.84389, 26.84912],
        [80.84371, 26.84821],
        [80.84342, 26.84739],
        [80.84306, 26.84665],
        [80.84262, 26.8458],
        [80.84168, 26.84416],
        [80.84155, 26.84377],
        [80.84139, 26.84331],
        [80.84138, 26.84281],
        [80.8414, 26.84244],
        [80.84145, 26.84208],
        [80.84151, 26.84168],
        [80.84152, 26.84131],
        [80.84144, 26.84074],
        [80.84092, 26.83892],
        [80.84069, 26.83771],
        [80.84066, 26.83687],
        [80.84073, 26.83627],
        [80.84083, 26.83571],
        [80.84103, 26.83528],
        [80.84131, 26.83479],
        [80.84173, 26.83431],
        [80.84257, 26.83357],
        [80.84382, 26.83255],
        [80.8448, 26.83205],
        [80.84569, 26.83168],
        [80.84647, 26.83138],
        [80.84722, 26.83101],
        [80.84819, 26.83041],
        [80.84872, 26.82996],
        [80.84904, 26.82961],
        [80.84939, 26.82899],
        [80.84961, 26.82836],
        [80.84964, 26.8278],
        [80.84961, 26.82676],
        [80.84951, 26.82582],
        [80.84908, 26.8243],
        [80.84882, 26.82366],
        [80.84875, 26.82325],
        [80.84875, 26.82285],
        [80.84878, 26.8223],
        [80.84902, 26.81969],
        [80.84921, 26.81891],
        [80.84939, 26.81831],
        [80.84964, 26.81774],
        [80.85049, 26.81627],
        [80.85064, 26.81598],
        [80.85083, 26.81568],
        [80.85103, 26.8152],
        [80.85128, 26.81465],
        [80.8517, 26.81383],
        [80.85189, 26.81342],
        [80.85381, 26.81063],
        [80.85531, 26.80866],
        [80.85604, 26.80772],
        [80.8563, 26.80739],
        [80.85701, 26.80623],
        [80.85718, 26.80591],
        [80.85736, 26.80546],
        [80.8575, 26.80506],
        [80.85752, 26.80466],
        [80.8575, 26.80419],
        [80.85744, 26.80366],
        [80.8574, 26.80322],
        [80.85738, 26.80282],
        [80.85744, 26.80233],
        [80.85766, 26.80172],
        [80.8579, 26.80136],
        [80.85861, 26.80053],
        [80.85908, 26.80011],
        [80.85919, 26.80001],
        [80.85994, 26.7994],
        [80.86043, 26.7991],
        [80.86116, 26.79867],
        [80.86182, 26.7984],
        [80.86267, 26.79811],
        [80.86298, 26.79802],
        [80.8633, 26.79793],
        [80.8639, 26.79777],
        [80.86446, 26.79757],
        [80.86532, 26.79721],
        [80.86663, 26.79665],
        [80.86756, 26.79621],
        [80.86767, 26.79615],
        [80.86849, 26.79569],
        [80.86982, 26.79488],
        [80.8703, 26.79457],
        [80.87069, 26.79432],
        [80.87099, 26.79402],
        [80.87121, 26.79377],
        [80.87149, 26.79351],
        [80.87159, 26.7933],
        [80.8716, 26.79317],
        [80.87155, 26.79301],
        [80.87141, 26.79287],
        [80.8692, 26.7912],
        [80.86627, 26.7892],
        [80.85695, 26.78235],
        [80.85657, 26.78207],
        [80.85347, 26.77977],
        [80.85328, 26.77964],
        [80.8516, 26.77856],
        [80.8502, 26.77761],
        [80.84735, 26.77546],
        [80.84647, 26.77461],
        [80.84576, 26.77394],
        [80.84519, 26.77342],
        [80.84469, 26.77305],
        [80.84386, 26.7725],
        [80.84221, 26.77142],
        [80.84092, 26.77069],
        [80.83898, 26.77237],
        [80.83848, 26.7727],
        [80.83798, 26.77303],
        [80.83726, 26.77339],
        [80.83608, 26.77411],
        [80.83487, 26.77507],
        [80.83377, 26.77615],
        [80.83332, 26.77673],
        [80.8331, 26.7771],
        [80.83298, 26.77749],
        [80.83291, 26.77778],
        [80.83283, 26.77822],
        [80.83268, 26.7787],
        [80.83254, 26.77924],
        [80.83235, 26.77946],
        [80.83214, 26.77962],
        [80.83174, 26.77986],
        [80.83044, 26.78041],
        [80.82988, 26.78061],
        [80.82948, 26.78072],
        [80.82897, 26.78079],
        [80.82622, 26.78112],
        [80.82504, 26.78126],
        [80.82352, 26.7815],
        [80.82285, 26.7816],
        [80.82294, 26.7819],
        [80.82299, 26.7821],
        [80.823, 26.78229],
        [80.82294, 26.7825],
        [80.82291, 26.7827],
        [80.8229, 26.78286],
        [80.82293, 26.78303],
        [80.82299, 26.78311],
        [80.82309, 26.78315],
        [80.82383, 26.78318],
        [80.82404, 26.78328],
        [80.82418, 26.7834],
        [80.82426, 26.7836],
        [80.82435, 26.78381],
        [80.82445, 26.78398],
        [80.82468, 26.78419],
        [80.82528, 26.78455],
        [80.82597, 26.78497],
        [80.82627, 26.78514],
        [80.82639, 26.7853],
        [80.82642, 26.78547],
        [80.82643, 26.78564],
        [80.82644, 26.78581],
        [80.82653, 26.78601],
        [80.8268, 26.78633],
        [80.82792, 26.78727],
        [80.82809, 26.78742],
        [80.82816, 26.78755],
        [80.82818, 26.78771],
        [80.82816, 26.78789],
        [80.82811, 26.78814],
        [80.82812, 26.78832],
        [80.8282, 26.78845],
        [80.82834, 26.78856],
        [80.82851, 26.78862],
        [80.82863, 26.78879],
        [80.82867, 26.78895],
        [80.82824, 26.79053],
        [80.82823, 26.79071],
        [80.82828, 26.79092],
        [80.82842, 26.79112],
        [80.82883, 26.79158],
        [80.82949, 26.79211],
        [80.82987, 26.79241],
        [80.83007, 26.79251],
        [80.83021, 26.79258],
        [80.83034, 26.7926],
        [80.83047, 26.79261],
        [80.83062, 26.79265],
        [80.83077, 26.79272],
        [80.83087, 26.79281],
        [80.83094, 26.79296],
        [80.83096, 26.79329],
        [80.83097, 26.79366],
        [80.83101, 26.79383],
        [80.83111, 26.79395],
        [80.83131, 26.79406],
        [80.83145, 26.79406],
        [80.83166, 26.79389],
        [80.83188, 26.7936],
        [80.83203, 26.79339],
        [80.83216, 26.79328],
        [80.83228, 26.79323],
        [80.83244, 26.79323],
        [80.83261, 26.79328],
        [80.83274, 26.79339],
        [80.83288, 26.79354],
        [80.83303, 26.79393],
        [80.83315, 26.7944],
        [80.83305, 26.79658],
        [80.83271, 26.79651],
        [80.83247, 26.79652],
        [80.83218, 26.79657],
        [80.82904, 26.79798],
        [80.82583, 26.79975],
        [80.82556, 26.79998],
        [80.82516, 26.80042],
        [80.82487, 26.80083],
        [80.82441, 26.80157],
        [80.8242, 26.80194],
        [80.82406, 26.80248],
        [80.82394, 26.80333],
        [80.82388, 26.80399],
        [80.82375, 26.80446],
        [80.82349, 26.80487],
        [80.82323, 26.8051],
        [80.82293, 26.80531],
        [80.82245, 26.80566],
        [80.82221, 26.80603],
        [80.82212, 26.80633],
        [80.82205, 26.80666],
        [80.82195, 26.80695],
        [80.82171, 26.8073],
        [80.82117, 26.80771],
        [80.82065, 26.80814],
        [80.82012, 26.80833],
        [80.81975, 26.80843],
        [80.8195, 26.80853],
        [80.81935, 26.80873],
        [80.81938, 26.80912],
        [80.81956, 26.80957],
        [80.81978, 26.80989],
        [80.81994, 26.81033],
        [80.81995, 26.81073],
        [80.81986, 26.81108],
        [80.81971, 26.81155],
        [80.81933, 26.81238],
        [80.81909, 26.81278],
        [80.8188, 26.81304],
        [80.81852, 26.81321],
        [80.81818, 26.8133],
        [80.81792, 26.81338],
        [80.81769, 26.81347],
        [80.81755, 26.81364],
        [80.8175, 26.81385],
        [80.81753, 26.81407],
        [80.81763, 26.81432],
        [80.81772, 26.81457],
        [80.81784, 26.81478],
        [80.81802, 26.81499],
        [80.8194, 26.81626],
        [80.81918, 26.81635],
        [80.81871, 26.81649],
        [80.81793, 26.81662],
        [80.817, 26.81663],
        [80.81647, 26.81659],
        [80.81621, 26.8165],
        [80.81602, 26.81635],
        [80.81515, 26.81695],
        [80.8146, 26.81729],
        [80.81399, 26.81772],
        [80.81371, 26.81799],
        [80.81329, 26.81852],
        [80.81283, 26.81911],
        [80.81252, 26.81978],
        [80.81236, 26.82017],
        [80.81219, 26.82058],
        [80.81201, 26.82107],
        [80.81181, 26.82149],
        [80.81169, 26.82167],
        [80.81143, 26.82201],
        [80.81124, 26.82227],
        [80.811, 26.82252],
        [80.81068, 26.82283],
        [80.81044, 26.82311],
        [80.81035, 26.82331],
        [80.81024, 26.82361],
        [80.81015, 26.82389],
        [80.809, 26.82464],
        [80.80814, 26.82522],
        [80.80755, 26.82567],
        [80.80702, 26.82606],
        [80.80652, 26.82655],
        [80.80637, 26.82683],
        [80.80628, 26.82719],
        [80.80623, 26.82751],
        [80.80621, 26.82791],
        [80.80624, 26.8286],
        [80.80629, 26.82882],
        [80.80638, 26.82911],
        [80.80638, 26.82938],
        [80.80633, 26.82955],
        [80.80625, 26.82967],
        [80.80609, 26.82986],
        [80.80605, 26.83003],
        [80.80608, 26.83015],
        [80.80617, 26.83031],
        [80.8071, 26.83129],
        [80.80726, 26.8315],
        [80.80729, 26.83169],
        [80.80728, 26.83186],
        [80.80724, 26.83211],
        [80.80717, 26.8323],
        [80.80713, 26.83247],
        [80.80714, 26.83263],
        [80.80721, 26.83281],
        [80.80728, 26.83294],
        [80.80767, 26.83337],
        [80.80735, 26.83362],
        [80.80673, 26.83412],
        [80.80572, 26.83476],
        [80.80489, 26.83521],
        [80.8045, 26.83536],
        [80.80425, 26.83535],
        [80.80394, 26.83532],
        [80.80355, 26.83521],
        [80.80324, 26.83507],
        [80.80204, 26.83467],
        [80.80104, 26.83451],
        [80.80064, 26.83448],
        [80.80034, 26.83449],
        [80.80006, 26.83454],
        [80.79954, 26.83468],
        [80.79907, 26.83483],
        [80.7979, 26.83517],
        [80.79667, 26.83541],
        [80.79488, 26.83566],
        [80.79433, 26.83572],
        [80.79368, 26.83578],
        [80.79315, 26.8358],
        [80.78852, 26.83583],
        [80.78805, 26.83588],
        [80.78783, 26.83585],
        [80.78771, 26.83577],
        [80.78708, 26.8353],
        [80.78663, 26.83506],
        [80.78637, 26.83495],
        [80.78601, 26.83492],
        [80.78575, 26.83493],
        [80.78539, 26.83499],
        [80.78512, 26.8351],
        [80.78464, 26.83534],
        [80.78403, 26.83559],
        [80.78367, 26.8357],
        [80.78329, 26.83573],
        [80.78303, 26.83572],
        [80.7828, 26.83573],
        [80.78252, 26.83574],
        [80.78232, 26.83584],
        [80.78214, 26.83595],
        [80.78195, 26.83613],
        [80.78177, 26.83635],
        [80.78157, 26.83656],
        [80.78142, 26.8366],
        [80.78128, 26.83657],
        [80.78113, 26.83651],
        [80.781, 26.83644],
        [80.77696, 26.83442],
        [80.77628, 26.8342],
        [80.77573, 26.83406],
        [80.77531, 26.83402],
        [80.77449, 26.83397],
        [80.77371, 26.83395],
        [80.77348, 26.83402],
        [80.7733, 26.83412],
        [80.77311, 26.83424],
        [80.77334, 26.83452],
        [80.77432, 26.83606],
        [80.77538, 26.83761],
        [80.77598, 26.83862],
        [80.77625, 26.83915],
        [80.77637, 26.83956],
        [80.77648, 26.84011],
        [80.77673, 26.84113],
        [80.77729, 26.84296],
        [80.77808, 26.84355],
        [80.7784, 26.84398],
        [80.77863, 26.84426],
        [80.77897, 26.84472],
        [80.7791, 26.84493],
        [80.77956, 26.84646],
        [80.77971, 26.84707],
        [80.77987, 26.8475],
        [80.78036, 26.84849],
        [80.78023, 26.84872],
        [80.78014, 26.84922],
        [80.78005, 26.84957],
        [80.77961, 26.85078],
        [80.77935, 26.85127],
        [80.77877, 26.85193],
        [80.77832, 26.85235],
        [80.77753, 26.85276],
        [80.77687, 26.85296],
        [80.77643, 26.85305],
        [80.77586, 26.85301],
        [80.7754, 26.85291],
        [80.77495, 26.85268],
        [80.77458, 26.85253],
        [80.77419, 26.85248],
        [80.77375, 26.85251],
        [80.77359, 26.85258],
        [80.7733, 26.85271],
        [80.77285, 26.85316],
        [80.77214, 26.85398],
        [80.77178, 26.85451],
        [80.77137, 26.855],
        [80.771, 26.85523],
        [80.77065, 26.85533],
        [80.77036, 26.85538],
        [80.77012, 26.85533],
        [80.7697, 26.85504],
        [80.76945, 26.85477],
        [80.7692, 26.85432],
        [80.76882, 26.85364],
        [80.7682, 26.85184],
        [80.76759, 26.85073],
        [80.7669, 26.84997],
        [80.76627, 26.84949],
        [80.76539, 26.84912],
        [80.76468, 26.84908],
        [80.76403, 26.84917],
        [80.76378, 26.84925],
        [80.76331, 26.84941],
        [80.76291, 26.84968],
        [80.76196, 26.8505],
        [80.76132, 26.85102],
        [80.75927, 26.85265],
        [80.75854, 26.85319],
        [80.75776, 26.85367],
        [80.75708, 26.85404],
        [80.75628, 26.85443],
        [80.75587, 26.85461],
        [80.75543, 26.85479],
        [80.755, 26.85505],
        [80.7547, 26.85529],
        [80.75365, 26.85615],
        [80.75302, 26.85672],
        [80.75237, 26.85716],
        [80.7519, 26.8574],
        [80.75078, 26.85624],
        [80.75049, 26.85591],
        [80.75024, 26.85555],
        [80.74978, 26.85479],
        [80.74904, 26.85328],
        [80.74852, 26.85252],
        [80.74766, 26.85147],
        [80.74633, 26.85019],
        [80.74582, 26.84971],
        [80.7454, 26.8494],
        [80.74513, 26.84922],
        [80.74374, 26.84851],
        [80.74203, 26.84788],
        [80.74012, 26.84735],
        [80.73889, 26.84706],
        [80.73801, 26.84692],
        [80.73745, 26.8469],
        [80.73689, 26.84693],
        [80.73636, 26.84694],
        [80.73618, 26.84694],
        [80.73599, 26.84689],
        [80.73582, 26.84682],
        [80.73563, 26.84668],
        [80.73503, 26.84614],
        [80.73475, 26.8459],
        [80.73449, 26.84569],
        [80.73426, 26.84554],
        [80.73403, 26.84541],
        [80.73388, 26.84535],
        [80.73349, 26.8452],
        [80.7332, 26.84505],
        [80.73284, 26.84482],
        [80.73259, 26.84463],
        [80.73249, 26.84453],
        [80.73243, 26.84446],
        [80.73235, 26.84433],
        [80.73236, 26.84417],
        [80.73243, 26.84386],
        [80.73246, 26.84366],
        [80.73245, 26.84351],
        [80.7324, 26.84337],
        [80.73234, 26.84329],
        [80.73215, 26.84312],
        [80.73168, 26.84286],
        [80.73139, 26.84311],
        [80.73093, 26.84327],
        [80.73033, 26.84339],
        [80.72978, 26.84344],
        [80.72902, 26.84345],
        [80.72844, 26.84342],
        [80.72781, 26.84334],
        [80.72748, 26.84336],
        [80.72729, 26.84344],
        [80.72722, 26.84362],
        [80.72722, 26.84386],
        [80.72727, 26.84403],
        [80.7274, 26.84419],
        [80.72762, 26.84431],
        [80.72809, 26.84448],
        [80.72895, 26.84483],
        [80.72928, 26.84498],
        [80.7297, 26.84528],
        [80.72992, 26.84548],
        [80.73043, 26.84629],
        [80.73105, 26.84728],
        [80.73172, 26.84881],
        [80.73202, 26.84984],
        [80.73207, 26.85038],
        [80.7321, 26.85103],
        [80.73207, 26.85147],
        [80.73197, 26.85206],
        [80.73176, 26.8526],
        [80.73155, 26.85343],
        [80.73141, 26.85391],
        [80.73136, 26.85416],
        [80.73132, 26.85436],
        [80.73118, 26.85457],
        [80.73106, 26.8547],
        [80.73084, 26.8548],
        [80.73056, 26.85496],
        [80.73035, 26.85511],
        [80.73015, 26.85526],
        [80.72994, 26.85541],
        [80.7296, 26.85575],
        [80.72807, 26.85759],
        [80.72789, 26.85738],
        [80.72751, 26.85706],
        [80.72618, 26.85632],
        [80.72577, 26.85611],
        [80.72518, 26.85575],
        [80.72446, 26.85534],
        [80.72417, 26.85518],
        [80.72381, 26.85507],
        [80.72337, 26.85494],
        [80.72286, 26.85493],
        [80.72237, 26.85504],
        [80.72181, 26.85537],
        [80.72126, 26.85567],
        [80.72103, 26.85582],
        [80.72058, 26.85602],
        [80.72009, 26.85617],
        [80.71975, 26.85621],
        [80.71961, 26.85624],
        [80.71944, 26.85631],
        [80.71933, 26.85637],
        [80.71916, 26.85646],
        [80.71895, 26.85648],
        [80.7187, 26.85649],
        [80.71821, 26.85649],
        [80.7175, 26.85653],
        [80.71753, 26.85605],
        [80.71743, 26.85553],
        [80.71723, 26.85479],
        [80.71686, 26.85428],
        [80.71643, 26.85383],
        [80.71593, 26.85344],
        [80.71407, 26.85205],
        [80.71336, 26.85156],
        [80.71295, 26.85123],
        [80.7125, 26.85092],
        [80.71221, 26.85121],
        [80.71197, 26.85134],
        [80.71177, 26.85139],
        [80.71147, 26.85145],
        [80.7111, 26.85155],
        [80.71081, 26.85171],
        [80.71041, 26.85197],
        [80.70977, 26.85267],
        [80.70946, 26.85292],
        [80.70907, 26.85312],
        [80.7088, 26.85327],
        [80.70844, 26.85339],
        [80.70807, 26.85343],
        [80.70706, 26.85344],
        [80.70677, 26.85339],
        [80.7065, 26.85338],
        [80.70623, 26.85324],
        [80.70593, 26.85302],
        [80.70567, 26.85278],
        [80.70548, 26.85264],
        [80.70506, 26.85251],
        [80.70474, 26.85251],
        [80.70424, 26.85255],
        [80.70276, 26.85278],
        [80.70236, 26.85276],
        [80.70205, 26.85272],
        [80.70189, 26.85269],
        [80.70157, 26.85251],
        [80.69975, 26.85129],
        [80.69956, 26.85114],
        [80.69944, 26.85098],
        [80.69925, 26.85066],
        [80.69911, 26.85033],
        [80.69898, 26.85017],
        [80.69877, 26.84993],
        [80.6985, 26.84974],
        [80.69447, 26.84684],
        [80.69342, 26.8464],
        [80.69302, 26.84626],
        [80.69287, 26.8462],
        [80.69276, 26.84616],
        [80.69267, 26.846],
        [80.6926, 26.84585],
        [80.69258, 26.84574],
        [80.69252, 26.84564],
        [80.69235, 26.84552],
        [80.69201, 26.84537],
        [80.69151, 26.84517],
        [80.6916, 26.84528],
        [80.6918, 26.8455],
        [80.69202, 26.8457],
        [80.69222, 26.84585],
        [80.69239, 26.84597],
        [80.69252, 26.84614],
        [80.6926, 26.84633],
        [80.69264, 26.84653],
        [80.69273, 26.84681],
        [80.69283, 26.84707],
        [80.69296, 26.84733],
        [80.69311, 26.84758],
        [80.69328, 26.84781],
        [80.69346, 26.84803],
        [80.69367, 26.84823],
        [80.69388, 26.84842],
        [80.69412, 26.84859],
        [80.69432, 26.84877],
        [80.69449, 26.84898],
        [80.6946, 26.84923],
        [80.69467, 26.84949],
        [80.69467, 26.84981],
        [80.69458, 26.85006],
        [80.69433, 26.85033],
        [80.69289, 26.85101],
        [80.69043, 26.85232],
        [80.69028, 26.85261],
        [80.69021, 26.85292],
        [80.69005, 26.85324],
        [80.68977, 26.85346],
        [80.68762, 26.85442],
        [80.68726, 26.8545],
        [80.68689, 26.85452],
        [80.68666, 26.85454],
        [80.68644, 26.85458],
        [80.68622, 26.85463],
        [80.68601, 26.85469],
        [80.68579, 26.85476],
        [80.68559, 26.85485],
        [80.68538, 26.85494],
        [80.68518, 26.85504],
        [80.68499, 26.85516],
        [80.684, 26.85605],
        [80.68223, 26.85773],
        [80.682, 26.85809],
        [80.68177, 26.85845],
        [80.68153, 26.8588],
        [80.68129, 26.85915],
        [80.68105, 26.8595],
        [80.6808, 26.85984],
        [80.68054, 26.86018],
        [80.68028, 26.86052],
        [80.68002, 26.86085],
        [80.67863, 26.86297],
        [80.6784, 26.86303],
        [80.67816, 26.86297],
        [80.67759, 26.86232],
        [80.67731, 26.86222],
        [80.67694, 26.86223],
        [80.67462, 26.86259],
        [80.67118, 26.86316],
        [80.67081, 26.86323],
        [80.67044, 26.86331],
        [80.67007, 26.8634],
        [80.66971, 26.86351],
        [80.66935, 26.86363],
        [80.669, 26.86376],
        [80.66865, 26.86391],
        [80.66831, 26.86406],
        [80.66797, 26.86424],
        [80.66455, 26.86624],
        [80.66105, 26.86826],
        [80.66088, 26.86837],
        [80.66072, 26.86849],
        [80.66057, 26.86862],
        [80.66042, 26.86874],
        [80.66027, 26.86888],
        [80.66013, 26.86902],
        [80.65999, 26.86916],
        [80.65986, 26.86931],
        [80.65966, 26.86956],
        [80.65954, 26.86979],
        [80.65947, 26.87001],
        [80.6593, 26.87016],
        [80.65909, 26.87021],
        [80.65819, 26.8703],
        [80.65794, 26.87025],
        [80.65768, 26.87018],
        [80.65762, 26.87018],
        [80.65735, 26.87016],
        [80.65701, 26.87017],
        [80.65668, 26.87023],
        [80.65635, 26.87032],
        [80.65538, 26.87066],
        [80.65356, 26.87139],
        [80.65221, 26.87192],
        [80.65193, 26.87204],
        [80.65167, 26.8722],
        [80.65145, 26.87239],
        [80.65125, 26.87262],
        [80.65108, 26.87287],
        [80.65091, 26.87311],
        [80.65071, 26.87334],
        [80.6505, 26.87354],
        [80.65027, 26.87373],
        [80.65002, 26.8739],
        [80.64979, 26.87409],
        [80.64958, 26.87431],
        [80.6494, 26.87455],
        [80.64919, 26.87487],
        [80.64889, 26.87497],
        [80.64857, 26.87493],
        [80.64837, 26.87503],
        [80.6482, 26.87526],
        [80.64794, 26.87548],
        [80.64761, 26.8756],
        [80.64728, 26.87576],
        [80.647, 26.87599],
        [80.64666, 26.87615],
        [80.64632, 26.8763],
        [80.64597, 26.87644],
        [80.64562, 26.87657],
        [80.64526, 26.87668],
        [80.64491, 26.87682],
        [80.64457, 26.877],
        [80.64425, 26.87722],
        [80.64397, 26.87747],
        [80.64375, 26.87763],
        [80.64351, 26.87775],
        [80.64324, 26.87782],
        [80.64297, 26.87784],
        [80.64216, 26.87789],
        [80.64177, 26.8779],
        [80.64152, 26.87796],
        [80.64128, 26.87806],
        [80.64107, 26.8782],
        [80.64082, 26.87839],
        [80.64055, 26.87853],
        [80.64026, 26.87863],
        [80.63996, 26.87869],
        [80.63971, 26.87871],
        [80.63934, 26.87881],
        [80.639, 26.87899],
        [80.6363, 26.8801],
        [80.63594, 26.88018],
        [80.63558, 26.88022],
        [80.63521, 26.8802],
        [80.63485, 26.88014],
        [80.63011, 26.87905],
        [80.62743, 26.8785],
        [80.62719, 26.87858],
        [80.62715, 26.87877],
        [80.62649, 26.88861],
        [80.62654, 26.8889],
        [80.62666, 26.88917],
        [80.62684, 26.88939],
        [80.62707, 26.88957],
        [80.62733, 26.88964],
        [80.62757, 26.88965],
        [80.62781, 26.88965],
        [80.62806, 26.88965],
        [80.6283, 26.88963],
        [80.62867, 26.88963],
        [80.62891, 26.88967],
        [80.62914, 26.88975],
        [80.62936, 26.88987],
        [80.63207, 26.89183],
        [80.63221, 26.89197],
        [80.63232, 26.89214],
        [80.63239, 26.89233],
        [80.63244, 26.8926],
        [80.63255, 26.89289],
        [80.6327, 26.89316],
        [80.63509, 26.89753],
        [80.63516, 26.89772],
        [80.63524, 26.8979],
        [80.63533, 26.89807],
        [80.63545, 26.89824],
        [80.63557, 26.89839],
        [80.63571, 26.89853],
        [80.63586, 26.89866],
        [80.63602, 26.89878],
        [80.63619, 26.89888],
        [80.63813, 26.90022],
        [80.63839, 26.90045],
        [80.63865, 26.90069],
        [80.63889, 26.90094],
        [80.63913, 26.90121],
        [80.6406, 26.90308],
        [80.64064, 26.90332],
        [80.64055, 26.90354],
        [80.63779, 26.90504],
        [80.63742, 26.90531],
        [80.63704, 26.90557],
        [80.63665, 26.90581],
        [80.63625, 26.90604],
        [80.63583, 26.90624],
        [80.63541, 26.90643],
        [80.63498, 26.9066],
        [80.63455, 26.90675],
        [80.63411, 26.90688],
        [80.63093, 26.90778],
        [80.63059, 26.90781],
        [80.63025, 26.90784],
        [80.62991, 26.90787],
        [80.62957, 26.9079],
        [80.62922, 26.90792],
        [80.62888, 26.90795],
        [80.62854, 26.90797],
        [80.6282, 26.90799],
        [80.62776, 26.90803],
        [80.62738, 26.90794],
        [80.62721, 26.90782],
        [80.62709, 26.90767],
        [80.62692, 26.90753],
        [80.62673, 26.90745],
        [80.6264, 26.90744],
        [80.6262, 26.9075],
        [80.62536, 26.90796],
        [80.62531, 26.90827],
        [80.62523, 26.90849],
        [80.62501, 26.90858],
        [80.62273, 26.90904],
        [80.62121, 26.90945],
        [80.62121, 26.90969],
        [80.62181, 26.9105],
        [80.62197, 26.91072],
        [80.62212, 26.91096],
        [80.62224, 26.91121],
        [80.62235, 26.91146],
        [80.62244, 26.91172],
        [80.62252, 26.91199],
        [80.62257, 26.91226],
        [80.6226, 26.91254],
        [80.62262, 26.91281],
        [80.62263, 26.91358],
        [80.62258, 26.91378],
        [80.62243, 26.91393],
        [80.61935, 26.91594],
        [80.61799, 26.91697],
        [80.61782, 26.91723],
        [80.61772, 26.91753],
        [80.61777, 26.91892],
        [80.61774, 26.91915],
        [80.61769, 26.91938],
        [80.6176, 26.91959],
        [80.61748, 26.9198],
        [80.61586, 26.9229],
        [80.61428, 26.9249],
        [80.61416, 26.92511],
        [80.61408, 26.92533],
        [80.61402, 26.92556],
        [80.614, 26.9258],
        [80.61289, 26.92972],
        [80.61265, 26.93129],
        [80.6123, 26.93318],
        [80.61223, 26.93344],
        [80.61215, 26.9337],
        [80.61205, 26.93396],
        [80.61195, 26.93421],
        [80.61184, 26.93446],
        [80.61172, 26.9347],
        [80.6116, 26.93494],
        [80.61146, 26.93518],
        [80.60996, 26.93641],
        [80.60975, 26.93657],
        [80.60955, 26.93676],
        [80.60938, 26.93698],
        [80.60923, 26.93721],
        [80.60911, 26.93745],
        [80.60902, 26.93771],
        [80.60896, 26.93798],
        [80.60894, 26.93825],
        [80.60894, 26.93852],
        [80.60899, 26.93977],
        [80.60894, 26.94012],
        [80.60886, 26.94042],
        [80.60883, 26.94061],
        [80.60885, 26.94081],
        [80.60952, 26.94248],
        [80.60942, 26.94272],
        [80.60839, 26.94314],
        [80.60823, 26.94339],
        [80.60816, 26.9437],
        [80.60804, 26.94404],
        [80.60774, 26.94423],
        [80.60598, 26.94553],
        [80.60562, 26.94569],
        [80.60526, 26.94579],
        [80.60505, 26.94542],
        [80.60485, 26.94527],
        [80.60396, 26.9452],
        [80.60368, 26.94514],
        [80.60347, 26.94495],
        [80.60292, 26.94411],
        [80.60253, 26.94407],
        [80.60052, 26.94484],
        [80.60034, 26.94474],
        [80.59983, 26.9439],
        [80.59943, 26.94376],
        [80.59847, 26.94397],
        [80.5982, 26.9438],
        [80.59784, 26.9437],
        [80.59747, 26.94374],
        [80.5961, 26.94399],
        [80.59528, 26.94332],
        [80.59494, 26.94336],
        [80.59264, 26.94494],
        [80.58939, 26.94095],
        [80.58929, 26.94073],
        [80.58944, 26.94056],
        [80.58951, 26.94038],
        [80.58951, 26.94019],
        [80.58944, 26.94001],
        [80.58902, 26.93845],
        [80.58867, 26.9383],
        [80.58771, 26.93854],
        [80.58741, 26.93846],
        [80.58723, 26.93822],
        [80.58665, 26.93584],
        [80.58661, 26.93563],
        [80.58646, 26.9355],
        [80.58629, 26.93534],
        [80.58626, 26.93515],
        [80.58625, 26.93486],
        [80.58632, 26.93454],
        [80.58659, 26.93394],
        [80.58668, 26.93361],
        [80.58661, 26.93329],
        [80.58449, 26.93087],
        [80.58279, 26.92917],
        [80.58258, 26.92901],
        [80.58241, 26.92881],
        [80.58228, 26.92859],
        [80.58218, 26.92835],
        [80.58076, 26.92506],
        [80.58062, 26.92491],
        [80.58038, 26.92495],
        [80.57653, 26.92734],
        [80.57397, 26.92893],
        [80.56864, 26.93201],
        [80.56621, 26.93344],
        [80.56492, 26.93459],
        [80.56468, 26.93464],
        [80.56384, 26.93433],
        [80.56355, 26.93438],
        [80.56347, 26.9346],
        [80.56309, 26.93561],
        [80.5629, 26.93592],
        [80.56263, 26.93616],
        [80.56163, 26.93678],
        [80.56136, 26.93711],
        [80.5613, 26.9374],
        [80.5613, 26.93768],
        [80.56137, 26.93792],
        [80.56151, 26.93813],
        [80.5617, 26.93829],
        [80.56194, 26.93839],
        [80.56282, 26.93854],
        [80.56314, 26.93866],
        [80.56341, 26.93886],
        [80.56363, 26.93912],
        [80.56376, 26.93943],
        [80.56555, 26.94347],
        [80.56637, 26.94549],
        [80.56636, 26.94584],
        [80.56623, 26.94616],
        [80.56617, 26.94649],
        [80.56621, 26.94682],
        [80.5668, 26.94913],
        [80.56699, 26.94937],
        [80.56725, 26.94952],
        [80.56755, 26.94958],
        [80.56785, 26.94954],
        [80.56862, 26.94948],
        [80.56897, 26.94956],
        [80.56915, 26.94979],
        [80.57088, 26.95368],
        [80.57109, 26.95388],
        [80.57137, 26.95395],
        [80.57185, 26.9539],
        [80.5721, 26.95399],
        [80.57227, 26.95412],
        [80.57377, 26.95642],
        [80.57393, 26.95674],
        [80.57415, 26.95701],
        [80.57443, 26.95723],
        [80.57475, 26.95738],
        [80.57659, 26.95804],
        [80.57686, 26.95818],
        [80.57712, 26.95835],
        [80.57735, 26.95855],
        [80.57756, 26.95877],
        [80.57842, 26.95991],
        [80.57855, 26.96007],
        [80.5787, 26.96021],
        [80.57887, 26.96034],
        [80.57905, 26.96044],
        [80.57924, 26.96053],
        [80.57944, 26.96059],
        [80.57965, 26.96063],
        [80.57985, 26.96065],
        [80.58006, 26.96064],
        [80.58183, 26.96049],
        [80.58204, 26.96046],
        [80.58224, 26.96039],
        [80.58242, 26.96028],
        [80.58257, 26.96013],
        [80.5827, 26.95997],
        [80.58288, 26.95985],
        [80.5831, 26.95981],
        [80.58331, 26.95987],
        [80.58348, 26.96],
        [80.58365, 26.96012],
        [80.58379, 26.96027],
        [80.58391, 26.96044],
        [80.584, 26.96063],
        [80.58409, 26.96085],
        [80.58423, 26.96107],
        [80.58442, 26.96126],
        [80.58464, 26.96142],
        [80.58489, 26.96153],
        [80.58704, 26.96254],
        [80.58737, 26.96249],
        [80.58758, 26.96231],
        [80.58758, 26.96207],
        [80.58722, 26.96151],
        [80.58702, 26.96129],
        [80.5869, 26.961],
        [80.58689, 26.96067],
        [80.5867, 26.9604],
        [80.58649, 26.96024],
        [80.58642, 26.96004],
        [80.58642, 26.95983],
        [80.5865, 26.95963],
        [80.58664, 26.95947],
        [80.58766, 26.95885],
        [80.58865, 26.95813],
        [80.58879, 26.95793],
        [80.5888, 26.95768],
        [80.58873, 26.95741],
        [80.58876, 26.95719],
        [80.58886, 26.957],
        [80.58901, 26.95684],
        [80.59389, 26.95446],
        [80.59419, 26.95446],
        [80.59458, 26.95455],
        [80.59477, 26.95463],
        [80.5955, 26.95555],
        [80.59549, 26.95588],
        [80.59539, 26.95613],
        [80.59534, 26.95632],
        [80.59532, 26.95651],
        [80.59533, 26.9567],
        [80.59537, 26.95689],
        [80.59558, 26.95758],
        [80.59558, 26.95779],
        [80.59553, 26.95799],
        [80.59545, 26.95818],
        [80.59533, 26.95835],
        [80.59522, 26.95851],
        [80.59514, 26.95869],
        [80.59508, 26.95887],
        [80.59504, 26.95907],
        [80.59504, 26.95926],
        [80.59506, 26.95945],
        [80.59511, 26.95964],
        [80.59518, 26.95982],
        [80.59528, 26.95999],
        [80.59628, 26.96119],
        [80.59642, 26.96146],
        [80.59658, 26.96172],
        [80.59677, 26.96196],
        [80.59699, 26.96218],
        [80.59718, 26.96237],
        [80.59734, 26.96254],
        [80.59752, 26.96269],
        [80.59772, 26.96281],
        [80.59793, 26.96292],
        [80.59812, 26.9631],
        [80.5983, 26.9633],
        [80.59844, 26.96353],
        [80.59854, 26.96378],
        [80.5986, 26.96402],
        [80.59857, 26.96424],
        [80.59847, 26.96444],
        [80.59831, 26.96459],
        [80.59811, 26.96469],
        [80.59678, 26.96523],
        [80.59649, 26.96541],
        [80.59622, 26.96563],
        [80.59599, 26.96588],
        [80.59579, 26.96616],
        [80.5957, 26.96638],
        [80.59558, 26.96659],
        [80.59545, 26.96678],
        [80.5953, 26.96697],
        [80.59514, 26.96714],
        [80.59496, 26.96729],
        [80.59477, 26.96743],
        [80.59456, 26.96755],
        [80.59435, 26.96765],
        [80.59344, 26.96818],
        [80.59328, 26.9684],
        [80.59319, 26.96866],
        [80.59317, 26.96894],
        [80.59323, 26.9692],
        [80.59335, 26.9695],
        [80.59353, 26.96983],
        [80.59376, 26.97012],
        [80.59404, 26.97035],
        [80.59437, 26.97053],
        [80.59532, 26.97124],
        [80.59549, 26.97136],
        [80.59564, 26.9715],
        [80.59576, 26.97167],
        [80.59585, 26.97185],
        [80.59591, 26.97205],
        [80.59593, 26.97226],
        [80.59591, 26.97247],
        [80.59586, 26.97267],
        [80.59577, 26.97285],
        [80.59567, 26.97307],
        [80.59556, 26.97327],
        [80.59544, 26.97348],
        [80.59531, 26.97367],
        [80.59523, 26.97384],
        [80.59527, 26.97415],
        [80.59541, 26.97442],
        [80.59636, 26.97579],
        [80.59701, 26.977],
        [80.59703, 26.97724],
        [80.59689, 26.97744],
        [80.59526, 26.97844],
        [80.59521, 26.97874],
        [80.59532, 26.97903],
        [80.59545, 26.97922],
        [80.5956, 26.9794],
        [80.59576, 26.97957],
        [80.59593, 26.97972],
        [80.59611, 26.97987],
        [80.59631, 26.98],
        [80.59651, 26.98011],
        [80.59672, 26.9802],
        [80.59694, 26.98028],
        [80.59827, 26.9809],
        [80.59844, 26.9812],
        [80.5985, 26.98148],
        [80.59859, 26.9817],
        [80.59871, 26.98191],
        [80.59887, 26.98208],
        [80.59906, 26.98223],
        [80.59983, 26.98283],
        [80.59999, 26.98312],
        [80.60008, 26.98342],
        [80.60003, 26.98368],
        [80.59981, 26.98383],
        [80.59886, 26.98422],
        [80.59868, 26.98444],
        [80.5986, 26.98471],
        [80.59863, 26.98499],
        [80.59875, 26.98523],
        [80.5995, 26.98621],
        [80.59951, 26.9865],
        [80.59933, 26.98672],
        [80.59824, 26.98747],
        [80.59751, 26.98814],
        [80.59729, 26.9883],
        [80.59706, 26.98844],
        [80.59682, 26.98856],
        [80.59656, 26.98865],
        [80.59521, 26.98956],
        [80.59285, 26.99144],
        [80.59254, 26.99147],
        [80.59224, 26.99142],
        [80.59197, 26.99138],
        [80.59155, 26.99139],
        [80.59127, 26.99143],
        [80.59096, 26.9915],
        [80.59061, 26.99152],
        [80.59026, 26.99148],
        [80.58992, 26.99138],
        [80.5896, 26.99123],
        [80.58931, 26.99106],
        [80.58907, 26.99083],
        [80.5889, 26.99054],
        [80.58881, 26.99021],
        [80.58869, 26.98891],
        [80.58858, 26.98864],
        [80.58844, 26.98837],
        [80.58828, 26.98812],
        [80.58811, 26.98788],
        [80.58726, 26.98707],
        [80.58701, 26.98697],
        [80.58668, 26.98696],
        [80.5858, 26.98712],
        [80.58552, 26.98731],
        [80.58529, 26.98756],
        [80.58515, 26.98787],
        [80.5851, 26.98821],
        [80.58512, 26.98846],
        [80.58527, 26.98874],
        [80.58555, 26.98889],
        [80.58658, 26.98971],
        [80.58674, 26.98987],
        [80.58681, 26.99008],
        [80.58678, 26.99031],
        [80.58666, 26.99049],
        [80.5854, 26.99117],
        [80.58403, 26.99172],
        [80.58279, 26.99221],
        [80.58246, 26.99238],
        [80.58215, 26.9926],
        [80.58189, 26.99287],
        [80.58168, 26.99318],
        [80.58159, 26.99334],
        [80.58069, 26.99513],
        [80.58063, 26.99535],
        [80.58054, 26.99557],
        [80.58044, 26.99578],
        [80.58032, 26.99598],
        [80.58019, 26.99617],
        [80.58005, 26.99636],
        [80.57989, 26.99653],
        [80.57972, 26.99669],
        [80.57954, 26.99684],
        [80.57939, 26.99714],
        [80.57924, 26.99746],
        [80.57911, 26.99777],
        [80.579, 26.99809],
        [80.57893, 26.99837],
        [80.57888, 26.9986],
        [80.57881, 26.99881],
        [80.5787, 26.99902],
        [80.57858, 26.99921],
        [80.56039, 27.01039],
        [80.56207, 27.0121],
        [80.56607, 27.01583],
        [80.56831, 27.01748],
        [80.56936, 27.01789],
        [80.57203, 27.01869],
        [80.57559, 27.01974],
        [80.57805, 27.02051],
        [80.57964, 27.02128],
        [80.58105, 27.02228],
        [80.58188, 27.02294],
        [80.58263, 27.02396],
        [80.58398, 27.02583],
        [80.5861, 27.02812],
        [80.58657, 27.02859],
        [80.58652, 27.02892],
        [80.58488, 27.03003],
        [80.58442, 27.03027],
        [80.58417, 27.03033],
        [80.58249, 27.02931],
        [80.58078, 27.02837],
        [80.57959, 27.02804],
        [80.57711, 27.02914],
        [80.57642, 27.02964],
        [80.57611, 27.03019],
        [80.57617, 27.03055],
        [80.577, 27.03259],
        [80.57774, 27.03402],
        [80.57857, 27.0346],
        [80.58025, 27.03557],
        [80.58136, 27.03606],
        [80.58191, 27.03662],
        [80.58237, 27.03717],
        [80.58271, 27.03739],
        [80.58321, 27.03742],
        [80.58375, 27.03733],
        [80.58445, 27.03706],
        [80.58527, 27.03695],
        [80.58594, 27.03697],
        [80.58638, 27.03711],
        [80.58632, 27.03789],
        [80.58696, 27.03852],
        [80.588, 27.03901],
        [80.58889, 27.03929],
        [80.58977, 27.03863],
        [80.59063, 27.03832],
        [80.59167, 27.0383],
        [80.59234, 27.03838],
        [80.59278, 27.0383],
        [80.59314, 27.03764],
        [80.59366, 27.0372],
        [80.59399, 27.03717],
        [80.59457, 27.0375],
        [80.59567, 27.0381],
        [80.59587, 27.03843],
        [80.59598, 27.03863],
        [80.59601, 27.03932],
        [80.59606, 27.03957],
        [80.59689, 27.04009],
        [80.59761, 27.04053],
        [80.59791, 27.04072],
        [80.59799, 27.041],
        [80.5978, 27.04194],
        [80.59777, 27.04238],
        [80.59788, 27.04276],
        [80.59904, 27.04373],
        [80.59954, 27.04384],
        [80.60157, 27.04315],
        [80.60431, 27.04243],
        [80.60461, 27.0423],
        [80.60469, 27.04208],
        [80.60403, 27.04114],
        [80.60386, 27.04067],
        [80.60406, 27.04031],
        [80.60469, 27.03979],
        [80.60538, 27.03879],
        [80.60607, 27.03827],
        [80.60676, 27.03786],
        [80.60809, 27.03755],
        [80.60894, 27.03785],
        [80.6101, 27.03863],
        [80.6111, 27.03902],
        [80.6125, 27.03921],
        [80.61313, 27.03929],
        [80.61465, 27.03937],
        [80.61553, 27.03946],
        [80.61628, 27.03992],
        [80.61686, 27.04059],
        [80.61714, 27.04155],
        [80.61755, 27.04301],
        [80.61835, 27.04447],
        [80.61932, 27.04602],
        [80.62025, 27.04707],
        [80.62053, 27.04751],
        [80.62072, 27.04831],
        [80.62094, 27.04977],
        [80.62185, 27.05269],
        [80.62229, 27.05366],
        [80.62301, 27.05457],
        [80.62351, 27.05559],
        [80.6239, 27.05628],
        [80.62489, 27.05691],
        [80.6255, 27.05713],
        [80.62707, 27.05733],
        [80.6277, 27.05741],
        [80.6288, 27.05777],
        [80.6301, 27.0579],
        [80.63203, 27.05796],
        [80.63339, 27.05807],
        [80.63388, 27.05829],
        [80.63487, 27.05928],
        [80.63545, 27.05948],
        [80.637, 27.05978],
        [80.63805, 27.06027],
        [80.6389, 27.06041],
        [80.63923, 27.0606],
        [80.63943, 27.06116],
        [80.63965, 27.06152],
        [80.64001, 27.06193],
        [80.64047, 27.06201],
        [80.64122, 27.06182],
        [80.64177, 27.06182],
        [80.64216, 27.06198],
        [80.64284, 27.06284],
        [80.64345, 27.0643],
        [80.64365, 27.06587],
        [80.64381, 27.06689],
        [80.64519, 27.0656],
        [80.64682, 27.06383],
        [80.64737, 27.06336],
        [80.64864, 27.06303],
        [80.65095, 27.06306],
        [80.65339, 27.06278],
        [80.65576, 27.06248],
        [80.65661, 27.06262],
        [80.65755, 27.0632],
        [80.65813, 27.06397],
        [80.65819, 27.06488],
        [80.65796, 27.06562],
        [80.65694, 27.06675],
        [80.65633, 27.06711],
        [80.65592, 27.06717],
        [80.65482, 27.06728],
        [80.65217, 27.06835],
        [80.65137, 27.06858],
        [80.65068, 27.06863],
        [80.64892, 27.06957],
        [80.64773, 27.06976],
        [80.64718, 27.0702],
        [80.64679, 27.07026],
        [80.64646, 27.07023],
        [80.64616, 27.06987],
        [80.64588, 27.06979],
        [80.64558, 27.06987],
        [80.64519, 27.06979],
        [80.64497, 27.06962],
        [80.64475, 27.06943],
        [80.64458, 27.06929],
        [80.64395, 27.06915],
        [80.64354, 27.06929],
        [80.64293, 27.06973],
        [80.64257, 27.07014],
        [80.64246, 27.0707],
        [80.64279, 27.07293],
        [80.64282, 27.07351],
        [80.64356, 27.07525],
        [80.64477, 27.07679],
        [80.64591, 27.07762],
        [80.64646, 27.07817],
        [80.64682, 27.07822],
        [80.64784, 27.07806],
        [80.65648, 27.0755],
        [80.65827, 27.07505],
        [80.65973, 27.07511],
        [80.66155, 27.07525],
        [80.66243, 27.07522],
        [80.66403, 27.0755],
        [80.66597, 27.07566],
        [80.6671, 27.07558],
        [80.66993, 27.07464],
        [80.6722, 27.07304],
        [80.67457, 27.07111],
        [80.67625, 27.0691],
        [80.67719, 27.06786],
        [80.67763, 27.06722],
        [80.67893, 27.0662],
        [80.68017, 27.06571],
        [80.68301, 27.06499],
        [80.6851, 27.06458],
        [80.68596, 27.06477],
        [80.68949, 27.064],
        [80.69167, 27.06347],
        [80.6925, 27.06458],
        [80.69305, 27.06458],
        [80.6936, 27.06438],
        [80.69407, 27.06425],
        [80.69515, 27.06436],
        [80.69644, 27.06466],
        [80.69714, 27.06444],
        [80.69807, 27.06397],
        [80.69871, 27.06361],
        [80.69929, 27.06323],
        [80.69987, 27.06295],
        [80.70028, 27.06251],
        [80.70069, 27.0624],
        [80.70108, 27.06262],
        [80.70174, 27.06333],
        [80.70196, 27.06358],
        [80.70221, 27.06425],
        [80.70221, 27.06571],
        [80.70241, 27.06769],
        [80.7027, 27.06891],
        [80.70301, 27.07048],
        [80.70328, 27.07084],
        [80.70516, 27.06982],
        [80.70685, 27.0691],
        [80.7083, 27.06893],
        [80.71038, 27.06899],
        [80.71134, 27.06913],
        [80.71181, 27.07133],
        [80.71258, 27.07216],
        [80.71269, 27.07252],
        [80.71291, 27.07293],
        [80.71325, 27.07307],
        [80.71349, 27.07332],
        [80.7136, 27.07357],
        [80.7136, 27.07406],
        [80.71344, 27.07445],
        [80.71308, 27.07462],
        [80.71303, 27.07483],
        [80.71344, 27.07555],
        [80.71361, 27.0758],
        [80.71374, 27.07605],
        [80.71374, 27.07632],
        [80.71374, 27.07654],
        [80.71366, 27.07688],
        [80.71341, 27.07702],
        [80.71319, 27.07718],
        [80.713, 27.07735],
        [80.71303, 27.07765],
        [80.7128, 27.07825],
        [80.71258, 27.07969],
        [80.71258, 27.08065],
        [80.71303, 27.08143],
        [80.7141, 27.08209],
        [80.71581, 27.08234],
        [80.71705, 27.08275],
        [80.7183, 27.0836],
        [80.71917, 27.08427],
        [80.71953, 27.08427],
        [80.71998, 27.08427],
        [80.72039, 27.08443],
        [80.72196, 27.08598],
        [80.72271, 27.08675],
        [80.72298, 27.08688],
        [80.72364, 27.0873],
        [80.72395, 27.08785],
        [80.72397, 27.08871],
        [80.72406, 27.08912],
        [80.72489, 27.09003],
        [80.72687, 27.09168],
        [80.72795, 27.09295],
        [80.72844, 27.09293],
        [80.72946, 27.09411],
        [80.73059, 27.09571],
        [80.73233, 27.0983],
        [80.73305, 27.09786],
        [80.7333, 27.09805],
        [80.73366, 27.09792],
        [80.73407, 27.09772],
        [80.73468, 27.09781],
        [80.73612, 27.09872],
        [80.73667, 27.09866],
        [80.73699, 27.0988],
        [80.73769, 27.09938],
        [80.73802, 27.09976],
        [80.7395, 27.10186],
        [80.73984, 27.10227],
        [80.74061, 27.10188],
        [80.74174, 27.10161],
        [80.7429, 27.10156],
        [80.744, 27.10172],
        [80.74522, 27.10169],
        [80.74619, 27.10166],
        [80.74693, 27.10139],
        [80.74839, 27.10055],
        [80.7487, 27.10037],
        [80.74902, 27.10031],
        [80.74939, 27.10024],
        [80.74964, 27.10019],
        [80.74988, 27.10016],
        [80.75022, 27.10013],
        [80.75099, 27.10016],
        [80.75157, 27.10015],
        [80.75193, 27.10015],
        [80.75215, 27.10011],
        [80.75237, 27.10005],
        [80.75293, 27.09973],
        [80.75354, 27.09945],
        [80.75403, 27.09937],
        [80.75486, 27.09944],
        [80.75509, 27.09948],
        [80.7554, 27.09957],
        [80.75569, 27.09965],
        [80.75593, 27.09976],
        [80.75616, 27.09993],
        [80.75672, 27.10037],
        [80.75705, 27.10065],
        [80.7573, 27.10066],
        [80.75763, 27.10055],
        [80.75787, 27.10037],
        [80.75876, 27.09964],
        [80.76057, 27.09852],
        [80.76162, 27.0976],
        [80.76183, 27.09694],
        [80.76351, 27.09409],
        [80.76372, 27.09374],
        [80.76378, 27.09318],
        [80.76357, 27.0914],
        [80.76375, 27.09113],
        [80.76405, 27.09093],
        [80.76426, 27.09083],
        [80.76471, 27.09065],
        [80.76491, 27.09054],
        [80.7651, 27.09043],
        [80.76523, 27.09029],
        [80.76541, 27.09002],
        [80.76554, 27.08985],
        [80.76587, 27.08978],
        [80.76604, 27.09002],
        [80.76664, 27.09195],
        [80.76679, 27.09232],
        [80.76692, 27.09255],
        [80.76723, 27.09285],
        [80.76755, 27.09309],
        [80.76793, 27.09345],
        [80.76843, 27.0947],
        [80.76919, 27.09667],
        [80.76956, 27.09851],
        [80.76995, 27.10074],
        [80.77073, 27.10314],
        [80.77447, 27.10045],
        [80.77684, 27.09906],
        [80.77997, 27.09798],
        [80.78023, 27.09792],
        [80.78047, 27.09797],
        [80.78073, 27.0981],
        [80.78216, 27.09909],
        [80.78353, 27.1002],
        [80.78402, 27.10115],
        [80.78417, 27.10208],
        [80.78409, 27.10268],
        [80.78391, 27.10358],
        [80.78395, 27.10395],
        [80.78406, 27.10433],
        [80.78428, 27.10463],
        [80.78448, 27.10484],
        [80.78478, 27.1051],
        [80.78509, 27.10534],
        [80.78537, 27.10558],
        [80.78567, 27.10587],
        [80.78616, 27.10665],
        [80.78654, 27.10801],
        [80.78694, 27.10907],
        [80.78716, 27.10937],
        [80.78744, 27.10951],
        [80.78901, 27.11008],
        [80.79215, 27.11091],
        [80.7925, 27.11091],
        [80.79279, 27.11087],
        [80.79298, 27.11075],
        [80.79329, 27.11031],
        [80.79375, 27.10895],
        [80.79444, 27.10771],
        [80.79568, 27.10632],
        [80.79693, 27.10584],
        [80.79827, 27.10518],
        [80.7986, 27.10494],
        [80.79875, 27.1048],
        [80.79886, 27.10463],
        [80.7991, 27.10395],
        [80.79921, 27.10363],
        [80.79957, 27.10339],
        [80.79978, 27.10333],
        [80.80008, 27.10327],
        [80.80031, 27.10321],
        [80.80064, 27.10313],
        [80.80089, 27.10307],
        [80.80132, 27.10291],
        [80.80154, 27.10279],
        [80.80185, 27.10255],
        [80.80259, 27.10197],
        [80.80494, 27.10043],
        [80.80517, 27.10038],
        [80.80545, 27.10077],
        [80.80658, 27.10272],
        [80.80688, 27.10244],
        [80.80751, 27.10154],
        [80.80767, 27.10141],
        [80.80785, 27.10127],
        [80.80806, 27.10119],
        [80.8083, 27.10111],
        [80.80858, 27.10105],
        [80.80884, 27.10098],
        [80.80991, 27.1009],
        [80.8111, 27.10075],
        [80.81155, 27.1007],
        [80.81193, 27.10064],
        [80.8122, 27.10049],
        [80.81365, 27.09952],
        [80.81651, 27.09768],
        [80.81698, 27.09751],
        [80.81724, 27.09745],
        [80.81748, 27.09748],
        [80.81779, 27.09766],
        [80.81797, 27.09802],
        [80.81806, 27.0982],
        [80.81827, 27.09841],
        [80.81885, 27.09891],
        [80.82011, 27.09952],
        [80.82106, 27.09967],
        [80.82144, 27.09969],
        [80.82178, 27.09969],
        [80.82217, 27.09966],
        [80.82261, 27.09965],
        [80.82299, 27.09962],
        [80.82326, 27.09956],
        [80.82367, 27.09952],
        [80.82429, 27.09943],
        [80.82471, 27.09937],
        [80.82505, 27.09937],
        [80.82537, 27.0994],
        [80.82562, 27.09942],
        [80.82601, 27.09953],
        [80.82651, 27.09972],
        [80.82697, 27.09991],
        [80.82797, 27.09926],
        [80.82957, 27.09941]
      ]
    ]
  }
}
