{
  "type": "Feature",
  "id": "UP-AC-180",
  "properties": {
    "stateName": "UTTAR PRADESH",
    "stateCode": "UP",
    "districtName": "RAE BARELI",
    "acNo": 180,
    "acName": "LAMBHUA",
    "seatType": null,
    "pcNo": null,
    "pcName": null,
    "quality": "unverified",
    "sources": [
      "TBD"
    ]
  },
  "geometry": {
    "type": "Polygon",
    "coordinates": [
      [
        [81.38145, 26.33028],
        [81.38203, 26.33007],
        [81.38248, 26.3298],
        [81.38277, 26.32947],
        [81.38307, 26.32914],
        [81.38337, 26.32882],
        [81.38374, 26.32849],
        [81.38411, 26.32829],
        [81.38477, 26.32807],
        [81.38521, 26.32792],
        [81.38551, 26.32779],
        [81.3861, 26.32751],
        [81.38668, 26.32717],
        [81.38713, 26.32665],
        [81.38743, 26.32626],
        [81.38773, 26.32575],
        [81.38796, 26.32512],
        [81.388, 26.3249],
        [81.38803, 26.32474],
        [81.38826, 26.32435],
        [81.38848, 26.32391],
        [81.3887, 26.32365],
        [81.38908, 26.32332],
        [81.38952, 26.32318],
        [81.38981, 26.32316],
        [81.39032, 26.32314],
        [81.39135, 26.32327],
        [81.39179, 26.32338],
        [81.39274, 26.32346],
        [81.39362, 26.32342],
        [81.3945, 26.32337],
        [81.39545, 26.32333],
        [81.39594, 26.32331],
        [81.3967, 26.32327],
        [81.39758, 26.32329],
        [81.39912, 26.32334],
        [81.4, 26.32336],
        [81.40103, 26.32337],
        [81.40323, 26.32333],
        [81.40529, 26.32291],
        [81.40684, 26.3224],
        [81.40865, 26.32177],
        [81.4089, 26.32168],
        [81.40993, 26.32104],
        [81.41053, 26.32063],
        [81.41099, 26.32023],
        [81.41129, 26.31996],
        [81.41167, 26.31969],
        [81.41212, 26.31929],
        [81.41242, 26.31902],
        [81.41326, 26.31828],
        [81.41386, 26.31787],
        [81.41454, 26.31759],
        [81.41499, 26.31738],
        [81.41551, 26.31729],
        [81.41619, 26.31719],
        [81.41664, 26.31717],
        [81.41694, 26.31715],
        [81.41761, 26.31712],
        [81.41859, 26.317],
        [81.41919, 26.31691],
        [81.41987, 26.31675],
        [81.42114, 26.31656],
        [81.42209, 26.31639],
        [81.42347, 26.31606],
        [81.42395, 26.3159],
        [81.42415, 26.31583],
        [81.42521, 26.3154],
        [81.42634, 26.31503],
        [81.42702, 26.31467],
        [81.42763, 26.31433],
        [81.42808, 26.31392],
        [81.42831, 26.3136],
        [81.42846, 26.31327],
        [81.42869, 26.31301],
        [81.42877, 26.31275],
        [81.42885, 26.31231],
        [81.42893, 26.31199],
        [81.42893, 26.31161],
        [81.42894, 26.31129],
        [81.42887, 26.31073],
        [81.42872, 26.31017],
        [81.42858, 26.30973],
        [81.4282, 26.30885],
        [81.42798, 26.30823],
        [81.42776, 26.30793],
        [81.42746, 26.3075],
        [81.42736, 26.30736],
        [81.42709, 26.30696],
        [81.42694, 26.30665],
        [81.42672, 26.30603],
        [81.42665, 26.30578],
        [81.4265, 26.30547],
        [81.42627, 26.30517],
        [81.42576, 26.30464],
        [81.42545, 26.30433],
        [81.42508, 26.30397],
        [81.42485, 26.30354],
        [81.42463, 26.30318],
        [81.42448, 26.30268],
        [81.4244, 26.30243],
        [81.4241, 26.30182],
        [81.42388, 26.30139],
        [81.42373, 26.30096],
        [81.42343, 26.30009],
        [81.42321, 26.29951],
        [81.42279, 26.29855],
        [81.42268, 26.29828],
        [81.422, 26.29718],
        [81.42162, 26.2967],
        [81.42132, 26.2964],
        [81.42087, 26.29611],
        [81.42042, 26.29575],
        [81.41944, 26.29505],
        [81.41876, 26.29426],
        [81.41808, 26.29291],
        [81.4177, 26.29237],
        [81.41717, 26.29157],
        [81.41694, 26.29133],
        [81.41489, 26.28835],
        [81.41406, 26.28744],
        [81.41394, 26.28731],
        [81.41368, 26.28702],
        [81.41307, 26.28623],
        [81.41227, 26.28551],
        [81.41143, 26.28481],
        [81.41105, 26.28455],
        [81.41071, 26.28434],
        [81.41055, 26.28425],
        [81.41011, 26.28409],
        [81.40972, 26.28406],
        [81.40939, 26.28403],
        [81.40884, 26.28405],
        [81.40851, 26.28407],
        [81.40807, 26.28409],
        [81.40642, 26.28439],
        [81.40576, 26.28456],
        [81.40538, 26.28467],
        [81.40439, 26.28495],
        [81.40351, 26.28512],
        [81.40225, 26.28536],
        [81.4011, 26.28541],
        [81.40068, 26.28537],
        [81.40049, 26.28535],
        [81.39994, 26.28528],
        [81.39945, 26.28516],
        [81.3989, 26.28505],
        [81.39846, 26.28484],
        [81.39779, 26.28445],
        [81.39702, 26.28375],
        [81.39679, 26.28339],
        [81.39663, 26.28303],
        [81.3964, 26.28239],
        [81.39621, 26.28158],
        [81.39611, 26.2803],
        [81.39605, 26.27957],
        [81.3961, 26.27893],
        [81.39603, 26.27834],
        [81.39597, 26.27793],
        [81.3958, 26.27753],
        [81.39575, 26.27725],
        [81.39558, 26.27708],
        [81.39536, 26.27681],
        [81.39514, 26.27659],
        [81.39503, 26.27651],
        [81.39475, 26.27625],
        [81.39453, 26.27603],
        [81.3942, 26.27581],
        [81.39371, 26.2756],
        [81.39284, 26.27541],
        [81.39256, 26.27539],
        [81.3924, 26.27538],
        [81.39159, 26.27537],
        [81.39012, 26.27539],
        [81.3892, 26.27552],
        [81.38823, 26.27574],
        [81.38801, 26.27579],
        [81.38774, 26.27594],
        [81.38736, 26.2761],
        [81.38666, 26.27635],
        [81.38607, 26.27652],
        [81.38569, 26.27662],
        [81.38477, 26.27712],
        [81.38424, 26.27755],
        [81.38343, 26.27804],
        [81.38278, 26.27834],
        [81.38241, 26.2784],
        [81.38224, 26.27841],
        [81.38208, 26.27842],
        [81.38165, 26.27839],
        [81.38132, 26.27831],
        [81.3811, 26.27823],
        [81.38094, 26.2781],
        [81.38077, 26.27797],
        [81.38061, 26.27775],
        [81.38022, 26.27694],
        [81.38011, 26.27662],
        [81.37989, 26.27615],
        [81.37971, 26.27554],
        [81.37954, 26.27509],
        [81.37916, 26.27432],
        [81.37876, 26.27391],
        [81.37836, 26.27359],
        [81.37735, 26.27279],
        [81.37675, 26.2724],
        [81.37615, 26.27184],
        [81.37564, 26.27119],
        [81.37534, 26.27086],
        [81.37443, 26.26964],
        [81.37433, 26.26931],
        [81.37401, 26.26832],
        [81.37391, 26.26774],
        [81.37368, 26.26607],
        [81.37357, 26.26566],
        [81.37347, 26.26525],
        [81.37316, 26.2645],
        [81.37295, 26.26401],
        [81.37253, 26.2626],
        [81.37252, 26.26228],
        [81.37252, 26.26219],
        [81.3724, 26.26136],
        [81.37229, 26.26077],
        [81.37228, 26.26049],
        [81.37228, 26.26036],
        [81.37235, 26.26],
        [81.37255, 26.25891],
        [81.37293, 26.25831],
        [81.37332, 26.25788],
        [81.3738, 26.25744],
        [81.37477, 26.25666],
        [81.37613, 26.25561],
        [81.37691, 26.25483],
        [81.37729, 26.25431],
        [81.37757, 26.2538],
        [81.37776, 26.25329],
        [81.37795, 26.25287],
        [81.37804, 26.25245],
        [81.37822, 26.25194],
        [81.37831, 26.25152],
        [81.3783, 26.25102],
        [81.37828, 26.25036],
        [81.37817, 26.24986],
        [81.37806, 26.24945],
        [81.37794, 26.24874],
        [81.37783, 26.24821],
        [81.37781, 26.2478],
        [81.3777, 26.24705],
        [81.37725, 26.24554],
        [81.37684, 26.24464],
        [81.37673, 26.24439],
        [81.37642, 26.24398],
        [81.37591, 26.24342],
        [81.37479, 26.24246],
        [81.37368, 26.24167],
        [81.37258, 26.24087],
        [81.37076, 26.23951],
        [81.36994, 26.23871],
        [81.36913, 26.23782],
        [81.36851, 26.23709],
        [81.36801, 26.23669],
        [81.3675, 26.23621],
        [81.367, 26.23581],
        [81.36659, 26.23532],
        [81.36526, 26.23403],
        [81.36475, 26.2333],
        [81.36433, 26.23248],
        [81.3643, 26.23236],
        [81.3641, 26.23165],
        [81.36389, 26.23107],
        [81.36387, 26.23066],
        [81.36405, 26.23007],
        [81.36433, 26.22973],
        [81.36481, 26.2293],
        [81.36571, 26.22876],
        [81.36621, 26.22838],
        [81.36647, 26.22807],
        [81.36662, 26.22787],
        [81.36681, 26.22756],
        [81.36698, 26.22686],
        [81.36704, 26.22653],
        [81.36704, 26.22636],
        [81.36702, 26.22583],
        [81.367, 26.22553],
        [81.36699, 26.22516],
        [81.36694, 26.22487],
        [81.36664, 26.22428],
        [81.36647, 26.22392],
        [81.36589, 26.22314],
        [81.36539, 26.22235],
        [81.36509, 26.22173],
        [81.36495, 26.22113],
        [81.36485, 26.2206],
        [81.36482, 26.22004],
        [81.36496, 26.21951],
        [81.36514, 26.2191],
        [81.36566, 26.21842],
        [81.36585, 26.21819],
        [81.36619, 26.21785],
        [81.36649, 26.21767],
        [81.36688, 26.21749],
        [81.36743, 26.21727],
        [81.36801, 26.21715],
        [81.36864, 26.21714],
        [81.36908, 26.21726],
        [81.36947, 26.21731],
        [81.36967, 26.21744],
        [81.36992, 26.2176],
        [81.37024, 26.21783],
        [81.37069, 26.21824],
        [81.37138, 26.21879],
        [81.37211, 26.21923],
        [81.37259, 26.21945],
        [81.37362, 26.21962],
        [81.37448, 26.21959],
        [81.37527, 26.21954],
        [81.3755, 26.2195],
        [81.37597, 26.21935],
        [81.3765, 26.21901],
        [81.37669, 26.21884],
        [81.37704, 26.21856],
        [81.37726, 26.21832],
        [81.3776, 26.21805],
        [81.37779, 26.21785],
        [81.37817, 26.21751],
        [81.37847, 26.2173],
        [81.37893, 26.21702],
        [81.37939, 26.21678],
        [81.37986, 26.21656],
        [81.38016, 26.21642],
        [81.38079, 26.21634],
        [81.38272, 26.21586],
        [81.38412, 26.21582],
        [81.38544, 26.21592],
        [81.38553, 26.21594],
        [81.38619, 26.21604],
        [81.38709, 26.21608],
        [81.38841, 26.21605],
        [81.38914, 26.21595],
        [81.38955, 26.21581],
        [81.39012, 26.21558],
        [81.39052, 26.21536],
        [81.39125, 26.21514],
        [81.39226, 26.21399],
        [81.39241, 26.21378],
        [81.39248, 26.2135],
        [81.39246, 26.21316],
        [81.39244, 26.21275],
        [81.39234, 26.21241],
        [81.39216, 26.212],
        [81.39198, 26.21174],
        [81.39163, 26.2114],
        [81.39137, 26.21113],
        [81.39103, 26.21087],
        [81.3906, 26.21054],
        [81.39033, 26.2102],
        [81.38997, 26.2096],
        [81.3897, 26.20919],
        [81.38952, 26.20879],
        [81.38933, 26.20838],
        [81.38915, 26.20811],
        [81.38881, 26.20784],
        [81.38848, 26.20771],
        [81.38798, 26.20773],
        [81.38766, 26.20774],
        [81.38669, 26.20811],
        [81.38573, 26.20847],
        [81.38419, 26.20879],
        [81.38346, 26.20895],
        [81.38281, 26.20896],
        [81.38183, 26.20899],
        [81.38133, 26.20893],
        [81.38026, 26.20882],
        [81.37927, 26.20864],
        [81.37885, 26.20845],
        [81.37809, 26.20798],
        [81.37722, 26.20697],
        [81.37703, 26.20678],
        [81.37696, 26.2067],
        [81.3763, 26.2052],
        [81.37619, 26.20459],
        [81.37614, 26.20369],
        [81.37608, 26.2026],
        [81.37612, 26.20177],
        [81.37624, 26.20115],
        [81.37638, 26.2006],
        [81.37645, 26.20036],
        [81.37665, 26.1997],
        [81.37708, 26.19873],
        [81.37714, 26.19857],
        [81.3773, 26.19818],
        [81.3778, 26.197],
        [81.37823, 26.19617],
        [81.37868, 26.19547],
        [81.3792, 26.19471],
        [81.37951, 26.19443],
        [81.3804, 26.19315],
        [81.38082, 26.19212],
        [81.38104, 26.19171],
        [81.38118, 26.19136],
        [81.38124, 26.19102],
        [81.38128, 26.1904],
        [81.38106, 26.18844],
        [81.38103, 26.18796],
        [81.38108, 26.18755],
        [81.38127, 26.18686],
        [81.38133, 26.18652],
        [81.38138, 26.18611],
        [81.38144, 26.18577],
        [81.38139, 26.18516],
        [81.38136, 26.18468],
        [81.38132, 26.18414],
        [81.38128, 26.1836],
        [81.38125, 26.18319],
        [81.38128, 26.18251],
        [81.3814, 26.18196],
        [81.38189, 26.18103],
        [81.38197, 26.18079],
        [81.38222, 26.18008],
        [81.38249, 26.17939],
        [81.38268, 26.17871],
        [81.38299, 26.17762],
        [81.38341, 26.17673],
        [81.38367, 26.17598],
        [81.38394, 26.17537],
        [81.38397, 26.17476],
        [81.38394, 26.17435],
        [81.38399, 26.17401],
        [81.38397, 26.17374],
        [81.3837, 26.17341],
        [81.38296, 26.17321],
        [81.38224, 26.17329],
        [81.38137, 26.17351],
        [81.38034, 26.17366],
        [81.38006, 26.17371],
        [81.37994, 26.17373],
        [81.3788, 26.17354],
        [81.37786, 26.17281],
        [81.37724, 26.17214],
        [81.37685, 26.17126],
        [81.37672, 26.17059],
        [81.37671, 26.16943],
        [81.37666, 26.16889],
        [81.37683, 26.16698],
        [81.37679, 26.16637],
        [81.37674, 26.16576],
        [81.37645, 26.16516],
        [81.37583, 26.16442],
        [81.3754, 26.16408],
        [81.37488, 26.16354],
        [81.37378, 26.16285],
        [81.37327, 26.16251],
        [81.37286, 26.16238],
        [81.37246, 26.16232],
        [81.37197, 26.16226],
        [81.37149, 26.16226],
        [81.37045, 26.16227],
        [81.36997, 26.16227],
        [81.36956, 26.16214],
        [81.3693, 26.16187],
        [81.36904, 26.16153],
        [81.36893, 26.16113],
        [81.36886, 26.16093],
        [81.36882, 26.16079],
        [81.36886, 26.16031],
        [81.36893, 26.16011],
        [81.36922, 26.15977],
        [81.36998, 26.15929],
        [81.37053, 26.15908],
        [81.37091, 26.15881],
        [81.37128, 26.15847],
        [81.37149, 26.15806],
        [81.37159, 26.15731],
        [81.37156, 26.15632],
        [81.37155, 26.15582],
        [81.37107, 26.15373],
        [81.3709, 26.15265],
        [81.37087, 26.15217],
        [81.37104, 26.15174],
        [81.37113, 26.15149],
        [81.37134, 26.15116],
        [81.37171, 26.15082],
        [81.37263, 26.15034],
        [81.37356, 26.15],
        [81.37417, 26.1498],
        [81.37518, 26.14952],
        [81.37619, 26.14918],
        [81.3772, 26.14891],
        [81.37836, 26.14864],
        [81.37882, 26.14843],
        [81.37926, 26.14803],
        [81.37955, 26.14762],
        [81.37986, 26.14661],
        [81.37986, 26.14574],
        [81.37983, 26.14533],
        [81.37984, 26.14453],
        [81.38002, 26.14386],
        [81.38019, 26.1436],
        [81.3803, 26.14345],
        [81.38059, 26.14312],
        [81.38094, 26.14265],
        [81.38173, 26.14177],
        [81.3821, 26.14144],
        [81.38236, 26.1409],
        [81.38246, 26.14023],
        [81.3827, 26.13917],
        [81.3831, 26.13864],
        [81.38332, 26.13819],
        [81.38355, 26.13773],
        [81.38362, 26.13733],
        [81.38367, 26.13705],
        [81.38377, 26.13621],
        [81.38378, 26.13605],
        [81.38385, 26.13515],
        [81.38377, 26.13424],
        [81.38364, 26.13272],
        [81.38347, 26.13181],
        [81.38321, 26.1309],
        [81.38308, 26.13044],
        [81.38275, 26.12976],
        [81.38214, 26.12884],
        [81.38184, 26.12846],
        [81.38154, 26.12816],
        [81.38077, 26.12747],
        [81.38029, 26.12701],
        [81.37998, 26.12655],
        [81.3794, 26.12594],
        [81.37841, 26.12477],
        [81.3779, 26.12401],
        [81.37747, 26.12309],
        [81.37702, 26.12203],
        [81.37654, 26.1196],
        [81.37644, 26.11838],
        [81.37658, 26.11793],
        [81.37676, 26.11695],
        [81.37679, 26.11634],
        [81.37674, 26.11574],
        [81.3767, 26.11528],
        [81.37647, 26.11467],
        [81.37627, 26.11437],
        [81.37564, 26.11322],
        [81.37522, 26.11246],
        [81.37477, 26.11124],
        [81.37432, 26.11018],
        [81.37348, 26.1085],
        [81.37295, 26.10751],
        [81.37274, 26.10705],
        [81.37254, 26.10675],
        [81.37245, 26.10668],
        [81.37225, 26.10651],
        [81.3718, 26.10635],
        [81.37136, 26.10627],
        [81.37084, 26.10634],
        [81.37015, 26.10648],
        [81.36868, 26.10615],
        [81.36858, 26.10612],
        [81.3676, 26.10587],
        [81.36697, 26.10547],
        [81.36631, 26.1048],
        [81.36565, 26.10414],
        [81.36448, 26.10268],
        [81.364, 26.10228],
        [81.36303, 26.10148],
        [81.36239, 26.10095],
        [81.3619, 26.10055],
        [81.36045, 26.09963],
        [81.35952, 26.09908],
        [81.35868, 26.09845],
        [81.35812, 26.09805],
        [81.35775, 26.09781],
        [81.35729, 26.09757],
        [81.35683, 26.09741],
        [81.35629, 26.09724],
        [81.35557, 26.09715],
        [81.35485, 26.09698],
        [81.35404, 26.09681],
        [81.35314, 26.09663],
        [81.35243, 26.09654],
        [81.35197, 26.09638],
        [81.35152, 26.09621],
        [81.35135, 26.09599],
        [81.35093, 26.09543],
        [81.35083, 26.0952],
        [81.35062, 26.09473],
        [81.35042, 26.09442],
        [81.35016, 26.0939],
        [81.34962, 26.09269],
        [81.34937, 26.09215],
        [81.34913, 26.0916],
        [81.34894, 26.09081],
        [81.34889, 26.09014],
        [81.34892, 26.0896],
        [81.3491, 26.08912],
        [81.34929, 26.08883],
        [81.34946, 26.08835],
        [81.34951, 26.08805],
        [81.34977, 26.08673],
        [81.34995, 26.08625],
        [81.35038, 26.08548],
        [81.35068, 26.08502],
        [81.35075, 26.08489],
        [81.35113, 26.08451],
        [81.35127, 26.08436],
        [81.35172, 26.08384],
        [81.35276, 26.08285],
        [81.35387, 26.08192],
        [81.35466, 26.08128],
        [81.35497, 26.08087],
        [81.35542, 26.08035],
        [81.35568, 26.08008],
        [81.35619, 26.07953],
        [81.35664, 26.07901],
        [81.35716, 26.07861],
        [81.35762, 26.07826],
        [81.35795, 26.07797],
        [81.35827, 26.07769],
        [81.3584, 26.07751],
        [81.35865, 26.07722],
        [81.35884, 26.07699],
        [81.35896, 26.07675],
        [81.35908, 26.0764],
        [81.35919, 26.0761],
        [81.35924, 26.07575],
        [81.35917, 26.07479],
        [81.35898, 26.07401],
        [81.35867, 26.07346],
        [81.35859, 26.07316],
        [81.35836, 26.07285],
        [81.35829, 26.07274],
        [81.35813, 26.07248],
        [81.35782, 26.072],
        [81.35753, 26.07163],
        [81.35717, 26.07137],
        [81.35654, 26.07085],
        [81.3557, 26.0704],
        [81.35529, 26.07024],
        [81.35504, 26.07016],
        [81.35249, 26.06943],
        [81.35135, 26.06918],
        [81.35077, 26.06894],
        [81.35027, 26.06879],
        [81.34961, 26.06848],
        [81.34918, 26.06818],
        [81.34868, 26.06781],
        [81.34807, 26.06708],
        [81.34735, 26.06585],
        [81.34715, 26.06528],
        [81.34713, 26.06483],
        [81.34711, 26.06443],
        [81.34704, 26.0633],
        [81.34717, 26.06274],
        [81.34758, 26.06135],
        [81.34802, 26.06066],
        [81.34825, 26.06032],
        [81.34847, 26.05998],
        [81.34861, 26.05956],
        [81.34888, 26.05873],
        [81.34892, 26.05796],
        [81.34899, 26.05768],
        [81.34911, 26.05705],
        [81.34908, 26.05649],
        [81.34905, 26.05585],
        [81.34883, 26.05496],
        [81.34873, 26.05455],
        [81.34835, 26.05393],
        [81.34806, 26.05331],
        [81.34733, 26.05369],
        [81.34559, 26.0545],
        [81.34384, 26.05526],
        [81.34276, 26.05549],
        [81.34067, 26.05573],
        [81.3401, 26.05588],
        [81.33946, 26.05602],
        [81.3389, 26.05627],
        [81.3382, 26.05647],
        [81.3365, 26.05707],
        [81.3353, 26.05735],
        [81.33447, 26.05754],
        [81.33319, 26.05777],
        [81.33205, 26.05788],
        [81.33012, 26.05797],
        [81.32884, 26.05803],
        [81.32774, 26.05798],
        [81.32646, 26.05804],
        [81.32575, 26.05806],
        [81.32505, 26.05826],
        [81.32464, 26.0585],
        [81.32418, 26.0589],
        [81.32387, 26.05923],
        [81.32338, 26.05983],
        [81.32276, 26.06048],
        [81.32154, 26.06196],
        [81.32099, 26.06273],
        [81.32082, 26.06304],
        [81.32057, 26.06351],
        [81.32033, 26.0639],
        [81.32015, 26.06429],
        [81.31994, 26.06519],
        [81.31985, 26.06621],
        [81.31982, 26.06689],
        [81.31973, 26.06762],
        [81.31968, 26.06802],
        [81.31951, 26.06858],
        [81.31915, 26.06919],
        [81.31898, 26.06948],
        [81.31891, 26.06958],
        [81.31873, 26.06986],
        [81.31836, 26.0703],
        [81.31779, 26.07074],
        [81.31704, 26.07122],
        [81.31646, 26.07137],
        [81.31541, 26.0717],
        [81.31451, 26.07186],
        [81.31367, 26.07206],
        [81.31224, 26.07215],
        [81.31112, 26.07201],
        [81.31047, 26.0718],
        [81.3096, 26.0714],
        [81.30917, 26.0711],
        [81.30907, 26.07099],
        [81.30883, 26.07072],
        [81.30822, 26.07004],
        [81.30793, 26.06961],
        [81.30721, 26.06879],
        [81.30676, 26.06836],
        [81.30638, 26.06801],
        [81.30594, 26.06767],
        [81.30517, 26.06733],
        [81.30491, 26.06721],
        [81.30405, 26.06704],
        [81.3033, 26.06692],
        [81.3025, 26.06689],
        [81.30149, 26.06685],
        [81.30054, 26.0669],
        [81.29995, 26.06693],
        [81.29911, 26.06708],
        [81.29848, 26.06725],
        [81.29659, 26.06807],
        [81.29591, 26.06832],
        [81.29522, 26.06862],
        [81.29444, 26.06897],
        [81.29386, 26.06932],
        [81.29334, 26.06968],
        [81.29272, 26.06999],
        [81.29214, 26.0702],
        [81.29129, 26.07041],
        [81.29026, 26.07037],
        [81.28931, 26.07024],
        [81.28829, 26.06999],
        [81.28715, 26.06969],
        [81.28637, 26.0694],
        [81.28506, 26.06914],
        [81.28434, 26.06906],
        [81.28303, 26.06911],
        [81.28222, 26.06924],
        [81.28197, 26.06928],
        [81.28097, 26.06951],
        [81.28026, 26.06959],
        [81.27907, 26.0697],
        [81.27776, 26.06965],
        [81.27732, 26.06956],
        [81.27656, 26.06939],
        [81.27553, 26.06904],
        [81.27404, 26.0685],
        [81.27343, 26.06832],
        [81.27269, 26.0681],
        [81.2708, 26.06762],
        [81.27001, 26.06742],
        [81.26951, 26.06731],
        [81.26852, 26.06721],
        [81.26793, 26.06716],
        [81.26655, 26.06711],
        [81.26592, 26.06711],
        [81.26533, 26.06717],
        [81.26474, 26.06724],
        [81.26455, 26.06726],
        [81.26399, 26.06738],
        [81.26344, 26.0676],
        [81.26295, 26.06775],
        [81.26253, 26.06794],
        [81.26214, 26.06813],
        [81.26191, 26.0683],
        [81.26165, 26.06849],
        [81.2614, 26.06877],
        [81.26127, 26.06894],
        [81.26092, 26.06954],
        [81.26073, 26.0698],
        [81.26058, 26.0702],
        [81.26049, 26.07057],
        [81.26038, 26.07134],
        [81.26034, 26.07232],
        [81.26035, 26.07274],
        [81.26035, 26.07428],
        [81.26038, 26.07666],
        [81.26039, 26.07719],
        [81.26041, 26.07765],
        [81.26041, 26.07775],
        [81.26038, 26.07807],
        [81.26039, 26.07831],
        [81.26032, 26.07873],
        [81.26007, 26.07942],
        [81.25951, 26.08023],
        [81.25863, 26.08094],
        [81.25823, 26.0812],
        [81.25773, 26.0815],
        [81.25671, 26.08188],
        [81.25575, 26.08216],
        [81.25548, 26.0822],
        [81.25396, 26.08238],
        [81.25181, 26.08245],
        [81.24955, 26.08229],
        [81.24821, 26.08202],
        [81.24718, 26.08181],
        [81.2468, 26.08169],
        [81.24547, 26.0813],
        [81.24375, 26.08042],
        [81.24224, 26.07946],
        [81.24073, 26.07831],
        [81.23994, 26.07764],
        [81.23874, 26.07625],
        [81.23842, 26.07592],
        [81.23814, 26.07575],
        [81.23741, 26.07552],
        [81.2366, 26.07558],
        [81.23636, 26.0756],
        [81.23517, 26.07585],
        [81.23399, 26.07626],
        [81.23326, 26.07652],
        [81.23272, 26.07667],
        [81.23186, 26.07677],
        [81.23162, 26.0768],
        [81.23088, 26.07669],
        [81.23006, 26.07646],
        [81.22941, 26.07611],
        [81.22899, 26.07565],
        [81.22726, 26.07342],
        [81.22526, 26.07088],
        [81.22465, 26.06992],
        [81.22377, 26.06853],
        [81.22349, 26.06799],
        [81.22302, 26.06711],
        [81.22264, 26.06624],
        [81.22241, 26.06578],
        [81.22227, 26.06512],
        [81.22222, 26.06458],
        [81.22217, 26.06413],
        [81.22203, 26.0638],
        [81.22184, 26.06358],
        [81.22166, 26.06341],
        [81.22148, 26.06337],
        [81.22102, 26.06327],
        [81.2207, 26.06325],
        [81.22001, 26.06342],
        [81.21965, 26.06373],
        [81.21942, 26.06393],
        [81.21895, 26.06423],
        [81.21866, 26.06443],
        [81.21836, 26.06463],
        [81.21783, 26.06482],
        [81.21689, 26.06516],
        [81.21583, 26.06533],
        [81.21441, 26.06539],
        [81.21376, 26.06526],
        [81.21316, 26.06503],
        [81.21239, 26.06479],
        [81.21038, 26.06472],
        [81.20999, 26.0647],
        [81.20902, 26.06467],
        [81.20753, 26.06451],
        [81.20665, 26.06421],
        [81.20558, 26.0638],
        [81.20516, 26.06358],
        [81.20463, 26.06329],
        [81.20421, 26.06306],
        [81.20374, 26.06278],
        [81.20314, 26.06249],
        [81.20219, 26.0623],
        [81.2016, 26.06217],
        [81.20041, 26.06229],
        [81.1991, 26.06256],
        [81.19755, 26.06304],
        [81.19707, 26.06326],
        [81.19658, 26.06358],
        [81.1961, 26.06385],
        [81.19597, 26.06399],
        [81.19568, 26.06427],
        [81.19536, 26.06455],
        [81.19525, 26.06478],
        [81.19514, 26.06512],
        [81.19509, 26.06574],
        [81.19519, 26.06651],
        [81.1953, 26.06733],
        [81.19535, 26.06805],
        [81.19556, 26.06907],
        [81.19626, 26.0724],
        [81.19637, 26.07298],
        [81.19637, 26.0738],
        [81.19621, 26.07457],
        [81.196, 26.07567],
        [81.19578, 26.07648],
        [81.19568, 26.07696],
        [81.19555, 26.07716],
        [81.19531, 26.07753],
        [81.19477, 26.07804],
        [81.1944, 26.07847],
        [81.19408, 26.07899],
        [81.1937, 26.07956],
        [81.19333, 26.08032],
        [81.19296, 26.08079],
        [81.19247, 26.08121],
        [81.19221, 26.0814],
        [81.19162, 26.08173],
        [81.19097, 26.08205],
        [81.1906, 26.08224],
        [81.18988, 26.08273],
        [81.1894, 26.08315],
        [81.18876, 26.08372],
        [81.18822, 26.08419],
        [81.18779, 26.08467],
        [81.18715, 26.08514],
        [81.18623, 26.0856],
        [81.18542, 26.08602],
        [81.18435, 26.08654],
        [81.18348, 26.08691],
        [81.183, 26.08719],
        [81.18292, 26.08727],
        [81.18273, 26.08747],
        [81.18252, 26.08791],
        [81.18241, 26.08815],
        [81.18236, 26.08858],
        [81.18241, 26.08907],
        [81.18247, 26.08946],
        [81.18274, 26.09009],
        [81.18275, 26.09048],
        [81.18269, 26.09077],
        [81.18264, 26.09106],
        [81.18254, 26.09135],
        [81.18237, 26.09169],
        [81.18211, 26.09207],
        [81.18199, 26.09217],
        [81.18189, 26.09226],
        [81.18113, 26.09249],
        [81.18011, 26.09267],
        [81.17924, 26.09266],
        [81.17609, 26.09252],
        [81.17403, 26.09249],
        [81.17253, 26.09264],
        [81.17149, 26.09263],
        [81.16999, 26.09278],
        [81.16876, 26.09301],
        [81.16811, 26.09325],
        [81.16726, 26.09375],
        [81.16594, 26.09433],
        [81.16509, 26.09491],
        [81.16425, 26.09541],
        [81.16349, 26.09582],
        [81.16274, 26.0964],
        [81.16208, 26.09682],
        [81.16123, 26.09715],
        [81.15991, 26.09756],
        [81.15792, 26.09763],
        [81.15469, 26.09786],
        [81.15327, 26.09784],
        [81.15213, 26.09792],
        [81.15184, 26.09799],
        [81.15146, 26.09808],
        [81.15118, 26.09825],
        [81.15099, 26.09842],
        [81.1508, 26.09876],
        [81.15061, 26.09927],
        [81.15052, 26.0997],
        [81.15061, 26.10021],
        [81.15072, 26.10097],
        [81.15072, 26.10174],
        [81.15101, 26.10276],
        [81.15111, 26.10336],
        [81.15131, 26.10438],
        [81.15141, 26.1048],
        [81.15152, 26.10543],
        [81.15161, 26.10599],
        [81.15181, 26.10642],
        [81.15201, 26.10735],
        [81.15211, 26.10829],
        [81.15231, 26.1094],
        [81.1524, 26.11012],
        [81.15242, 26.11024],
        [81.15252, 26.11076],
        [81.15291, 26.11152],
        [81.15306, 26.11171],
        [81.15363, 26.11241],
        [81.15388, 26.11252],
        [81.15427, 26.11264],
        [81.1546, 26.11275],
        [81.15492, 26.11276],
        [81.15556, 26.11264],
        [81.15601, 26.11241],
        [81.15645, 26.11213],
        [81.15683, 26.11196],
        [81.15767, 26.11173],
        [81.15792, 26.11167],
        [81.15811, 26.11167],
        [81.15856, 26.11167],
        [81.15882, 26.11168],
        [81.15908, 26.11179],
        [81.1594, 26.11191],
        [81.15966, 26.11208],
        [81.15992, 26.11237],
        [81.16018, 26.11254],
        [81.16037, 26.11277],
        [81.16063, 26.113],
        [81.16089, 26.11328],
        [81.16116, 26.11386],
        [81.16143, 26.11489],
        [81.16143, 26.11523],
        [81.16144, 26.11563],
        [81.16138, 26.11592],
        [81.16119, 26.11637],
        [81.16088, 26.11683],
        [81.16063, 26.11712],
        [81.16006, 26.1174],
        [81.15929, 26.11763],
        [81.15827, 26.11779],
        [81.15736, 26.11789],
        [81.15661, 26.11789],
        [81.15627, 26.11784],
        [81.15569, 26.11763],
        [81.15488, 26.11743],
        [81.15402, 26.11748],
        [81.15379, 26.11758],
        [81.15356, 26.11769],
        [81.15339, 26.11779],
        [81.15322, 26.11799],
        [81.15313, 26.11816],
        [81.153, 26.11861],
        [81.15297, 26.1202],
        [81.15297, 26.12045],
        [81.15299, 26.12107],
        [81.15295, 26.12137],
        [81.15294, 26.12148],
        [81.15277, 26.12194],
        [81.15255, 26.12255],
        [81.15256, 26.12317],
        [81.15257, 26.12389],
        [81.1527, 26.1243],
        [81.15306, 26.12506],
        [81.15329, 26.12547],
        [81.15353, 26.12573],
        [81.1536, 26.12581],
        [81.15371, 26.12593],
        [81.154, 26.12624],
        [81.15424, 26.12675],
        [81.15436, 26.12695],
        [81.15436, 26.12731],
        [81.15437, 26.12777],
        [81.15426, 26.12808],
        [81.15393, 26.12869],
        [81.15325, 26.12916],
        [81.15245, 26.12962],
        [81.15165, 26.12993],
        [81.15074, 26.13014],
        [81.15005, 26.1303],
        [81.1493, 26.13051],
        [81.14839, 26.13082],
        [81.1477, 26.13113],
        [81.14678, 26.13155],
        [81.14587, 26.13201],
        [81.14518, 26.13243],
        [81.14451, 26.13286],
        [81.14421, 26.13305],
        [81.14353, 26.13357],
        [81.14245, 26.1344],
        [81.14177, 26.13502],
        [81.14034, 26.13596],
        [81.13949, 26.1365],
        [81.13901, 26.13669],
        [81.13853, 26.13694],
        [81.13774, 26.13742],
        [81.13721, 26.13776],
        [81.13647, 26.13824],
        [81.1362, 26.13843],
        [81.13583, 26.13868],
        [81.13541, 26.13897],
        [81.13514, 26.13921],
        [81.13488, 26.1394],
        [81.13467, 26.13959],
        [81.13436, 26.13998],
        [81.13405, 26.14074],
        [81.134, 26.14103],
        [81.13402, 26.1415],
        [81.1341, 26.14188],
        [81.13414, 26.14202],
        [81.13437, 26.14259],
        [81.13464, 26.14288],
        [81.13514, 26.14334],
        [81.13547, 26.14358],
        [81.1364, 26.14419],
        [81.13672, 26.14437],
        [81.13716, 26.14465],
        [81.13743, 26.14489],
        [81.13793, 26.14531],
        [81.1382, 26.14559],
        [81.13849, 26.1463],
        [81.13851, 26.14639],
        [81.13855, 26.14663],
        [81.13846, 26.1472],
        [81.13826, 26.14782],
        [81.13801, 26.14825],
        [81.1378, 26.14854],
        [81.13754, 26.14888],
        [81.13712, 26.14917],
        [81.13609, 26.1497],
        [81.13544, 26.14998],
        [81.1348, 26.1503],
        [81.13446, 26.15049],
        [81.13429, 26.15065],
        [81.13412, 26.15084],
        [81.134, 26.15103],
        [81.13392, 26.15138],
        [81.13389, 26.15176],
        [81.13394, 26.15215],
        [81.134, 26.15265],
        [81.13406, 26.15326],
        [81.13407, 26.15376],
        [81.13392, 26.15452],
        [81.13364, 26.1553],
        [81.13343, 26.15564],
        [81.13297, 26.15632],
        [81.13251, 26.15677],
        [81.1318, 26.15721],
        [81.13429, 26.16],
        [81.13763, 26.1624],
        [81.13855, 26.16332],
        [81.13858, 26.1644],
        [81.13888, 26.1662],
        [81.13955, 26.16713],
        [81.14084, 26.16766],
        [81.14522, 26.16889],
        [81.14735, 26.16957],
        [81.14987, 26.16981],
        [81.15112, 26.17005],
        [81.15099, 26.16936],
        [81.15168, 26.16769],
        [81.1531, 26.16637],
        [81.15502, 26.16541],
        [81.1585, 26.16542],
        [81.15879, 26.16546],
        [81.15983, 26.16558],
        [81.16012, 26.16561],
        [81.16141, 26.1653],
        [81.16286, 26.16506],
        [81.16407, 26.16533],
        [81.1657, 26.16566],
        [81.16813, 26.16641],
        [81.16854, 26.16647],
        [81.16974, 26.16638],
        [81.17118, 26.16593],
        [81.17445, 26.16452],
        [81.17707, 26.16342],
        [81.17936, 26.16182],
        [81.18215, 26.16042],
        [81.18236, 26.161],
        [81.18364, 26.16363],
        [81.18636, 26.16925],
        [81.18667, 26.17057],
        [81.18699, 26.1723],
        [81.18722, 26.17395],
        [81.18744, 26.17535],
        [81.18772, 26.17577],
        [81.18671, 26.1773],
        [81.18542, 26.17883],
        [81.18419, 26.18032],
        [81.18228, 26.18154],
        [81.1807, 26.1823],
        [81.17971, 26.18257],
        [81.17889, 26.18298],
        [81.17813, 26.18373],
        [81.17755, 26.18476],
        [81.17752, 26.18485],
        [81.17729, 26.18555],
        [81.1771, 26.18664],
        [81.17627, 26.18886],
        [81.17567, 26.18922],
        [81.17518, 26.18932],
        [81.17445, 26.18915],
        [81.17367, 26.18902],
        [81.17335, 26.18937],
        [81.17342, 26.18986],
        [81.17365, 26.19034],
        [81.17355, 26.19064],
        [81.17289, 26.19104],
        [81.17208, 26.1916],
        [81.17132, 26.19241],
        [81.17111, 26.19285],
        [81.17128, 26.19314],
        [81.17184, 26.19333],
        [81.17207, 26.19352],
        [81.17207, 26.19371],
        [81.17192, 26.19421],
        [81.17165, 26.19451],
        [81.17155, 26.195],
        [81.17162, 26.19554],
        [81.17146, 26.19574],
        [81.17118, 26.19584],
        [81.17047, 26.19606],
        [81.17152, 26.19745],
        [81.17289, 26.19749],
        [81.17402, 26.19782],
        [81.17581, 26.19848],
        [81.17944, 26.19977],
        [81.17953, 26.19981],
        [81.18062, 26.19995],
        [81.18246, 26.19969],
        [81.18518, 26.19934],
        [81.18775, 26.19942],
        [81.18985, 26.19972],
        [81.19147, 26.20031],
        [81.1934, 26.2009],
        [81.19502, 26.20135],
        [81.19562, 26.20151],
        [81.19523, 26.20302],
        [81.19526, 26.20387],
        [81.19537, 26.20521],
        [81.19585, 26.20713],
        [81.19469, 26.20775],
        [81.19407, 26.20862],
        [81.19385, 26.20947],
        [81.19395, 26.21021],
        [81.19413, 26.21102],
        [81.19447, 26.21193],
        [81.19482, 26.21326],
        [81.19476, 26.21418],
        [81.19423, 26.21532],
        [81.19327, 26.21564],
        [81.19096, 26.21606],
        [81.18888, 26.21627],
        [81.186, 26.21685],
        [81.18461, 26.21715],
        [81.18715, 26.22027],
        [81.18936, 26.22204],
        [81.19441, 26.22562],
        [81.19726, 26.22751],
        [81.19767, 26.22799],
        [81.19768, 26.22834],
        [81.19768, 26.22862],
        [81.19753, 26.22905],
        [81.19755, 26.22962],
        [81.19788, 26.2301],
        [81.19813, 26.23065],
        [81.19889, 26.23225],
        [81.19893, 26.23252],
        [81.19916, 26.234],
        [81.19946, 26.23661],
        [81.19941, 26.23809],
        [81.19902, 26.23895],
        [81.1988, 26.23988],
        [81.19914, 26.24078],
        [81.20007, 26.24307],
        [81.20064, 26.24383],
        [81.20178, 26.24466],
        [81.20154, 26.24467],
        [81.19946, 26.24482],
        [81.19705, 26.24512],
        [81.1953, 26.24582],
        [81.195, 26.24668],
        [81.19501, 26.24746],
        [81.19543, 26.2485],
        [81.1969, 26.25],
        [81.19936, 26.25266],
        [81.19995, 26.25418],
        [81.19996, 26.25489],
        [81.19875, 26.25595],
        [81.19929, 26.25631],
        [81.19977, 26.2569],
        [81.20011, 26.25789],
        [81.20109, 26.26],
        [81.20136, 26.2603],
        [81.20205, 26.26109],
        [81.20259, 26.26134],
        [81.20364, 26.2613],
        [81.2043, 26.26097],
        [81.20594, 26.26026],
        [81.20779, 26.25912],
        [81.21025, 26.25816],
        [81.21202, 26.25753],
        [81.21398, 26.25726],
        [81.21629, 26.25728],
        [81.21842, 26.25736],
        [81.22024, 26.25728],
        [81.22087, 26.25717],
        [81.22138, 26.25681],
        [81.22168, 26.25633],
        [81.22129, 26.25734],
        [81.22138, 26.25807],
        [81.22198, 26.25978],
        [81.22112, 26.26035],
        [81.21945, 26.26159],
        [81.21652, 26.26339],
        [81.21508, 26.26482],
        [81.21446, 26.26566],
        [81.2133, 26.26632],
        [81.21232, 26.26652],
        [81.21128, 26.26682],
        [81.21094, 26.2676],
        [81.211, 26.2681],
        [81.21142, 26.2688],
        [81.21178, 26.26924],
        [81.21248, 26.26998],
        [81.21296, 26.27077],
        [81.21349, 26.27162],
        [81.21367, 26.27156],
        [81.2143, 26.27185],
        [81.21519, 26.27243],
        [81.21591, 26.27341],
        [81.21663, 26.274],
        [81.21841, 26.27478],
        [81.22001, 26.27495],
        [81.22221, 26.27521],
        [81.22167, 26.27762],
        [81.22195, 26.28025],
        [81.22289, 26.28226],
        [81.22382, 26.28354],
        [81.22493, 26.2862],
        [81.22482, 26.28844],
        [81.22442, 26.28911],
        [81.22451, 26.28981],
        [81.22483, 26.29155],
        [81.22576, 26.29312],
        [81.22661, 26.29389],
        [81.22777, 26.29497],
        [81.22938, 26.29617],
        [81.23207, 26.29795],
        [81.23214, 26.29784],
        [81.2328, 26.29693],
        [81.2333, 26.29639],
        [81.23413, 26.29613],
        [81.23689, 26.29594],
        [81.23923, 26.29605],
        [81.24065, 26.29642],
        [81.24118, 26.29686],
        [81.2414, 26.29704],
        [81.24182, 26.29805],
        [81.24174, 26.29907],
        [81.24141, 26.30025],
        [81.24075, 26.30145],
        [81.24008, 26.30294],
        [81.23992, 26.30419],
        [81.24009, 26.30527],
        [81.24059, 26.30671],
        [81.24117, 26.30807],
        [81.24142, 26.30893],
        [81.24128, 26.3091],
        [81.24078, 26.30972],
        [81.24537, 26.3129],
        [81.24942, 26.31571],
        [81.25638, 26.32099],
        [81.25714, 26.32039],
        [81.25819, 26.31994],
        [81.25894, 26.31961],
        [81.25951, 26.31932],
        [81.26003, 26.31914],
        [81.26067, 26.31911],
        [81.26078, 26.31918],
        [81.26123, 26.31947],
        [81.26153, 26.32004],
        [81.26186, 26.32062],
        [81.26246, 26.32082],
        [81.26317, 26.32091],
        [81.26373, 26.32076],
        [81.26464, 26.32019],
        [81.26531, 26.31987],
        [81.26584, 26.31978],
        [81.2667, 26.3199],
        [81.26768, 26.32002],
        [81.26828, 26.31992],
        [81.26891, 26.31973],
        [81.26978, 26.3195],
        [81.27072, 26.31935],
        [81.27169, 26.31934],
        [81.27311, 26.31989],
        [81.27346, 26.32002],
        [81.27316, 26.31747],
        [81.27326, 26.31597],
        [81.27369, 26.31444],
        [81.27447, 26.31306],
        [81.27534, 26.31182],
        [81.27612, 26.31103],
        [81.27636, 26.31045],
        [81.2772, 26.3099],
        [81.27823, 26.30985],
        [81.27901, 26.30997],
        [81.27987, 26.30978],
        [81.28057, 26.30915],
        [81.28117, 26.30867],
        [81.28246, 26.30854],
        [81.2841, 26.30862],
        [81.28544, 26.30866],
        [81.286, 26.30868],
        [81.28781, 26.30838],
        [81.29075, 26.3075],
        [81.29265, 26.30614],
        [81.29473, 26.30456],
        [81.2962, 26.30292],
        [81.29639, 26.30262],
        [81.29706, 26.30154],
        [81.29717, 26.30004],
        [81.2981, 26.29955],
        [81.29879, 26.299],
        [81.30069, 26.29832],
        [81.30163, 26.2983],
        [81.30259, 26.2954],
        [81.3025, 26.2939],
        [81.30232, 26.29286],
        [81.30266, 26.29113],
        [81.30335, 26.28968],
        [81.30395, 26.28898],
        [81.30559, 26.28862],
        [81.30814, 26.28818],
        [81.30709, 26.28673],
        [81.30666, 26.28615],
        [81.30571, 26.28634],
        [81.30493, 26.28629],
        [81.30424, 26.28565],
        [81.30406, 26.28491],
        [81.30388, 26.28402],
        [81.30336, 26.28262],
        [81.30312, 26.28234],
        [81.30399, 26.28091],
        [81.30545, 26.27891],
        [81.30665, 26.27805],
        [81.30717, 26.27797],
        [81.30743, 26.27794],
        [81.30873, 26.27871],
        [81.30943, 26.2798],
        [81.30987, 26.28106],
        [81.31074, 26.28177],
        [81.31281, 26.28154],
        [81.31617, 26.28051],
        [81.32005, 26.27924],
        [81.32214, 26.27814],
        [81.32277, 26.27917],
        [81.32414, 26.28095],
        [81.326, 26.28584],
        [81.32725, 26.28767],
        [81.32775, 26.28808],
        [81.3279, 26.28821],
        [81.32855, 26.28818],
        [81.3295, 26.28829],
        [81.33133, 26.28868],
        [81.3331, 26.28911],
        [81.33494, 26.29025],
        [81.33636, 26.29096],
        [81.33802, 26.29201],
        [81.33944, 26.29337],
        [81.34021, 26.29435],
        [81.34075, 26.29534],
        [81.34146, 26.29658],
        [81.34247, 26.2978],
        [81.34377, 26.29901],
        [81.34494, 26.29967],
        [81.3438, 26.30005],
        [81.34324, 26.3005],
        [81.34268, 26.301],
        [81.342, 26.30183],
        [81.34163, 26.30273],
        [81.34175, 26.30349],
        [81.34225, 26.30453],
        [81.34414, 26.30842],
        [81.34494, 26.30934],
        [81.34528, 26.30987],
        [81.34643, 26.31168],
        [81.34729, 26.31273],
        [81.34694, 26.3129],
        [81.34615, 26.31332],
        [81.34471, 26.31416],
        [81.34259, 26.31578],
        [81.33997, 26.31778],
        [81.33894, 26.31873],
        [81.33783, 26.31871],
        [81.33682, 26.31876],
        [81.33537, 26.31888],
        [81.33405, 26.31855],
        [81.3326, 26.31792],
        [81.33084, 26.31756],
        [81.32889, 26.31759],
        [81.32688, 26.3179],
        [81.3241, 26.31965],
        [81.32371, 26.32058],
        [81.32383, 26.32139],
        [81.32427, 26.32191],
        [81.32527, 26.32219],
        [81.32728, 26.32303],
        [81.32854, 26.3234],
        [81.32954, 26.3239],
        [81.32998, 26.32448],
        [81.32991, 26.32497],
        [81.3299, 26.32578],
        [81.32952, 26.32656],
        [81.32876, 26.32713],
        [81.32718, 26.32747],
        [81.32586, 26.32753],
        [81.32416, 26.32718],
        [81.32235, 26.3265],
        [81.32028, 26.32578],
        [81.31765, 26.32465],
        [81.31363, 26.32348],
        [81.31361, 26.32386],
        [81.31324, 26.32465],
        [81.31264, 26.32519],
        [81.31245, 26.32582],
        [81.31262, 26.32685],
        [81.31345, 26.32816],
        [81.31416, 26.32895],
        [81.31523, 26.32968],
        [81.31648, 26.33076],
        [81.31813, 26.33213],
        [81.31799, 26.33248],
        [81.31787, 26.33301],
        [81.31723, 26.33326],
        [81.31659, 26.33326],
        [81.31613, 26.33351],
        [81.31605, 26.3339],
        [81.31608, 26.33478],
        [81.31608, 26.33529],
        [81.31558, 26.33567],
        [81.31498, 26.3357],
        [81.31438, 26.33557],
        [81.31392, 26.33644],
        [81.31335, 26.33812],
        [81.31319, 26.33879],
        [81.31338, 26.33956],
        [81.31388, 26.34214],
        [81.31411, 26.34352],
        [81.31419, 26.34483],
        [81.31464, 26.34573],
        [81.31663, 26.34773],
        [81.31793, 26.34841],
        [81.31932, 26.34979],
        [81.3204, 26.35179],
        [81.3215, 26.3539],
        [81.32239, 26.35726],
        [81.3228, 26.35916],
        [81.32334, 26.36005],
        [81.32348, 26.36057],
        [81.32317, 26.36102],
        [81.3226, 26.3614],
        [81.32218, 26.36198],
        [81.3216, 26.36323],
        [81.32046, 26.36656],
        [81.31871, 26.37095],
        [81.31902, 26.37119],
        [81.31923, 26.37163],
        [81.31915, 26.37196],
        [81.31889, 26.37295],
        [81.31862, 26.37453],
        [81.31852, 26.37557],
        [81.31856, 26.37661],
        [81.31884, 26.37751],
        [81.31915, 26.37805],
        [81.3193, 26.37791],
        [81.31975, 26.37764],
        [81.32054, 26.37731],
        [81.32113, 26.37711],
        [81.32191, 26.37699],
        [81.32303, 26.37694],
        [81.32439, 26.377],
        [81.32541, 26.37717],
        [81.32633, 26.37742],
        [81.32744, 26.37762],
        [81.32788, 26.37764],
        [81.32841, 26.37762],
        [81.32915, 26.3775],
        [81.32984, 26.3773],
        [81.33018, 26.3772],
        [81.33082, 26.37696],
        [81.33102, 26.37682],
        [81.33144, 26.37658],
        [81.33182, 26.37632],
        [81.33252, 26.37571],
        [81.3329, 26.37513],
        [81.3332, 26.37468],
        [81.33343, 26.37429],
        [81.3342, 26.37288],
        [81.33443, 26.37243],
        [81.33451, 26.37218],
        [81.33451, 26.37209],
        [81.33452, 26.3718],
        [81.33461, 26.3713],
        [81.33462, 26.37098],
        [81.33464, 26.37036],
        [81.33466, 26.36967],
        [81.33482, 26.36878],
        [81.33499, 26.36821],
        [81.33522, 26.36764],
        [81.33554, 26.36662],
        [81.33579, 26.36548],
        [81.33597, 26.3641],
        [81.33598, 26.36341],
        [81.336, 26.36272],
        [81.33602, 26.36203],
        [81.33615, 26.3598],
        [81.33624, 26.35917],
        [81.33647, 26.3586],
        [81.33655, 26.35841],
        [81.33707, 26.35776],
        [81.33743, 26.35741],
        [81.33767, 26.35717],
        [81.33818, 26.35677],
        [81.33877, 26.35637],
        [81.33914, 26.3561],
        [81.33958, 26.35589],
        [81.33988, 26.35569],
        [81.34014, 26.3556],
        [81.34054, 26.35547],
        [81.34119, 26.35532],
        [81.34163, 26.35523],
        [81.34337, 26.35515],
        [81.34374, 26.3552],
        [81.34432, 26.35529],
        [81.34757, 26.35583],
        [81.34859, 26.35572],
        [81.34918, 26.35544],
        [81.34955, 26.35511],
        [81.34978, 26.35485],
        [81.35001, 26.35441],
        [81.35016, 26.35408],
        [81.35048, 26.35251],
        [81.35084, 26.35135],
        [81.35088, 26.35124],
        [81.35103, 26.35098],
        [81.35132, 26.35072],
        [81.35162, 26.35051],
        [81.35199, 26.35037],
        [81.35257, 26.35034],
        [81.35286, 26.35027],
        [81.35338, 26.35005],
        [81.35374, 26.34991],
        [81.35403, 26.3499],
        [81.35506, 26.34973],
        [81.35611, 26.34953],
        [81.35668, 26.34925],
        [81.3569, 26.34899],
        [81.35713, 26.34867],
        [81.35729, 26.34823],
        [81.35745, 26.34753],
        [81.35753, 26.34703],
        [81.35769, 26.34621],
        [81.35785, 26.34576],
        [81.35807, 26.34538],
        [81.35837, 26.34492],
        [81.35875, 26.34441],
        [81.35927, 26.34388],
        [81.35964, 26.34336],
        [81.35994, 26.34291],
        [81.36024, 26.34234],
        [81.36063, 26.34107],
        [81.36072, 26.34038],
        [81.36081, 26.33918],
        [81.36068, 26.33844],
        [81.36054, 26.33795],
        [81.3604, 26.33752],
        [81.36026, 26.33709],
        [81.3602, 26.33659],
        [81.3602, 26.33609],
        [81.36036, 26.33527],
        [81.36051, 26.33495],
        [81.36071, 26.3347],
        [81.36081, 26.33456],
        [81.36103, 26.33437],
        [81.36133, 26.33423],
        [81.36162, 26.33415],
        [81.3622, 26.33406],
        [81.36264, 26.33391],
        [81.36308, 26.3339],
        [81.36374, 26.33374],
        [81.36418, 26.33353],
        [81.36648, 26.3326],
        [81.36744, 26.33225],
        [81.36883, 26.332],
        [81.36971, 26.33195],
        [81.37117, 26.33195],
        [81.37161, 26.33193],
        [81.37226, 26.33202],
        [81.37314, 26.33211],
        [81.37423, 26.33218],
        [81.37489, 26.33221],
        [81.37555, 26.33218],
        [81.37614, 26.33203],
        [81.37673, 26.33188],
        [81.37739, 26.33166],
        [81.37805, 26.3315],
        [81.37842, 26.33136],
        [81.37997, 26.33079],
        [81.38026, 26.33068],
        [81.38129, 26.33034],
        [81.38145, 26.33028]
      ]
    ]
  }
}
