{
  "type": "Feature",
  "id": "UP-AC-181",
  "properties": {
    "stateName": "UTTAR PRADESH",
    "stateCode": "UP",
    "districtName": "AMETHI",
    "acNo": 181,
    "acName": "KADIPUR (SC)",
    "seatType": null,
    "pcNo": null,
    "pcName": null,
    "quality": "unverified",
    "sources": [
      "TBD"
    ]
  },
  "geometry": {
    "type": "Polygon",
    "coordinates": [
      [
        [81.59082, 26.23996],
        [81.59042, 26.2386],
        [81.59042, 26.23826],
        [81.59055, 26.23732],
        [81.59062, 26.23637],
        [81.59042, 26.23576],
        [81.59062, 26.23509],
        [81.59103, 26.23434],
        [81.59103, 26.23387],
        [81.58954, 26.23218],
        [81.58906, 26.23123],
        [81.58879, 26.23049],
        [81.589, 26.22959],
        [81.58947, 26.22891],
        [81.58994, 26.22797],
        [81.58967, 26.22601],
        [81.58994, 26.22553],
        [81.59055, 26.22526],
        [81.59171, 26.22459],
        [81.59238, 26.22343],
        [81.59313, 26.22188],
        [81.59353, 26.22073],
        [81.59387, 26.22019],
        [81.59495, 26.21992],
        [81.59638, 26.22005],
        [81.59692, 26.22141],
        [81.59746, 26.22229],
        [81.59847, 26.22256],
        [81.59949, 26.22222],
        [81.60091, 26.22188],
        [81.60294, 26.22161],
        [81.60538, 26.221],
        [81.60795, 26.22053],
        [81.61086, 26.22019],
        [81.61128, 26.22018],
        [81.61128, 26.21957],
        [81.61229, 26.21788],
        [81.61222, 26.2172],
        [81.61182, 26.21687],
        [81.61175, 26.21612],
        [81.61202, 26.21538],
        [81.61216, 26.2138],
        [81.6127, 26.21063],
        [81.61385, 26.2069],
        [81.61487, 26.20669],
        [81.61487, 26.20554],
        [81.6144, 26.20548],
        [81.61433, 26.2048],
        [81.61541, 26.20426],
        [81.61562, 26.20398],
        [81.61467, 26.20188],
        [81.61365, 26.20013],
        [81.61311, 26.19837],
        [81.61196, 26.19654],
        [81.61148, 26.19585],
        [81.61135, 26.19504],
        [81.6106, 26.19409],
        [81.60972, 26.19281],
        [81.60932, 26.192],
        [81.60918, 26.19105],
        [81.60925, 26.19042],
        [81.60973, 26.19015],
        [81.60979, 26.18954],
        [81.60959, 26.18887],
        [81.60979, 26.18873],
        [81.61074, 26.189],
        [81.61108, 26.18893],
        [81.61094, 26.18859],
        [81.61054, 26.18812],
        [81.61034, 26.18792],
        [81.61047, 26.18758],
        [81.61108, 26.18771],
        [81.61196, 26.18778],
        [81.61237, 26.18731],
        [81.61426, 26.18657],
        [81.61487, 26.18636],
        [81.61528, 26.18332],
        [81.61589, 26.18276],
        [81.61677, 26.18188],
        [81.61812, 26.1806],
        [81.61626, 26.17716],
        [81.61504, 26.17689],
        [81.61491, 26.17601],
        [81.61376, 26.17486],
        [81.61342, 26.17412],
        [81.61382, 26.17304],
        [81.61315, 26.17182],
        [81.61274, 26.17121],
        [81.61274, 26.17074],
        [81.61308, 26.1702],
        [81.61308, 26.16993],
        [81.61288, 26.16932],
        [81.61308, 26.16912],
        [81.61389, 26.1683],
        [81.61437, 26.16715],
        [81.61416, 26.16525],
        [81.61375, 26.16471],
        [81.61355, 26.1639],
        [81.61348, 26.16268],
        [81.61301, 26.16234],
        [81.61267, 26.16227],
        [81.6124, 26.16099],
        [81.61233, 26.16024],
        [81.6126, 26.15835],
        [81.6124, 26.15751],
        [81.61199, 26.1569],
        [81.61193, 26.1565],
        [81.61226, 26.15548],
        [81.61206, 26.1546],
        [81.61132, 26.15413],
        [81.60394, 26.15149],
        [81.60278, 26.15115],
        [81.60149, 26.15155],
        [81.60136, 26.14973],
        [81.59905, 26.1477],
        [81.59892, 26.14668],
        [81.59946, 26.1433],
        [81.59871, 26.14323],
        [81.59709, 26.14349],
        [81.59526, 26.14322],
        [81.59397, 26.14228],
        [81.59126, 26.14268],
        [81.5891, 26.14336],
        [81.58693, 26.1441],
        [81.5834, 26.14499],
        [81.58103, 26.14559],
        [81.57805, 26.14465],
        [81.57385, 26.14573],
        [81.57154, 26.14648],
        [81.56931, 26.14634],
        [81.56863, 26.14594],
        [81.56801, 26.14485],
        [81.56653, 26.14018],
        [81.56605, 26.14031],
        [81.56544, 26.14011],
        [81.56517, 26.13964],
        [81.56476, 26.1393],
        [81.56401, 26.13889],
        [81.56401, 26.13767],
        [81.56395, 26.13734],
        [81.56374, 26.137],
        [81.56347, 26.13686],
        [81.56293, 26.13666],
        [81.56246, 26.13666],
        [81.56212, 26.13578],
        [81.56083, 26.13538],
        [81.56029, 26.13585],
        [81.55914, 26.13584],
        [81.55616, 26.13475],
        [81.55555, 26.13415],
        [81.55358, 26.13171],
        [81.54911, 26.13211],
        [81.54714, 26.13001],
        [81.54714, 26.12926],
        [81.54687, 26.12778],
        [81.54592, 26.12622],
        [81.54511, 26.12561],
        [81.54443, 26.125],
        [81.54375, 26.12385],
        [81.54335, 26.12324],
        [81.54294, 26.12276],
        [81.54165, 26.12324],
        [81.54063, 26.12385],
        [81.53847, 26.12385],
        [81.53894, 26.12289],
        [81.53894, 26.12187],
        [81.53867, 26.12079],
        [81.53813, 26.11998],
        [81.53779, 26.11869],
        [81.53738, 26.11842],
        [81.53704, 26.11626],
        [81.53793, 26.11287],
        [81.53874, 26.11097],
        [81.53948, 26.10955],
        [81.53962, 26.10879],
        [81.53935, 26.1071],
        [81.53827, 26.10615],
        [81.53664, 26.10534],
        [81.53583, 26.10453],
        [81.53522, 26.10344],
        [81.53671, 26.10229],
        [81.53894, 26.10081],
        [81.54179, 26.09932],
        [81.54368, 26.10101],
        [81.5447, 26.10155],
        [81.54572, 26.10155],
        [81.54687, 26.10094],
        [81.54836, 26.1006],
        [81.54903, 26.10046],
        [81.55012, 26.09985],
        [81.55188, 26.09843],
        [81.55262, 26.09769],
        [81.55377, 26.09539],
        [81.55439, 26.09429],
        [81.55466, 26.09307],
        [81.55425, 26.09192],
        [81.55418, 26.09111],
        [81.55506, 26.08949],
        [81.55703, 26.08773],
        [81.55839, 26.08642],
        [81.55873, 26.08575],
        [81.55825, 26.0844],
        [81.55737, 26.08264],
        [81.55636, 26.08115],
        [81.55636, 26.08074],
        [81.55697, 26.08061],
        [81.55812, 26.08033],
        [81.55947, 26.0785],
        [81.5615, 26.07668],
        [81.56279, 26.07559],
        [81.56455, 26.07499],
        [81.56658, 26.0737],
        [81.56706, 26.07336],
        [81.56719, 26.07255],
        [81.56658, 26.07174],
        [81.56489, 26.07084],
        [81.56475, 26.0701],
        [81.56448, 26.06902],
        [81.56367, 26.06834],
        [81.5636, 26.06807],
        [81.56347, 26.06726],
        [81.5634, 26.06658],
        [81.56286, 26.06604],
        [81.56205, 26.06563],
        [81.56171, 26.0653],
        [81.5613, 26.06475],
        [81.56035, 26.06178],
        [81.55913, 26.06156],
        [81.55893, 26.06055],
        [81.555, 26.06109],
        [81.55372, 26.06109],
        [81.55311, 26.06068],
        [81.55257, 26.06034],
        [81.5506, 26.06095],
        [81.54978, 26.05884],
        [81.54958, 26.05776],
        [81.54904, 26.05763],
        [81.54843, 26.05796],
        [81.54789, 26.05715],
        [81.54565, 26.05823],
        [81.54484, 26.05695],
        [81.54383, 26.05688],
        [81.54383, 26.05627],
        [81.54342, 26.05607],
        [81.54213, 26.05506],
        [81.54139, 26.05478],
        [81.5399, 26.05472],
        [81.54003, 26.05661],
        [81.53997, 26.05763],
        [81.53963, 26.05857],
        [81.53943, 26.05945],
        [81.5378, 26.05972],
        [81.53699, 26.05999],
        [81.5367, 26.06013],
        [81.53568, 26.05999],
        [81.53569, 26.0608],
        [81.53548, 26.06094],
        [81.53514, 26.06087],
        [81.5346, 26.06047],
        [81.53399, 26.06067],
        [81.53399, 26.06108],
        [81.53386, 26.06135],
        [81.53311, 26.06148],
        [81.53271, 26.06148],
        [81.53291, 26.06101],
        [81.53291, 26.06053],
        [81.53318, 26.06026],
        [81.53332, 26.05993],
        [81.53325, 26.05905],
        [81.53365, 26.05776],
        [81.5333, 26.05648],
        [81.5333, 26.0556],
        [81.53282, 26.05451],
        [81.53113, 26.05377],
        [81.53039, 26.05323],
        [81.53046, 26.05282],
        [81.53174, 26.05262],
        [81.53282, 26.05221],
        [81.53337, 26.05039],
        [81.53357, 26.0489],
        [81.53384, 26.04765],
        [81.53289, 26.04589],
        [81.53154, 26.04481],
        [81.53046, 26.04447],
        [81.52991, 26.04359],
        [81.52897, 26.04251],
        [81.52834, 26.04197],
        [81.52733, 26.04157],
        [81.52719, 26.04089],
        [81.52645, 26.04068],
        [81.5257, 26.04082],
        [81.52468, 26.0415],
        [81.52394, 26.04143],
        [81.52286, 26.04136],
        [81.52123, 26.0419],
        [81.52015, 26.04177],
        [81.51927, 26.04096],
        [81.51893, 26.04007],
        [81.51865, 26.03973],
        [81.51825, 26.03946],
        [81.5183, 26.03912],
        [81.51796, 26.03905],
        [81.51756, 26.03898],
        [81.51722, 26.03892],
        [81.51681, 26.03838],
        [81.51722, 26.03702],
        [81.51742, 26.03351],
        [81.5181, 26.03208],
        [81.51965, 26.03188],
        [81.52277, 26.03249],
        [81.52554, 26.03391],
        [81.52703, 26.03432],
        [81.52872, 26.03398],
        [81.5315, 26.03364],
        [81.53253, 26.03371],
        [81.53409, 26.03432],
        [81.53565, 26.03655],
        [81.53653, 26.03898],
        [81.53646, 26.04088],
        [81.53685, 26.04243],
        [81.53759, 26.04291],
        [81.53854, 26.04284],
        [81.54077, 26.04108],
        [81.54287, 26.03925],
        [81.54497, 26.03682],
        [81.54707, 26.03289],
        [81.54742, 26.03193],
        [81.54715, 26.03105],
        [81.54511, 26.02996],
        [81.54349, 26.02942],
        [81.5401, 26.02814],
        [81.53916, 26.02746],
        [81.53862, 26.02631],
        [81.53875, 26.02523],
        [81.53956, 26.02394],
        [81.54092, 26.02286],
        [81.54248, 26.02239],
        [81.54464, 26.02273],
        [81.54796, 26.02367],
        [81.55182, 26.02564],
        [81.5527, 26.02618],
        [81.55351, 26.02645],
        [81.55425, 26.02645],
        [81.5552, 26.02597],
        [81.55662, 26.0257],
        [81.55811, 26.02631],
        [81.55987, 26.0276],
        [81.56179, 26.02861],
        [81.56375, 26.02868],
        [81.56605, 26.02746],
        [81.56734, 26.02598],
        [81.56788, 26.023],
        [81.56829, 26.02128],
        [81.56931, 26.01858],
        [81.56965, 26.01763],
        [81.56971, 26.01621],
        [81.56999, 26.01513],
        [81.56931, 26.01499],
        [81.56856, 26.01486],
        [81.56734, 26.01398],
        [81.56552, 26.01222],
        [81.56464, 26.01181],
        [81.56403, 26.01195],
        [81.56362, 26.01182],
        [81.56335, 26.01161],
        [81.56322, 26.01121],
        [81.56261, 26.01148],
        [81.56234, 26.01121],
        [81.56247, 26.01039],
        [81.56152, 26.0097],
        [81.56132, 26.0093],
        [81.56172, 26.00842],
        [81.56111, 26.0076],
        [81.56077, 26.00713],
        [81.56098, 26.00639],
        [81.56077, 26.00585],
        [81.55996, 26.00558],
        [81.55935, 26.00497],
        [81.55902, 26.00429],
        [81.55908, 26.00341],
        [81.55895, 26.00179],
        [81.55889, 26.00054],
        [81.5588, 26.00037],
        [81.55832, 25.99943],
        [81.56027, 25.99725],
        [81.56079, 25.99655],
        [81.56037, 25.99628],
        [81.55997, 25.99601],
        [81.55987, 25.99556],
        [81.55995, 25.99527],
        [81.56027, 25.99526],
        [81.56128, 25.99564],
        [81.5617, 25.99579],
        [81.56205, 25.99559],
        [81.5626, 25.99532],
        [81.56329, 25.99509],
        [81.5646, 25.99457],
        [81.56564, 25.99413],
        [81.56636, 25.99418],
        [81.56663, 25.99418],
        [81.56668, 25.99393],
        [81.56656, 25.99368],
        [81.56646, 25.99328],
        [81.56663, 25.99299],
        [81.5669, 25.99282],
        [81.56707, 25.99237],
        [81.56727, 25.99205],
        [81.56777, 25.99187],
        [81.56834, 25.99185],
        [81.56849, 25.9916],
        [81.56868, 25.99016],
        [81.56906, 25.98828],
        [81.56871, 25.98697],
        [81.57049, 25.98635],
        [81.57113, 25.98623],
        [81.5725, 25.98645],
        [81.574, 25.98707],
        [81.5745, 25.98719],
        [81.57613, 25.98642],
        [81.5775, 25.98568],
        [81.57766, 25.98491],
        [81.57806, 25.98467],
        [81.57969, 25.98432],
        [81.58094, 25.98338],
        [81.58168, 25.98291],
        [81.58355, 25.98293],
        [81.58454, 25.98315],
        [81.58484, 25.98301],
        [81.58484, 25.9812],
        [81.58611, 25.9809],
        [81.58603, 25.97959],
        [81.58625, 25.97941],
        [81.58613, 25.97862],
        [81.58774, 25.9781],
        [81.58788, 25.97855],
        [81.58818, 25.97865],
        [81.59014, 25.9782],
        [81.59004, 25.97716],
        [81.59207, 25.97669],
        [81.59212, 25.97647],
        [81.59226, 25.97617],
        [81.59301, 25.97587],
        [81.59254, 25.97376],
        [81.59222, 25.97216],
        [81.59157, 25.96936],
        [81.59126, 25.96927],
        [81.59026, 25.96918],
        [81.58995, 25.96926],
        [81.58979, 25.96943],
        [81.5894, 25.96957],
        [81.58908, 25.96948],
        [81.5888, 25.96931],
        [81.58852, 25.96897],
        [81.58817, 25.96887],
        [81.58789, 25.9689],
        [81.58766, 25.96902],
        [81.58723, 25.96902],
        [81.58708, 25.96884],
        [81.58692, 25.9686],
        [81.58665, 25.96859],
        [81.58656, 25.96877],
        [81.58618, 25.96902],
        [81.58587, 25.96891],
        [81.58569, 25.96875],
        [81.58547, 25.96858],
        [81.58516, 25.96852],
        [81.58499, 25.96863],
        [81.58478, 25.96892],
        [81.58444, 25.96899],
        [81.5842, 25.96885],
        [81.584, 25.96865],
        [81.58355, 25.96865],
        [81.58322, 25.96855],
        [81.58297, 25.96832],
        [81.58267, 25.96835],
        [81.58261, 25.96858],
        [81.58239, 25.96865],
        [81.58197, 25.96845],
        [81.58155, 25.96838],
        [81.58106, 25.96853],
        [81.58032, 25.96855],
        [81.58007, 25.9683],
        [81.57989, 25.96781],
        [81.57965, 25.96759],
        [81.57917, 25.96749],
        [81.57806, 25.96803],
        [81.57737, 25.96833],
        [81.57722, 25.96885],
        [81.57685, 25.9693],
        [81.57544, 25.97076],
        [81.57435, 25.97113],
        [81.57338, 25.9712],
        [81.57322, 25.97142],
        [81.57302, 25.97207],
        [81.57195, 25.97279],
        [81.57099, 25.97326],
        [81.57024, 25.97378],
        [81.56955, 25.97452],
        [81.56874, 25.97497],
        [81.56631, 25.97412],
        [81.56433, 25.97333],
        [81.5623, 25.97274],
        [81.56124, 25.97232],
        [81.56017, 25.9716],
        [81.55993, 25.9715],
        [81.55894, 25.97227],
        [81.55842, 25.97242],
        [81.558, 25.97202],
        [81.55705, 25.97063],
        [81.55656, 25.96984],
        [81.55585, 25.96996],
        [81.55535, 25.96996],
        [81.55376, 25.96729],
        [81.55332, 25.96697],
        [81.55241, 25.96652],
        [81.55159, 25.96655],
        [81.55062, 25.96672],
        [81.55028, 25.96689],
        [81.54929, 25.96751],
        [81.5477, 25.96771],
        [81.54634, 25.96786],
        [81.54488, 25.96798],
        [81.54399, 25.96776],
        [81.54317, 25.96759],
        [81.54233, 25.96843],
        [81.54204, 25.96845],
        [81.54134, 25.96825],
        [81.54011, 25.96774],
        [81.53872, 25.96717],
        [81.53795, 25.96662],
        [81.53761, 25.96583],
        [81.53671, 25.96431],
        [81.53629, 25.96402],
        [81.53562, 25.96389],
        [81.53494, 25.96298],
        [81.53434, 25.96181],
        [81.53404, 25.96142],
        [81.53253, 25.96104],
        [81.53144, 25.96042],
        [81.5287, 25.95854],
        [81.52499, 25.95592],
        [81.52432, 25.95555],
        [81.5239, 25.9555],
        [81.52316, 25.95659],
        [81.52301, 25.95671],
        [81.52201, 25.95607],
        [81.52199, 25.95631],
        [81.52214, 25.95708],
        [81.52195, 25.95726],
        [81.52123, 25.95693],
        [81.52058, 25.95646],
        [81.51998, 25.95681],
        [81.5193, 25.95763],
        [81.51942, 25.95854],
        [81.51831, 25.95904],
        [81.51635, 25.95961],
        [81.51479, 25.95993],
        [81.51377, 25.95963],
        [81.51326, 25.95953],
        [81.51341, 25.96003],
        [81.51459, 25.96075],
        [81.51574, 25.96184],
        [81.51615, 25.96293],
        [81.5161, 25.96384],
        [81.51561, 25.96446],
        [81.51331, 25.96573],
        [81.51229, 25.96627],
        [81.51202, 25.96726],
        [81.51182, 25.96833],
        [81.51185, 25.96939],
        [81.51103, 25.96989],
        [81.51053, 25.97028],
        [81.51031, 25.97075],
        [81.50979, 25.97118],
        [81.50878, 25.97177],
        [81.50838, 25.9709],
        [81.50776, 25.97103],
        [81.50776, 25.97199],
        [81.50685, 25.97239],
        [81.50544, 25.97286],
        [81.50529, 25.97318],
        [81.50494, 25.9742],
        [81.50383, 25.97472],
        [81.50281, 25.97482],
        [81.5017, 25.97487],
        [81.50113, 25.97442],
        [81.50084, 25.97333],
        [81.50071, 25.97283],
        [81.49982, 25.97261],
        [81.49901, 25.97212],
        [81.49823, 25.97134],
        [81.49771, 25.97061],
        [81.49679, 25.96996],
        [81.49675, 25.96973],
        [81.49656, 25.96931],
        [81.49559, 25.96899],
        [81.4952, 25.96893],
        [81.49412, 25.96876],
        [81.49336, 25.96835],
        [81.4918, 25.96647],
        [81.49159, 25.96622],
        [81.49139, 25.96598],
        [81.49141, 25.96576],
        [81.49157, 25.96546],
        [81.49182, 25.96524],
        [81.49254, 25.96459],
        [81.49273, 25.96443],
        [81.49278, 25.96412],
        [81.4921, 25.96298],
        [81.48989, 25.96303],
        [81.48929, 25.96308],
        [81.48904, 25.96293],
        [81.48907, 25.96224],
        [81.48922, 25.96182],
        [81.48936, 25.96142],
        [81.49018, 25.96139],
        [81.49054, 25.96133],
        [81.49086, 25.96136],
        [81.49116, 25.96131],
        [81.49144, 25.9612],
        [81.49172, 25.96108],
        [81.4919, 25.961],
        [81.49225, 25.96081],
        [81.49252, 25.96067],
        [81.49279, 25.96052],
        [81.49307, 25.96037],
        [81.49338, 25.9602],
        [81.49369, 25.96004],
        [81.49406, 25.95994],
        [81.49441, 25.95985],
        [81.49476, 25.95977],
        [81.49511, 25.95969],
        [81.49545, 25.9596],
        [81.49571, 25.95962],
        [81.49618, 25.95961],
        [81.49682, 25.9597],
        [81.49795, 25.95955],
        [81.4981, 25.95968],
        [81.49899, 25.95942],
        [81.50034, 25.95875],
        [81.50258, 25.95795],
        [81.50422, 25.95701],
        [81.50497, 25.95539],
        [81.50498, 25.95405],
        [81.50484, 25.95202],
        [81.5047, 25.95027],
        [81.50425, 25.94919],
        [81.50336, 25.94784],
        [81.50292, 25.94689],
        [81.50218, 25.94676],
        [81.50158, 25.94662],
        [81.50083, 25.94662],
        [81.49979, 25.94662],
        [81.49726, 25.94661],
        [81.49672, 25.94701],
        [81.49596, 25.9471],
        [81.49519, 25.94717],
        [81.49443, 25.94724],
        [81.49354, 25.94732],
        [81.49291, 25.94742],
        [81.49214, 25.94746],
        [81.49138, 25.94754],
        [81.49062, 25.94761],
        [81.49041, 25.94771],
        [81.49008, 25.94767],
        [81.48997, 25.94746],
        [81.48986, 25.94727],
        [81.48972, 25.94702],
        [81.48959, 25.94677],
        [81.48945, 25.94652],
        [81.48931, 25.94628],
        [81.48917, 25.94602],
        [81.48904, 25.94578],
        [81.4889, 25.94553],
        [81.48876, 25.94528],
        [81.48862, 25.94503],
        [81.4885, 25.94473],
        [81.48836, 25.94445],
        [81.48822, 25.94417],
        [81.48808, 25.94387],
        [81.48795, 25.94359],
        [81.48782, 25.94332],
        [81.48769, 25.94313],
        [81.48747, 25.94277],
        [81.4873, 25.9425],
        [81.48709, 25.94219],
        [81.48688, 25.94189],
        [81.48667, 25.94158],
        [81.48645, 25.94127],
        [81.48624, 25.94097],
        [81.4861, 25.94069],
        [81.48594, 25.94027],
        [81.48583, 25.93991],
        [81.48574, 25.93958],
        [81.48564, 25.93888],
        [81.48564, 25.93851],
        [81.48565, 25.93798],
        [81.48566, 25.93746],
        [81.4857, 25.93706],
        [81.48565, 25.93642],
        [81.48562, 25.9359],
        [81.48558, 25.93538],
        [81.48555, 25.93485],
        [81.48552, 25.93449],
        [81.48551, 25.9343],
        [81.48549, 25.93412],
        [81.48548, 25.93393],
        [81.48547, 25.93375],
        [81.48544, 25.93341],
        [81.48533, 25.93324],
        [81.48521, 25.93306],
        [81.48508, 25.93288],
        [81.48496, 25.9327],
        [81.48483, 25.93252],
        [81.4847, 25.93234],
        [81.48458, 25.93216],
        [81.48445, 25.93198],
        [81.48433, 25.9318],
        [81.48421, 25.93162],
        [81.48405, 25.93139],
        [81.48363, 25.93134],
        [81.48339, 25.93131],
        [81.48318, 25.93128],
        [81.48292, 25.93125],
        [81.48266, 25.93128],
        [81.48217, 25.93134],
        [81.48192, 25.93137],
        [81.48168, 25.93141],
        [81.48143, 25.93144],
        [81.48111, 25.93148],
        [81.4809, 25.9315],
        [81.48072, 25.93159],
        [81.48054, 25.93175],
        [81.48033, 25.93209],
        [81.48012, 25.93244],
        [81.4799, 25.93279],
        [81.47969, 25.93313],
        [81.47947, 25.93348],
        [81.47926, 25.93383],
        [81.47905, 25.93417],
        [81.47883, 25.93452],
        [81.47864, 25.93484],
        [81.4786, 25.93507],
        [81.47855, 25.93543],
        [81.47848, 25.93561],
        [81.47846, 25.93597],
        [81.47845, 25.93618],
        [81.47831, 25.93646],
        [81.47821, 25.93667],
        [81.47809, 25.93687],
        [81.47792, 25.93707],
        [81.47776, 25.93726],
        [81.47764, 25.93746],
        [81.4775, 25.93763],
        [81.47727, 25.93778],
        [81.47706, 25.93779],
        [81.47684, 25.9378],
        [81.47645, 25.93782],
        [81.47607, 25.93784],
        [81.47568, 25.93786],
        [81.4753, 25.93788],
        [81.47491, 25.9379],
        [81.47453, 25.93792],
        [81.47414, 25.93794],
        [81.47376, 25.93796],
        [81.47336, 25.93798],
        [81.47325, 25.93769],
        [81.47316, 25.93744],
        [81.47306, 25.93718],
        [81.47297, 25.93693],
        [81.47267, 25.93671],
        [81.47245, 25.93654],
        [81.47223, 25.93638],
        [81.47202, 25.93622],
        [81.47185, 25.93609],
        [81.47156, 25.93593],
        [81.47132, 25.9358],
        [81.47108, 25.93567],
        [81.47085, 25.93553],
        [81.47063, 25.93542],
        [81.47042, 25.9353],
        [81.4702, 25.93518],
        [81.46998, 25.93505],
        [81.46976, 25.93493],
        [81.46954, 25.93481],
        [81.46932, 25.93469],
        [81.46914, 25.93459],
        [81.46899, 25.93446],
        [81.46885, 25.93421],
        [81.46878, 25.93402],
        [81.46864, 25.93385],
        [81.46848, 25.93374],
        [81.468, 25.93348],
        [81.46754, 25.93329],
        [81.46615, 25.93273],
        [81.46457, 25.93215],
        [81.46464, 25.93126],
        [81.46285, 25.93107],
        [81.46227, 25.93108],
        [81.46199, 25.93123],
        [81.46175, 25.9311],
        [81.46151, 25.93097],
        [81.46089, 25.93108],
        [81.45995, 25.93137],
        [81.45866, 25.93144],
        [81.45715, 25.9316],
        [81.45696, 25.93141],
        [81.45698, 25.93117],
        [81.45702, 25.93083],
        [81.45713, 25.93054],
        [81.45733, 25.93027],
        [81.45719, 25.92937],
        [81.45683, 25.92941],
        [81.45659, 25.92957],
        [81.45646, 25.92937],
        [81.45632, 25.92915],
        [81.45615, 25.92888],
        [81.45595, 25.92898],
        [81.45561, 25.92906],
        [81.45522, 25.92885],
        [81.45503, 25.92859],
        [81.45486, 25.92837],
        [81.45459, 25.92817],
        [81.45423, 25.92833],
        [81.45405, 25.92863],
        [81.45388, 25.92878],
        [81.45343, 25.92885],
        [81.45316, 25.9287],
        [81.45301, 25.92852],
        [81.45274, 25.9285],
        [81.45245, 25.92857],
        [81.45214, 25.92863],
        [81.45202, 25.92842],
        [81.45187, 25.92815],
        [81.45174, 25.92792],
        [81.45133, 25.92775],
        [81.45107, 25.92782],
        [81.45084, 25.92788],
        [81.45052, 25.92796],
        [81.45026, 25.92776],
        [81.45012, 25.92762],
        [81.44983, 25.92765],
        [81.4496, 25.92779],
        [81.4494, 25.92792],
        [81.44919, 25.92805],
        [81.44879, 25.92833],
        [81.44858, 25.92846],
        [81.44839, 25.92862],
        [81.44821, 25.92879],
        [81.44801, 25.92893],
        [81.44786, 25.92913],
        [81.44764, 25.9292],
        [81.44764, 25.92941],
        [81.44781, 25.9296],
        [81.44801, 25.92981],
        [81.44826, 25.93008],
        [81.44836, 25.93025],
        [81.44851, 25.93049],
        [81.44866, 25.93073],
        [81.44881, 25.93097],
        [81.44897, 25.93121],
        [81.44912, 25.93145],
        [81.44924, 25.93164],
        [81.44932, 25.93191],
        [81.44902, 25.93207],
        [81.44913, 25.93232],
        [81.44932, 25.93245],
        [81.44951, 25.93261],
        [81.44984, 25.9328],
        [81.45011, 25.93296],
        [81.45037, 25.93313],
        [81.45068, 25.93349],
        [81.451, 25.93386],
        [81.45088, 25.93412],
        [81.45025, 25.93419],
        [81.45017, 25.93442],
        [81.45028, 25.9348],
        [81.45059, 25.93478],
        [81.45083, 25.93474],
        [81.45143, 25.93462],
        [81.45174, 25.93458],
        [81.45205, 25.93453],
        [81.45258, 25.93444],
        [81.45274, 25.9349],
        [81.45283, 25.93511],
        [81.45247, 25.93519],
        [81.45216, 25.93527],
        [81.45191, 25.93533],
        [81.45175, 25.93547],
        [81.45159, 25.93561],
        [81.45134, 25.93584],
        [81.4511, 25.93596],
        [81.45091, 25.93605],
        [81.45072, 25.93614],
        [81.45029, 25.93636],
        [81.44992, 25.93626],
        [81.44979, 25.93609],
        [81.44972, 25.93586],
        [81.44959, 25.93565],
        [81.44945, 25.93542],
        [81.44908, 25.93542],
        [81.4486, 25.93563],
        [81.44847, 25.9358],
        [81.44845, 25.93608],
        [81.44839, 25.93627],
        [81.44833, 25.93646],
        [81.44813, 25.93668],
        [81.44793, 25.93678],
        [81.44773, 25.93669],
        [81.44741, 25.93654],
        [81.44703, 25.93658],
        [81.44713, 25.93775],
        [81.4472, 25.9381],
        [81.44691, 25.93862],
        [81.4467, 25.93896],
        [81.44649, 25.93924],
        [81.44614, 25.93956],
        [81.44579, 25.93994],
        [81.44552, 25.94031],
        [81.44536, 25.94057],
        [81.44494, 25.94108],
        [81.44457, 25.94159],
        [81.44435, 25.94197],
        [81.44426, 25.94234],
        [81.44427, 25.94294],
        [81.44432, 25.94326],
        [81.44434, 25.94343],
        [81.44444, 25.94369],
        [81.44449, 25.94399],
        [81.44455, 25.94418],
        [81.44451, 25.9445],
        [81.44448, 25.94478],
        [81.44445, 25.94497],
        [81.44433, 25.94524],
        [81.44422, 25.94541],
        [81.44402, 25.94568],
        [81.44376, 25.94606],
        [81.4436, 25.94626],
        [81.4435, 25.94641],
        [81.44344, 25.94656],
        [81.44342, 25.94669],
        [81.44335, 25.94747],
        [81.44329, 25.94766],
        [81.44324, 25.94813],
        [81.44321, 25.94844],
        [81.44283, 25.95044],
        [81.44259, 25.95113],
        [81.44219, 25.95168],
        [81.44182, 25.95203],
        [81.44171, 25.95211],
        [81.44138, 25.95237],
        [81.44102, 25.95259],
        [81.44066, 25.95281],
        [81.44018, 25.95301],
        [81.43948, 25.95324],
        [81.43872, 25.95345],
        [81.4379, 25.9537],
        [81.43738, 25.95386],
        [81.43651, 25.95406],
        [81.43599, 25.95418],
        [81.43525, 25.95422],
        [81.43444, 25.9543],
        [81.43262, 25.95415],
        [81.43157, 25.95387],
        [81.43036, 25.953],
        [81.4283, 25.95123],
        [81.42796, 25.95091],
        [81.42723, 25.95046],
        [81.42679, 25.95025],
        [81.42634, 25.95015],
        [81.42588, 25.95009],
        [81.42533, 25.9501],
        [81.42501, 25.95018],
        [81.42475, 25.95031],
        [81.42453, 25.95056],
        [81.42419, 25.95119],
        [81.42342, 25.95293],
        [81.42307, 25.95357],
        [81.42228, 25.95503],
        [81.42106, 25.95684],
        [81.42073, 25.95732],
        [81.42042, 25.95764],
        [81.42004, 25.95808],
        [81.41972, 25.95836],
        [81.41921, 25.95874],
        [81.41879, 25.95905],
        [81.41848, 25.95933],
        [81.41792, 25.95962],
        [81.41746, 25.95985],
        [81.4167, 25.96012],
        [81.41533, 25.96055],
        [81.41378, 25.96093],
        [81.41288, 25.96106],
        [81.41134, 25.96119],
        [81.4097, 25.96123],
        [81.40777, 25.96092],
        [81.40639, 25.96035],
        [81.40556, 25.95984],
        [81.4034, 25.95879],
        [81.40244, 25.95844],
        [81.40176, 25.95831],
        [81.40085, 25.95816],
        [81.40058, 25.95813],
        [81.39971, 25.95802],
        [81.39869, 25.95795],
        [81.39738, 25.95802],
        [81.39641, 25.95823],
        [81.39555, 25.95851],
        [81.39463, 25.95896],
        [81.39411, 25.95932],
        [81.39382, 25.95957],
        [81.39319, 25.96011],
        [81.39278, 25.96049],
        [81.39232, 25.961],
        [81.39197, 25.96143],
        [81.39185, 25.9618],
        [81.39185, 25.96227],
        [81.39196, 25.96266],
        [81.39207, 25.96291],
        [81.39235, 25.96322],
        [81.39336, 25.96395],
        [81.39364, 25.96416],
        [81.39398, 25.96434],
        [81.3946, 25.96474],
        [81.39482, 25.96496],
        [81.39499, 25.96521],
        [81.3951, 25.96546],
        [81.39521, 25.96571],
        [81.39527, 25.9659],
        [81.39527, 25.96619],
        [81.39526, 25.96642],
        [81.39526, 25.96671],
        [81.3952, 25.96698],
        [81.39509, 25.9673],
        [81.39498, 25.96752],
        [81.39471, 25.96808],
        [81.39447, 25.96851],
        [81.39419, 25.96904],
        [81.39399, 25.96945],
        [81.39385, 25.96976],
        [81.39357, 25.97054],
        [81.39329, 25.97152],
        [81.39293, 25.9724],
        [81.39274, 25.97286],
        [81.3923, 25.97339],
        [81.39208, 25.97365],
        [81.3918, 25.9739],
        [81.39124, 25.97422],
        [81.39072, 25.97452],
        [81.39046, 25.97476],
        [81.39018, 25.97501],
        [81.38991, 25.97527],
        [81.38941, 25.97569],
        [81.38913, 25.9759],
        [81.38885, 25.97601],
        [81.38812, 25.97608],
        [81.38784, 25.97605],
        [81.38728, 25.9759],
        [81.38677, 25.97565],
        [81.38546, 25.9748],
        [81.38448, 25.97418],
        [81.38395, 25.97396],
        [81.38317, 25.97366],
        [81.38239, 25.97353],
        [81.38224, 25.97351],
        [81.38135, 25.97342],
        [81.38005, 25.97339],
        [81.37908, 25.97329],
        [81.37823, 25.97331],
        [81.37732, 25.97328],
        [81.37628, 25.97317],
        [81.37485, 25.97285],
        [81.37347, 25.97233],
        [81.37171, 25.97154],
        [81.37001, 25.97075],
        [81.36968, 25.97056],
        [81.36935, 25.97047],
        [81.36917, 25.97043],
        [81.36883, 25.97036],
        [81.36831, 25.97025],
        [81.36798, 25.97022],
        [81.36733, 25.97026],
        [81.36687, 25.97021],
        [81.36648, 25.97028],
        [81.36603, 25.9704],
        [81.36564, 25.97064],
        [81.36538, 25.97083],
        [81.36506, 25.97108],
        [81.3648, 25.97133],
        [81.36454, 25.97152],
        [81.36413, 25.97189],
        [81.36313, 25.97276],
        [81.36236, 25.97346],
        [81.36197, 25.97392],
        [81.36133, 25.97436],
        [81.36101, 25.9746],
        [81.36004, 25.97512],
        [81.35953, 25.97539],
        [81.35907, 25.97558],
        [81.35777, 25.976],
        [81.35679, 25.97624],
        [81.35579, 25.97647],
        [81.35529, 25.97665],
        [81.35488, 25.97681],
        [81.35471, 25.97688],
        [81.35406, 25.97721],
        [81.35341, 25.97765],
        [81.35276, 25.97809],
        [81.35186, 25.97868],
        [81.35121, 25.97907],
        [81.35043, 25.97944],
        [81.34958, 25.97987],
        [81.34841, 25.9805],
        [81.34723, 25.98107],
        [81.34599, 25.98164],
        [81.34532, 25.98196],
        [81.34457, 25.98232],
        [81.3441, 25.98255],
        [81.34295, 25.98321],
        [81.34275, 25.9833],
        [81.34237, 25.98349],
        [81.34193, 25.98373],
        [81.34135, 25.98401],
        [81.34059, 25.98439],
        [81.33963, 25.98486],
        [81.33848, 25.98532],
        [81.33714, 25.98587],
        [81.3358, 25.98631],
        [81.33464, 25.98666],
        [81.33454, 25.98669],
        [81.33349, 25.98702],
        [81.33278, 25.98723],
        [81.33188, 25.98755],
        [81.3317, 25.98763],
        [81.33138, 25.98778],
        [81.33053, 25.98817],
        [81.32944, 25.9887],
        [81.32771, 25.98979],
        [81.32598, 25.99093],
        [81.32543, 25.99133],
        [81.32383, 25.99251],
        [81.32228, 25.9937],
        [81.32006, 25.9955],
        [81.31985, 25.99567],
        [81.31914, 25.99625],
        [81.31742, 25.99764],
        [81.31559, 25.99917],
        [81.31514, 25.99953],
        [81.31428, 26.00031],
        [81.31382, 26.00085],
        [81.31357, 26.00123],
        [81.31338, 26.00152],
        [81.31312, 26.00222],
        [81.31313, 26.00285],
        [81.31299, 26.00529],
        [81.31267, 26.00779],
        [81.3123, 26.01197],
        [81.31206, 26.01354],
        [81.31174, 26.01519],
        [81.31157, 26.01589],
        [81.31149, 26.01645],
        [81.31116, 26.01786],
        [81.31082, 26.01879],
        [81.30988, 26.02066],
        [81.30906, 26.02308],
        [81.30884, 26.02374],
        [81.30865, 26.02434],
        [81.30853, 26.0247],
        [81.30848, 26.02497],
        [81.30834, 26.02561],
        [81.30836, 26.02616],
        [81.30843, 26.02699],
        [81.3085, 26.02759],
        [81.30867, 26.02811],
        [81.30905, 26.02882],
        [81.30965, 26.02963],
        [81.31029, 26.03026],
        [81.31082, 26.03071],
        [81.31178, 26.0315],
        [81.31231, 26.0318],
        [81.31294, 26.03202],
        [81.31378, 26.03225],
        [81.31468, 26.03253],
        [81.31824, 26.03292],
        [81.31913, 26.03297],
        [81.31954, 26.03299],
        [81.32064, 26.03305],
        [81.32246, 26.03307],
        [81.32318, 26.03306],
        [81.3237, 26.033],
        [81.32447, 26.03286],
        [81.32493, 26.03275],
        [81.32596, 26.03249],
        [81.32673, 26.03226],
        [81.3276, 26.03204],
        [81.32888, 26.03152],
        [81.32947, 26.0313],
        [81.33112, 26.0307],
        [81.33219, 26.03031],
        [81.33236, 26.03025],
        [81.33352, 26.02984],
        [81.33398, 26.02969],
        [81.33464, 26.0295],
        [81.33577, 26.02929],
        [81.33659, 26.02921],
        [81.3373, 26.02912],
        [81.33787, 26.02906],
        [81.33828, 26.02908],
        [81.33895, 26.02917],
        [81.33927, 26.02941],
        [81.33954, 26.02967],
        [81.33972, 26.02991],
        [81.33991, 26.0303],
        [81.34001, 26.03061],
        [81.34011, 26.03099],
        [81.34021, 26.0313],
        [81.34023, 26.03175],
        [81.34024, 26.03213],
        [81.34017, 26.0325],
        [81.33994, 26.03309],
        [81.3398, 26.03384],
        [81.33957, 26.03458],
        [81.33938, 26.03608],
        [81.33918, 26.03962],
        [81.33912, 26.04046],
        [81.33902, 26.04173],
        [81.33915, 26.04272],
        [81.33926, 26.04326],
        [81.33946, 26.04395],
        [81.33976, 26.04473],
        [81.33995, 26.04519],
        [81.34023, 26.04558],
        [81.34049, 26.04585],
        [81.34069, 26.04606],
        [81.34132, 26.04662],
        [81.34257, 26.04737],
        [81.3431, 26.04762],
        [81.34345, 26.04779],
        [81.34407, 26.04804],
        [81.34479, 26.04861],
        [81.34515, 26.04893],
        [81.34543, 26.04925],
        [81.34562, 26.04956],
        [81.34581, 26.04987],
        [81.34599, 26.05018],
        [81.34629, 26.05081],
        [81.34658, 26.0515],
        [81.34732, 26.05236],
        [81.34778, 26.05292],
        [81.34806, 26.05331],
        [81.34835, 26.05393],
        [81.34873, 26.05455],
        [81.34883, 26.05496],
        [81.34905, 26.05585],
        [81.34908, 26.05649],
        [81.34911, 26.05705],
        [81.34899, 26.05768],
        [81.34892, 26.05796],
        [81.34888, 26.05873],
        [81.34861, 26.05956],
        [81.34847, 26.05998],
        [81.34825, 26.06032],
        [81.34802, 26.06066],
        [81.34758, 26.06135],
        [81.34717, 26.06274],
        [81.34704, 26.0633],
        [81.34711, 26.06443],
        [81.34713, 26.06483],
        [81.34715, 26.06528],
        [81.34735, 26.06585],
        [81.34807, 26.06708],
        [81.34868, 26.06781],
        [81.34918, 26.06818],
        [81.34961, 26.06848],
        [81.35027, 26.06879],
        [81.35077, 26.06894],
        [81.35135, 26.06918],
        [81.35249, 26.06943],
        [81.35504, 26.07016],
        [81.35529, 26.07024],
        [81.3557, 26.0704],
        [81.35654, 26.07085],
        [81.35717, 26.07137],
        [81.35753, 26.07163],
        [81.35782, 26.072],
        [81.35813, 26.07248],
        [81.35829, 26.07274],
        [81.35836, 26.07285],
        [81.35859, 26.07316],
        [81.35867, 26.07346],
        [81.35898, 26.07401],
        [81.35917, 26.07479],
        [81.35924, 26.07575],
        [81.35919, 26.0761],
        [81.35908, 26.0764],
        [81.35896, 26.07675],
        [81.35884, 26.07699],
        [81.35865, 26.07722],
        [81.3584, 26.07751],
        [81.35827, 26.07769],
        [81.35795, 26.07797],
        [81.35762, 26.07826],
        [81.35716, 26.07861],
        [81.35664, 26.07901],
        [81.35619, 26.07953],
        [81.35568, 26.08008],
        [81.35542, 26.08035],
        [81.35497, 26.08087],
        [81.35466, 26.08128],
        [81.35387, 26.08192],
        [81.35276, 26.08285],
        [81.35172, 26.08384],
        [81.35127, 26.08436],
        [81.35113, 26.08451],
        [81.35075, 26.08489],
        [81.35068, 26.08502],
        [81.35038, 26.08548],
        [81.34995, 26.08625],
        [81.34977, 26.08673],
        [81.34951, 26.08805],
        [81.34946, 26.08835],
        [81.34929, 26.08883],
        [81.3491, 26.08912],
        [81.34892, 26.0896],
        [81.34889, 26.09014],
        [81.34894, 26.09081],
        [81.34913, 26.0916],
        [81.34937, 26.09215],
        [81.34962, 26.09269],
        [81.35016, 26.0939],
        [81.35042, 26.09442],
        [81.35062, 26.09473],
        [81.35083, 26.0952],
        [81.35093, 26.09543],
        [81.35135, 26.09599],
        [81.35152, 26.09621],
        [81.35197, 26.09638],
        [81.35243, 26.09654],
        [81.35314, 26.09663],
        [81.35404, 26.09681],
        [81.35485, 26.09698],
        [81.35557, 26.09715],
        [81.35629, 26.09724],
        [81.35683, 26.09741],
        [81.35729, 26.09757],
        [81.35775, 26.09781],
        [81.35812, 26.09805],
        [81.35868, 26.09845],
        [81.35952, 26.09908],
        [81.36045, 26.09963],
        [81.3619, 26.10055],
        [81.36239, 26.10095],
        [81.36303, 26.10148],
        [81.364, 26.10228],
        [81.36448, 26.10268],
        [81.36565, 26.10414],
        [81.36631, 26.1048],
        [81.36697, 26.10547],
        [81.3676, 26.10587],
        [81.36858, 26.10612],
        [81.36868, 26.10615],
        [81.37015, 26.10648],
        [81.37084, 26.10634],
        [81.37136, 26.10627],
        [81.3718, 26.10635],
        [81.37225, 26.10651],
        [81.37245, 26.10668],
        [81.37254, 26.10675],
        [81.37274, 26.10705],
        [81.37295, 26.10751],
        [81.37348, 26.1085],
        [81.37432, 26.11018],
        [81.37477, 26.11124],
        [81.37522, 26.11246],
        [81.37564, 26.11322],
        [81.37627, 26.11437],
        [81.37647, 26.11467],
        [81.3767, 26.11528],
        [81.37674, 26.11574],
        [81.37679, 26.11634],
        [81.37676, 26.11695],
        [81.37658, 26.11793],
        [81.37644, 26.11838],
        [81.37654, 26.1196],
        [81.37702, 26.12203],
        [81.37747, 26.12309],
        [81.3779, 26.12401],
        [81.37841, 26.12477],
        [81.3794, 26.12594],
        [81.37998, 26.12655],
        [81.38029, 26.12701],
        [81.38077, 26.12747],
        [81.38154, 26.12816],
        [81.38184, 26.12846],
        [81.38214, 26.12884],
        [81.38275, 26.12976],
        [81.38308, 26.13044],
        [81.38321, 26.1309],
        [81.38347, 26.13181],
        [81.38364, 26.13272],
        [81.38377, 26.13424],
        [81.38385, 26.13515],
        [81.38378, 26.13605],
        [81.38377, 26.13621],
        [81.38367, 26.13705],
        [81.38362, 26.13733],
        [81.38355, 26.13773],
        [81.38332, 26.13819],
        [81.3831, 26.13864],
        [81.3827, 26.13917],
        [81.38246, 26.14023],
        [81.38236, 26.1409],
        [81.3821, 26.14144],
        [81.38173, 26.14177],
        [81.38094, 26.14265],
        [81.38059, 26.14312],
        [81.3803, 26.14345],
        [81.38019, 26.1436],
        [81.38002, 26.14386],
        [81.37984, 26.14453],
        [81.37983, 26.14533],
        [81.37986, 26.14574],
        [81.37986, 26.14661],
        [81.37955, 26.14762],
        [81.37926, 26.14803],
        [81.37882, 26.14843],
        [81.37836, 26.14864],
        [81.3772, 26.14891],
        [81.37619, 26.14918],
        [81.37518, 26.14952],
        [81.37417, 26.1498],
        [81.37356, 26.15],
        [81.37263, 26.15034],
        [81.37171, 26.15082],
        [81.37134, 26.15116],
        [81.37113, 26.15149],
        [81.37104, 26.15174],
        [81.37087, 26.15217],
        [81.3709, 26.15265],
        [81.37107, 26.15373],
        [81.37155, 26.15582],
        [81.37156, 26.15632],
        [81.37159, 26.15731],
        [81.37149, 26.15806],
        [81.37128, 26.15847],
        [81.37091, 26.15881],
        [81.37053, 26.15908],
        [81.36998, 26.15929],
        [81.36922, 26.15977],
        [81.36893, 26.16011],
        [81.36886, 26.16031],
        [81.36882, 26.16079],
        [81.36886, 26.16093],
        [81.36893, 26.16113],
        [81.36904, 26.16153],
        [81.3693, 26.16187],
        [81.36956, 26.16214],
        [81.36997, 26.16227],
        [81.37045, 26.16227],
        [81.37149, 26.16226],
        [81.37197, 26.16226],
        [81.37246, 26.16232],
        [81.37286, 26.16238],
        [81.37327, 26.16251],
        [81.37378, 26.16285],
        [81.37488, 26.16354],
        [81.3754, 26.16408],
        [81.37583, 26.16442],
        [81.37645, 26.16516],
        [81.37674, 26.16576],
        [81.37679, 26.16637],
        [81.37683, 26.16698],
        [81.37666, 26.16889],
        [81.37671, 26.16943],
        [81.37672, 26.17059],
        [81.37685, 26.17126],
        [81.37724, 26.17214],
        [81.37786, 26.17281],
        [81.3788, 26.17354],
        [81.37994, 26.17373],
        [81.38006, 26.17371],
        [81.38034, 26.17366],
        [81.38137, 26.17351],
        [81.38224, 26.17329],
        [81.38296, 26.17321],
        [81.3837, 26.17341],
        [81.38397, 26.17374],
        [81.38399, 26.17401],
        [81.38394, 26.17435],
        [81.38397, 26.17476],
        [81.38394, 26.17537],
        [81.38367, 26.17598],
        [81.38341, 26.17673],
        [81.38299, 26.17762],
        [81.38268, 26.17871],
        [81.38249, 26.17939],
        [81.38222, 26.18008],
        [81.38197, 26.18079],
        [81.38189, 26.18103],
        [81.3814, 26.18196],
        [81.38128, 26.18251],
        [81.38125, 26.18319],
        [81.38128, 26.1836],
        [81.38132, 26.18414],
        [81.38136, 26.18468],
        [81.38139, 26.18516],
        [81.38144, 26.18577],
        [81.38138, 26.18611],
        [81.38133, 26.18652],
        [81.38127, 26.18686],
        [81.38108, 26.18755],
        [81.38103, 26.18796],
        [81.38106, 26.18844],
        [81.38128, 26.1904],
        [81.38124, 26.19102],
        [81.38118, 26.19136],
        [81.38104, 26.19171],
        [81.38082, 26.19212],
        [81.3804, 26.19315],
        [81.37951, 26.19443],
        [81.3792, 26.19471],
        [81.37868, 26.19547],
        [81.37823, 26.19617],
        [81.3778, 26.197],
        [81.3773, 26.19818],
        [81.37714, 26.19857],
        [81.37708, 26.19873],
        [81.37665, 26.1997],
        [81.37645, 26.20036],
        [81.37638, 26.2006],
        [81.37624, 26.20115],
        [81.37612, 26.20177],
        [81.37608, 26.2026],
        [81.37614, 26.20369],
        [81.37619, 26.20459],
        [81.3763, 26.2052],
        [81.37696, 26.2067],
        [81.37703, 26.20678],
        [81.37722, 26.20697],
        [81.37809, 26.20798],
        [81.37885, 26.20845],
        [81.37927, 26.20864],
        [81.38026, 26.20882],
        [81.38133, 26.20893],
        [81.38183, 26.20899],
        [81.38281, 26.20896],
        [81.38346, 26.20895],
        [81.38419, 26.20879],
        [81.38573, 26.20847],
        [81.38669, 26.20811],
        [81.38766, 26.20774],
        [81.38798, 26.20773],
        [81.38848, 26.20771],
        [81.38881, 26.20784],
        [81.38915, 26.20811],
        [81.38933, 26.20838],
        [81.38952, 26.20879],
        [81.3897, 26.20919],
        [81.38997, 26.2096],
        [81.39033, 26.2102],
        [81.3906, 26.21054],
        [81.39103, 26.21087],
        [81.39137, 26.21113],
        [81.39163, 26.2114],
        [81.39198, 26.21174],
        [81.39216, 26.212],
        [81.39234, 26.21241],
        [81.39244, 26.21275],
        [81.39246, 26.21316],
        [81.39248, 26.2135],
        [81.39241, 26.21378],
        [81.39226, 26.21399],
        [81.39125, 26.21514],
        [81.39264, 26.21503],
        [81.3933, 26.21501],
        [81.39429, 26.21512],
        [81.39457, 26.2152],
        [81.39496, 26.2153],
        [81.39522, 26.21543],
        [81.39691, 26.21621],
        [81.39801, 26.2168],
        [81.39961, 26.21737],
        [81.40062, 26.21775],
        [81.40103, 26.2178],
        [81.40162, 26.21785],
        [81.4022, 26.2179],
        [81.40326, 26.21767],
        [81.40415, 26.21737],
        [81.40472, 26.21714],
        [81.4056, 26.2167],
        [81.40641, 26.21626],
        [81.40737, 26.21568],
        [81.40888, 26.21468],
        [81.41023, 26.21368],
        [81.41094, 26.21311],
        [81.41141, 26.21275],
        [81.41197, 26.21239],
        [81.41277, 26.21203],
        [81.41326, 26.21187],
        [81.41391, 26.21165],
        [81.4148, 26.21141],
        [81.41546, 26.21139],
        [81.41646, 26.21143],
        [81.41704, 26.21155],
        [81.41747, 26.21167],
        [81.41789, 26.21187],
        [81.41858, 26.21225],
        [81.41868, 26.21231],
        [81.41935, 26.21264],
        [81.42071, 26.21314],
        [81.42335, 26.21372],
        [81.4244, 26.21407],
        [81.42561, 26.21455],
        [81.42696, 26.21476],
        [81.42775, 26.21486],
        [81.42902, 26.21501],
        [81.4303, 26.21523],
        [81.4319, 26.21556],
        [81.43407, 26.21608],
        [81.43422, 26.21612],
        [81.43496, 26.21648],
        [81.43576, 26.21665],
        [81.43656, 26.21675],
        [81.4379, 26.21676],
        [81.43932, 26.21671],
        [81.44003, 26.21662],
        [81.44081, 26.21646],
        [81.44151, 26.21624],
        [81.44197, 26.21603],
        [81.44237, 26.21579],
        [81.44265, 26.21562],
        [81.44287, 26.21536],
        [81.44301, 26.21509],
        [81.44314, 26.21477],
        [81.44327, 26.21438],
        [81.44325, 26.21412],
        [81.4432, 26.21348],
        [81.44317, 26.21316],
        [81.44292, 26.21189],
        [81.4427, 26.21113],
        [81.4424, 26.2094],
        [81.44233, 26.20857],
        [81.44236, 26.20805],
        [81.4424, 26.20754],
        [81.44244, 26.20715],
        [81.44239, 26.20658],
        [81.44235, 26.20607],
        [81.4423, 26.2055],
        [81.44206, 26.20461],
        [81.44193, 26.20404],
        [81.44187, 26.20369],
        [81.44176, 26.20309],
        [81.44164, 26.20258],
        [81.44151, 26.20201],
        [81.4414, 26.2017],
        [81.44134, 26.20112],
        [81.44121, 26.20056],
        [81.44113, 26.19967],
        [81.44104, 26.19878],
        [81.44099, 26.19827],
        [81.44112, 26.19725],
        [81.44142, 26.19641],
        [81.4416, 26.1959],
        [81.4418, 26.19558],
        [81.44238, 26.19512],
        [81.44259, 26.19492],
        [81.44288, 26.19479],
        [81.4434, 26.19452],
        [81.44385, 26.19438],
        [81.44493, 26.19428],
        [81.44577, 26.19419],
        [81.44786, 26.19437],
        [81.44851, 26.19442],
        [81.45006, 26.19473],
        [81.45193, 26.19494],
        [81.45439, 26.19556],
        [81.45709, 26.19636],
        [81.45821, 26.19667],
        [81.45899, 26.19682],
        [81.46034, 26.19722],
        [81.46172, 26.19779],
        [81.46301, 26.19853],
        [81.46384, 26.19903],
        [81.46534, 26.19968],
        [81.46617, 26.20018],
        [81.46676, 26.20051],
        [81.46819, 26.20145],
        [81.469, 26.20212],
        [81.46942, 26.20257],
        [81.46955, 26.20297],
        [81.46967, 26.20337],
        [81.46973, 26.20383],
        [81.46976, 26.20406],
        [81.46965, 26.20436],
        [81.46956, 26.20476],
        [81.46952, 26.20506],
        [81.46948, 26.20529],
        [81.46956, 26.20599],
        [81.46959, 26.20622],
        [81.46978, 26.20656],
        [81.4701, 26.20684],
        [81.47041, 26.20694],
        [81.47078, 26.20698],
        [81.47137, 26.20708],
        [81.47173, 26.20701],
        [81.47216, 26.20693],
        [81.47244, 26.20686],
        [81.47295, 26.20678],
        [81.47338, 26.20677],
        [81.47388, 26.20663],
        [81.4748, 26.20642],
        [81.47522, 26.20623],
        [81.47563, 26.20604],
        [81.47723, 26.20546],
        [81.47823, 26.20531],
        [81.47962, 26.20537],
        [81.48155, 26.20558],
        [81.48259, 26.20572],
        [81.48349, 26.20586],
        [81.4844, 26.20611],
        [81.48519, 26.20648],
        [81.48747, 26.2075],
        [81.48809, 26.2077],
        [81.4888, 26.20802],
        [81.48921, 26.20829],
        [81.48955, 26.20862],
        [81.48996, 26.20889],
        [81.49029, 26.20911],
        [81.49068, 26.20926],
        [81.49108, 26.20948],
        [81.49132, 26.20964],
        [81.49158, 26.20986],
        [81.49176, 26.21008],
        [81.49194, 26.2103],
        [81.49213, 26.21058],
        [81.49237, 26.21121],
        [81.49241, 26.21149],
        [81.49245, 26.21178],
        [81.49202, 26.21342],
        [81.49191, 26.21371],
        [81.49204, 26.21411],
        [81.49244, 26.21426],
        [81.49273, 26.21425],
        [81.49318, 26.21423],
        [81.49347, 26.21421],
        [81.49392, 26.21419],
        [81.49401, 26.2142],
        [81.49429, 26.21423],
        [81.49507, 26.21443],
        [81.49531, 26.21453],
        [81.49555, 26.2147],
        [81.49575, 26.21503],
        [81.49594, 26.21531],
        [81.49626, 26.21568],
        [81.49638, 26.21581],
        [81.49662, 26.21591],
        [81.497, 26.21595],
        [81.49788, 26.21585],
        [81.49824, 26.21572],
        [81.49874, 26.21552],
        [81.49906, 26.21522],
        [81.49959, 26.21473],
        [81.50011, 26.21425],
        [81.50057, 26.21388],
        [81.50111, 26.21352],
        [81.50159, 26.21326],
        [81.50237, 26.21306],
        [81.50299, 26.2128],
        [81.50386, 26.21264],
        [81.50595, 26.2125],
        [81.50865, 26.21237],
        [81.50993, 26.21216],
        [81.51097, 26.21162],
        [81.51126, 26.21129],
        [81.51133, 26.21104],
        [81.5114, 26.21078],
        [81.51136, 26.21058],
        [81.51126, 26.21013],
        [81.51103, 26.20968],
        [81.51086, 26.20923],
        [81.51064, 26.20853],
        [81.51056, 26.20788],
        [81.51062, 26.20757],
        [81.51067, 26.20722],
        [81.51069, 26.20646],
        [81.51099, 26.20579],
        [81.51135, 26.20543],
        [81.51163, 26.20521],
        [81.51192, 26.2051],
        [81.5124, 26.20493],
        [81.51295, 26.20481],
        [81.5135, 26.20469],
        [81.51401, 26.20468],
        [81.51451, 26.20466],
        [81.51521, 26.20463],
        [81.51621, 26.2045],
        [81.51718, 26.20431],
        [81.51785, 26.20419],
        [81.51799, 26.20416],
        [81.51833, 26.20407],
        [81.51909, 26.2038],
        [81.51959, 26.20353],
        [81.52003, 26.20327],
        [81.52075, 26.20284],
        [81.5212, 26.20244],
        [81.52165, 26.20209],
        [81.52205, 26.20178],
        [81.52249, 26.20159],
        [81.52291, 26.20158],
        [81.52361, 26.20156],
        [81.52404, 26.20159],
        [81.52428, 26.20166],
        [81.52459, 26.20183],
        [81.52488, 26.20207],
        [81.52519, 26.20241],
        [81.52604, 26.20314],
        [81.5266, 26.2036],
        [81.52781, 26.20445],
        [81.52853, 26.2049],
        [81.52943, 26.20521],
        [81.52991, 26.20536],
        [81.53096, 26.20546],
        [81.53162, 26.20552],
        [81.53225, 26.2055],
        [81.53303, 26.20544],
        [81.53397, 26.2052],
        [81.53514, 26.20471],
        [81.53592, 26.20456],
        [81.53693, 26.20445],
        [81.53767, 26.20435],
        [81.53847, 26.20429],
        [81.5394, 26.20414],
        [81.53982, 26.20405],
        [81.5401, 26.20396],
        [81.54063, 26.20387],
        [81.54103, 26.20386],
        [81.54133, 26.20385],
        [81.54161, 26.20393],
        [81.54181, 26.20405],
        [81.54195, 26.20418],
        [81.54201, 26.20434],
        [81.54198, 26.20455],
        [81.54194, 26.20488],
        [81.54189, 26.20518],
        [81.54206, 26.20538],
        [81.54236, 26.2055],
        [81.54284, 26.20541],
        [81.54341, 26.20515],
        [81.54417, 26.20488],
        [81.54496, 26.2047],
        [81.54573, 26.20461],
        [81.54732, 26.20458],
        [81.54897, 26.20477],
        [81.55044, 26.20504],
        [81.55094, 26.2052],
        [81.55144, 26.20536],
        [81.55174, 26.20552],
        [81.55221, 26.20572],
        [81.55254, 26.20596],
        [81.55273, 26.20621],
        [81.553, 26.20653],
        [81.55315, 26.20682],
        [81.55374, 26.20759],
        [81.55424, 26.20816],
        [81.55464, 26.20844],
        [81.5552, 26.20876],
        [81.55852, 26.21081],
        [81.56068, 26.21223],
        [81.56162, 26.21294],
        [81.56215, 26.21334],
        [81.56342, 26.2144],
        [81.5643, 26.21551],
        [81.56474, 26.21614],
        [81.56531, 26.21693],
        [81.56563, 26.2174],
        [81.56577, 26.21766],
        [81.56589, 26.21787],
        [81.56629, 26.2184],
        [81.56658, 26.21866],
        [81.56695, 26.21898],
        [81.56738, 26.2192],
        [81.5679, 26.21946],
        [81.56909, 26.21991],
        [81.56985, 26.22019],
        [81.57056, 26.22038],
        [81.57115, 26.22052],
        [81.57144, 26.22057],
        [81.57168, 26.2207],
        [81.57187, 26.22082],
        [81.57218, 26.22099],
        [81.57248, 26.22117],
        [81.57277, 26.22142],
        [81.5735, 26.22206],
        [81.57396, 26.22257],
        [81.5743, 26.22291],
        [81.57457, 26.2232],
        [81.57479, 26.22338],
        [81.57525, 26.22379],
        [81.57561, 26.22419],
        [81.576, 26.2247],
        [81.57658, 26.22569],
        [81.57684, 26.22619],
        [81.57704, 26.22652],
        [81.57745, 26.22759],
        [81.57778, 26.22855],
        [81.57822, 26.22994],
        [81.57844, 26.23044],
        [81.57872, 26.23096],
        [81.5789, 26.23126],
        [81.57102, 26.23332],
        [81.57468, 26.2363],
        [81.57619, 26.2375],
        [81.57685, 26.23791],
        [81.5777, 26.23824],
        [81.57819, 26.23856],
        [81.57861, 26.23905],
        [81.57876, 26.23977],
        [81.57848, 26.24017],
        [81.57797, 26.24028],
        [81.57767, 26.2404],
        [81.5778, 26.24085],
        [81.57793, 26.24138],
        [81.57819, 26.24213],
        [81.57827, 26.24236],
        [81.57846, 26.24279],
        [81.57863, 26.2432],
        [81.57882, 26.24359],
        [81.57893, 26.24384],
        [81.58031, 26.24324],
        [81.5896, 26.24214],
        [81.59096, 26.24099],
        [81.59082, 26.23996]
      ]
    ]
  }
}
