{
  "type": "Feature",
  "id": "UP-AC-186",
  "properties": {
    "stateName": "UTTAR PRADESH",
    "stateCode": "UP",
    "districtName": "AMETHI",
    "acNo": 186,
    "acName": "CHHIBRAMAU",
    "seatType": null,
    "pcNo": null,
    "pcName": null,
    "quality": "unverified",
    "sources": [
      "TBD"
    ]
  },
  "geometry": {
    "type": "Polygon",
    "coordinates": [
      [
        [81.84341, 26.2838],
        [81.84401, 26.28283],
        [81.84476, 26.28115],
        [81.84582, 26.27962],
        [81.84673, 26.27895],
        [81.84812, 26.27858],
        [81.85014, 26.27866],
        [81.85245, 26.27912],
        [81.85387, 26.2794],
        [81.85853, 26.28046],
        [81.86117, 26.28071],
        [81.86245, 26.28077],
        [81.86395, 26.28083],
        [81.86813, 26.28028],
        [81.86966, 26.27949],
        [81.87089, 26.27868],
        [81.87134, 26.2777],
        [81.87132, 26.2767],
        [81.87099, 26.27568],
        [81.8702, 26.27465],
        [81.86987, 26.27335],
        [81.86985, 26.27234],
        [81.87013, 26.27078],
        [81.87031, 26.27062],
        [81.87089, 26.2701],
        [81.8715, 26.26926],
        [81.87288, 26.26846],
        [81.87595, 26.26744],
        [81.8781, 26.26652],
        [81.87918, 26.26571],
        [81.88055, 26.26476],
        [81.88161, 26.26352],
        [81.88283, 26.26256],
        [81.88448, 26.26207],
        [81.88498, 26.26193],
        [81.88791, 26.26147],
        [81.88895, 26.26122],
        [81.89099, 26.26073],
        [81.89252, 26.25979],
        [81.8945, 26.25815],
        [81.8977, 26.25583],
        [81.89938, 26.25511],
        [81.89954, 26.25504],
        [81.90092, 26.25452],
        [81.90244, 26.25314],
        [81.90318, 26.25145],
        [81.90343, 26.24927],
        [81.90344, 26.24917],
        [81.90337, 26.24573],
        [81.90333, 26.24358],
        [81.9039, 26.24131],
        [81.90413, 26.24083],
        [81.90464, 26.23976],
        [81.90594, 26.23728],
        [81.90603, 26.23711],
        [81.90756, 26.23529],
        [81.9086, 26.23462],
        [81.91074, 26.23384],
        [81.91242, 26.23275],
        [81.9135, 26.23201],
        [81.9144, 26.23139],
        [81.91666, 26.22917],
        [81.91787, 26.22756],
        [81.91876, 26.22638],
        [81.9222, 26.22177],
        [81.92295, 26.22079],
        [81.92401, 26.21968],
        [81.92539, 26.2193],
        [81.92577, 26.21927],
        [81.92662, 26.21919],
        [81.92816, 26.21939],
        [81.93079, 26.21976],
        [81.9342, 26.22059],
        [81.93559, 26.22064],
        [81.93821, 26.22058],
        [81.94065, 26.21979],
        [81.94096, 26.21951],
        [81.94156, 26.21896],
        [81.942, 26.21811],
        [81.94272, 26.21584],
        [81.94388, 26.21314],
        [81.94461, 26.21144],
        [81.94611, 26.20991],
        [81.94739, 26.20955],
        [81.94795, 26.20939],
        [81.94918, 26.20929],
        [81.94953, 26.20946],
        [81.95012, 26.20975],
        [81.95137, 26.2105],
        [81.95325, 26.212],
        [81.95526, 26.21339],
        [81.95843, 26.2156],
        [81.96, 26.2168],
        [81.9614, 26.21742],
        [81.9628, 26.21775],
        [81.96465, 26.21781],
        [81.96617, 26.21728],
        [81.96798, 26.2156],
        [81.96823, 26.21522],
        [81.96946, 26.21334],
        [81.97022, 26.21054],
        [81.97143, 26.20605],
        [81.97172, 26.20362],
        [81.97193, 26.20188],
        [81.97195, 26.20177],
        [81.97217, 26.20044],
        [81.97246, 26.19873],
        [81.97301, 26.1963],
        [81.97389, 26.19488],
        [81.97494, 26.19375],
        [81.97719, 26.19179],
        [81.98221, 26.18797],
        [81.98383, 26.18672],
        [81.98397, 26.18662],
        [81.98602, 26.18527],
        [81.98736, 26.18371],
        [81.98932, 26.18217],
        [81.99067, 26.18133],
        [81.99142, 26.18102],
        [81.99265, 26.18051],
        [81.99509, 26.18012],
        [81.99647, 26.17987],
        [81.9983, 26.17947],
        [81.99881, 26.17915],
        [81.99966, 26.17863],
        [82.00313, 26.17681],
        [82.00525, 26.17584],
        [82.00768, 26.17487],
        [82.01056, 26.17391],
        [82.01246, 26.17326],
        [82.01299, 26.17308],
        [82.01512, 26.17283],
        [82.01787, 26.17273],
        [82.02014, 26.17247],
        [82.02107, 26.17236],
        [82.02288, 26.17166],
        [82.02391, 26.17051],
        [82.0241, 26.1701],
        [82.02463, 26.16892],
        [82.02473, 26.16731],
        [82.02399, 26.16335],
        [82.02359, 26.16042],
        [82.02337, 26.15837],
        [82.02363, 26.15676],
        [82.02406, 26.15589],
        [82.02526, 26.15532],
        [82.02582, 26.15522],
        [82.02814, 26.15477],
        [82.03359, 26.15412],
        [82.03679, 26.15391],
        [82.03722, 26.15388],
        [82.0407, 26.15364],
        [82.04188, 26.15336],
        [82.04355, 26.15295],
        [82.04445, 26.15267],
        [82.04775, 26.15018],
        [82.04921, 26.14873],
        [82.05079, 26.14654],
        [82.05165, 26.14508],
        [82.05221, 26.14375],
        [82.05231, 26.14317],
        [82.05246, 26.14228],
        [82.05315, 26.14022],
        [82.05512, 26.13596],
        [82.05581, 26.13404],
        [82.05608, 26.13271],
        [82.05544, 26.13181],
        [82.05453, 26.13135],
        [82.05256, 26.13088],
        [82.05245, 26.13079],
        [82.05181, 26.13024],
        [82.05132, 26.12982],
        [82.05068, 26.12878],
        [82.04955, 26.12639],
        [82.04746, 26.12123],
        [82.04696, 26.11998],
        [82.04663, 26.11909],
        [82.04597, 26.11731],
        [82.04562, 26.11543],
        [82.04582, 26.11465],
        [82.04587, 26.1145],
        [82.04589, 26.11439],
        [82.04647, 26.11306],
        [82.04704, 26.11187],
        [82.04804, 26.1095],
        [82.04861, 26.10787],
        [82.04886, 26.10593],
        [82.04896, 26.1056],
        [82.04943, 26.10385],
        [82.05046, 26.10206],
        [82.05239, 26.10012],
        [82.05294, 26.09978],
        [82.0548, 26.09862],
        [82.05675, 26.09756],
        [82.05918, 26.09681],
        [82.06341, 26.0959],
        [82.06643, 26.09499],
        [82.06725, 26.09463],
        [82.06883, 26.09394],
        [82.07166, 26.09214],
        [82.07284, 26.09125],
        [82.07343, 26.09065],
        [82.07386, 26.08991],
        [82.07397, 26.08936],
        [82.07425, 26.08798],
        [82.07389, 26.08636],
        [82.07321, 26.08553],
        [82.07232, 26.08446],
        [82.07122, 26.08315],
        [82.07027, 26.082],
        [82.06897, 26.07982],
        [82.06848, 26.079],
        [82.06717, 26.07674],
        [82.06586, 26.07452],
        [82.06507, 26.0737],
        [82.06463, 26.07332],
        [82.06413, 26.07289],
        [82.06201, 26.07251],
        [82.05929, 26.07199],
        [82.05716, 26.07161],
        [82.05632, 26.07121],
        [82.05482, 26.07051],
        [82.0547, 26.07045],
        [82.05375, 26.06946],
        [82.05352, 26.0692],
        [82.0528, 26.0684],
        [82.05198, 26.06677],
        [82.05157, 26.06487],
        [82.05175, 26.0628],
        [82.05206, 26.05566],
        [82.05202, 26.05569],
        [82.05187, 26.05582],
        [82.0517, 26.05593],
        [82.05152, 26.05602],
        [82.05114, 26.05614],
        [82.05094, 26.05624],
        [82.05075, 26.05635],
        [82.05056, 26.05646],
        [82.05038, 26.05658],
        [82.0502, 26.05671],
        [82.05003, 26.05684],
        [82.04986, 26.05698],
        [82.0497, 26.05713],
        [82.04945, 26.05742],
        [82.04922, 26.05766],
        [82.04893, 26.05784],
        [82.04861, 26.05794],
        [82.04828, 26.05797],
        [82.04785, 26.05812],
        [82.04742, 26.05828],
        [82.04698, 26.05844],
        [82.04655, 26.05859],
        [82.04612, 26.05874],
        [82.04568, 26.05888],
        [82.04524, 26.05903],
        [82.04481, 26.05917],
        [82.04437, 26.05931],
        [82.04388, 26.05955],
        [82.0434, 26.05979],
        [82.04291, 26.06003],
        [82.04243, 26.06028],
        [82.04194, 26.06052],
        [82.04146, 26.06078],
        [82.04098, 26.06103],
        [82.0405, 26.06128],
        [82.04002, 26.06153],
        [82.03961, 26.06184],
        [82.03918, 26.06213],
        [82.03874, 26.0624],
        [82.03829, 26.06266],
        [82.03784, 26.06289],
        [82.03737, 26.06311],
        [82.03689, 26.06331],
        [82.03641, 26.06348],
        [82.03592, 26.06364],
        [82.03509, 26.06382],
        [82.03426, 26.06398],
        [82.03344, 26.06413],
        [82.0326, 26.06428],
        [82.03177, 26.06441],
        [82.03094, 26.06453],
        [82.0301, 26.06464],
        [82.02926, 26.06474],
        [82.02842, 26.06483],
        [82.0281, 26.06483],
        [82.02777, 26.06481],
        [82.02745, 26.06478],
        [82.02713, 26.06474],
        [82.02681, 26.06467],
        [82.02649, 26.06459],
        [82.02618, 26.0645],
        [82.02587, 26.06439],
        [82.02557, 26.06427],
        [82.02535, 26.06419],
        [82.02512, 26.06414],
        [82.02489, 26.06411],
        [82.02466, 26.06411],
        [82.02442, 26.06413],
        [82.0242, 26.06419],
        [82.02398, 26.06427],
        [82.02377, 26.06437],
        [82.02357, 26.0645],
        [82.02286, 26.06475],
        [82.02216, 26.06501],
        [82.02145, 26.06527],
        [82.02075, 26.06553],
        [82.02004, 26.0658],
        [82.01934, 26.06607],
        [82.01864, 26.06635],
        [82.01795, 26.06663],
        [82.01716, 26.06699],
        [82.01696, 26.06708],
        [82.01674, 26.06711],
        [82.01652, 26.06707],
        [82.01632, 26.06697],
        [82.01614, 26.06683],
        [82.01593, 26.0667],
        [82.01572, 26.06661],
        [82.01537, 26.06653],
        [82.01475, 26.06662],
        [82.01412, 26.0667],
        [82.01349, 26.06678],
        [82.01286, 26.06686],
        [82.01223, 26.06694],
        [82.0116, 26.06702],
        [82.01097, 26.06709],
        [82.01034, 26.06716],
        [82.00971, 26.06723],
        [82.00945, 26.0673],
        [82.00917, 26.06735],
        [82.0089, 26.06739],
        [82.00862, 26.0674],
        [82.00835, 26.0674],
        [82.00807, 26.06739],
        [82.0078, 26.06736],
        [82.00753, 26.06731],
        [82.00726, 26.06725],
        [82.00701, 26.06717],
        [82.00677, 26.06709],
        [82.00652, 26.06702],
        [82.00627, 26.06696],
        [82.00602, 26.06691],
        [82.00576, 26.06686],
        [82.00551, 26.06683],
        [82.00525, 26.0668],
        [82.00482, 26.06681],
        [82.00446, 26.06686],
        [82.0041, 26.06687],
        [82.00374, 26.06684],
        [82.00338, 26.06678],
        [82.00308, 26.06665],
        [82.00276, 26.06654],
        [82.00244, 26.06647],
        [82.00211, 26.06643],
        [82.00178, 26.06642],
        [82.00145, 26.06645],
        [82.00113, 26.0665],
        [82.00081, 26.06659],
        [82.00036, 26.06675],
        [82.00006, 26.06679],
        [81.99976, 26.06677],
        [81.99947, 26.06669],
        [81.9992, 26.06655],
        [81.99833, 26.06565],
        [81.99738, 26.06362],
        [81.9964, 26.06325],
        [81.99463, 26.06296],
        [81.99396, 26.06306],
        [81.99298, 26.06357],
        [81.99235, 26.06354],
        [81.99169, 26.06333],
        [81.99132, 26.06286],
        [81.99084, 26.06286],
        [81.98915, 26.06301],
        [81.98847, 26.0618],
        [81.98751, 26.06067],
        [81.98558, 26.06183],
        [81.98204, 26.06373],
        [81.98273, 26.06488],
        [81.98334, 26.06612],
        [81.98341, 26.06799],
        [81.98252, 26.06884],
        [81.98072, 26.07032],
        [81.98022, 26.07108],
        [81.9803, 26.07198],
        [81.98088, 26.07227],
        [81.9822, 26.07214],
        [81.98262, 26.07216],
        [81.9826, 26.07335],
        [81.98182, 26.07451],
        [81.97998, 26.07578],
        [81.97625, 26.0775],
        [81.9753, 26.07781],
        [81.97475, 26.0776],
        [81.97424, 26.07723],
        [81.97382, 26.07644],
        [81.97353, 26.0762],
        [81.97211, 26.07665],
        [81.96877, 26.0781],
        [81.96621, 26.07884],
        [81.96549, 26.07882],
        [81.9647, 26.0785],
        [81.96264, 26.07731],
        [81.96021, 26.07549],
        [81.95989, 26.07473],
        [81.95915, 26.07438],
        [81.95863, 26.07409],
        [81.95847, 26.07337],
        [81.95929, 26.07208],
        [81.95966, 26.07202],
        [81.96043, 26.07252],
        [81.96069, 26.07245],
        [81.96212, 26.07147],
        [81.96254, 26.07107],
        [81.96228, 26.07012],
        [81.96161, 26.06901],
        [81.9614, 26.06812],
        [81.9618, 26.06754],
        [81.96247, 26.06698],
        [81.96179, 26.06632],
        [81.96036, 26.06693],
        [81.95916, 26.06744],
        [81.95702, 26.06847],
        [81.95412, 26.06971],
        [81.9514, 26.07055],
        [81.949, 26.07172],
        [81.94626, 26.07265],
        [81.94541, 26.07245],
        [81.94548, 26.073],
        [81.94471, 26.07362],
        [81.94428, 26.07364],
        [81.94291, 26.07408],
        [81.93997, 26.07568],
        [81.9385, 26.07465],
        [81.93769, 26.07535],
        [81.9368, 26.07527],
        [81.9366, 26.07487],
        [81.93669, 26.07436],
        [81.9376, 26.07358],
        [81.93844, 26.07248],
        [81.93829, 26.07189],
        [81.93697, 26.07059],
        [81.9361, 26.06991],
        [81.93413, 26.06787],
        [81.93378, 26.06725],
        [81.93386, 26.06697],
        [81.93542, 26.06616],
        [81.93582, 26.06576],
        [81.93575, 26.0655],
        [81.93525, 26.06546],
        [81.93466, 26.06567],
        [81.93442, 26.06572],
        [81.93418, 26.06567],
        [81.93397, 26.06553],
        [81.93375, 26.06531],
        [81.93366, 26.06514],
        [81.93362, 26.06495],
        [81.93364, 26.06477],
        [81.9337, 26.06456],
        [81.93381, 26.06436],
        [81.93398, 26.06422],
        [81.93432, 26.06416],
        [81.93452, 26.0642],
        [81.93487, 26.06406],
        [81.93497, 26.0639],
        [81.935, 26.06371],
        [81.93492, 26.06347],
        [81.93476, 26.06328],
        [81.93454, 26.06315],
        [81.93417, 26.06314],
        [81.93389, 26.06304],
        [81.93361, 26.06295],
        [81.93332, 26.06289],
        [81.93303, 26.06284],
        [81.93273, 26.06279],
        [81.93243, 26.06269],
        [81.93215, 26.06255],
        [81.93188, 26.06238],
        [81.93163, 26.06218],
        [81.93141, 26.06193],
        [81.93138, 26.06159],
        [81.93158, 26.06139],
        [81.93175, 26.06127],
        [81.93192, 26.06115],
        [81.93208, 26.06102],
        [81.93225, 26.06089],
        [81.93241, 26.06077],
        [81.93257, 26.06063],
        [81.93273, 26.0605],
        [81.93288, 26.06036],
        [81.93298, 26.0602],
        [81.93296, 26.06001],
        [81.93285, 26.05985],
        [81.93257, 26.0598],
        [81.93234, 26.05982],
        [81.93211, 26.05978],
        [81.9319, 26.05968],
        [81.93172, 26.05954],
        [81.93161, 26.05933],
        [81.93155, 26.05909],
        [81.93153, 26.05885],
        [81.93155, 26.05861],
        [81.93159, 26.05837],
        [81.93171, 26.05809],
        [81.93193, 26.05788],
        [81.93236, 26.05779],
        [81.93264, 26.05789],
        [81.93288, 26.05788],
        [81.93312, 26.05789],
        [81.93336, 26.05792],
        [81.9336, 26.05795],
        [81.93383, 26.058],
        [81.93407, 26.05805],
        [81.9343, 26.05812],
        [81.93452, 26.0582],
        [81.93493, 26.05835],
        [81.93521, 26.05825],
        [81.93532, 26.05809],
        [81.93533, 26.05789],
        [81.93537, 26.05754],
        [81.93577, 26.05743],
        [81.93601, 26.05715],
        [81.93602, 26.05688],
        [81.93598, 26.05655],
        [81.93606, 26.05623],
        [81.93613, 26.0559],
        [81.93619, 26.05557],
        [81.93625, 26.05524],
        [81.93617, 26.05501],
        [81.93599, 26.05484],
        [81.93562, 26.05479],
        [81.9354, 26.05491],
        [81.93512, 26.05498],
        [81.93483, 26.05491],
        [81.93469, 26.05461],
        [81.93449, 26.05431],
        [81.93419, 26.05409],
        [81.93401, 26.05387],
        [81.93396, 26.05369],
        [81.93395, 26.05349],
        [81.93403, 26.05315],
        [81.93391, 26.05283],
        [81.93366, 26.05271],
        [81.93347, 26.05265],
        [81.93308, 26.05256],
        [81.93268, 26.05247],
        [81.93249, 26.05242],
        [81.93209, 26.05233],
        [81.93189, 26.05227],
        [81.9317, 26.05221],
        [81.9315, 26.05215],
        [81.9313, 26.05209],
        [81.9311, 26.05204],
        [81.93089, 26.05199],
        [81.93069, 26.05194],
        [81.93049, 26.05189],
        [81.93029, 26.05185],
        [81.92998, 26.05188],
        [81.92979, 26.05197],
        [81.92965, 26.05212],
        [81.92955, 26.05231],
        [81.9296, 26.05257],
        [81.92963, 26.05283],
        [81.92966, 26.0531],
        [81.92968, 26.05337],
        [81.92972, 26.05356],
        [81.92975, 26.05386],
        [81.92955, 26.05407],
        [81.92935, 26.05415],
        [81.92914, 26.05422],
        [81.92894, 26.05429],
        [81.92873, 26.05435],
        [81.92852, 26.0544],
        [81.9283, 26.05445],
        [81.92809, 26.05449],
        [81.92788, 26.05452],
        [81.92752, 26.05458],
        [81.92724, 26.0546],
        [81.92697, 26.05456],
        [81.9267, 26.05448],
        [81.92645, 26.05436],
        [81.92625, 26.0543],
        [81.92594, 26.05432],
        [81.92575, 26.0544],
        [81.92559, 26.05453],
        [81.9254, 26.0547],
        [81.92519, 26.05482],
        [81.92495, 26.0549],
        [81.9247, 26.05491],
        [81.92437, 26.05494],
        [81.92416, 26.05502],
        [81.92398, 26.05513],
        [81.92381, 26.05528],
        [81.92347, 26.05536],
        [81.92311, 26.05534],
        [81.92281, 26.05538],
        [81.92256, 26.05548],
        [81.92229, 26.05554],
        [81.92203, 26.05558],
        [81.92176, 26.05559],
        [81.92157, 26.0555],
        [81.92138, 26.05544],
        [81.92118, 26.05539],
        [81.92079, 26.05541],
        [81.92041, 26.05549],
        [81.92005, 26.05536],
        [81.91982, 26.05531],
        [81.9196, 26.0553],
        [81.91937, 26.05532],
        [81.91915, 26.05536],
        [81.91893, 26.05542],
        [81.91871, 26.05546],
        [81.91848, 26.05549],
        [81.91825, 26.0555],
        [81.91803, 26.05549],
        [81.91782, 26.05546],
        [81.9175, 26.05547],
        [81.91729, 26.05553],
        [81.9171, 26.05563],
        [81.91678, 26.0557],
        [81.91646, 26.05576],
        [81.91613, 26.05579],
        [81.9158, 26.05579],
        [81.91544, 26.05589],
        [81.91523, 26.05597],
        [81.91502, 26.05604],
        [81.9148, 26.05608],
        [81.91458, 26.0561],
        [81.91436, 26.05611],
        [81.91414, 26.05609],
        [81.91392, 26.05605],
        [81.91371, 26.05599],
        [81.91316, 26.05602],
        [81.9128, 26.05605],
        [81.91244, 26.05607],
        [81.91208, 26.05609],
        [81.9121, 26.05631],
        [81.91211, 26.05652],
        [81.91211, 26.05673],
        [81.9121, 26.05694],
        [81.91208, 26.05716],
        [81.91204, 26.05737],
        [81.912, 26.05758],
        [81.91194, 26.05779],
        [81.91189, 26.05812],
        [81.91186, 26.05837],
        [81.91175, 26.05861],
        [81.91158, 26.0588],
        [81.91137, 26.05894],
        [81.91126, 26.05922],
        [81.91106, 26.05945],
        [81.9108, 26.05959],
        [81.9105, 26.05963],
        [81.91011, 26.05984],
        [81.90986, 26.06005],
        [81.9096, 26.06026],
        [81.90934, 26.06045],
        [81.90917, 26.06063],
        [81.90903, 26.06097],
        [81.90891, 26.06132],
        [81.90895, 26.06183],
        [81.90897, 26.06233],
        [81.90899, 26.06284],
        [81.909, 26.06334],
        [81.909, 26.06385],
        [81.90899, 26.06436],
        [81.90897, 26.06486],
        [81.90895, 26.06537],
        [81.90892, 26.066],
        [81.90891, 26.06626],
        [81.90883, 26.06651],
        [81.90871, 26.06674],
        [81.90854, 26.06694],
        [81.90833, 26.06708],
        [81.90812, 26.06721],
        [81.90791, 26.06734],
        [81.90768, 26.06745],
        [81.90745, 26.06756],
        [81.90722, 26.06765],
        [81.90699, 26.06773],
        [81.90675, 26.06781],
        [81.90639, 26.06794],
        [81.90612, 26.068],
        [81.90586, 26.06792],
        [81.90566, 26.06773],
        [81.90557, 26.06747],
        [81.90539, 26.06736],
        [81.90508, 26.06735],
        [81.90489, 26.06745],
        [81.90475, 26.0676],
        [81.90456, 26.06776],
        [81.90437, 26.06791],
        [81.90418, 26.06805],
        [81.90398, 26.0682],
        [81.90379, 26.06834],
        [81.90359, 26.06848],
        [81.90339, 26.06862],
        [81.90319, 26.06875],
        [81.90294, 26.06892],
        [81.90272, 26.06899],
        [81.90251, 26.06888],
        [81.9024, 26.06869],
        [81.90228, 26.0685],
        [81.90217, 26.0683],
        [81.90205, 26.06811],
        [81.90193, 26.06792],
        [81.90182, 26.06772],
        [81.9017, 26.06753],
        [81.90158, 26.06734],
        [81.90146, 26.06715],
        [81.9011, 26.0671],
        [81.90056, 26.06714],
        [81.90022, 26.06725],
        [81.89989, 26.06742],
        [81.89966, 26.06753],
        [81.89943, 26.06764],
        [81.89919, 26.06773],
        [81.89894, 26.06782],
        [81.8987, 26.06788],
        [81.89845, 26.06794],
        [81.89819, 26.06798],
        [81.89794, 26.06801],
        [81.89768, 26.06803],
        [81.8973, 26.06811],
        [81.89725, 26.06843],
        [81.89737, 26.06866],
        [81.89749, 26.0689],
        [81.89762, 26.06913],
        [81.89776, 26.06936],
        [81.8979, 26.06958],
        [81.89805, 26.0698],
        [81.89821, 26.07002],
        [81.89837, 26.07023],
        [81.89852, 26.07057],
        [81.89841, 26.07083],
        [81.89821, 26.07101],
        [81.89795, 26.07109],
        [81.89751, 26.07111],
        [81.8972, 26.07128],
        [81.89694, 26.07154],
        [81.89676, 26.07185],
        [81.89667, 26.0722],
        [81.89647, 26.07256],
        [81.89627, 26.07292],
        [81.89606, 26.07327],
        [81.89584, 26.07362],
        [81.89561, 26.07396],
        [81.89537, 26.0743],
        [81.89513, 26.07463],
        [81.89487, 26.07495],
        [81.89461, 26.07527],
        [81.89434, 26.07534],
        [81.89408, 26.07543],
        [81.89381, 26.07552],
        [81.89355, 26.07561],
        [81.8933, 26.07571],
        [81.89304, 26.07582],
        [81.89279, 26.07593],
        [81.89254, 26.07605],
        [81.89229, 26.07617],
        [81.89181, 26.07648],
        [81.89133, 26.0768],
        [81.89086, 26.07712],
        [81.89039, 26.07745],
        [81.88993, 26.07779],
        [81.88947, 26.07813],
        [81.88902, 26.07848],
        [81.88857, 26.07884],
        [81.88813, 26.07921],
        [81.88779, 26.07944],
        [81.88746, 26.07967],
        [81.88712, 26.0799],
        [81.88679, 26.08014],
        [81.88647, 26.08038],
        [81.88615, 26.08063],
        [81.88583, 26.08088],
        [81.88551, 26.08113],
        [81.8852, 26.08139],
        [81.88487, 26.0816],
        [81.88449, 26.08166],
        [81.88411, 26.08156],
        [81.88381, 26.08132],
        [81.88371, 26.08115],
        [81.8834, 26.08097],
        [81.88311, 26.08077],
        [81.88282, 26.08056],
        [81.88255, 26.08033],
        [81.8823, 26.08008],
        [81.88205, 26.07982],
        [81.88183, 26.07954],
        [81.88162, 26.07926],
        [81.88143, 26.07896],
        [81.88124, 26.07883],
        [81.88106, 26.0787],
        [81.88088, 26.07857],
        [81.8807, 26.07844],
        [81.88052, 26.0783],
        [81.88035, 26.07816],
        [81.88017, 26.07802],
        [81.88, 26.07788],
        [81.87983, 26.07773],
        [81.87966, 26.07744],
        [81.87947, 26.07715],
        [81.87925, 26.07689],
        [81.87902, 26.07664],
        [81.87878, 26.0764],
        [81.87851, 26.07619],
        [81.87824, 26.07599],
        [81.87795, 26.07581],
        [81.87764, 26.07565],
        [81.87732, 26.07551],
        [81.87699, 26.07539],
        [81.87665, 26.07529],
        [81.8763, 26.07522],
        [81.87595, 26.07517],
        [81.8756, 26.07515],
        [81.87525, 26.07516],
        [81.87489, 26.07519],
        [81.87454, 26.07525],
        [81.87428, 26.07532],
        [81.874, 26.07539],
        [81.87373, 26.07545],
        [81.87346, 26.07551],
        [81.87318, 26.07556],
        [81.8729, 26.0756],
        [81.87262, 26.07563],
        [81.87235, 26.07566],
        [81.87207, 26.07567],
        [81.87188, 26.07551],
        [81.87169, 26.07535],
        [81.87149, 26.07519],
        [81.87129, 26.07504],
        [81.87109, 26.07489],
        [81.87088, 26.07475],
        [81.87066, 26.07462],
        [81.87045, 26.07449],
        [81.87023, 26.07437],
        [81.86996, 26.07419],
        [81.8697, 26.07401],
        [81.86943, 26.07384],
        [81.86917, 26.07366],
        [81.8689, 26.07349],
        [81.86863, 26.07331],
        [81.86837, 26.07314],
        [81.8681, 26.07297],
        [81.86783, 26.0728],
        [81.86771, 26.07254],
        [81.8676, 26.07227],
        [81.8675, 26.072],
        [81.86741, 26.07173],
        [81.86733, 26.07146],
        [81.86726, 26.07118],
        [81.8672, 26.0709],
        [81.86715, 26.07062],
        [81.86711, 26.07033],
        [81.86707, 26.07007],
        [81.86705, 26.06981],
        [81.86707, 26.06954],
        [81.86711, 26.06928],
        [81.86719, 26.06902],
        [81.86729, 26.06878],
        [81.86742, 26.06854],
        [81.86757, 26.06832],
        [81.86775, 26.06812],
        [81.86788, 26.06797],
        [81.86801, 26.06783],
        [81.86816, 26.06769],
        [81.8683, 26.06756],
        [81.86845, 26.06743],
        [81.86861, 26.0673],
        [81.86877, 26.06719],
        [81.86894, 26.06708],
        [81.86911, 26.06698],
        [81.86929, 26.06672],
        [81.86947, 26.06645],
        [81.86964, 26.06618],
        [81.86981, 26.0659],
        [81.86996, 26.06562],
        [81.87011, 26.06533],
        [81.87024, 26.06504],
        [81.87037, 26.06475],
        [81.8705, 26.06445],
        [81.87054, 26.06413],
        [81.87057, 26.0638],
        [81.8706, 26.06347],
        [81.87062, 26.06315],
        [81.87063, 26.06282],
        [81.87063, 26.06249],
        [81.87062, 26.06216],
        [81.8706, 26.06183],
        [81.87057, 26.06151],
        [81.87061, 26.06115],
        [81.87052, 26.06081],
        [81.87032, 26.06052],
        [81.87002, 26.06032],
        [81.86957, 26.06009],
        [81.86929, 26.0599],
        [81.86902, 26.0597],
        [81.86876, 26.05949],
        [81.86851, 26.05927],
        [81.86827, 26.05903],
        [81.86805, 26.05879],
        [81.86783, 26.05853],
        [81.86763, 26.05826],
        [81.86728, 26.0578],
        [81.86692, 26.05735],
        [81.86656, 26.0569],
        [81.86619, 26.05646],
        [81.86582, 26.05602],
        [81.86544, 26.05558],
        [81.86506, 26.05515],
        [81.86467, 26.05473],
        [81.86428, 26.0543],
        [81.86405, 26.05417],
        [81.86383, 26.05401],
        [81.86363, 26.05384],
        [81.86344, 26.05366],
        [81.86326, 26.05347],
        [81.86309, 26.05326],
        [81.86294, 26.05304],
        [81.8628, 26.05281],
        [81.86268, 26.05258],
        [81.86239, 26.05195],
        [81.86208, 26.05133],
        [81.86176, 26.05072],
        [81.86144, 26.05011],
        [81.8611, 26.04951],
        [81.86075, 26.04891],
        [81.86039, 26.04833],
        [81.86002, 26.04774],
        [81.85964, 26.04717],
        [81.85941, 26.04701],
        [81.85917, 26.04687],
        [81.85893, 26.04674],
        [81.85868, 26.04661],
        [81.85843, 26.0465],
        [81.85817, 26.0464],
        [81.85791, 26.04631],
        [81.85764, 26.04623],
        [81.85737, 26.04616],
        [81.85711, 26.0461],
        [81.85684, 26.04605],
        [81.85657, 26.046],
        [81.8563, 26.04596],
        [81.85603, 26.04593],
        [81.85576, 26.0459],
        [81.85549, 26.04588],
        [81.85522, 26.04586],
        [81.85494, 26.04585],
        [81.8546, 26.04583],
        [81.85426, 26.0458],
        [81.85391, 26.04577],
        [81.85357, 26.04574],
        [81.85323, 26.04571],
        [81.85289, 26.04567],
        [81.85255, 26.04563],
        [81.8522, 26.04558],
        [81.85186, 26.04553],
        [81.85162, 26.04551],
        [81.85138, 26.04548],
        [81.85114, 26.04544],
        [81.85091, 26.04538],
        [81.85067, 26.04532],
        [81.85044, 26.04525],
        [81.85021, 26.04516],
        [81.84999, 26.04507],
        [81.84977, 26.04497],
        [81.8495, 26.04485],
        [81.84924, 26.04474],
        [81.84897, 26.04462],
        [81.8487, 26.04451],
        [81.84844, 26.0444],
        [81.84817, 26.04429],
        [81.8479, 26.04418],
        [81.84763, 26.04407],
        [81.84736, 26.04396],
        [81.84717, 26.0439],
        [81.84697, 26.04383],
        [81.84669, 26.04372],
        [81.8465, 26.04365],
        [81.84628, 26.04345],
        [81.84611, 26.0432],
        [81.846, 26.04292],
        [81.84595, 26.04263],
        [81.84575, 26.04222],
        [81.84552, 26.04198],
        [81.84529, 26.04175],
        [81.84504, 26.04153],
        [81.84478, 26.04132],
        [81.84451, 26.04113],
        [81.84423, 26.04096],
        [81.84394, 26.0408],
        [81.84364, 26.04066],
        [81.84325, 26.04056],
        [81.84285, 26.04051],
        [81.84245, 26.04051],
        [81.84205, 26.04055],
        [81.84175, 26.04062],
        [81.8416, 26.04049],
        [81.84162, 26.04029],
        [81.84153, 26.04012],
        [81.84111, 26.0401],
        [81.84087, 26.04014],
        [81.84063, 26.04018],
        [81.84039, 26.04021],
        [81.84015, 26.04023],
        [81.8399, 26.04025],
        [81.83966, 26.04026],
        [81.83941, 26.04026],
        [81.83917, 26.04026],
        [81.83882, 26.04013],
        [81.83846, 26.04003],
        [81.83809, 26.03996],
        [81.83754, 26.0399],
        [81.83733, 26.03997],
        [81.83713, 26.04005],
        [81.83694, 26.04013],
        [81.83674, 26.04022],
        [81.83654, 26.04031],
        [81.83635, 26.04041],
        [81.83617, 26.04051],
        [81.83598, 26.04062],
        [81.8358, 26.04073],
        [81.83554, 26.04101],
        [81.83523, 26.04121],
        [81.83487, 26.04133],
        [81.8345, 26.04136],
        [81.83414, 26.04131],
        [81.83383, 26.04118],
        [81.83355, 26.04098],
        [81.83333, 26.04073],
        [81.83318, 26.04042],
        [81.83308, 26.04009],
        [81.83294, 26.03976],
        [81.83278, 26.03945],
        [81.83259, 26.03915],
        [81.83238, 26.03888],
        [81.83214, 26.03862],
        [81.83188, 26.03838],
        [81.8316, 26.03817],
        [81.83131, 26.03798],
        [81.83096, 26.03784],
        [81.8306, 26.03772],
        [81.83024, 26.03762],
        [81.82987, 26.03753],
        [81.8295, 26.03746],
        [81.82913, 26.0374],
        [81.82876, 26.03736],
        [81.82838, 26.03733],
        [81.828, 26.03732],
        [81.8276, 26.0373],
        [81.8272, 26.03733],
        [81.8268, 26.03742],
        [81.82661, 26.03749],
        [81.82643, 26.03758],
        [81.82625, 26.03767],
        [81.82607, 26.03778],
        [81.82589, 26.03787],
        [81.8257, 26.03795],
        [81.8255, 26.03802],
        [81.82523, 26.03807],
        [81.82489, 26.03809],
        [81.82455, 26.03807],
        [81.82421, 26.03801],
        [81.82389, 26.03791],
        [81.82349, 26.03791],
        [81.82309, 26.03793],
        [81.8227, 26.03799],
        [81.82231, 26.03808],
        [81.82186, 26.03826],
        [81.82176, 26.03844],
        [81.82175, 26.03863],
        [81.82183, 26.03881],
        [81.81949, 26.04058],
        [81.8188, 26.04066],
        [81.81854, 26.04071],
        [81.8183, 26.04081],
        [81.81808, 26.04095],
        [81.81788, 26.04113],
        [81.8175, 26.0414],
        [81.81713, 26.04169],
        [81.81676, 26.04198],
        [81.8164, 26.04227],
        [81.81604, 26.04258],
        [81.81569, 26.04289],
        [81.81534, 26.0432],
        [81.815, 26.04353],
        [81.81458, 26.04394],
        [81.81439, 26.0441],
        [81.81417, 26.04421],
        [81.81395, 26.0443],
        [81.8137, 26.04434],
        [81.81341, 26.04415],
        [81.81291, 26.04409],
        [81.81258, 26.0442],
        [81.8123, 26.04441],
        [81.812, 26.0445],
        [81.81169, 26.04459],
        [81.81138, 26.04467],
        [81.81107, 26.04475],
        [81.81076, 26.04482],
        [81.81045, 26.04489],
        [81.81014, 26.04495],
        [81.80982, 26.04501],
        [81.8095, 26.04506],
        [81.8092, 26.04512],
        [81.8089, 26.04519],
        [81.8086, 26.04529],
        [81.80831, 26.0454],
        [81.80803, 26.04553],
        [81.80776, 26.04568],
        [81.80749, 26.04584],
        [81.80724, 26.04602],
        [81.80686, 26.04629],
        [81.80658, 26.04641],
        [81.80628, 26.04649],
        [81.80597, 26.04652],
        [81.80566, 26.0465],
        [81.80537, 26.0466],
        [81.80508, 26.0467],
        [81.80479, 26.04678],
        [81.80449, 26.04686],
        [81.80419, 26.04693],
        [81.80389, 26.04699],
        [81.80358, 26.04704],
        [81.80328, 26.04708],
        [81.80297, 26.04711],
        [81.80278, 26.04703],
        [81.80261, 26.04692],
        [81.80245, 26.04679],
        [81.80231, 26.04663],
        [81.80219, 26.04646],
        [81.80209, 26.04628],
        [81.80203, 26.04608],
        [81.80198, 26.04588],
        [81.80197, 26.04567],
        [81.8018, 26.0455],
        [81.80159, 26.04538],
        [81.80136, 26.04534],
        [81.80112, 26.04537],
        [81.80081, 26.04541],
        [81.80044, 26.04528],
        [81.80029, 26.04515],
        [81.80017, 26.045],
        [81.80009, 26.04482],
        [81.80005, 26.04463],
        [81.80005, 26.04443],
        [81.80011, 26.04424],
        [81.80018, 26.04376],
        [81.80025, 26.04328],
        [81.80032, 26.0428],
        [81.80039, 26.04232],
        [81.80046, 26.04184],
        [81.80052, 26.04136],
        [81.80059, 26.04088],
        [81.80065, 26.0404],
        [81.80071, 26.03992],
        [81.80074, 26.03973],
        [81.80078, 26.03954],
        [81.8008, 26.03935],
        [81.80082, 26.03915],
        [81.80083, 26.03896],
        [81.80084, 26.03876],
        [81.80084, 26.03857],
        [81.80083, 26.03837],
        [81.80081, 26.03818],
        [81.80074, 26.03786],
        [81.80066, 26.03753],
        [81.80058, 26.03721],
        [81.8005, 26.03689],
        [81.80041, 26.03657],
        [81.80032, 26.03625],
        [81.80022, 26.03594],
        [81.80012, 26.03562],
        [81.80002, 26.0353],
        [81.79989, 26.03509],
        [81.79979, 26.03487],
        [81.79972, 26.03463],
        [81.79969, 26.03439],
        [81.79969, 26.03414],
        [81.79972, 26.0339],
        [81.79979, 26.03367],
        [81.79989, 26.03344],
        [81.80002, 26.03323],
        [81.80003, 26.03303],
        [81.79999, 26.03282],
        [81.7999, 26.03264],
        [81.79975, 26.03249],
        [81.79927, 26.03217],
        [81.79889, 26.03189],
        [81.79852, 26.0316],
        [81.79815, 26.03129],
        [81.7978, 26.03098],
        [81.79745, 26.03065],
        [81.79712, 26.0303],
        [81.7968, 26.02995],
        [81.7965, 26.02959],
        [81.7963, 26.02934],
        [81.79611, 26.02908],
        [81.79592, 26.02882],
        [81.79573, 26.02855],
        [81.79556, 26.02828],
        [81.79538, 26.02801],
        [81.79521, 26.02774],
        [81.79504, 26.02746],
        [81.79488, 26.02719],
        [81.79468, 26.02708],
        [81.79447, 26.027],
        [81.79426, 26.02693],
        [81.79403, 26.02688],
        [81.79381, 26.02686],
        [81.79359, 26.02685],
        [81.79336, 26.02686],
        [81.79314, 26.02689],
        [81.79292, 26.02695],
        [81.79266, 26.02703],
        [81.7924, 26.02712],
        [81.79213, 26.0272],
        [81.79187, 26.02729],
        [81.79161, 26.02737],
        [81.79135, 26.02745],
        [81.79108, 26.02753],
        [81.79082, 26.02761],
        [81.79055, 26.02768],
        [81.79024, 26.02787],
        [81.78991, 26.02804],
        [81.78958, 26.0282],
        [81.78923, 26.02833],
        [81.78889, 26.02845],
        [81.78853, 26.02856],
        [81.78817, 26.02864],
        [81.78781, 26.0287],
        [81.7873, 26.02876],
        [81.78702, 26.02874],
        [81.78673, 26.02858],
        [81.78654, 26.02836],
        [81.78631, 26.02819],
        [81.78605, 26.02806],
        [81.78577, 26.02799],
        [81.78554, 26.02789],
        [81.78529, 26.02784],
        [81.78492, 26.02786],
        [81.78467, 26.02794],
        [81.78419, 26.02825],
        [81.78371, 26.02856],
        [81.78322, 26.02887],
        [81.78273, 26.02918],
        [81.78224, 26.02948],
        [81.78175, 26.02978],
        [81.78126, 26.03008],
        [81.78076, 26.03037],
        [81.78027, 26.03067],
        [81.77977, 26.03101],
        [81.77927, 26.03135],
        [81.77876, 26.03167],
        [81.77825, 26.03199],
        [81.77773, 26.0323],
        [81.77721, 26.03259],
        [81.77668, 26.03288],
        [81.77615, 26.03316],
        [81.77552, 26.03347],
        [81.77525, 26.03373],
        [81.77516, 26.0339],
        [81.77513, 26.03409],
        [81.77503, 26.03441],
        [81.77515, 26.0348],
        [81.77525, 26.03518],
        [81.77535, 26.03557],
        [81.77543, 26.03597],
        [81.7755, 26.03636],
        [81.77556, 26.03676],
        [81.77562, 26.03715],
        [81.77565, 26.03755],
        [81.77567, 26.038],
        [81.77544, 26.0382],
        [81.77523, 26.0382],
        [81.77491, 26.03822],
        [81.77458, 26.03824],
        [81.77426, 26.03827],
        [81.77394, 26.03832],
        [81.77352, 26.03859],
        [81.7731, 26.03886],
        [81.77269, 26.03914],
        [81.77228, 26.03943],
        [81.77188, 26.03972],
        [81.77148, 26.04002],
        [81.77109, 26.04032],
        [81.7707, 26.04063],
        [81.77026, 26.04101],
        [81.77014, 26.04131],
        [81.77015, 26.04163],
        [81.77036, 26.04196],
        [81.77058, 26.04229],
        [81.77081, 26.04261],
        [81.77103, 26.04293],
        [81.77126, 26.04325],
        [81.7715, 26.04356],
        [81.77174, 26.04387],
        [81.77199, 26.04418],
        [81.77231, 26.04461],
        [81.7724, 26.04488],
        [81.77242, 26.04517],
        [81.77237, 26.04545],
        [81.77226, 26.04572],
        [81.77217, 26.04594],
        [81.77208, 26.04617],
        [81.772, 26.04639],
        [81.77193, 26.04662],
        [81.77186, 26.04686],
        [81.7718, 26.04709],
        [81.77174, 26.04732],
        [81.77169, 26.04756],
        [81.77165, 26.0478],
        [81.77139, 26.04798],
        [81.77111, 26.04813],
        [81.77082, 26.04824],
        [81.77051, 26.04831],
        [81.77022, 26.04837],
        [81.77003, 26.04861],
        [81.77005, 26.04891],
        [81.77009, 26.04925],
        [81.77011, 26.04958],
        [81.76962, 26.04988],
        [81.76913, 26.05018],
        [81.76864, 26.05047],
        [81.76814, 26.05075],
        [81.76764, 26.05103],
        [81.76714, 26.0513],
        [81.76663, 26.05157],
        [81.76612, 26.05183],
        [81.76561, 26.05208],
        [81.76578, 26.05246],
        [81.76595, 26.05284],
        [81.76611, 26.05323],
        [81.76626, 26.05361],
        [81.76641, 26.054],
        [81.76655, 26.05439],
        [81.76659, 26.05451],
        [81.76668, 26.05479],
        [81.76681, 26.05518],
        [81.76701, 26.05576],
        [81.76743, 26.05582],
        [81.76768, 26.05601],
        [81.76806, 26.05646],
        [81.76842, 26.05692],
        [81.76876, 26.0574],
        [81.76909, 26.05789],
        [81.7694, 26.05839],
        [81.76968, 26.0589],
        [81.76995, 26.05942],
        [81.7702, 26.05995],
        [81.77043, 26.0605],
        [81.77059, 26.06078],
        [81.77073, 26.06108],
        [81.77083, 26.06139],
        [81.77091, 26.0617],
        [81.77096, 26.06202],
        [81.77098, 26.06235],
        [81.77097, 26.06267],
        [81.77093, 26.063],
        [81.77086, 26.06332],
        [81.77077, 26.06354],
        [81.77067, 26.06375],
        [81.77055, 26.06395],
        [81.77042, 26.06415],
        [81.77028, 26.06433],
        [81.77012, 26.06451],
        [81.76995, 26.06467],
        [81.76977, 26.06482],
        [81.76949, 26.06503],
        [81.76935, 26.0652],
        [81.76925, 26.06539],
        [81.76919, 26.0656],
        [81.76918, 26.06582],
        [81.76919, 26.06618],
        [81.76921, 26.06654],
        [81.76926, 26.06689],
        [81.76932, 26.06725],
        [81.76935, 26.06746],
        [81.76918, 26.06771],
        [81.7688, 26.06776],
        [81.76843, 26.06782],
        [81.76805, 26.06789],
        [81.76768, 26.06797],
        [81.76731, 26.06806],
        [81.76694, 26.06815],
        [81.76657, 26.06825],
        [81.7662, 26.06835],
        [81.76584, 26.06847],
        [81.76554, 26.06855],
        [81.76524, 26.06864],
        [81.76494, 26.06874],
        [81.76465, 26.06885],
        [81.76436, 26.06897],
        [81.76407, 26.06909],
        [81.76379, 26.06922],
        [81.76351, 26.06936],
        [81.76323, 26.06951],
        [81.76301, 26.06953],
        [81.76278, 26.06955],
        [81.76256, 26.06959],
        [81.76234, 26.06962],
        [81.76211, 26.06966],
        [81.76189, 26.0697],
        [81.76167, 26.06975],
        [81.76145, 26.06981],
        [81.76123, 26.06986],
        [81.76101, 26.06989],
        [81.76078, 26.06993],
        [81.76056, 26.06998],
        [81.76034, 26.07005],
        [81.76012, 26.07012],
        [81.75991, 26.0702],
        [81.7597, 26.07029],
        [81.7595, 26.0704],
        [81.7593, 26.07051],
        [81.75909, 26.07063],
        [81.75889, 26.07075],
        [81.75868, 26.07088],
        [81.75848, 26.07101],
        [81.75828, 26.07114],
        [81.75807, 26.07127],
        [81.75787, 26.07141],
        [81.75768, 26.07155],
        [81.75748, 26.07169],
        [81.75712, 26.07216],
        [81.75677, 26.07265],
        [81.75644, 26.07315],
        [81.75613, 26.07366],
        [81.75583, 26.07417],
        [81.75555, 26.0747],
        [81.75528, 26.07524],
        [81.75503, 26.07578],
        [81.7548, 26.07633],
        [81.75473, 26.07658],
        [81.75463, 26.07683],
        [81.7545, 26.07705],
        [81.75435, 26.07727],
        [81.75413, 26.07742],
        [81.75387, 26.07754],
        [81.75362, 26.07768],
        [81.75338, 26.07783],
        [81.75315, 26.07801],
        [81.7499, 26.07972],
        [81.74827, 26.0801],
        [81.74779, 26.08022],
        [81.74719, 26.08054],
        [81.74611, 26.08108],
        [81.74462, 26.08162],
        [81.74367, 26.08243],
        [81.74333, 26.08345],
        [81.74347, 26.08405],
        [81.74374, 26.08488],
        [81.74123, 26.08535],
        [81.73927, 26.0863],
        [81.7346, 26.08779],
        [81.73297, 26.08867],
        [81.73189, 26.08981],
        [81.73033, 26.0913],
        [81.72844, 26.09184],
        [81.72661, 26.09225],
        [81.72688, 26.0932],
        [81.72729, 26.09374],
        [81.72647, 26.09367],
        [81.72519, 26.09367],
        [81.72451, 26.09374],
        [81.7237, 26.09279],
        [81.72167, 26.09151],
        [81.71922, 26.08933],
        [81.71549, 26.08492],
        [81.7138, 26.08289],
        [81.714, 26.08241],
        [81.71414, 26.0818],
        [81.71461, 26.08126],
        [81.71542, 26.0812],
        [81.71583, 26.08093],
        [81.71569, 26.08066],
        [81.7157, 26.08045],
        [81.71549, 26.08025],
        [81.71542, 26.08005],
        [81.71542, 26.07978],
        [81.7161, 26.07971],
        [81.7163, 26.07957],
        [81.71664, 26.0795],
        [81.71685, 26.07923],
        [81.71685, 26.07876],
        [81.71691, 26.07808],
        [81.71705, 26.07754],
        [81.71745, 26.07653],
        [81.71786, 26.07639],
        [81.71806, 26.07592],
        [81.71813, 26.07545],
        [81.71813, 26.0747],
        [81.71793, 26.07443],
        [81.71786, 26.07374],
        [81.718, 26.07347],
        [81.71799, 26.07299],
        [81.71779, 26.07238],
        [81.71779, 26.07218],
        [81.71786, 26.07198],
        [81.71786, 26.0715],
        [81.71766, 26.0711],
        [81.71745, 26.07076],
        [81.71732, 26.07042],
        [81.71739, 26.06954],
        [81.71759, 26.0686],
        [81.71779, 26.06778],
        [81.71813, 26.06711],
        [81.71813, 26.0669],
        [81.71766, 26.06711],
        [81.71752, 26.06691],
        [81.71739, 26.06657],
        [81.71725, 26.06636],
        [81.71691, 26.06636],
        [81.71664, 26.06582],
        [81.71637, 26.06576],
        [81.7161, 26.06576],
        [81.71571, 26.06562],
        [81.71382, 26.06684],
        [81.70969, 26.06887],
        [81.70664, 26.07029],
        [81.70474, 26.07056],
        [81.704, 26.06995],
        [81.70312, 26.06751],
        [81.70012, 26.068],
        [81.69863, 26.06874],
        [81.69633, 26.07023],
        [81.69268, 26.07192],
        [81.69078, 26.07307],
        [81.6895, 26.07395],
        [81.68875, 26.07537],
        [81.68773, 26.07578],
        [81.68692, 26.07605],
        [81.68658, 26.07652],
        [81.68658, 26.07895],
        [81.68597, 26.08013],
        [81.68374, 26.0831],
        [81.68266, 26.08514],
        [81.68252, 26.08671],
        [81.68313, 26.09002],
        [81.68421, 26.09259],
        [81.68516, 26.09476],
        [81.68421, 26.09537],
        [81.68225, 26.09611],
        [81.68151, 26.09679],
        [81.67941, 26.09733],
        [81.67792, 26.09767],
        [81.67764, 26.09802],
        [81.67845, 26.09944],
        [81.67865, 26.10052],
        [81.67879, 26.10127],
        [81.68001, 26.10446],
        [81.68272, 26.10798],
        [81.68306, 26.109],
        [81.68326, 26.11116],
        [81.68301, 26.11319],
        [81.68282, 26.11379],
        [81.68521, 26.11207],
        [81.68627, 26.11185],
        [81.68751, 26.112],
        [81.68829, 26.11262],
        [81.68905, 26.11365],
        [81.68927, 26.11414],
        [81.6899, 26.11598],
        [81.69004, 26.11952],
        [81.6902, 26.12215],
        [81.69066, 26.124],
        [81.69109, 26.12502],
        [81.69113, 26.12602],
        [81.6906, 26.12698],
        [81.6897, 26.12826],
        [81.68826, 26.13001],
        [81.6881, 26.13101],
        [81.68831, 26.13169],
        [81.68889, 26.13206],
        [81.68966, 26.13211],
        [81.6902, 26.13214],
        [81.69132, 26.13171],
        [81.69425, 26.12886],
        [81.69685, 26.12734],
        [81.69909, 26.12664],
        [81.70286, 26.12634],
        [81.70513, 26.12613],
        [81.70739, 26.12591],
        [81.70926, 26.12551],
        [81.71113, 26.12477],
        [81.7134, 26.12336],
        [81.71471, 26.1226],
        [81.71749, 26.12175],
        [81.72081, 26.12119],
        [81.72125, 26.12112],
        [81.7222, 26.12133],
        [81.72296, 26.12167],
        [81.72391, 26.12209],
        [81.72467, 26.12297],
        [81.72658, 26.12559],
        [81.72716, 26.12725],
        [81.72815, 26.13006],
        [81.72951, 26.13368],
        [81.73009, 26.13523],
        [81.73001, 26.1358],
        [81.72992, 26.13641],
        [81.72955, 26.13724],
        [81.729, 26.13788],
        [81.72826, 26.13852],
        [81.72398, 26.14136],
        [81.72345, 26.14249],
        [81.72346, 26.14385],
        [81.72404, 26.14456],
        [81.72536, 26.14531],
        [81.72875, 26.14703],
        [81.72903, 26.1473],
        [81.72932, 26.14757],
        [81.72943, 26.14788],
        [81.72936, 26.14834],
        [81.72893, 26.14878],
        [81.7285, 26.14915],
        [81.72851, 26.14974],
        [81.72873, 26.15008],
        [81.72939, 26.15045],
        [81.73048, 26.15064],
        [81.732, 26.15073],
        [81.73324, 26.15106],
        [81.73426, 26.15138],
        [81.73492, 26.15227],
        [81.73544, 26.15322],
        [81.7356, 26.15436],
        [81.73597, 26.15517],
        [81.73648, 26.15559],
        [81.73713, 26.15563],
        [81.73757, 26.15559],
        [81.73865, 26.15518],
        [81.74053, 26.15456],
        [81.74153, 26.15436],
        [81.74306, 26.1547],
        [81.7435, 26.15519],
        [81.74344, 26.15591],
        [81.74315, 26.15649],
        [81.74223, 26.1575],
        [81.74116, 26.15869],
        [81.73865, 26.16073],
        [81.73729, 26.16172],
        [81.73485, 26.1631],
        [81.7322, 26.16501],
        [81.7312, 26.166],
        [81.7307, 26.16651],
        [81.73027, 26.16761],
        [81.73043, 26.16866],
        [81.73103, 26.16982],
        [81.7316, 26.17044],
        [81.73213, 26.17101],
        [81.73344, 26.17171],
        [81.73353, 26.17173],
        [81.73533, 26.17252],
        [81.737, 26.17315],
        [81.73802, 26.17387],
        [81.73869, 26.1747],
        [81.73929, 26.1764],
        [81.74041, 26.17925],
        [81.74115, 26.18062],
        [81.74137, 26.18097],
        [81.74181, 26.18139],
        [81.74246, 26.18169],
        [81.74377, 26.18196],
        [81.74492, 26.1819],
        [81.74687, 26.18167],
        [81.74939, 26.18114],
        [81.75062, 26.18114],
        [81.75163, 26.1812],
        [81.75221, 26.18096],
        [81.75293, 26.18073],
        [81.75422, 26.1798],
        [81.7553, 26.1792],
        [81.75574, 26.17909],
        [81.7576, 26.17865],
        [81.75918, 26.1782],
        [81.7599, 26.17764],
        [81.7604, 26.17727],
        [81.76077, 26.17729],
        [81.76126, 26.17732],
        [81.76206, 26.17796],
        [81.76316, 26.17914],
        [81.76418, 26.18046],
        [81.76434, 26.18113],
        [81.76426, 26.18159],
        [81.7642, 26.18192],
        [81.76378, 26.1829],
        [81.76365, 26.18368],
        [81.76366, 26.18475],
        [81.76382, 26.18589],
        [81.7639, 26.18709],
        [81.76386, 26.188],
        [81.76384, 26.18835],
        [81.76342, 26.18952],
        [81.7624, 26.19088],
        [81.76193, 26.19151],
        [81.76151, 26.19261],
        [81.76178, 26.19341],
        [81.76228, 26.19384],
        [81.76294, 26.19414],
        [81.7636, 26.19437],
        [81.76468, 26.19476],
        [81.76569, 26.19541],
        [81.76635, 26.19637],
        [81.76774, 26.19804],
        [81.76832, 26.19861],
        [81.76898, 26.19897],
        [81.76985, 26.19908],
        [81.77093, 26.1988],
        [81.77143, 26.19836],
        [81.77215, 26.1984],
        [81.77266, 26.19883],
        [81.7728, 26.19898],
        [81.77302, 26.19924],
        [81.77362, 26.2004],
        [81.77385, 26.20181],
        [81.77373, 26.2038],
        [81.77374, 26.20454],
        [81.77389, 26.20503],
        [81.77404, 26.20548],
        [81.77433, 26.20603],
        [81.77491, 26.20646],
        [81.776, 26.20691],
        [81.78049, 26.20827],
        [81.78202, 26.20908],
        [81.78266, 26.20949],
        [81.78303, 26.20973],
        [81.7842, 26.21104],
        [81.78482, 26.21168],
        [81.78515, 26.21202],
        [81.78552, 26.21237],
        [81.78639, 26.21301],
        [81.7874, 26.21333],
        [81.78907, 26.21341],
        [81.79267, 26.21298],
        [81.79439, 26.21307],
        [81.79512, 26.2131],
        [81.79558, 26.2132],
        [81.79664, 26.21344],
        [81.79744, 26.21388],
        [81.79861, 26.21493],
        [81.79956, 26.21591],
        [81.80012, 26.21677],
        [81.80059, 26.21749],
        [81.80118, 26.21865],
        [81.80156, 26.21987],
        [81.80157, 26.22025],
        [81.80157, 26.2208],
        [81.80124, 26.22286],
        [81.80093, 26.22396],
        [81.80072, 26.22474],
        [81.80044, 26.22566],
        [81.80053, 26.2268],
        [81.80076, 26.22768],
        [81.80077, 26.22881],
        [81.80057, 26.2294],
        [81.79999, 26.22997],
        [81.8, 26.23051],
        [81.80015, 26.23105],
        [81.80052, 26.2314],
        [81.8019, 26.23213],
        [81.80583, 26.23379],
        [81.81113, 26.23603],
        [81.81208, 26.23681],
        [81.81281, 26.23798],
        [81.81297, 26.23892],
        [81.81299, 26.24013],
        [81.81279, 26.24098],
        [81.81236, 26.2415],
        [81.81165, 26.24227],
        [81.80957, 26.24344],
        [81.80591, 26.24554],
        [81.80463, 26.24674],
        [81.80385, 26.24798],
        [81.80373, 26.2491],
        [81.80396, 26.25029],
        [81.80462, 26.2512],
        [81.80564, 26.25192],
        [81.80717, 26.25238],
        [81.80905, 26.25254],
        [81.81054, 26.25261],
        [81.81129, 26.25265],
        [81.81295, 26.25273],
        [81.8144, 26.25292],
        [81.81491, 26.25328],
        [81.8155, 26.25371],
        [81.8161, 26.25487],
        [81.81641, 26.25662],
        [81.81736, 26.26208],
        [81.81797, 26.26412],
        [81.81805, 26.26437],
        [81.81857, 26.26601],
        [81.81918, 26.26791],
        [81.81927, 26.26979],
        [81.819, 26.27125],
        [81.81838, 26.27282],
        [81.81745, 26.27365],
        [81.8163, 26.27451],
        [81.81421, 26.27549],
        [81.81212, 26.27599],
        [81.8106, 26.27639],
        [81.80917, 26.27706],
        [81.80884, 26.27734],
        [81.80795, 26.27813],
        [81.80703, 26.27956],
        [81.80647, 26.28094],
        [81.80634, 26.28241],
        [81.80658, 26.28382],
        [81.80717, 26.28499],
        [81.80813, 26.28624],
        [81.80891, 26.28671],
        [81.80908, 26.28681],
        [81.81018, 26.28733],
        [81.81199, 26.28769],
        [81.8134, 26.28768],
        [81.81438, 26.28767],
        [81.81698, 26.28699],
        [81.81979, 26.28578],
        [81.82354, 26.28455],
        [81.82607, 26.28412],
        [81.82947, 26.28381],
        [81.8315, 26.2839],
        [81.83286, 26.28412],
        [81.83433, 26.28436],
        [81.83656, 26.28513],
        [81.83703, 26.28529],
        [81.839, 26.28598],
        [81.84017, 26.28677],
        [81.8428, 26.28449],
        [81.84341, 26.2838]
      ]
    ]
  }
}
