{
  "type": "Feature",
  "id": "UP-AC-198",
  "properties": {
    "stateName": "UTTAR PRADESH",
    "stateCode": "UP",
    "districtName": "KANNAUJ",
    "acNo": 198,
    "acName": "KALYANPUR",
    "seatType": null,
    "pcNo": null,
    "pcName": null,
    "quality": "unverified",
    "sources": [
      "TBD"
    ]
  },
  "geometry": {
    "type": "Polygon",
    "coordinates": [
      [
        [79.76442, 27.19642],
        [79.76591, 27.19569],
        [79.76693, 27.1954],
        [79.76824, 27.19451],
        [79.77013, 27.19336],
        [79.77226, 27.19198],
        [79.77353, 27.19121],
        [79.77455, 27.19092],
        [79.77541, 27.19062],
        [79.77745, 27.18967],
        [79.77947, 27.18851],
        [79.78198, 27.18731],
        [79.78373, 27.186],
        [79.786, 27.18475],
        [79.78765, 27.18385],
        [79.78871, 27.18349],
        [79.78987, 27.18276],
        [79.79513, 27.17857],
        [79.79597, 27.17785],
        [79.79765, 27.1761],
        [79.79842, 27.17552],
        [79.79957, 27.17436],
        [79.80102, 27.17305],
        [79.80272, 27.1719],
        [79.80442, 27.17103],
        [79.8054, 27.17069],
        [79.80657, 27.17078],
        [79.8073, 27.17094],
        [79.80825, 27.17128],
        [79.80952, 27.17242],
        [79.81045, 27.17309],
        [79.81151, 27.17346],
        [79.81315, 27.1735],
        [79.81431, 27.17343],
        [79.81532, 27.17262],
        [79.81739, 27.17083],
        [79.82006, 27.16911],
        [79.82094, 27.16834],
        [79.82269, 27.16775],
        [79.82461, 27.16755],
        [79.82685, 27.16789],
        [79.82958, 27.16893],
        [79.83293, 27.17078],
        [79.83563, 27.17223],
        [79.83705, 27.17024],
        [79.83876, 27.16791],
        [79.84034, 27.16657],
        [79.84313, 27.1656],
        [79.84562, 27.16445],
        [79.84771, 27.16345],
        [79.84841, 27.16304],
        [79.85018, 27.16189],
        [79.85199, 27.16103],
        [79.85365, 27.16084],
        [79.85675, 27.16121],
        [79.85831, 27.16143],
        [79.85889, 27.1615],
        [79.8582, 27.16012],
        [79.85716, 27.15826],
        [79.85483, 27.15394],
        [79.8539, 27.15231],
        [79.8532, 27.1514],
        [79.85299, 27.1507],
        [79.85537, 27.14984],
        [79.85889, 27.149],
        [79.8599, 27.14882],
        [79.86301, 27.14796],
        [79.86584, 27.14737],
        [79.86786, 27.1469],
        [79.86904, 27.1466],
        [79.87146, 27.14592],
        [79.87307, 27.14603],
        [79.87498, 27.14681],
        [79.87761, 27.14782],
        [79.88128, 27.14912],
        [79.88232, 27.14936],
        [79.88581, 27.14934],
        [79.88889, 27.14939],
        [79.89288, 27.14923],
        [79.89385, 27.14898],
        [79.89488, 27.1488],
        [79.89598, 27.14823],
        [79.89825, 27.14633],
        [79.90051, 27.14423],
        [79.90181, 27.14332],
        [79.90482, 27.14044],
        [79.90668, 27.13861],
        [79.90814, 27.13691],
        [79.90963, 27.1351],
        [79.90978, 27.1349],
        [79.91013, 27.1349],
        [79.91029, 27.13505],
        [79.91153, 27.13616],
        [79.91624, 27.1397],
        [79.92441, 27.14597],
        [79.92461, 27.14608],
        [79.92934, 27.14289],
        [79.93007, 27.14348],
        [79.93256, 27.14028],
        [79.93372, 27.13886],
        [79.93773, 27.13374],
        [79.94175, 27.12856],
        [79.94333, 27.12665],
        [79.94317, 27.12597],
        [79.94369, 27.12534],
        [79.9443, 27.12385],
        [79.94448, 27.12323],
        [79.94469, 27.12251],
        [79.94481, 27.12149],
        [79.94598, 27.11927],
        [79.94651, 27.11966],
        [79.94675, 27.11975],
        [79.947, 27.1197],
        [79.94761, 27.11868],
        [79.94752, 27.11843],
        [79.94728, 27.11812],
        [79.94721, 27.11789],
        [79.94831, 27.11667],
        [79.94859, 27.11633],
        [79.94945, 27.11597],
        [79.95036, 27.11581],
        [79.95053, 27.11549],
        [79.95124, 27.11411],
        [79.9513, 27.11325],
        [79.95106, 27.11203],
        [79.94983, 27.10981],
        [79.94922, 27.10888],
        [79.94908, 27.10845],
        [79.94897, 27.10786],
        [79.9489, 27.10722],
        [79.94902, 27.10614],
        [79.94786, 27.10634],
        [79.94577, 27.10621],
        [79.94444, 27.10596],
        [79.94262, 27.10537],
        [79.94163, 27.10487],
        [79.94098, 27.10449],
        [79.94059, 27.10356],
        [79.94043, 27.10263],
        [79.94066, 27.1005],
        [79.94089, 27.09991],
        [79.94108, 27.09925],
        [79.94145, 27.09905],
        [79.94327, 27.09914],
        [79.94565, 27.09939],
        [79.94827, 27.09984],
        [79.94864, 27.09985],
        [79.94945, 27.09928],
        [79.95067, 27.09772],
        [79.95172, 27.09586],
        [79.95006, 27.09507],
        [79.94902, 27.09443],
        [79.94754, 27.09308],
        [79.94696, 27.09237],
        [79.94668, 27.09133],
        [79.94657, 27.0906],
        [79.94635, 27.09038],
        [79.94496, 27.09015],
        [79.94285, 27.09006],
        [79.94054, 27.08981],
        [79.94147, 27.08925],
        [79.94115, 27.08832],
        [79.94093, 27.08739],
        [79.94108, 27.0866],
        [79.94183, 27.0854],
        [79.9432, 27.08422],
        [79.94451, 27.083],
        [79.94725, 27.0813],
        [79.94809, 27.08089],
        [79.94915, 27.08021],
        [79.94986, 27.08039],
        [79.95042, 27.08021],
        [79.95188, 27.07928],
        [79.95436, 27.0779],
        [79.956, 27.07718],
        [79.95681, 27.07661],
        [79.95695, 27.0762],
        [79.95729, 27.07605],
        [79.95797, 27.07591],
        [79.95847, 27.07598],
        [79.95912, 27.07652],
        [79.95951, 27.07679],
        [79.96005, 27.07657],
        [79.96006, 27.07575],
        [79.96001, 27.07482],
        [79.9601, 27.07435],
        [79.96092, 27.07351],
        [79.96393, 27.07197],
        [79.96509, 27.071],
        [79.96561, 27.07036],
        [79.96568, 27.06948],
        [79.96563, 27.06828],
        [79.96636, 27.06658],
        [79.96738, 27.06472],
        [79.96776, 27.06411],
        [79.96874, 27.06353],
        [79.96978, 27.06226],
        [79.97009, 27.06178],
        [79.97334, 27.06248],
        [79.97422, 27.06269],
        [79.97626, 27.06316],
        [79.97726, 27.06321],
        [79.97932, 27.06407],
        [79.98075, 27.06459],
        [79.9829, 27.06463],
        [79.98408, 27.06466],
        [79.98485, 27.06461],
        [79.98585, 27.06438],
        [79.98718, 27.06468],
        [79.98855, 27.06472],
        [79.99052, 27.06346],
        [79.99186, 27.06239],
        [79.99254, 27.06133],
        [79.99346, 27.05879],
        [79.99441, 27.05669],
        [79.99518, 27.05508],
        [79.99562, 27.05456],
        [79.99684, 27.05607],
        [79.99766, 27.05698],
        [79.99639, 27.05485],
        [79.99348, 27.05098],
        [79.99174, 27.0486],
        [79.99002, 27.04607],
        [79.98871, 27.04423],
        [79.98666, 27.0409],
        [79.98437, 27.03735],
        [79.98485, 27.03665],
        [79.98673, 27.03488],
        [79.98877, 27.03318],
        [79.9892, 27.03273],
        [79.98939, 27.03196],
        [79.9895, 27.03094],
        [79.98991, 27.02897],
        [79.9902, 27.02781],
        [79.99063, 27.02648],
        [79.99088, 27.02517],
        [79.99129, 27.02365],
        [79.99133, 27.02138],
        [79.99149, 27.01996],
        [79.99161, 27.01962],
        [79.9917, 27.01935],
        [79.99158, 27.01907],
        [79.99113, 27.01833],
        [79.99018, 27.01595],
        [79.99002, 27.01575],
        [79.98773, 27.01124],
        [79.99537, 27.00529],
        [79.99634, 27.00495],
        [79.99716, 27.00458],
        [79.99811, 27.00438],
        [79.9983, 27.00422],
        [79.99966, 27.00308],
        [79.99996, 27.00277],
        [80.00026, 27.00246],
        [80.00056, 27.00215],
        [80.00085, 27.00184],
        [80.00114, 27.00152],
        [80.00143, 27.0012],
        [80.00172, 27.00088],
        [80.00201, 27.00056],
        [80.00229, 27.00023],
        [80.00344, 26.99862],
        [80.00364, 26.99834],
        [80.00383, 26.99804],
        [80.00401, 26.99775],
        [80.00418, 26.99745],
        [80.00434, 26.99714],
        [80.00449, 26.99683],
        [80.00463, 26.99651],
        [80.00476, 26.99619],
        [80.00489, 26.99587],
        [80.00493, 26.99566],
        [80.00498, 26.99547],
        [80.00505, 26.99527],
        [80.00514, 26.99509],
        [80.00524, 26.99491],
        [80.00535, 26.99473],
        [80.00548, 26.99457],
        [80.00562, 26.99442],
        [80.00577, 26.99428],
        [80.00609, 26.99405],
        [80.0064, 26.99381],
        [80.00669, 26.99355],
        [80.00697, 26.99327],
        [80.00723, 26.99298],
        [80.00748, 26.99267],
        [80.0077, 26.99235],
        [80.00791, 26.99201],
        [80.00809, 26.99167],
        [80.00826, 26.9913],
        [80.00841, 26.99093],
        [80.00855, 26.99055],
        [80.00869, 26.99017],
        [80.00881, 26.98979],
        [80.00893, 26.98941],
        [80.00904, 26.98902],
        [80.00914, 26.98863],
        [80.00924, 26.98824],
        [80.00926, 26.98798],
        [80.00931, 26.98772],
        [80.0094, 26.98746],
        [80.00951, 26.98722],
        [80.00964, 26.98699],
        [80.00981, 26.98678],
        [80.00999, 26.98659],
        [80.0102, 26.98642],
        [80.01042, 26.98627],
        [80.01081, 26.98608],
        [80.01118, 26.98588],
        [80.01155, 26.98566],
        [80.01191, 26.98543],
        [80.01226, 26.98519],
        [80.0126, 26.98493],
        [80.01293, 26.98466],
        [80.01325, 26.98438],
        [80.01356, 26.98409],
        [80.01378, 26.98382],
        [80.01397, 26.98353],
        [80.01411, 26.98321],
        [80.01422, 26.98288],
        [80.01434, 26.98232],
        [80.01444, 26.98193],
        [80.01455, 26.98154],
        [80.01467, 26.98115],
        [80.0148, 26.98076],
        [80.01493, 26.98038],
        [80.01508, 26.98001],
        [80.01523, 26.97963],
        [80.01539, 26.97926],
        [80.01557, 26.97874],
        [80.01575, 26.97822],
        [80.01594, 26.9777],
        [80.01612, 26.97717],
        [80.0163, 26.97665],
        [80.01647, 26.97613],
        [80.01665, 26.97561],
        [80.01683, 26.97508],
        [80.01701, 26.97456],
        [80.01712, 26.97411],
        [80.01725, 26.97366],
        [80.01739, 26.97322],
        [80.01754, 26.97278],
        [80.01771, 26.97234],
        [80.01789, 26.97191],
        [80.01808, 26.97149],
        [80.01829, 26.97107],
        [80.0185, 26.97066],
        [80.02073, 26.96824],
        [80.0209, 26.96811],
        [80.02106, 26.96796],
        [80.0212, 26.9678],
        [80.02131, 26.96762],
        [80.0214, 26.96743],
        [80.02148, 26.96723],
        [80.02152, 26.96702],
        [80.02154, 26.96681],
        [80.02154, 26.9666],
        [80.02157, 26.96631],
        [80.02161, 26.96602],
        [80.02164, 26.96573],
        [80.02168, 26.96544],
        [80.02172, 26.96516],
        [80.02176, 26.96487],
        [80.0218, 26.96458],
        [80.02185, 26.96429],
        [80.0219, 26.96401],
        [80.02193, 26.96377],
        [80.02194, 26.96354],
        [80.02195, 26.9633],
        [80.02193, 26.96306],
        [80.02191, 26.96283],
        [80.02187, 26.96259],
        [80.02181, 26.96237],
        [80.02174, 26.96214],
        [80.02166, 26.96192],
        [80.02135, 26.96153],
        [80.02103, 26.96115],
        [80.02071, 26.96078],
        [80.02037, 26.96041],
        [80.02003, 26.96005],
        [80.01968, 26.9597],
        [80.01933, 26.95935],
        [80.01897, 26.95901],
        [80.0186, 26.95868],
        [80.01663, 26.95655],
        [80.01643, 26.95636],
        [80.01626, 26.95613],
        [80.01613, 26.95589],
        [80.01604, 26.95563],
        [80.01599, 26.95535],
        [80.01599, 26.95508],
        [80.0153, 26.95475],
        [80.0148, 26.95454],
        [80.0143, 26.95434],
        [80.01379, 26.95414],
        [80.01329, 26.95395],
        [80.01278, 26.95376],
        [80.01227, 26.95358],
        [80.01176, 26.95341],
        [80.01125, 26.95324],
        [80.01073, 26.95307],
        [80.00954, 26.95273],
        [80.00933, 26.95269],
        [80.00911, 26.95269],
        [80.00889, 26.95272],
        [80.00869, 26.95278],
        [80.00855, 26.95291],
        [80.00842, 26.95307],
        [80.00805, 26.95322],
        [80.0077, 26.95316],
        [80.00743, 26.95299],
        [80.00721, 26.9527],
        [80.00697, 26.9526],
        [80.00671, 26.95261],
        [80.00649, 26.95275],
        [80.00635, 26.95298],
        [80.00605, 26.95335],
        [80.00576, 26.95372],
        [80.00547, 26.9541],
        [80.00519, 26.95448],
        [80.00491, 26.95487],
        [80.00464, 26.95527],
        [80.00438, 26.95566],
        [80.00412, 26.95606],
        [80.00387, 26.95647],
        [80.00361, 26.95686],
        [80.00333, 26.95725],
        [80.00304, 26.95762],
        [80.00273, 26.95799],
        [80.0024, 26.95833],
        [80.00206, 26.95866],
        [80.00171, 26.95898],
        [80.00134, 26.95929],
        [80.00096, 26.95957],
        [80.00046, 26.95987],
        [79.99995, 26.96017],
        [79.99945, 26.96047],
        [79.99896, 26.96077],
        [79.9987, 26.96121],
        [79.99702, 26.96182],
        [79.99572, 26.96235],
        [79.99438, 26.96265],
        [79.99399, 26.96276],
        [79.99374, 26.96297],
        [79.99354, 26.96314],
        [79.99331, 26.96333],
        [79.99312, 26.96337],
        [79.99294, 26.96333],
        [79.99166, 26.96173],
        [79.98942, 26.95934],
        [79.98767, 26.95786],
        [79.98472, 26.95528],
        [79.98205, 26.95333],
        [79.98062, 26.95184],
        [79.97941, 26.95037],
        [79.97862, 26.94926],
        [79.97862, 26.94915],
        [79.97866, 26.949],
        [79.97877, 26.94883],
        [79.97931, 26.94836],
        [79.98233, 26.94505],
        [79.98503, 26.94217],
        [79.98624, 26.94087],
        [79.98639, 26.94085],
        [79.98652, 26.94095],
        [79.98663, 26.94106],
        [79.98673, 26.94115],
        [79.9869, 26.94134],
        [79.98712, 26.94147],
        [79.98729, 26.94149],
        [79.98748, 26.94142],
        [79.98827, 26.94117],
        [79.98989, 26.94048],
        [79.99258, 26.93879],
        [79.99273, 26.93875],
        [79.99266, 26.93856],
        [79.99245, 26.93818],
        [79.99113, 26.93611],
        [79.99062, 26.93536],
        [79.99047, 26.93536],
        [79.98978, 26.93568],
        [79.98799, 26.93656],
        [79.98782, 26.9366],
        [79.98772, 26.93658],
        [79.98763, 26.93649],
        [79.98594, 26.93329],
        [79.98449, 26.93132],
        [79.98372, 26.93034],
        [79.98355, 26.93026],
        [79.98336, 26.93022],
        [79.98326, 26.93024],
        [79.9828, 26.93032],
        [79.98079, 26.93133],
        [79.97847, 26.9323],
        [79.97727, 26.93326],
        [79.97668, 26.93376],
        [79.97668, 26.93388],
        [79.97668, 26.93414],
        [79.97715, 26.93485],
        [79.97943, 26.93698],
        [79.97975, 26.9373],
        [79.97962, 26.93747],
        [79.97922, 26.93783],
        [79.97762, 26.93939],
        [79.97638, 26.94037],
        [79.97546, 26.94083],
        [79.97407, 26.94162],
        [79.97356, 26.94234],
        [79.97316, 26.94335],
        [79.97292, 26.94458],
        [79.97271, 26.94546],
        [79.97252, 26.94556],
        [79.97215, 26.94563],
        [79.97173, 26.94565],
        [79.97069, 26.94527],
        [79.97056, 26.94525],
        [79.97041, 26.94531],
        [79.97027, 26.94544],
        [79.97005, 26.94559],
        [79.9699, 26.94565],
        [79.96958, 26.94574],
        [79.96941, 26.94578],
        [79.96924, 26.9458],
        [79.96894, 26.94582],
        [79.96841, 26.9458],
        [79.96796, 26.94576],
        [79.96758, 26.94572],
        [79.96715, 26.94565],
        [79.96677, 26.94567],
        [79.96538, 26.9462],
        [79.96478, 26.94631],
        [79.9647, 26.94625],
        [79.96444, 26.94573],
        [79.9644, 26.94557],
        [79.9641, 26.94541],
        [79.96397, 26.94542],
        [79.96374, 26.94558],
        [79.96348, 26.9458],
        [79.96331, 26.94603],
        [79.96331, 26.94625],
        [79.9632, 26.94642],
        [79.96222, 26.94693],
        [79.96188, 26.94718],
        [79.96182, 26.94735],
        [79.9618, 26.94765],
        [79.9617, 26.94947],
        [79.96155, 26.95169],
        [79.96149, 26.95195],
        [79.96053, 26.95242],
        [79.95878, 26.9534],
        [79.95835, 26.95369],
        [79.95814, 26.95367],
        [79.95733, 26.95291],
        [79.95539, 26.95048],
        [79.95364, 26.94883],
        [79.95142, 26.94726],
        [79.95041, 26.94686],
        [79.9473, 26.94571],
        [79.94501, 26.94535],
        [79.94478, 26.94525],
        [79.94472, 26.94512],
        [79.94288, 26.94204],
        [79.94188, 26.9405],
        [79.94175, 26.94029],
        [79.94171, 26.94012],
        [79.94171, 26.93999],
        [79.94169, 26.93969],
        [79.94169, 26.93941],
        [79.94175, 26.9392],
        [79.94186, 26.93897],
        [79.94199, 26.93873],
        [79.94263, 26.93801],
        [79.94359, 26.93722],
        [79.94378, 26.93681],
        [79.94388, 26.93658],
        [79.94399, 26.9356],
        [79.94373, 26.93445],
        [79.94337, 26.93298],
        [79.94339, 26.93245],
        [79.94363, 26.93094],
        [79.94369, 26.9297],
        [79.94322, 26.92825],
        [79.9423, 26.9263],
        [79.94117, 26.92481],
        [79.94081, 26.92399],
        [79.94077, 26.9238],
        [79.94081, 26.92355],
        [79.94081, 26.92338],
        [79.94087, 26.92297],
        [79.94102, 26.92284],
        [79.94121, 26.92269],
        [79.94141, 26.92263],
        [79.94193, 26.92265],
        [79.9425, 26.92265],
        [79.94329, 26.92278],
        [79.94391, 26.92301],
        [79.94453, 26.92337],
        [79.946, 26.92412],
        [79.94647, 26.92422],
        [79.94677, 26.92422],
        [79.947, 26.92416],
        [79.94728, 26.92399],
        [79.9477, 26.92359],
        [79.94852, 26.92269],
        [79.94971, 26.92169],
        [79.95135, 26.92069],
        [79.95148, 26.9206],
        [79.95144, 26.92052],
        [79.95127, 26.92037],
        [79.9511, 26.92018],
        [79.95101, 26.92003],
        [79.95097, 26.91988],
        [79.9509, 26.91969],
        [79.95082, 26.91954],
        [79.95069, 26.91943],
        [79.95048, 26.91935],
        [79.95022, 26.91934],
        [79.95003, 26.91937],
        [79.94977, 26.91952],
        [79.94956, 26.91956],
        [79.9493, 26.91947],
        [79.94933, 26.91939],
        [79.94939, 26.91928],
        [79.94945, 26.9192],
        [79.94958, 26.91905],
        [79.95018, 26.9183],
        [79.95022, 26.91813],
        [79.95005, 26.91783],
        [79.94984, 26.91753],
        [79.94979, 26.9173],
        [79.94994, 26.91719],
        [79.95029, 26.91704],
        [79.95063, 26.91668],
        [79.95078, 26.91653],
        [79.95084, 26.91636],
        [79.95082, 26.91623],
        [79.95075, 26.91613],
        [79.95063, 26.91602],
        [79.95046, 26.916],
        [79.9502, 26.91606],
        [79.9499, 26.91619],
        [79.94941, 26.9163],
        [79.94924, 26.91619],
        [79.94913, 26.91613],
        [79.94903, 26.916],
        [79.9489, 26.91574],
        [79.94879, 26.91542],
        [79.94858, 26.91493],
        [79.94845, 26.91476],
        [79.94822, 26.91459],
        [79.94809, 26.91451],
        [79.94785, 26.91446],
        [79.94771, 26.9144],
        [79.94753, 26.91425],
        [79.94745, 26.91404],
        [79.94743, 26.91387],
        [79.94745, 26.91368],
        [79.94747, 26.91355],
        [79.9476, 26.91315],
        [79.94798, 26.91246],
        [79.94811, 26.91212],
        [79.94815, 26.91195],
        [79.94822, 26.91144],
        [79.9482, 26.91114],
        [79.94817, 26.91095],
        [79.94811, 26.91074],
        [79.94798, 26.91055],
        [79.94775, 26.91033],
        [79.94738, 26.90999],
        [79.94666, 26.90942],
        [79.94632, 26.90907],
        [79.94619, 26.90882],
        [79.94613, 26.90856],
        [79.94613, 26.90829],
        [79.94606, 26.9075],
        [79.94598, 26.9072],
        [79.94587, 26.90699],
        [79.94561, 26.90673],
        [79.94515, 26.90628],
        [79.945, 26.90609],
        [79.94493, 26.9059],
        [79.94486, 26.90563],
        [79.94478, 26.90552],
        [79.94463, 26.90533],
        [79.94443, 26.90516],
        [79.94433, 26.90503],
        [79.94418, 26.90493],
        [79.94407, 26.90482],
        [79.94392, 26.90469],
        [79.94379, 26.90448],
        [79.94377, 26.90427],
        [79.94379, 26.90407],
        [79.94386, 26.9039],
        [79.94392, 26.90375],
        [79.94394, 26.90361],
        [79.94386, 26.90292],
        [79.94386, 26.90269],
        [79.9439, 26.90252],
        [79.94403, 26.90235],
        [79.94441, 26.90198],
        [79.94463, 26.9019],
        [79.94475, 26.90181],
        [79.94465, 26.90167],
        [79.94145, 26.89947],
        [79.94141, 26.89932],
        [79.94141, 26.89919],
        [79.94153, 26.89889],
        [79.94177, 26.89875],
        [79.94431, 26.8966],
        [79.94709, 26.89438],
        [79.94783, 26.89398],
        [79.94832, 26.89377],
        [79.94845, 26.89357],
        [79.94858, 26.89328],
        [79.94867, 26.89308],
        [79.94875, 26.89249],
        [79.94886, 26.89206],
        [79.94918, 26.89175],
        [79.94945, 26.89092],
        [79.94948, 26.89073],
        [79.94943, 26.89056],
        [79.94926, 26.89041],
        [79.94875, 26.89001],
        [79.94666, 26.88849],
        [79.94672, 26.88832],
        [79.9479, 26.88664],
        [79.94822, 26.88596],
        [79.94809, 26.8853],
        [79.94764, 26.88379],
        [79.94732, 26.88326],
        [79.94717, 26.88302],
        [79.94693, 26.88277],
        [79.94491, 26.88125],
        [79.94314, 26.87953],
        [79.94237, 26.8785],
        [79.94124, 26.87781],
        [79.93887, 26.87683],
        [79.93864, 26.8767],
        [79.93851, 26.87662],
        [79.93851, 26.87655],
        [79.93859, 26.87645],
        [79.93919, 26.87608],
        [79.9406, 26.87508],
        [79.94502, 26.87254],
        [79.94948, 26.87007],
        [79.95014, 26.86945],
        [79.95441, 26.86565],
        [79.95757, 26.86281],
        [79.95943, 26.86112],
        [79.96231, 26.85856],
        [79.96233, 26.85848],
        [79.96226, 26.85843],
        [79.96212, 26.85843],
        [79.96024, 26.85833],
        [79.95735, 26.85779],
        [79.9571, 26.85773],
        [79.95684, 26.85769],
        [79.95659, 26.85762],
        [79.95618, 26.8576],
        [79.9559, 26.85754],
        [79.95563, 26.85747],
        [79.95539, 26.85743],
        [79.95499, 26.85728],
        [79.95473, 26.85709],
        [79.95452, 26.85666],
        [79.95405, 26.85592],
        [79.95362, 26.85541],
        [79.95302, 26.85481],
        [79.95253, 26.85403],
        [79.95006, 26.85111],
        [79.94527, 26.8472],
        [79.9428, 26.84526],
        [79.94254, 26.84504],
        [79.94246, 26.84509],
        [79.94222, 26.84521],
        [79.94186, 26.84557],
        [79.94167, 26.8459],
        [79.94074, 26.84646],
        [79.93692, 26.84848],
        [79.93455, 26.84978],
        [79.93423, 26.84997],
        [79.93404, 26.84989],
        [79.933, 26.84944],
        [79.93212, 26.8494],
        [79.93187, 26.8494],
        [79.93165, 26.84959],
        [79.93144, 26.8498],
        [79.93125, 26.85008],
        [79.93118, 26.85036],
        [79.93114, 26.8507],
        [79.93108, 26.85104],
        [79.93026, 26.85208],
        [79.92913, 26.85357],
        [79.92794, 26.85519],
        [79.92783, 26.85534],
        [79.92762, 26.85525],
        [79.92654, 26.85428],
        [79.92475, 26.8529],
        [79.92306, 26.85143],
        [79.92136, 26.85081],
        [79.91858, 26.84953],
        [79.91532, 26.84808],
        [79.91474, 26.84793],
        [79.91343, 26.84801],
        [79.91081, 26.84816],
        [79.90964, 26.84835],
        [79.90951, 26.84829],
        [79.90934, 26.84807],
        [79.909, 26.8476],
        [79.90789, 26.84652],
        [79.90772, 26.84639],
        [79.90738, 26.8463],
        [79.90718, 26.84626],
        [79.90689, 26.8462],
        [79.90575, 26.84622],
        [79.90548, 26.84628],
        [79.90505, 26.84648],
        [79.90467, 26.84669],
        [79.90418, 26.84682],
        [79.90277, 26.84701],
        [79.90247, 26.84701],
        [79.9023, 26.84701],
        [79.90091, 26.84786],
        [79.8997, 26.84845],
        [79.89891, 26.8486],
        [79.89842, 26.84882],
        [79.89814, 26.84896],
        [79.89778, 26.84918],
        [79.8974, 26.84952],
        [79.89725, 26.84975],
        [79.89708, 26.84986],
        [79.89691, 26.84982],
        [79.89567, 26.84922],
        [79.89554, 26.84916],
        [79.89546, 26.8492],
        [79.89537, 26.84931],
        [79.8952, 26.84952],
        [79.89495, 26.8496],
        [79.89477, 26.8496],
        [79.89452, 26.84948],
        [79.89392, 26.84901],
        [79.89281, 26.84813],
        [79.89239, 26.84792],
        [79.89239, 26.84781],
        [79.89241, 26.84758],
        [79.89254, 26.84722],
        [79.89279, 26.84694],
        [79.89294, 26.84677],
        [79.8929, 26.84662],
        [79.8913, 26.84355],
        [79.89074, 26.84229],
        [79.89074, 26.84204],
        [79.89098, 26.84147],
        [79.89153, 26.83987],
        [79.89213, 26.83785],
        [79.89211, 26.83765],
        [79.892, 26.83736],
        [79.89181, 26.8371],
        [79.89081, 26.83556],
        [79.89075, 26.83531],
        [79.89079, 26.8351],
        [79.89134, 26.83408],
        [79.89247, 26.83219],
        [79.89252, 26.83204],
        [79.89233, 26.83093],
        [79.89166, 26.82886],
        [79.89141, 26.82745],
        [79.89143, 26.82726],
        [79.89147, 26.82717],
        [79.8916, 26.82713],
        [79.89169, 26.82715],
        [79.89181, 26.82732],
        [79.89203, 26.82753],
        [79.89254, 26.82802],
        [79.89275, 26.82813],
        [79.89314, 26.82813],
        [79.89339, 26.82813],
        [79.89352, 26.828],
        [79.89356, 26.82783],
        [79.89358, 26.82762],
        [79.89356, 26.82749],
        [79.8935, 26.82732],
        [79.89339, 26.82715],
        [79.89328, 26.82692],
        [79.89316, 26.82668],
        [79.89309, 26.82647],
        [79.89305, 26.82619],
        [79.89303, 26.82583],
        [79.89305, 26.82551],
        [79.89311, 26.82528],
        [79.89311, 26.82493],
        [79.89311, 26.82439],
        [79.89311, 26.82406],
        [79.89296, 26.82359],
        [79.89297, 26.82336],
        [79.89303, 26.82326],
        [79.89309, 26.8232],
        [79.89318, 26.82316],
        [79.89333, 26.82307],
        [79.89343, 26.82299],
        [79.8936, 26.82286],
        [79.89371, 26.82277],
        [79.8938, 26.82265],
        [79.89378, 26.82248],
        [79.89386, 26.82169],
        [79.89386, 26.82139],
        [79.8939, 26.82124],
        [79.89407, 26.82107],
        [79.89422, 26.82103],
        [79.89502, 26.8208],
        [79.89602, 26.82055],
        [79.89615, 26.8204],
        [79.89626, 26.8201],
        [79.89636, 26.81989],
        [79.89649, 26.81971],
        [79.89675, 26.81938],
        [79.89675, 26.8192],
        [79.89671, 26.81906],
        [79.89666, 26.81893],
        [79.8967, 26.8188],
        [79.89679, 26.81878],
        [79.89707, 26.81882],
        [79.89726, 26.81871],
        [79.89726, 26.81861],
        [79.89722, 26.81844],
        [79.89713, 26.81827],
        [79.89698, 26.81786],
        [79.89713, 26.81709],
        [79.89709, 26.81692],
        [79.89703, 26.81684],
        [79.89685, 26.81673],
        [79.89671, 26.81667],
        [79.89565, 26.8164],
        [79.89462, 26.81623],
        [79.89437, 26.81619],
        [79.89422, 26.81611],
        [79.8942, 26.81596],
        [79.89454, 26.8154],
        [79.89467, 26.81515],
        [79.89462, 26.81506],
        [79.89339, 26.81459],
        [79.89251, 26.81414],
        [79.8923, 26.81397],
        [79.89211, 26.81374],
        [79.89191, 26.81346],
        [79.89174, 26.81325],
        [79.89149, 26.81306],
        [79.89087, 26.81229],
        [79.89017, 26.81127],
        [79.88974, 26.81086],
        [79.88948, 26.81076],
        [79.88923, 26.81071],
        [79.88871, 26.81069],
        [79.8885, 26.81067],
        [79.88842, 26.81069],
        [79.88786, 26.81116],
        [79.88675, 26.81225],
        [79.88481, 26.81437],
        [79.88314, 26.81612],
        [79.88167, 26.81706],
        [79.88046, 26.81782],
        [79.87894, 26.8184],
        [79.87633, 26.8193],
        [79.872, 26.82129],
        [79.86957, 26.82254],
        [79.86872, 26.82339],
        [79.86751, 26.825],
        [79.86648, 26.82598],
        [79.86576, 26.82637],
        [79.86533, 26.82658],
        [79.86501, 26.82677],
        [79.86461, 26.82688],
        [79.86296, 26.82713],
        [79.86247, 26.82735],
        [79.86173, 26.82754],
        [79.86126, 26.82758],
        [79.86085, 26.82754],
        [79.86055, 26.82745],
        [79.85823, 26.82749],
        [79.85733, 26.8276],
        [79.85727, 26.82752],
        [79.85716, 26.82726],
        [79.85708, 26.82688],
        [79.857, 26.82668],
        [79.85624, 26.8265],
        [79.85482, 26.82584],
        [79.8532, 26.82407],
        [79.85278, 26.8222],
        [79.85258, 26.82276],
        [79.85232, 26.82419],
        [79.85228, 26.82584],
        [79.85232, 26.82895],
        [79.8523, 26.83112],
        [79.85227, 26.83213],
        [79.85184, 26.83362],
        [79.85144, 26.83361],
        [79.8507, 26.83387],
        [79.85001, 26.83448],
        [79.84821, 26.83674],
        [79.84597, 26.83937],
        [79.84491, 26.84039],
        [79.84299, 26.84129],
        [79.84338, 26.84188],
        [79.84395, 26.8432],
        [79.84422, 26.84489],
        [79.84415, 26.84629],
        [79.84378, 26.84848],
        [79.84292, 26.85059],
        [79.842, 26.85186],
        [79.83925, 26.85432],
        [79.8376, 26.85623],
        [79.83608, 26.85714],
        [79.83558, 26.85736],
        [79.83527, 26.85755],
        [79.83503, 26.85753],
        [79.83494, 26.85747],
        [79.83484, 26.85733],
        [79.83483, 26.8572],
        [79.83463, 26.85674],
        [79.83429, 26.85649],
        [79.8342, 26.85648],
        [79.83369, 26.85643],
        [79.83315, 26.85665],
        [79.83258, 26.85743],
        [79.83225, 26.85843],
        [79.8322, 26.86027],
        [79.8319, 26.86205],
        [79.83134, 26.86424],
        [79.83109, 26.86506],
        [79.83096, 26.86544],
        [79.83102, 26.86585],
        [79.83107, 26.86598],
        [79.83122, 26.86626],
        [79.83123, 26.86644],
        [79.83123, 26.86662],
        [79.83111, 26.86718],
        [79.83109, 26.86756],
        [79.83105, 26.86812],
        [79.83112, 26.87034],
        [79.83143, 26.87355],
        [79.83174, 26.87517],
        [79.83223, 26.87632],
        [79.83261, 26.87684],
        [79.83369, 26.87743],
        [79.83514, 26.87775],
        [79.83626, 26.87786],
        [79.83654, 26.87793],
        [79.83677, 26.87805],
        [79.8371, 26.87843],
        [79.83749, 26.87918],
        [79.83863, 26.88071],
        [79.83958, 26.88199],
        [79.84021, 26.88378],
        [79.84102, 26.88515],
        [79.84159, 26.88574],
        [79.84197, 26.88608],
        [79.84288, 26.8865],
        [79.84271, 26.88688],
        [79.84272, 26.88802],
        [79.84281, 26.88901],
        [79.84281, 26.88933],
        [79.84298, 26.89065],
        [79.84289, 26.89113],
        [79.84264, 26.8914],
        [79.8422, 26.89187],
        [79.84057, 26.89301],
        [79.84005, 26.89345],
        [79.8397, 26.89406],
        [79.83935, 26.89492],
        [79.83862, 26.89859],
        [79.838, 26.90015],
        [79.83676, 26.90201],
        [79.83584, 26.90306],
        [79.83494, 26.90365],
        [79.83416, 26.90396],
        [79.83254, 26.90425],
        [79.83124, 26.90434],
        [79.83149, 26.90497],
        [79.83167, 26.90623],
        [79.83163, 26.90786],
        [79.8317, 26.90826],
        [79.83185, 26.90864],
        [79.83232, 26.90966],
        [79.83283, 26.91099],
        [79.83308, 26.9121],
        [79.83331, 26.91268],
        [79.83395, 26.91362],
        [79.83462, 26.91489],
        [79.83485, 26.91647],
        [79.83478, 26.91826],
        [79.83439, 26.91966],
        [79.8337, 26.92111],
        [79.83304, 26.92188],
        [79.83271, 26.92199],
        [79.8359, 26.92618],
        [79.83787, 26.92916],
        [79.83904, 26.93063],
        [79.8406, 26.93214],
        [79.84164, 26.93331],
        [79.84186, 26.93294],
        [79.84198, 26.93284],
        [79.84246, 26.93249],
        [79.84332, 26.93218],
        [79.84488, 26.93215],
        [79.84657, 26.93239],
        [79.84777, 26.9328],
        [79.8485, 26.93327],
        [79.84895, 26.93401],
        [79.8492, 26.93491],
        [79.84946, 26.93617],
        [79.84942, 26.93659],
        [79.85401, 26.93671],
        [79.85411, 26.93732],
        [79.85438, 26.93785],
        [79.857, 26.9405],
        [79.85885, 26.94297],
        [79.85947, 26.94354],
        [79.86008, 26.94375],
        [79.86006, 26.94432],
        [79.86003, 26.94559],
        [79.86008, 26.94577],
        [79.86019, 26.94597],
        [79.86029, 26.94622],
        [79.86041, 26.94641],
        [79.86058, 26.94661],
        [79.86106, 26.94696],
        [79.86196, 26.94759],
        [79.8622, 26.94786],
        [79.86243, 26.94812],
        [79.86266, 26.94845],
        [79.8627, 26.94869],
        [79.86268, 26.94887],
        [79.86265, 26.94935],
        [79.86194, 26.94991],
        [79.86428, 26.95174],
        [79.86465, 26.95244],
        [79.86478, 26.95281],
        [79.86476, 26.95297],
        [79.86474, 26.95317],
        [79.86468, 26.95332],
        [79.86444, 26.95355],
        [79.86416, 26.95368],
        [79.86389, 26.95375],
        [79.86371, 26.95389],
        [79.86337, 26.95412],
        [79.8632, 26.95425],
        [79.86308, 26.95445],
        [79.86289, 26.95474],
        [79.86284, 26.95535],
        [79.86313, 26.95625],
        [79.86351, 26.95747],
        [79.86368, 26.958],
        [79.86381, 26.95827],
        [79.86396, 26.959],
        [79.86394, 26.95921],
        [79.86389, 26.95977],
        [79.86376, 26.96001],
        [79.86332, 26.96017],
        [79.86301, 26.96042],
        [79.86274, 26.96063],
        [79.86233, 26.96111],
        [79.8619, 26.96225],
        [79.86172, 26.96316],
        [79.86155, 26.96381],
        [79.86137, 26.96461],
        [79.86121, 26.96517],
        [79.86097, 26.96545],
        [79.86066, 26.96594],
        [79.86046, 26.96638],
        [79.86031, 26.96693],
        [79.86031, 26.96706],
        [79.86025, 26.96767],
        [79.86044, 26.96841],
        [79.86124, 26.96952],
        [79.8616, 26.97022],
        [79.86181, 26.97086],
        [79.86178, 26.97111],
        [79.86175, 26.97142],
        [79.86168, 26.97167],
        [79.86088, 26.97278],
        [79.85946, 26.97383],
        [79.85913, 26.97395],
        [79.85886, 26.97402],
        [79.85865, 26.974],
        [79.85823, 26.97401],
        [79.85805, 26.97415],
        [79.85777, 26.97438],
        [79.85741, 26.97486],
        [79.85703, 26.97555],
        [79.8568, 26.97578],
        [79.85652, 26.97596],
        [79.85629, 26.97609],
        [79.85617, 26.97629],
        [79.85604, 26.97653],
        [79.85596, 26.97683],
        [79.85592, 26.97724],
        [79.85589, 26.97755],
        [79.85576, 26.97785],
        [79.85557, 26.97819],
        [79.85534, 26.97837],
        [79.85501, 26.97855],
        [79.85426, 26.97873],
        [79.85405, 26.97876],
        [79.85383, 26.97879],
        [79.85363, 26.97877],
        [79.85337, 26.97875],
        [79.85321, 26.97873],
        [79.85285, 26.97869],
        [79.85242, 26.97881],
        [79.85207, 26.97913],
        [79.85132, 26.98065],
        [79.8514, 26.98132],
        [79.85138, 26.98156],
        [79.85137, 26.98172],
        [79.85131, 26.98191],
        [79.85117, 26.98249],
        [79.85112, 26.98269],
        [79.85104, 26.98308],
        [79.851, 26.98355],
        [79.85099, 26.98407],
        [79.85119, 26.98452],
        [79.85267, 26.98587],
        [79.85429, 26.98666],
        [79.85682, 26.98755],
        [79.85946, 26.98892],
        [79.86186, 26.99044],
        [79.8601, 26.99169],
        [79.85837, 26.99296],
        [79.85492, 26.99505],
        [79.85268, 26.99623],
        [79.85157, 26.99659],
        [79.85111, 26.99662],
        [79.85044, 26.99666],
        [79.84955, 26.99667],
        [79.84751, 26.99601],
        [79.84702, 26.99586],
        [79.84281, 26.99399],
        [79.83963, 26.99269],
        [79.83804, 26.99221],
        [79.83699, 26.9921],
        [79.8368, 26.99208],
        [79.83417, 26.99233],
        [79.83271, 26.99255],
        [79.82883, 26.99314],
        [79.82681, 26.99356],
        [79.82319, 26.99429],
        [79.82134, 26.99439],
        [79.82007, 26.99416],
        [79.81778, 26.99305],
        [79.81634, 26.99228],
        [79.81552, 26.99184],
        [79.81489, 26.99168],
        [79.81443, 26.99172],
        [79.81351, 26.99235],
        [79.81312, 26.99262],
        [79.81239, 26.99324],
        [79.81129, 26.99387],
        [79.81006, 26.99444],
        [79.80851, 26.99494],
        [79.80688, 26.99537],
        [79.80278, 26.99635],
        [79.8014, 26.9968],
        [79.80106, 26.99692],
        [79.79852, 26.99805],
        [79.79724, 26.99876],
        [79.79651, 26.99947],
        [79.79559, 27.00088],
        [79.79488, 27.00202],
        [79.79444, 27.00253],
        [79.79388, 27.00276],
        [79.79333, 27.00284],
        [79.7926, 27.00276],
        [79.79106, 27.00274],
        [79.79051, 27.00277],
        [79.79037, 27.00286],
        [79.79013, 27.00301],
        [79.78881, 27.00456],
        [79.78837, 27.00507],
        [79.78743, 27.00558],
        [79.78637, 27.00579],
        [79.78541, 27.00587],
        [79.78495, 27.00576],
        [79.78406, 27.00554],
        [79.78314, 27.00507],
        [79.78248, 27.00467],
        [79.7818, 27.00394],
        [79.7794, 26.99989],
        [79.77876, 26.99912],
        [79.77837, 26.99879],
        [79.7777, 26.99853],
        [79.77671, 26.99833],
        [79.77525, 26.99836],
        [79.77415, 26.99854],
        [79.77357, 26.99864],
        [79.77128, 26.99881],
        [79.76993, 26.99857],
        [79.76879, 26.99808],
        [79.7667, 26.99676],
        [79.76473, 26.9954],
        [79.76178, 26.99336],
        [79.76066, 26.99258],
        [79.75896, 26.99174],
        [79.7581, 26.9915],
        [79.75746, 26.99143],
        [79.75327, 26.9919],
        [79.74937, 26.99237],
        [79.74823, 26.99249],
        [79.74574, 26.99276],
        [79.74502, 26.99283],
        [79.74345, 26.99294],
        [79.74055, 26.9928],
        [79.73881, 26.99271],
        [79.7373, 26.9925],
        [79.73504, 26.99239],
        [79.7322, 26.99279],
        [79.73136, 26.99302],
        [79.73006, 26.99383],
        [79.72675, 26.99678],
        [79.72655, 26.99695],
        [79.72573, 26.99766],
        [79.72527, 26.99794],
        [79.72499, 26.99811],
        [79.72395, 26.99842],
        [79.72295, 26.9987],
        [79.71921, 26.99873],
        [79.71836, 26.99874],
        [79.71741, 26.99888],
        [79.71679, 26.99915],
        [79.71572, 27.00015],
        [79.71445, 27.00134],
        [79.71267, 27.00287],
        [79.71159, 27.00367],
        [79.71101, 27.00376],
        [79.71068, 27.00373],
        [79.71003, 27.00366],
        [79.71008, 27.00602],
        [79.71005, 27.00891],
        [79.70997, 27.00961],
        [79.70994, 27.0097],
        [79.70949, 27.01101],
        [79.70934, 27.01143],
        [79.70922, 27.01203],
        [79.70939, 27.0128],
        [79.7097, 27.01353],
        [79.71007, 27.01474],
        [79.71001, 27.01579],
        [79.70966, 27.01804],
        [79.70989, 27.01867],
        [79.71014, 27.01958],
        [79.71011, 27.02019],
        [79.70989, 27.02088],
        [79.70922, 27.022],
        [79.70916, 27.02217],
        [79.70901, 27.02259],
        [79.70895, 27.02299],
        [79.70887, 27.02359],
        [79.70885, 27.02389],
        [79.70906, 27.02474],
        [79.70928, 27.02547],
        [79.70934, 27.026],
        [79.70931, 27.02661],
        [79.70926, 27.02744],
        [79.70936, 27.02797],
        [79.70967, 27.0287],
        [79.71015, 27.02945],
        [79.71125, 27.03095],
        [79.71181, 27.03174],
        [79.71456, 27.03566],
        [79.7158, 27.03766],
        [79.71612, 27.0383],
        [79.71648, 27.03873],
        [79.71724, 27.03923],
        [79.71876, 27.03994],
        [79.72061, 27.04083],
        [79.72159, 27.0413],
        [79.7249, 27.04318],
        [79.72618, 27.04413],
        [79.72696, 27.04477],
        [79.72794, 27.0457],
        [79.72834, 27.04621],
        [79.72872, 27.04708],
        [79.72888, 27.04805],
        [79.72885, 27.05022],
        [79.72864, 27.05174],
        [79.72834, 27.05254],
        [79.7274, 27.05414],
        [79.72606, 27.05593],
        [79.72596, 27.05627],
        [79.72594, 27.05653],
        [79.72613, 27.05716],
        [79.72679, 27.05831],
        [79.72693, 27.05889],
        [79.72681, 27.05961],
        [79.72648, 27.06011],
        [79.72575, 27.06099],
        [79.72479, 27.06201],
        [79.72452, 27.06238],
        [79.72421, 27.06339],
        [79.72413, 27.06408],
        [79.72431, 27.06475],
        [79.72494, 27.06553],
        [79.72512, 27.06574],
        [79.7261, 27.06662],
        [79.72874, 27.06869],
        [79.72956, 27.06932],
        [79.73045, 27.07032],
        [79.73125, 27.07144],
        [79.73179, 27.0724],
        [79.73209, 27.07325],
        [79.73277, 27.07583],
        [79.73327, 27.07867],
        [79.73366, 27.08026],
        [79.73396, 27.08103],
        [79.73467, 27.08213],
        [79.73562, 27.08373],
        [79.73604, 27.08442],
        [79.73679, 27.08545],
        [79.73856, 27.08747],
        [79.74026, 27.08966],
        [79.74092, 27.09076],
        [79.74128, 27.09205],
        [79.74123, 27.09303],
        [79.7412, 27.09368],
        [79.74081, 27.09478],
        [79.74019, 27.09545],
        [79.73955, 27.09578],
        [79.73788, 27.09636],
        [79.73636, 27.09639],
        [79.73416, 27.09636],
        [79.73327, 27.09632],
        [79.73262, 27.09674],
        [79.73239, 27.09711],
        [79.73187, 27.09831],
        [79.73095, 27.09965],
        [79.73011, 27.10055],
        [79.72883, 27.10151],
        [79.72733, 27.10242],
        [79.7269, 27.10268],
        [79.72675, 27.10302],
        [79.72652, 27.10358],
        [79.72649, 27.10426],
        [79.72657, 27.10465],
        [79.72663, 27.10492],
        [79.72727, 27.10601],
        [79.73023, 27.11047],
        [79.73112, 27.11158],
        [79.73428, 27.1158],
        [79.7347, 27.11682],
        [79.73468, 27.11729],
        [79.7345, 27.11748],
        [79.73298, 27.11876],
        [79.73266, 27.11924],
        [79.73276, 27.11985],
        [79.73302, 27.12077],
        [79.73337, 27.12144],
        [79.73381, 27.1219],
        [79.73414, 27.12206],
        [79.73493, 27.12217],
        [79.73605, 27.12228],
        [79.73751, 27.12228],
        [79.73801, 27.12237],
        [79.73842, 27.12245],
        [79.73873, 27.12282],
        [79.73904, 27.12364],
        [79.73914, 27.12388],
        [79.73932, 27.12417],
        [79.73956, 27.12456],
        [79.73996, 27.12494],
        [79.74072, 27.12541],
        [79.74157, 27.12575],
        [79.74349, 27.12662],
        [79.74393, 27.12692],
        [79.74428, 27.12725],
        [79.74458, 27.12779],
        [79.74537, 27.13034],
        [79.74564, 27.13145],
        [79.74557, 27.13254],
        [79.74545, 27.13317],
        [79.74523, 27.13357],
        [79.74437, 27.13425],
        [79.74327, 27.13485],
        [79.74242, 27.13536],
        [79.74232, 27.13565],
        [79.74238, 27.13608],
        [79.74252, 27.13639],
        [79.74291, 27.13668],
        [79.74314, 27.13687],
        [79.74334, 27.13752],
        [79.74323, 27.13908],
        [79.74318, 27.13961],
        [79.7431, 27.14041],
        [79.74312, 27.1418],
        [79.74331, 27.14292],
        [79.7437, 27.14365],
        [79.74449, 27.14465],
        [79.74712, 27.14766],
        [79.74729, 27.14797],
        [79.74776, 27.14885],
        [79.7485, 27.15034],
        [79.74937, 27.15189],
        [79.75035, 27.15315],
        [79.75042, 27.15322],
        [79.75179, 27.15467],
        [79.75253, 27.15527],
        [79.75338, 27.15581],
        [79.75454, 27.15667],
        [79.75471, 27.15689],
        [79.75474, 27.15731],
        [79.75468, 27.15788],
        [79.75431, 27.15874],
        [79.75385, 27.15902],
        [79.75297, 27.1593],
        [79.75204, 27.15929],
        [79.75067, 27.15925],
        [79.75019, 27.15923],
        [79.75003, 27.15922],
        [79.7494, 27.15936],
        [79.74872, 27.15959],
        [79.74787, 27.15996],
        [79.74749, 27.16033],
        [79.74695, 27.16118],
        [79.74659, 27.16213],
        [79.74625, 27.16345],
        [79.74603, 27.16465],
        [79.74574, 27.16528],
        [79.74526, 27.1656],
        [79.74468, 27.16572],
        [79.74426, 27.1658],
        [79.74374, 27.16572],
        [79.74318, 27.16559],
        [79.74261, 27.16507],
        [79.7423, 27.16463],
        [79.74222, 27.1641],
        [79.74212, 27.16343],
        [79.74178, 27.16189],
        [79.74167, 27.16027],
        [79.7415, 27.15906],
        [79.74111, 27.15857],
        [79.7409, 27.15854],
        [79.74062, 27.15849],
        [79.73969, 27.15849],
        [79.73905, 27.15881],
        [79.73806, 27.16021],
        [79.73747, 27.16104],
        [79.73693, 27.16173],
        [79.73654, 27.16183],
        [79.73607, 27.16191],
        [79.73574, 27.16181],
        [79.73509, 27.16105],
        [79.73434, 27.1602],
        [79.73256, 27.15853],
        [79.73154, 27.15811],
        [79.73109, 27.15808],
        [79.73077, 27.1581],
        [79.73045, 27.15845],
        [79.73015, 27.15888],
        [79.72972, 27.15977],
        [79.72967, 27.16],
        [79.72952, 27.1608],
        [79.72948, 27.16146],
        [79.72973, 27.16265],
        [79.7302, 27.16402],
        [79.73097, 27.16561],
        [79.73188, 27.16757],
        [79.73207, 27.16865],
        [79.73212, 27.16982],
        [79.73211, 27.17032],
        [79.73199, 27.17085],
        [79.73145, 27.17177],
        [79.73082, 27.17261],
        [79.72975, 27.17306],
        [79.7292, 27.17354],
        [79.72899, 27.17386],
        [79.7284, 27.17497],
        [79.72814, 27.17641],
        [79.72818, 27.17752],
        [79.72821, 27.1787],
        [79.72826, 27.17965],
        [79.72828, 27.18044],
        [79.72841, 27.1828],
        [79.72875, 27.18391],
        [79.72901, 27.18437],
        [79.72956, 27.18499],
        [79.73202, 27.1864],
        [79.73651, 27.18832],
        [79.73894, 27.18945],
        [79.73992, 27.18994],
        [79.74067, 27.19028],
        [79.74141, 27.19067],
        [79.74261, 27.19123],
        [79.74398, 27.19203],
        [79.74523, 27.19275],
        [79.74571, 27.19291],
        [79.74607, 27.193],
        [79.74657, 27.19303],
        [79.74709, 27.19294],
        [79.74713, 27.19283],
        [79.74736, 27.19228],
        [79.74739, 27.1921],
        [79.74754, 27.19165],
        [79.74792, 27.19107],
        [79.74818, 27.19103],
        [79.74839, 27.19104],
        [79.74894, 27.19113],
        [79.74923, 27.19119],
        [79.74967, 27.19129],
        [79.75035, 27.19157],
        [79.75131, 27.19206],
        [79.75242, 27.19268],
        [79.75432, 27.19361],
        [79.75937, 27.19566],
        [79.76083, 27.19606],
        [79.76171, 27.19631],
        [79.76346, 27.19753],
        [79.76367, 27.19714],
        [79.76442, 27.19642]
      ]
    ]
  }
}
