{
  "type": "Feature",
  "id": "UP-AC-205",
  "properties": {
    "stateName": "UTTAR PRADESH",
    "stateCode": "UP",
    "districtName": "KANPUR DEHAT",
    "acNo": 205,
    "acName": "GHATAMPUR (SC)",
    "seatType": null,
    "pcNo": null,
    "pcName": null,
    "quality": "unverified",
    "sources": [
      "TBD"
    ]
  },
  "geometry": {
    "type": "Polygon",
    "coordinates": [
      [
        [79.8942, 26.81596],
        [79.89422, 26.81611],
        [79.89437, 26.81619],
        [79.89462, 26.81623],
        [79.89565, 26.8164],
        [79.89671, 26.81667],
        [79.89685, 26.81673],
        [79.89703, 26.81684],
        [79.89709, 26.81692],
        [79.89713, 26.81709],
        [79.89698, 26.81786],
        [79.89713, 26.81827],
        [79.89722, 26.81844],
        [79.89726, 26.81861],
        [79.89726, 26.81871],
        [79.89707, 26.81882],
        [79.89679, 26.81878],
        [79.8967, 26.8188],
        [79.89666, 26.81893],
        [79.89671, 26.81906],
        [79.89675, 26.8192],
        [79.89675, 26.81938],
        [79.89649, 26.81971],
        [79.89636, 26.81989],
        [79.89626, 26.8201],
        [79.89615, 26.8204],
        [79.89602, 26.82055],
        [79.89502, 26.8208],
        [79.89422, 26.82103],
        [79.89407, 26.82107],
        [79.8939, 26.82124],
        [79.89386, 26.82139],
        [79.89386, 26.82169],
        [79.89378, 26.82248],
        [79.8938, 26.82265],
        [79.89371, 26.82277],
        [79.8936, 26.82286],
        [79.89343, 26.82299],
        [79.89333, 26.82307],
        [79.89318, 26.82316],
        [79.89309, 26.8232],
        [79.89303, 26.82326],
        [79.89297, 26.82336],
        [79.89296, 26.82359],
        [79.89311, 26.82406],
        [79.89311, 26.82439],
        [79.89989, 26.82141],
        [79.90309, 26.81869],
        [79.90343, 26.81745],
        [79.90367, 26.81667],
        [79.90461, 26.81632],
        [79.90559, 26.81646],
        [79.90838, 26.81603],
        [79.91521, 26.81286],
        [79.91627, 26.8116],
        [79.91662, 26.81009],
        [79.91715, 26.80912],
        [79.91876, 26.80843],
        [79.92038, 26.8086],
        [79.92164, 26.80874],
        [79.92237, 26.8083],
        [79.92617, 26.8009],
        [79.92671, 26.80044],
        [79.92708, 26.80013],
        [79.92872, 26.7996],
        [79.93, 26.79974],
        [79.93184, 26.79958],
        [79.93312, 26.79936],
        [79.93625, 26.79755],
        [79.93736, 26.79712],
        [79.93893, 26.79714],
        [79.93921, 26.79714],
        [79.94069, 26.79639],
        [79.94151, 26.7949],
        [79.94376, 26.79083],
        [79.94397, 26.78974],
        [79.94455, 26.78831],
        [79.94707, 26.78445],
        [79.94806, 26.78249],
        [79.94811, 26.7806],
        [79.94759, 26.77941],
        [79.94667, 26.77875],
        [79.94633, 26.77835],
        [79.94213, 26.77331],
        [79.94067, 26.77165],
        [79.94061, 26.77153],
        [79.94014, 26.77047],
        [79.9398, 26.76911],
        [79.93965, 26.76777],
        [79.93893, 26.76677],
        [79.9384, 26.76559],
        [79.93842, 26.76547],
        [79.93883, 26.76393],
        [79.94055, 26.76156],
        [79.94101, 26.76092],
        [79.94199, 26.76007],
        [79.94373, 26.75927],
        [79.94912, 26.75747],
        [79.94989, 26.75703],
        [79.95087, 26.75648],
        [79.9516, 26.75574],
        [79.95226, 26.75509],
        [79.95325, 26.75404],
        [79.95387, 26.75277],
        [79.95466, 26.75208],
        [79.95545, 26.75139],
        [79.95896, 26.74978],
        [79.96094, 26.74805],
        [79.96221, 26.74514],
        [79.96328, 26.7424],
        [79.96359, 26.73961],
        [79.96376, 26.73568],
        [79.96382, 26.73419],
        [79.96468, 26.73219],
        [79.96494, 26.73178],
        [79.9656, 26.73075],
        [79.96778, 26.72735],
        [79.96895, 26.72705],
        [79.9701, 26.72712],
        [79.97105, 26.72737],
        [79.97337, 26.72714],
        [79.97472, 26.72704],
        [79.97551, 26.72652],
        [79.97996, 26.71817],
        [79.98, 26.71724],
        [79.97948, 26.71635],
        [79.97729, 26.7138],
        [79.97661, 26.71189],
        [79.97666, 26.71078],
        [79.9779, 26.70917],
        [79.97814, 26.70908],
        [79.98693, 26.70571],
        [79.98774, 26.7054],
        [79.98992, 26.70439],
        [79.99205, 26.70412],
        [79.99339, 26.70456],
        [79.99724, 26.70476],
        [79.9988, 26.70446],
        [79.99964, 26.70319],
        [79.99992, 26.70151],
        [79.99961, 26.69233],
        [79.99971, 26.69027],
        [80.00019, 26.68861],
        [80.00212, 26.68318],
        [80.00221, 26.68291],
        [80.00189, 26.68159],
        [80.00184, 26.68148],
        [80.00137, 26.68045],
        [80.00045, 26.67949],
        [79.9992, 26.67739],
        [79.99886, 26.6766],
        [79.99677, 26.67172],
        [79.99548, 26.67037],
        [79.99301, 26.66935],
        [79.98821, 26.66917],
        [79.98197, 26.66911],
        [79.98083, 26.6687],
        [79.98031, 26.66738],
        [79.98154, 26.66596],
        [79.98319, 26.66452],
        [79.98337, 26.66437],
        [79.99651, 26.65809],
        [79.99921, 26.65668],
        [80.00212, 26.6546],
        [80.00613, 26.65122],
        [80.01074, 26.64733],
        [80.01211, 26.64592],
        [80.01296, 26.64505],
        [80.01429, 26.64308],
        [80.01527, 26.64093],
        [80.0165, 26.63729],
        [80.01699, 26.63446],
        [80.01727, 26.633],
        [80.01794, 26.62948],
        [80.01929, 26.62702],
        [80.01956, 26.62589],
        [80.01996, 26.6242],
        [80.02167, 26.61427],
        [80.02283, 26.61214],
        [80.024, 26.60984],
        [80.02563, 26.60691],
        [80.02273, 26.60712],
        [80.0191, 26.60786],
        [80.01664, 26.60795],
        [80.01548, 26.6082],
        [80.01328, 26.6091],
        [80.01293, 26.60905],
        [80.01213, 26.60894],
        [80.01103, 26.60797],
        [80.01065, 26.60674],
        [80.0106, 26.60471],
        [80.01143, 26.60243],
        [80.01205, 26.6013],
        [80.01254, 26.60042],
        [80.01874, 26.5942],
        [80.02137, 26.5902],
        [80.02214, 26.58871],
        [80.02233, 26.58833],
        [80.02303, 26.58565],
        [80.02312, 26.58377],
        [80.0226, 26.58241],
        [80.02123, 26.58091],
        [80.02107, 26.58079],
        [80.02011, 26.58008],
        [80.01931, 26.57886],
        [80.01895, 26.57711],
        [80.01906, 26.57469],
        [80.01916, 26.57255],
        [80.01838, 26.57052],
        [80.01718, 26.56849],
        [80.01639, 26.56769],
        [80.0111, 26.56223],
        [80.00867, 26.55982],
        [80.00725, 26.55926],
        [80.00611, 26.55884],
        [80.00384, 26.55786],
        [80.00176, 26.55582],
        [80.00078, 26.55479],
        [79.99786, 26.5517],
        [79.99262, 26.54618],
        [79.99163, 26.54549],
        [79.99115, 26.54548],
        [79.99019, 26.54546],
        [79.97927, 26.55096],
        [79.97781, 26.55132],
        [79.97651, 26.55129],
        [79.97452, 26.55032],
        [79.97296, 26.54948],
        [79.97168, 26.54905],
        [79.97097, 26.54884],
        [79.96925, 26.54833],
        [79.96505, 26.54477],
        [79.96006, 26.53934],
        [79.95862, 26.53847],
        [79.95822, 26.53823],
        [79.95681, 26.5374],
        [79.95338, 26.53625],
        [79.95155, 26.53501],
        [79.95069, 26.53417],
        [79.9503, 26.53378],
        [79.94888, 26.53309],
        [79.94702, 26.53251],
        [79.94514, 26.53221],
        [79.94396, 26.53202],
        [79.94281, 26.53186],
        [79.94182, 26.53117],
        [79.94146, 26.52917],
        [79.94121, 26.52824],
        [79.94052, 26.52743],
        [79.93967, 26.52701],
        [79.93822, 26.52684],
        [79.93605, 26.52718],
        [79.93474, 26.52727],
        [79.93317, 26.52683],
        [79.93173, 26.52653],
        [79.93101, 26.52651],
        [79.92912, 26.52672],
        [79.92751, 26.52734],
        [79.92396, 26.5303],
        [79.92557, 26.53333],
        [79.92645, 26.53546],
        [79.92675, 26.53776],
        [79.92657, 26.5425],
        [79.92626, 26.54566],
        [79.92447, 26.54754],
        [79.9233, 26.54821],
        [79.92185, 26.54851],
        [79.92069, 26.54804],
        [79.91731, 26.54664],
        [79.91567, 26.54615],
        [79.90001, 26.5474],
        [79.89882, 26.54758],
        [79.89812, 26.54731],
        [79.89803, 26.54669],
        [79.89866, 26.54541],
        [79.89846, 26.54453],
        [79.8944, 26.54223],
        [79.893, 26.54186],
        [79.89219, 26.54183],
        [79.89123, 26.5418],
        [79.88647, 26.54251],
        [79.8847, 26.54245],
        [79.88317, 26.54208],
        [79.88001, 26.54132],
        [79.8793, 26.5413],
        [79.87845, 26.54181],
        [79.87839, 26.54223],
        [79.8783, 26.54289],
        [79.87843, 26.55255],
        [79.87825, 26.55439],
        [79.87737, 26.55599],
        [79.87544, 26.55776],
        [79.87395, 26.55912],
        [79.87308, 26.56029],
        [79.87299, 26.56067],
        [79.87281, 26.56136],
        [79.87284, 26.56397],
        [79.87278, 26.56549],
        [79.8724, 26.56624],
        [79.87107, 26.56706],
        [79.86608, 26.56818],
        [79.86545, 26.56809],
        [79.86203, 26.56762],
        [79.86097, 26.56731],
        [79.86028, 26.56712],
        [79.85886, 26.56717],
        [79.85745, 26.56712],
        [79.85675, 26.56667],
        [79.85481, 26.56486],
        [79.85354, 26.56384],
        [79.85237, 26.56358],
        [79.84382, 26.56175],
        [79.84208, 26.56115],
        [79.84172, 26.56102],
        [79.8408, 26.56012],
        [79.83874, 26.55799],
        [79.83736, 26.55685],
        [79.83667, 26.55683],
        [79.83488, 26.55709],
        [79.83006, 26.56374],
        [79.8292, 26.56479],
        [79.82858, 26.56585],
        [79.82832, 26.56649],
        [79.8276, 26.56711],
        [79.82701, 26.5674],
        [79.8216, 26.57014],
        [79.82019, 26.57009],
        [79.81866, 26.56976],
        [79.81749, 26.56952],
        [79.81644, 26.56929],
        [79.81503, 26.56903],
        [79.81291, 26.56895],
        [79.80865, 26.56944],
        [79.80802, 26.56912],
        [79.80703, 26.56862],
        [79.80647, 26.56752],
        [79.80407, 26.56313],
        [79.80344, 26.56199],
        [79.8023, 26.56076],
        [79.80079, 26.55995],
        [79.7995, 26.55969],
        [79.79871, 26.55978],
        [79.79743, 26.55732],
        [79.79629, 26.55506],
        [79.79591, 26.55508],
        [79.79413, 26.55496],
        [79.79235, 26.55501],
        [79.7914, 26.55486],
        [79.79094, 26.55445],
        [79.79066, 26.5542],
        [79.78999, 26.55318],
        [79.78958, 26.55212],
        [79.7894, 26.55142],
        [79.78928, 26.55119],
        [79.78862, 26.55],
        [79.78795, 26.54881],
        [79.78785, 26.54799],
        [79.78731, 26.54699],
        [79.78546, 26.54506],
        [79.78421, 26.54421],
        [79.78388, 26.54411],
        [79.78457, 26.54283],
        [79.78517, 26.54174],
        [79.78638, 26.5397],
        [79.7887, 26.53641],
        [79.78937, 26.53551],
        [79.7901, 26.53437],
        [79.79042, 26.53235],
        [79.79029, 26.53043],
        [79.7898, 26.52955],
        [79.78818, 26.52802],
        [79.78589, 26.52591],
        [79.78215, 26.52328],
        [79.78173, 26.52308],
        [79.77945, 26.52197],
        [79.77549, 26.52039],
        [79.77322, 26.51967],
        [79.7698, 26.51915],
        [79.76949, 26.51917],
        [79.76847, 26.51817],
        [79.76809, 26.51755],
        [79.76796, 26.51718],
        [79.76918, 26.51425],
        [79.77069, 26.51071],
        [79.77125, 26.50911],
        [79.77147, 26.5083],
        [79.77193, 26.50774],
        [79.7729, 26.50743],
        [79.7736, 26.50739],
        [79.77494, 26.50744],
        [79.77601, 26.50782],
        [79.77639, 26.50795],
        [79.77753, 26.50793],
        [79.77805, 26.50783],
        [79.7787, 26.50733],
        [79.7789, 26.50703],
        [79.77903, 26.50682],
        [79.77907, 26.50561],
        [79.77849, 26.50379],
        [79.77814, 26.50291],
        [79.77805, 26.50175],
        [79.77795, 26.50099],
        [79.77796, 26.50047],
        [79.77889, 26.4983],
        [79.77931, 26.49722],
        [79.77949, 26.49566],
        [79.77985, 26.49434],
        [79.78013, 26.49279],
        [79.78016, 26.49262],
        [79.77981, 26.49179],
        [79.77926, 26.49097],
        [79.77871, 26.49054],
        [79.77864, 26.49048],
        [79.77756, 26.49033],
        [79.77545, 26.49038],
        [79.77376, 26.49142],
        [79.77076, 26.49352],
        [79.76742, 26.4963],
        [79.76482, 26.49795],
        [79.76198, 26.49907],
        [79.7605, 26.49948],
        [79.75929, 26.49927],
        [79.75867, 26.49867],
        [79.75795, 26.49726],
        [79.75736, 26.49579],
        [79.75632, 26.4946],
        [79.75484, 26.49421],
        [79.75362, 26.49723],
        [79.75267, 26.49826],
        [79.75162, 26.4987],
        [79.75018, 26.49901],
        [79.74795, 26.49952],
        [79.7473, 26.49974],
        [79.74695, 26.50046],
        [79.74674, 26.5009],
        [79.74697, 26.50197],
        [79.75379, 26.5081],
        [79.75508, 26.50867],
        [79.75598, 26.50906],
        [79.75662, 26.50932],
        [79.7579, 26.50995],
        [79.75864, 26.51127],
        [79.75952, 26.51213],
        [79.7612, 26.51242],
        [79.76261, 26.51294],
        [79.76401, 26.51381],
        [79.76475, 26.51485],
        [79.7665, 26.51732],
        [79.76727, 26.51929],
        [79.76735, 26.51948],
        [79.76702, 26.52171],
        [79.76579, 26.5238],
        [79.76206, 26.52686],
        [79.76087, 26.52753],
        [79.75996, 26.5275],
        [79.75919, 26.52747],
        [79.75813, 26.52803],
        [79.75785, 26.52861],
        [79.75689, 26.53035],
        [79.7552, 26.53065],
        [79.7539, 26.5306],
        [79.75307, 26.53039],
        [79.75236, 26.5302],
        [79.75097, 26.52873],
        [79.74827, 26.52321],
        [79.74628, 26.52019],
        [79.74591, 26.51983],
        [79.7454, 26.51933],
        [79.74347, 26.5188],
        [79.74282, 26.51878],
        [79.73957, 26.51867],
        [79.7383, 26.51854],
        [79.73789, 26.5185],
        [79.7366, 26.5181],
        [79.73547, 26.51665],
        [79.73502, 26.51439],
        [79.73466, 26.51332],
        [79.7339, 26.51282],
        [79.73286, 26.51278],
        [79.72947, 26.51415],
        [79.72852, 26.51454],
        [79.72258, 26.51777],
        [79.72165, 26.51869],
        [79.72018, 26.51994],
        [79.71912, 26.52074],
        [79.71768, 26.52129],
        [79.71663, 26.52161],
        [79.71611, 26.52195],
        [79.71316, 26.52564],
        [79.71252, 26.52562],
        [79.71186, 26.52561],
        [79.71058, 26.52486],
        [79.70754, 26.52192],
        [79.70745, 26.5205],
        [79.70774, 26.51945],
        [79.70932, 26.51843],
        [79.70985, 26.51797],
        [79.71065, 26.51705],
        [79.71094, 26.51611],
        [79.71096, 26.51517],
        [79.71087, 26.51485],
        [79.71049, 26.5135],
        [79.70936, 26.51216],
        [79.70834, 26.5113],
        [79.70721, 26.50997],
        [79.70676, 26.5094],
        [79.70595, 26.50839],
        [79.70535, 26.50684],
        [79.70514, 26.50506],
        [79.70537, 26.50164],
        [79.70555, 26.49987],
        [79.70544, 26.49892],
        [79.70525, 26.49828],
        [79.70509, 26.49773],
        [79.70498, 26.4969],
        [79.70449, 26.49594],
        [79.70466, 26.49464],
        [79.70524, 26.49277],
        [79.70498, 26.49214],
        [79.70475, 26.49158],
        [79.69901, 26.48784],
        [79.69784, 26.48768],
        [79.69667, 26.48776],
        [79.69599, 26.48892],
        [79.69581, 26.49034],
        [79.69589, 26.49235],
        [79.69586, 26.49329],
        [79.69502, 26.49527],
        [79.69084, 26.49771],
        [79.69041, 26.49795],
        [79.68845, 26.49773],
        [79.68642, 26.4968],
        [79.67539, 26.48364],
        [79.67476, 26.48315],
        [79.67399, 26.48256],
        [79.67242, 26.48234],
        [79.66988, 26.48221],
        [79.66973, 26.4822],
        [79.66433, 26.48391],
        [79.66368, 26.48474],
        [79.66271, 26.48626],
        [79.66199, 26.49096],
        [79.66014, 26.50117],
        [79.65997, 26.50317],
        [79.65996, 26.50504],
        [79.66068, 26.50667],
        [79.66087, 26.50711],
        [79.66134, 26.50771],
        [79.66316, 26.51001],
        [79.66392, 26.51179],
        [79.66377, 26.51259],
        [79.66346, 26.51421],
        [79.66209, 26.51614],
        [79.66045, 26.51733],
        [79.6565, 26.51849],
        [79.65146, 26.51986],
        [79.63836, 26.52907],
        [79.63837, 26.52916],
        [79.6384, 26.52939],
        [79.63843, 26.52962],
        [79.63844, 26.52986],
        [79.63845, 26.53009],
        [79.63847, 26.53045],
        [79.63846, 26.53069],
        [79.63843, 26.53094],
        [79.63836, 26.53118],
        [79.63826, 26.53141],
        [79.63746, 26.53323],
        [79.63738, 26.53342],
        [79.63731, 26.53361],
        [79.63725, 26.53381],
        [79.6372, 26.53401],
        [79.63716, 26.53421],
        [79.63713, 26.53441],
        [79.6371, 26.53462],
        [79.63709, 26.53482],
        [79.63709, 26.53503],
        [79.63677, 26.53708],
        [79.63673, 26.53734],
        [79.63666, 26.53758],
        [79.63657, 26.53782],
        [79.63645, 26.53805],
        [79.6359, 26.53894],
        [79.63543, 26.54049],
        [79.63537, 26.54074],
        [79.63524, 26.54097],
        [79.63507, 26.54116],
        [79.63484, 26.5413],
        [79.63464, 26.54151],
        [79.63444, 26.54171],
        [79.63423, 26.5419],
        [79.63401, 26.54209],
        [79.63379, 26.54227],
        [79.63357, 26.54245],
        [79.63334, 26.54262],
        [79.6331, 26.54278],
        [79.63286, 26.54294],
        [79.63048, 26.54392],
        [79.62801, 26.54448],
        [79.62921, 26.54534],
        [79.63087, 26.54717],
        [79.63107, 26.5474],
        [79.63129, 26.54763],
        [79.63152, 26.54784],
        [79.63176, 26.54803],
        [79.63425, 26.54901],
        [79.63449, 26.54905],
        [79.63473, 26.54912],
        [79.63496, 26.54922],
        [79.63518, 26.54933],
        [79.63538, 26.54947],
        [79.63558, 26.54962],
        [79.63575, 26.5498],
        [79.63591, 26.54999],
        [79.63605, 26.55019],
        [79.63737, 26.55188],
        [79.63923, 26.55474],
        [79.63943, 26.555],
        [79.63964, 26.55524],
        [79.63987, 26.55548],
        [79.6401, 26.55571],
        [79.64106, 26.55628],
        [79.64126, 26.55649],
        [79.6415, 26.55678],
        [79.64194, 26.55779],
        [79.64227, 26.55915],
        [79.64292, 26.56018],
        [79.64297, 26.56043],
        [79.64303, 26.56068],
        [79.64261, 26.56216],
        [79.6426, 26.56238],
        [79.64265, 26.56259],
        [79.64275, 26.56278],
        [79.64289, 26.56294],
        [79.64413, 26.56374],
        [79.64422, 26.56394],
        [79.64428, 26.56415],
        [79.64434, 26.56436],
        [79.64438, 26.56457],
        [79.64458, 26.56681],
        [79.64461, 26.56705],
        [79.64466, 26.56728],
        [79.64472, 26.56751],
        [79.6448, 26.56773],
        [79.64561, 26.5696],
        [79.64604, 26.57133],
        [79.64574, 26.57148],
        [79.64401, 26.57213],
        [79.64016, 26.57385],
        [79.63612, 26.57588],
        [79.63471, 26.57649],
        [79.63522, 26.57697],
        [79.63527, 26.57724],
        [79.63519, 26.57749],
        [79.63448, 26.57888],
        [79.6344, 26.57905],
        [79.63432, 26.57922],
        [79.63426, 26.5794],
        [79.63422, 26.57959],
        [79.63419, 26.57978],
        [79.63417, 26.57997],
        [79.63418, 26.58016],
        [79.6342, 26.58035],
        [79.63423, 26.58054],
        [79.63453, 26.58195],
        [79.63493, 26.58382],
        [79.63494, 26.58404],
        [79.63492, 26.58427],
        [79.63487, 26.58448],
        [79.63479, 26.58469],
        [79.63348, 26.58729],
        [79.63341, 26.5875],
        [79.63338, 26.58772],
        [79.63337, 26.58794],
        [79.6334, 26.58816],
        [79.63376, 26.58931],
        [79.63383, 26.58963],
        [79.63379, 26.58996],
        [79.63367, 26.59021],
        [79.63284, 26.59183],
        [79.63281, 26.59203],
        [79.6329, 26.5922],
        [79.63306, 26.59238],
        [79.63386, 26.59361],
        [79.63417, 26.59455],
        [79.63456, 26.59499],
        [79.6352, 26.59655],
        [79.63597, 26.59765],
        [79.63692, 26.59917],
        [79.63861, 26.60213],
        [79.63871, 26.60239],
        [79.63868, 26.60267],
        [79.63867, 26.60387],
        [79.63867, 26.60408],
        [79.6387, 26.60429],
        [79.63877, 26.60448],
        [79.63888, 26.60466],
        [79.64, 26.60695],
        [79.64121, 26.60631],
        [79.64146, 26.60616],
        [79.64172, 26.60602],
        [79.64198, 26.60588],
        [79.64224, 26.60575],
        [79.64386, 26.60525],
        [79.64426, 26.60531],
        [79.64443, 26.60559],
        [79.6452, 26.607],
        [79.64584, 26.60688],
        [79.64718, 26.60662],
        [79.64749, 26.60658],
        [79.64778, 26.60652],
        [79.64807, 26.60641],
        [79.64834, 26.60627],
        [79.6495, 26.60534],
        [79.64972, 26.60515],
        [79.64996, 26.60499],
        [79.65021, 26.60483],
        [79.65046, 26.6047],
        [79.65075, 26.60457],
        [79.65105, 26.60445],
        [79.65134, 26.60431],
        [79.65163, 26.60416],
        [79.65192, 26.60399],
        [79.65212, 26.60385],
        [79.65233, 26.60371],
        [79.65253, 26.60356],
        [79.65274, 26.60342],
        [79.65294, 26.60327],
        [79.65315, 26.60313],
        [79.65335, 26.60298],
        [79.65355, 26.60284],
        [79.65376, 26.60269],
        [79.65487, 26.60242],
        [79.65543, 26.60243],
        [79.65564, 26.60263],
        [79.65591, 26.60319],
        [79.65786, 26.60721],
        [79.65829, 26.60853],
        [79.65839, 26.60879],
        [79.65851, 26.60905],
        [79.65865, 26.60929],
        [79.65881, 26.60952],
        [79.65952, 26.6104],
        [79.65957, 26.61063],
        [79.65959, 26.61086],
        [79.65958, 26.61108],
        [79.65954, 26.61131],
        [79.65911, 26.6128],
        [79.6591, 26.61304],
        [79.65914, 26.61328],
        [79.65923, 26.6135],
        [79.65936, 26.6137],
        [79.66091, 26.61519],
        [79.66113, 26.61531],
        [79.66137, 26.61523],
        [79.66486, 26.61329],
        [79.66506, 26.61316],
        [79.66527, 26.61304],
        [79.66548, 26.61295],
        [79.66571, 26.61287],
        [79.66593, 26.6128],
        [79.66616, 26.61276],
        [79.6664, 26.61273],
        [79.66663, 26.61273],
        [79.66687, 26.61274],
        [79.66709, 26.61276],
        [79.66731, 26.6128],
        [79.66753, 26.61286],
        [79.66774, 26.61293],
        [79.66803, 26.61302],
        [79.66842, 26.61307],
        [79.66881, 26.61306],
        [79.6692, 26.61298],
        [79.66957, 26.61284],
        [79.67276, 26.61137],
        [79.67314, 26.61218],
        [79.67328, 26.61334],
        [79.67339, 26.6146],
        [79.67332, 26.61599],
        [79.67339, 26.61779],
        [79.67349, 26.61802],
        [79.67359, 26.61824],
        [79.67369, 26.61847],
        [79.67378, 26.6187],
        [79.67429, 26.61945],
        [79.67455, 26.61956],
        [79.67517, 26.61961],
        [79.67679, 26.62076],
        [79.67698, 26.62104],
        [79.6771, 26.62136],
        [79.67716, 26.62188],
        [79.67723, 26.62223],
        [79.6774, 26.62255],
        [79.67903, 26.62434],
        [79.68078, 26.6262],
        [79.6799, 26.62708],
        [79.68155, 26.62968],
        [79.68158, 26.62987],
        [79.68162, 26.63005],
        [79.68166, 26.63024],
        [79.68171, 26.63042],
        [79.6818, 26.63069],
        [79.68192, 26.63095],
        [79.68207, 26.63119],
        [79.68224, 26.63141],
        [79.68239, 26.6316],
        [79.68252, 26.63175],
        [79.68268, 26.63188],
        [79.68286, 26.63197],
        [79.68305, 26.63203],
        [79.68396, 26.63228],
        [79.68416, 26.63237],
        [79.68434, 26.63247],
        [79.68451, 26.6326],
        [79.68467, 26.63275],
        [79.68577, 26.63397],
        [79.68609, 26.63416],
        [79.68646, 26.63424],
        [79.68747, 26.63427],
        [79.68775, 26.6343],
        [79.68802, 26.63436],
        [79.68975, 26.63542],
        [79.68999, 26.63552],
        [79.69024, 26.63556],
        [79.6905, 26.63554],
        [79.69075, 26.63546],
        [79.69103, 26.63532],
        [79.69137, 26.63514],
        [79.69245, 26.63485],
        [79.69275, 26.63492],
        [79.69291, 26.63505],
        [79.69303, 26.63521],
        [79.69308, 26.63541],
        [79.69445, 26.63818],
        [79.69461, 26.63845],
        [79.69485, 26.63866],
        [79.69563, 26.63921],
        [79.69632, 26.64],
        [79.69653, 26.64017],
        [79.69679, 26.64026],
        [79.69851, 26.64034],
        [79.69883, 26.64035],
        [79.69906, 26.64046],
        [79.69936, 26.64091],
        [79.69967, 26.64109],
        [79.70041, 26.6412],
        [79.70076, 26.64121],
        [79.70104, 26.64122],
        [79.70168, 26.64163],
        [79.70183, 26.64182],
        [79.70195, 26.64203],
        [79.702, 26.64222],
        [79.70223, 26.64238],
        [79.7047, 26.64285],
        [79.7071, 26.64365],
        [79.70709, 26.64426],
        [79.70712, 26.64451],
        [79.7072, 26.64475],
        [79.70756, 26.64543],
        [79.70816, 26.64645],
        [79.70834, 26.64677],
        [79.70863, 26.647],
        [79.71087, 26.64887],
        [79.71169, 26.65004],
        [79.71118, 26.65042],
        [79.71113, 26.65063],
        [79.71199, 26.65154],
        [79.71195, 26.65172],
        [79.7117, 26.65197],
        [79.71175, 26.65226],
        [79.71338, 26.65467],
        [79.71562, 26.65739],
        [79.71581, 26.65765],
        [79.71611, 26.65779],
        [79.71717, 26.65819],
        [79.71729, 26.65839],
        [79.7171, 26.6587],
        [79.71717, 26.659],
        [79.71712, 26.65923],
        [79.71699, 26.65943],
        [79.71692, 26.65962],
        [79.71689, 26.65982],
        [79.71708, 26.66029],
        [79.71704, 26.66052],
        [79.71832, 26.66398],
        [79.71893, 26.66493],
        [79.71837, 26.6653],
        [79.71837, 26.66585],
        [79.71721, 26.66622],
        [79.71725, 26.66678],
        [79.71653, 26.66727],
        [79.71639, 26.66736],
        [79.71626, 26.66745],
        [79.71613, 26.66754],
        [79.716, 26.66764],
        [79.71588, 26.66774],
        [79.71575, 26.66784],
        [79.71564, 26.66795],
        [79.71552, 26.66806],
        [79.71541, 26.66817],
        [79.71488, 26.66893],
        [79.71372, 26.67092],
        [79.71369, 26.67157],
        [79.71227, 26.67288],
        [79.71203, 26.67415],
        [79.71176, 26.67563],
        [79.71191, 26.67643],
        [79.71227, 26.67729],
        [79.71268, 26.6778],
        [79.71357, 26.67869],
        [79.71448, 26.68053],
        [79.71626, 26.68413],
        [79.7202, 26.6882],
        [79.72026, 26.6882],
        [79.72032, 26.68822],
        [79.72037, 26.68826],
        [79.72041, 26.6883],
        [79.72045, 26.68835],
        [79.72047, 26.68841],
        [79.72047, 26.68847],
        [79.72047, 26.68854],
        [79.72045, 26.6886],
        [79.72048, 26.69057],
        [79.72049, 26.69063],
        [79.72049, 26.69069],
        [79.72047, 26.69075],
        [79.72045, 26.6908],
        [79.72041, 26.69084],
        [79.72037, 26.69088],
        [79.72032, 26.69091],
        [79.72027, 26.69093],
        [79.72021, 26.69094],
        [79.7194, 26.69102],
        [79.71931, 26.69101],
        [79.71922, 26.69101],
        [79.71913, 26.69101],
        [79.71905, 26.69102],
        [79.71896, 26.69104],
        [79.71888, 26.69106],
        [79.7188, 26.6911],
        [79.71872, 26.69114],
        [79.71865, 26.69119],
        [79.71732, 26.69201],
        [79.71663, 26.69239],
        [79.71654, 26.69246],
        [79.71646, 26.69254],
        [79.71639, 26.69263],
        [79.71633, 26.69272],
        [79.71629, 26.69283],
        [79.71626, 26.69294],
        [79.71624, 26.69305],
        [79.71624, 26.69316],
        [79.71625, 26.69327],
        [79.71631, 26.69393],
        [79.71631, 26.69414],
        [79.71631, 26.69435],
        [79.7163, 26.69456],
        [79.71629, 26.69477],
        [79.71626, 26.69498],
        [79.71623, 26.69518],
        [79.71619, 26.69539],
        [79.71614, 26.69559],
        [79.71608, 26.69579],
        [79.71566, 26.69706],
        [79.71409, 26.69966],
        [79.71293, 26.70238],
        [79.71177, 26.70486],
        [79.71175, 26.7049],
        [79.7117, 26.70498],
        [79.71162, 26.70504],
        [79.71153, 26.70507],
        [79.71143, 26.70508],
        [79.71102, 26.70506],
        [79.71091, 26.70502],
        [79.71084, 26.70507],
        [79.71082, 26.70515],
        [79.71087, 26.70521],
        [79.71094, 26.70539],
        [79.71098, 26.70542],
        [79.711, 26.70546],
        [79.71102, 26.70551],
        [79.71102, 26.70556],
        [79.71101, 26.70561],
        [79.71098, 26.70566],
        [79.71095, 26.7057],
        [79.71091, 26.70573],
        [79.71087, 26.70575],
        [79.7096, 26.70678],
        [79.70951, 26.70687],
        [79.70942, 26.70696],
        [79.70934, 26.70706],
        [79.70925, 26.70715],
        [79.70916, 26.70724],
        [79.70907, 26.70733],
        [79.70898, 26.70742],
        [79.70889, 26.70751],
        [79.7088, 26.7076],
        [79.70837, 26.70844],
        [79.70835, 26.70851],
        [79.7083, 26.70857],
        [79.70823, 26.70862],
        [79.70815, 26.70864],
        [79.70799, 26.7087],
        [79.7079, 26.70873],
        [79.70785, 26.70876],
        [79.70779, 26.70879],
        [79.70775, 26.70883],
        [79.70771, 26.70889],
        [79.70767, 26.70895],
        [79.70763, 26.70901],
        [79.70759, 26.70907],
        [79.70755, 26.70912],
        [79.70751, 26.70918],
        [79.70747, 26.70925],
        [79.70743, 26.7093],
        [79.7074, 26.70936],
        [79.70626, 26.71035],
        [79.70622, 26.7104],
        [79.70618, 26.71045],
        [79.70613, 26.71049],
        [79.70607, 26.71052],
        [79.70602, 26.71054],
        [79.70595, 26.71056],
        [79.70589, 26.71057],
        [79.70583, 26.71056],
        [79.70577, 26.71055],
        [79.70569, 26.71056],
        [79.70562, 26.71056],
        [79.70555, 26.71056],
        [79.70548, 26.71057],
        [79.7054, 26.71058],
        [79.70533, 26.71059],
        [79.70526, 26.7106],
        [79.70519, 26.71061],
        [79.70512, 26.71062],
        [79.70417, 26.71123],
        [79.70407, 26.71129],
        [79.70398, 26.71135],
        [79.70388, 26.71141],
        [79.70379, 26.71148],
        [79.7037, 26.71155],
        [79.70361, 26.71162],
        [79.70353, 26.7117],
        [79.70345, 26.71178],
        [79.70337, 26.71186],
        [79.7027, 26.7135],
        [79.70196, 26.71536],
        [79.70196, 26.71541],
        [79.70195, 26.71546],
        [79.70193, 26.7155],
        [79.70189, 26.71554],
        [79.70185, 26.71557],
        [79.70175, 26.71558],
        [79.70171, 26.71557],
        [79.70166, 26.71555],
        [79.70116, 26.71552],
        [79.70107, 26.71552],
        [79.70099, 26.71552],
        [79.7009, 26.71553],
        [79.70081, 26.71555],
        [79.70072, 26.71557],
        [79.70064, 26.7156],
        [79.70056, 26.71563],
        [79.70048, 26.71568],
        [79.70041, 26.71572],
        [79.69935, 26.71629],
        [79.69746, 26.71709],
        [79.69728, 26.71714],
        [79.6971, 26.71721],
        [79.69693, 26.7173],
        [79.69678, 26.71742],
        [79.69663, 26.71754],
        [79.6965, 26.71768],
        [79.69638, 26.71783],
        [79.69628, 26.71799],
        [79.6962, 26.71817],
        [79.6958, 26.71884],
        [79.69478, 26.72267],
        [79.69393, 26.72621],
        [79.69395, 26.72627],
        [79.69396, 26.72632],
        [79.69396, 26.72638],
        [79.69395, 26.72643],
        [79.69393, 26.72649],
        [79.69391, 26.72654],
        [79.69388, 26.72658],
        [79.69384, 26.72663],
        [79.69379, 26.72666],
        [79.69339, 26.72688],
        [79.69334, 26.72691],
        [79.6933, 26.72695],
        [79.69328, 26.72701],
        [79.69329, 26.72707],
        [79.69359, 26.72782],
        [79.69364, 26.7279],
        [79.69365, 26.72798],
        [79.69365, 26.72803],
        [79.69362, 26.72811],
        [79.69357, 26.72818],
        [79.69287, 26.72874],
        [79.69282, 26.72877],
        [79.69273, 26.72878],
        [79.69263, 26.72876],
        [79.69255, 26.7287],
        [79.69252, 26.72867],
        [79.6925, 26.72862],
        [79.69232, 26.7282],
        [79.6923, 26.72812],
        [79.69226, 26.72805],
        [79.6922, 26.728],
        [79.69213, 26.72797],
        [79.69162, 26.72797],
        [79.69152, 26.72797],
        [79.69146, 26.72801],
        [79.69141, 26.72806],
        [79.69139, 26.72813],
        [79.69111, 26.72989],
        [79.69112, 26.72994],
        [79.69112, 26.72998],
        [79.6911, 26.73003],
        [79.69107, 26.73007],
        [79.69099, 26.73013],
        [79.69089, 26.73014],
        [79.69084, 26.73012],
        [79.69076, 26.7301],
        [79.69062, 26.73009],
        [79.69054, 26.73012],
        [79.69046, 26.73016],
        [79.69001, 26.73049],
        [79.6906, 26.73092],
        [79.69068, 26.73096],
        [79.69074, 26.73103],
        [79.69077, 26.73112],
        [79.69078, 26.73116],
        [79.69075, 26.73125],
        [79.6907, 26.73152],
        [79.69067, 26.73157],
        [79.69064, 26.73161],
        [79.6906, 26.73165],
        [79.69056, 26.73168],
        [79.69051, 26.73171],
        [79.69046, 26.73172],
        [79.6904, 26.73173],
        [79.69035, 26.73173],
        [79.69029, 26.73173],
        [79.68907, 26.73151],
        [79.68901, 26.73149],
        [79.68895, 26.73148],
        [79.6889, 26.73148],
        [79.68884, 26.73149],
        [79.68878, 26.7315],
        [79.68873, 26.73152],
        [79.68867, 26.73154],
        [79.68862, 26.73157],
        [79.68858, 26.7316],
        [79.68788, 26.73268],
        [79.68783, 26.73271],
        [79.68776, 26.7327],
        [79.68772, 26.73265],
        [79.68772, 26.73258],
        [79.6877, 26.73253],
        [79.68767, 26.73247],
        [79.68764, 26.73242],
        [79.68761, 26.73236],
        [79.68724, 26.73213],
        [79.68719, 26.7321],
        [79.68714, 26.73207],
        [79.68708, 26.73205],
        [79.68703, 26.73204],
        [79.68697, 26.73203],
        [79.68691, 26.73203],
        [79.68685, 26.73203],
        [79.6868, 26.73204],
        [79.68674, 26.73205],
        [79.68587, 26.73305],
        [79.6858, 26.7331],
        [79.68574, 26.73316],
        [79.68569, 26.73322],
        [79.68565, 26.73329],
        [79.68561, 26.73337],
        [79.68559, 26.73345],
        [79.68557, 26.73353],
        [79.68557, 26.73361],
        [79.68557, 26.7337],
        [79.68558, 26.73376],
        [79.68558, 26.73382],
        [79.68557, 26.73388],
        [79.68556, 26.73394],
        [79.68554, 26.73399],
        [79.6855, 26.73404],
        [79.68547, 26.73409],
        [79.68542, 26.73413],
        [79.68537, 26.73417],
        [79.68415, 26.73452],
        [79.68181, 26.73462],
        [79.68035, 26.73448],
        [79.67889, 26.73499],
        [79.67847, 26.73642],
        [79.67756, 26.73694],
        [79.67604, 26.73779],
        [79.67423, 26.73866],
        [79.67443, 26.7398],
        [79.67474, 26.74091],
        [79.67479, 26.74287],
        [79.67468, 26.74345],
        [79.67463, 26.74352],
        [79.67461, 26.74359],
        [79.67462, 26.74367],
        [79.67464, 26.74375],
        [79.67469, 26.74381],
        [79.67476, 26.74385],
        [79.67484, 26.74387],
        [79.67492, 26.74386],
        [79.67499, 26.74383],
        [79.67666, 26.74363],
        [79.68138, 26.74341],
        [79.68594, 26.74366],
        [79.68678, 26.74379],
        [79.69167, 26.74383],
        [79.69174, 26.74385],
        [79.69181, 26.74387],
        [79.69188, 26.74387],
        [79.69195, 26.74388],
        [79.69202, 26.74387],
        [79.6921, 26.74387],
        [79.69217, 26.74385],
        [79.69224, 26.74384],
        [79.69231, 26.74381],
        [79.6931, 26.74354],
        [79.69609, 26.74246],
        [79.69617, 26.74244],
        [79.69625, 26.74244],
        [79.69638, 26.74244],
        [79.69646, 26.74246],
        [79.69709, 26.74325],
        [79.69714, 26.74328],
        [79.69719, 26.74331],
        [79.69723, 26.74336],
        [79.69727, 26.74341],
        [79.69729, 26.74346],
        [79.6973, 26.74352],
        [79.6973, 26.74358],
        [79.69729, 26.74364],
        [79.69727, 26.7437],
        [79.6968, 26.7449],
        [79.69676, 26.74498],
        [79.69673, 26.74506],
        [79.69671, 26.74514],
        [79.69671, 26.74523],
        [79.69671, 26.74531],
        [79.69673, 26.7454],
        [79.69677, 26.74547],
        [79.69681, 26.74555],
        [79.69687, 26.74561],
        [79.69809, 26.74707],
        [79.69814, 26.74714],
        [79.69819, 26.7472],
        [79.69826, 26.74726],
        [79.69832, 26.74732],
        [79.69839, 26.74736],
        [79.69847, 26.7474],
        [79.69855, 26.74744],
        [79.69863, 26.74746],
        [79.69871, 26.74748],
        [79.70026, 26.74789],
        [79.70277, 26.74878],
        [79.70294, 26.74884],
        [79.70311, 26.74889],
        [79.70328, 26.74893],
        [79.70346, 26.74896],
        [79.70364, 26.74897],
        [79.70382, 26.74897],
        [79.704, 26.74896],
        [79.70417, 26.74893],
        [79.70435, 26.74889],
        [79.70833, 26.74824],
        [79.7108, 26.74788],
        [79.711, 26.74785],
        [79.7112, 26.74783],
        [79.71141, 26.74783],
        [79.71161, 26.74784],
        [79.71182, 26.74785],
        [79.71202, 26.74788],
        [79.71222, 26.74792],
        [79.71242, 26.74798],
        [79.71262, 26.74804],
        [79.71368, 26.74869],
        [79.71373, 26.74874],
        [79.71379, 26.74878],
        [79.71385, 26.74881],
        [79.71391, 26.74883],
        [79.71398, 26.74885],
        [79.71405, 26.74886],
        [79.71412, 26.74886],
        [79.71419, 26.74885],
        [79.71426, 26.74884],
        [79.71608, 26.74874],
        [79.71619, 26.74871],
        [79.71632, 26.74868],
        [79.71644, 26.74867],
        [79.71656, 26.74866],
        [79.71669, 26.74866],
        [79.71681, 26.74867],
        [79.71693, 26.74869],
        [79.71705, 26.74872],
        [79.71717, 26.74876],
        [79.71929, 26.74959],
        [79.71983, 26.75001],
        [79.71963, 26.75067],
        [79.71963, 26.75075],
        [79.71964, 26.75083],
        [79.71966, 26.75091],
        [79.71969, 26.75098],
        [79.72061, 26.75275],
        [79.72068, 26.75279],
        [79.72075, 26.75282],
        [79.72082, 26.75283],
        [79.7209, 26.75284],
        [79.72241, 26.75167],
        [79.72245, 26.75163],
        [79.7225, 26.7516],
        [79.72256, 26.75158],
        [79.72262, 26.75157],
        [79.72269, 26.75157],
        [79.72274, 26.75159],
        [79.7228, 26.75161],
        [79.72285, 26.75165],
        [79.72289, 26.75169],
        [79.72355, 26.75238],
        [79.72359, 26.75246],
        [79.72361, 26.75251],
        [79.72363, 26.7526],
        [79.72365, 26.75269],
        [79.72365, 26.75273],
        [79.72364, 26.75283],
        [79.72365, 26.75292],
        [79.72366, 26.75302],
        [79.72369, 26.75311],
        [79.72372, 26.7532],
        [79.72375, 26.75329],
        [79.7238, 26.75337],
        [79.72385, 26.75345],
        [79.72391, 26.75353],
        [79.72516, 26.75516],
        [79.72581, 26.75619],
        [79.72679, 26.75831],
        [79.7293, 26.7634],
        [79.73016, 26.7653],
        [79.73019, 26.76534],
        [79.73023, 26.76537],
        [79.73027, 26.76539],
        [79.73037, 26.76543],
        [79.73046, 26.76544],
        [79.73056, 26.76542],
        [79.73375, 26.7653],
        [79.73513, 26.76522],
        [79.73523, 26.7652],
        [79.73533, 26.76519],
        [79.73543, 26.76518],
        [79.73554, 26.76519],
        [79.73564, 26.76519],
        [79.73574, 26.76521],
        [79.73584, 26.76523],
        [79.73593, 26.76526],
        [79.73603, 26.7653],
        [79.73756, 26.76593],
        [79.73798, 26.76616],
        [79.73805, 26.76618],
        [79.73813, 26.76619],
        [79.7382, 26.7662],
        [79.73828, 26.7662],
        [79.73835, 26.76621],
        [79.73843, 26.76621],
        [79.7385, 26.76621],
        [79.73858, 26.76621],
        [79.73865, 26.7662],
        [79.74183, 26.76494],
        [79.74336, 26.76445],
        [79.74345, 26.76443],
        [79.74354, 26.76442],
        [79.74363, 26.76442],
        [79.74372, 26.76443],
        [79.74381, 26.76444],
        [79.74389, 26.76446],
        [79.74398, 26.76449],
        [79.74406, 26.76453],
        [79.74414, 26.76457],
        [79.74518, 26.76539],
        [79.74667, 26.76649],
        [79.74676, 26.76654],
        [79.74685, 26.76661],
        [79.74692, 26.76669],
        [79.74699, 26.76678],
        [79.74704, 26.76687],
        [79.74708, 26.76698],
        [79.74711, 26.76708],
        [79.74712, 26.76719],
        [79.74711, 26.7673],
        [79.74722, 26.77028],
        [79.74722, 26.77117],
        [79.74721, 26.77127],
        [79.74722, 26.77138],
        [79.74724, 26.77148],
        [79.74728, 26.77158],
        [79.74732, 26.77168],
        [79.74738, 26.77177],
        [79.74744, 26.77185],
        [79.74752, 26.77192],
        [79.74761, 26.77198],
        [79.74847, 26.77271],
        [79.74922, 26.77324],
        [79.7505, 26.77427],
        [79.75137, 26.77499],
        [79.75152, 26.7752],
        [79.75161, 26.7755],
        [79.75201, 26.77625],
        [79.75289, 26.77827],
        [79.75306, 26.77844],
        [79.75319, 26.77849],
        [79.75346, 26.77857],
        [79.75381, 26.77877],
        [79.7543, 26.77914],
        [79.75571, 26.78148],
        [79.75619, 26.78214],
        [79.75662, 26.78274],
        [79.75664, 26.7828],
        [79.76047, 26.78212],
        [79.76181, 26.78193],
        [79.76203, 26.78195],
        [79.7622, 26.78191],
        [79.76258, 26.78155],
        [79.7632, 26.78095],
        [79.7642, 26.78067],
        [79.76593, 26.78037],
        [79.76653, 26.7802],
        [79.7668, 26.78029],
        [79.76687, 26.7804],
        [79.76712, 26.78037],
        [79.76885, 26.78012],
        [79.76994, 26.78016],
        [79.77017, 26.77999],
        [79.77047, 26.77984],
        [79.77132, 26.77917],
        [79.77202, 26.77862],
        [79.77217, 26.77838],
        [79.77236, 26.77806],
        [79.77255, 26.7777],
        [79.7726, 26.77732],
        [79.77264, 26.77681],
        [79.77294, 26.77547],
        [79.77309, 26.77434],
        [79.77306, 26.774],
        [79.77255, 26.77345],
        [79.77221, 26.77315],
        [79.77196, 26.77298],
        [79.77174, 26.77281],
        [79.77164, 26.77273],
        [79.77164, 26.77264],
        [79.77185, 26.77243],
        [79.77285, 26.77125],
        [79.77328, 26.77079],
        [79.77353, 26.77051],
        [79.7749, 26.77004],
        [79.77569, 26.76968],
        [79.77582, 26.76968],
        [79.77599, 26.76981],
        [79.77629, 26.76995],
        [79.77648, 26.77008],
        [79.77671, 26.77038],
        [79.77688, 26.77061],
        [79.77705, 26.77089],
        [79.77712, 26.77096],
        [79.77729, 26.77093],
        [79.77748, 26.77096],
        [79.77761, 26.77108],
        [79.77801, 26.77172],
        [79.77808, 26.77187],
        [79.77823, 26.77204],
        [79.77842, 26.77204],
        [79.77863, 26.772],
        [79.77887, 26.77194],
        [79.77906, 26.77194],
        [79.77914, 26.77217],
        [79.77919, 26.7723],
        [79.77934, 26.77238],
        [79.77983, 26.77238],
        [79.78155, 26.7723],
        [79.78181, 26.77236],
        [79.78189, 26.77251],
        [79.78194, 26.77275],
        [79.78185, 26.77362],
        [79.78187, 26.77377],
        [79.782, 26.7739],
        [79.78281, 26.77417],
        [79.7834, 26.77409],
        [79.78381, 26.77399],
        [79.78398, 26.77392],
        [79.78415, 26.77405],
        [79.78481, 26.77478],
        [79.78496, 26.77488],
        [79.78522, 26.77495],
        [79.78581, 26.77456],
        [79.7868, 26.77397],
        [79.7869, 26.7739],
        [79.78699, 26.77384],
        [79.78722, 26.77412],
        [79.7879, 26.77561],
        [79.78801, 26.7758],
        [79.78814, 26.77599],
        [79.78831, 26.77606],
        [79.78884, 26.77591],
        [79.78929, 26.77578],
        [79.78948, 26.77578],
        [79.78978, 26.77584],
        [79.79125, 26.7765],
        [79.79275, 26.7777],
        [79.79328, 26.77816],
        [79.79341, 26.77842],
        [79.79386, 26.77929],
        [79.79473, 26.78038],
        [79.79561, 26.78161],
        [79.79578, 26.7817],
        [79.7961, 26.78168],
        [79.79702, 26.78152],
        [79.79717, 26.78157],
        [79.79817, 26.7831],
        [79.79828, 26.78321],
        [79.79858, 26.78319],
        [79.79966, 26.78289],
        [79.8028, 26.78274],
        [79.80535, 26.78253],
        [79.80561, 26.78257],
        [79.80718, 26.78383],
        [79.80742, 26.78396],
        [79.80763, 26.78404],
        [79.80797, 26.78408],
        [79.80829, 26.78408],
        [79.80855, 26.78408],
        [79.80885, 26.78419],
        [79.80912, 26.78432],
        [79.8094, 26.78442],
        [79.80968, 26.78445],
        [79.80991, 26.78438],
        [79.81115, 26.78344],
        [79.8139, 26.78151],
        [79.81485, 26.78056],
        [79.81489, 26.78026],
        [79.81493, 26.77998],
        [79.81566, 26.77943],
        [79.81674, 26.77868],
        [79.81696, 26.77851],
        [79.81709, 26.77834],
        [79.81704, 26.77809],
        [79.81683, 26.77689],
        [79.8167, 26.77645],
        [79.81657, 26.77604],
        [79.81657, 26.77587],
        [79.81664, 26.77566],
        [79.8167, 26.77555],
        [79.81681, 26.77551],
        [79.81701, 26.77544],
        [79.81728, 26.77552],
        [79.81809, 26.77597],
        [79.81829, 26.77599],
        [79.81933, 26.77548],
        [79.82178, 26.7739],
        [79.824, 26.77294],
        [79.82471, 26.77279],
        [79.82496, 26.77279],
        [79.82535, 26.77279],
        [79.82624, 26.77363],
        [79.82637, 26.77365],
        [79.82663, 26.77354],
        [79.82705, 26.77333],
        [79.82759, 26.77318],
        [79.82784, 26.77313],
        [79.82814, 26.77307],
        [79.82865, 26.77307],
        [79.82876, 26.77309],
        [79.82891, 26.77309],
        [79.82899, 26.77305],
        [79.8294, 26.77286],
        [79.82977, 26.77266],
        [79.83001, 26.7726],
        [79.83123, 26.77258],
        [79.8317, 26.7726],
        [79.83199, 26.77258],
        [79.83216, 26.77249],
        [79.83246, 26.77232],
        [79.83278, 26.77213],
        [79.83302, 26.772],
        [79.83338, 26.77179],
        [79.83411, 26.77145],
        [79.83434, 26.77138],
        [79.83443, 26.77136],
        [79.83457, 26.77134],
        [79.83483, 26.77134],
        [79.83583, 26.77162],
        [79.83696, 26.77166],
        [79.83745, 26.7717],
        [79.83775, 26.77177],
        [79.8392, 26.77251],
        [79.84131, 26.77341],
        [79.84168, 26.77351],
        [79.84204, 26.77364],
        [79.84227, 26.77375],
        [79.84238, 26.77388],
        [79.84306, 26.77469],
        [79.84576, 26.77802],
        [79.84844, 26.78137],
        [79.84967, 26.78287],
        [79.85014, 26.78313],
        [79.85176, 26.78398],
        [79.85314, 26.78515],
        [79.85445, 26.78662],
        [79.85545, 26.78786],
        [79.8556, 26.78805],
        [79.85587, 26.78831],
        [79.85611, 26.7885],
        [79.85641, 26.78875],
        [79.85664, 26.78888],
        [79.85794, 26.78944],
        [79.86071, 26.79075],
        [79.86164, 26.79134],
        [79.86192, 26.79169],
        [79.86222, 26.79205],
        [79.86248, 26.79282],
        [79.86258, 26.79416],
        [79.86263, 26.79435],
        [79.86269, 26.7945],
        [79.86286, 26.79471],
        [79.8635, 26.7954],
        [79.86432, 26.79633],
        [79.86444, 26.79697],
        [79.86447, 26.79746],
        [79.86436, 26.79814],
        [79.86438, 26.79835],
        [79.86436, 26.79878],
        [79.86431, 26.79907],
        [79.86425, 26.79942],
        [79.86419, 26.79969],
        [79.86414, 26.79993],
        [79.86404, 26.80014],
        [79.86389, 26.80033],
        [79.86355, 26.80053],
        [79.86338, 26.80053],
        [79.86316, 26.80038],
        [79.8625, 26.80012],
        [79.86208, 26.80001],
        [79.86154, 26.80001],
        [79.86139, 26.80001],
        [79.86116, 26.80012],
        [79.86095, 26.8004],
        [79.85962, 26.80162],
        [79.85887, 26.80226],
        [79.85844, 26.80251],
        [79.85806, 26.80262],
        [79.85776, 26.80264],
        [79.8574, 26.80271],
        [79.85669, 26.80264],
        [79.85635, 26.80262],
        [79.8561, 26.80264],
        [79.85597, 26.80268],
        [79.85575, 26.80277],
        [79.8546, 26.80369],
        [79.85417, 26.80377],
        [79.85359, 26.80384],
        [79.85327, 26.80382],
        [79.85306, 26.80369],
        [79.8528, 26.80346],
        [79.8525, 26.80324],
        [79.85229, 26.80307],
        [79.85195, 26.80299],
        [79.85165, 26.80292],
        [79.85152, 26.8029],
        [79.85118, 26.8029],
        [79.85095, 26.80299],
        [79.85065, 26.80328],
        [79.85048, 26.8035],
        [79.85037, 26.80367],
        [79.85027, 26.80384],
        [79.85022, 26.80401],
        [79.8502, 26.80422],
        [79.8502, 26.80435],
        [79.85022, 26.80452],
        [79.85031, 26.80465],
        [79.8505, 26.80471],
        [79.85086, 26.80484],
        [79.85086, 26.80497],
        [79.85086, 26.80505],
        [79.85037, 26.80637],
        [79.8502, 26.80695],
        [79.8502, 26.80712],
        [79.85027, 26.80727],
        [79.85071, 26.80814],
        [79.85086, 26.80855],
        [79.85099, 26.809],
        [79.8511, 26.80949],
        [79.85133, 26.80995],
        [79.85146, 26.81017],
        [79.85184, 26.81059],
        [79.85302, 26.81167],
        [79.85321, 26.81197],
        [79.85332, 26.81229],
        [79.85336, 26.81268],
        [79.85347, 26.81291],
        [79.85353, 26.81314],
        [79.85353, 26.81336],
        [79.85345, 26.81359],
        [79.85341, 26.81387],
        [79.85341, 26.81406],
        [79.85345, 26.8143],
        [79.85349, 26.81451],
        [79.85358, 26.81472],
        [79.85366, 26.81489],
        [79.85373, 26.81511],
        [79.85405, 26.81662],
        [79.85496, 26.81872],
        [79.85516, 26.81998],
        [79.85556, 26.82121],
        [79.85558, 26.82143],
        [79.85554, 26.82158],
        [79.85548, 26.82166],
        [79.85552, 26.8219],
        [79.85607, 26.82328],
        [79.85633, 26.82411],
        [79.85695, 26.82654],
        [79.857, 26.82668],
        [79.85708, 26.82688],
        [79.85716, 26.82726],
        [79.85727, 26.82752],
        [79.85733, 26.8276],
        [79.85823, 26.82749],
        [79.86055, 26.82745],
        [79.86085, 26.82754],
        [79.86126, 26.82758],
        [79.86173, 26.82754],
        [79.86247, 26.82735],
        [79.86296, 26.82713],
        [79.86461, 26.82688],
        [79.86501, 26.82677],
        [79.86533, 26.82658],
        [79.86576, 26.82637],
        [79.86648, 26.82598],
        [79.86751, 26.825],
        [79.86872, 26.82339],
        [79.86957, 26.82254],
        [79.872, 26.82129],
        [79.87633, 26.8193],
        [79.87894, 26.8184],
        [79.88046, 26.81782],
        [79.88167, 26.81706],
        [79.88314, 26.81612],
        [79.88481, 26.81437],
        [79.88675, 26.81225],
        [79.88786, 26.81116],
        [79.88842, 26.81069],
        [79.8885, 26.81067],
        [79.88871, 26.81069],
        [79.88923, 26.81071],
        [79.88948, 26.81076],
        [79.88974, 26.81086],
        [79.89017, 26.81127],
        [79.89087, 26.81229],
        [79.89149, 26.81306],
        [79.89174, 26.81325],
        [79.89191, 26.81346],
        [79.89211, 26.81374],
        [79.8923, 26.81397],
        [79.89251, 26.81414],
        [79.89339, 26.81459],
        [79.89462, 26.81506],
        [79.89467, 26.81515],
        [79.89454, 26.8154],
        [79.8942, 26.81596]
      ]
    ]
  }
}
