{
  "type": "Feature",
  "id": "UP-AC-213",
  "properties": {
    "stateName": "UTTAR PRADESH",
    "stateCode": "UP",
    "districtName": "KANPUR NAGAR",
    "acNo": 213,
    "acName": "LALITPUR",
    "seatType": null,
    "pcNo": null,
    "pcName": null,
    "quality": "unverified",
    "sources": [
      "TBD"
    ]
  },
  "geometry": {
    "type": "Polygon",
    "coordinates": [
      [
        [80.33921, 26.48401],
        [80.33845, 26.4826],
        [80.33667, 26.48068],
        [80.33493, 26.47946],
        [80.33567, 26.47849],
        [80.33769, 26.47777],
        [80.34095, 26.47706],
        [80.34453, 26.47584],
        [80.3481, 26.47505],
        [80.34831, 26.47435],
        [80.34734, 26.47369],
        [80.34512, 26.47362],
        [80.34315, 26.47439],
        [80.3415, 26.47479],
        [80.3405, 26.47246],
        [80.33949, 26.47045],
        [80.34104, 26.47023],
        [80.33993, 26.46822],
        [80.33888, 26.46584],
        [80.33869, 26.46431],
        [80.34071, 26.4641],
        [80.33928, 26.46246],
        [80.33828, 26.46036],
        [80.33962, 26.46042],
        [80.33836, 26.45836],
        [80.33751, 26.45645],
        [80.33547, 26.452],
        [80.3338, 26.45312],
        [80.33381, 26.45366],
        [80.33359, 26.45411],
        [80.33328, 26.45456],
        [80.33282, 26.45486],
        [80.33235, 26.45517],
        [80.33196, 26.45541],
        [80.33157, 26.45573],
        [80.3311, 26.45597],
        [80.33071, 26.45601],
        [80.32991, 26.45584],
        [80.32919, 26.45728],
        [80.32938, 26.45864],
        [80.3283, 26.45935],
        [80.32686, 26.45914],
        [80.32466, 26.45931],
        [80.3232, 26.46064],
        [80.32151, 26.46255],
        [80.31978, 26.46427],
        [80.3186, 26.46583],
        [80.32061, 26.46758],
        [80.32192, 26.46824],
        [80.32351, 26.47026],
        [80.32552, 26.47211],
        [80.32773, 26.47396],
        [80.3263, 26.47459],
        [80.32323, 26.47656],
        [80.32533, 26.47887],
        [80.32726, 26.47853],
        [80.32947, 26.48047],
        [80.33048, 26.48103],
        [80.3315, 26.48086],
        [80.33218, 26.48278],
        [80.33368, 26.48454],
        [80.33584, 26.48669],
        [80.33655, 26.48643],
        [80.33959, 26.48539],
        [80.34027, 26.48522],
        [80.33971, 26.48458],
        [80.33921, 26.48401]
      ]
    ]
  }
}
