{
  "type": "Feature",
  "id": "UP-AC-223",
  "properties": {
    "stateName": "UTTAR PRADESH",
    "stateCode": "UP",
    "districtName": "JHANSI",
    "acNo": 223,
    "acName": "CHITRAKOOT",
    "seatType": null,
    "pcNo": null,
    "pcName": null,
    "quality": "unverified",
    "sources": [
      "TBD"
    ]
  },
  "geometry": {
    "type": "Polygon",
    "coordinates": [
      [
        [78.58625, 25.3864],
        [78.5857, 25.3864],
        [78.58544, 25.38653],
        [78.5853, 25.3866],
        [78.5848, 25.3872],
        [78.58433, 25.38767],
        [78.5843, 25.3877],
        [78.58401, 25.38775],
        [78.58372, 25.38782],
        [78.58366, 25.38777],
        [78.5829, 25.3872],
        [78.58247, 25.38684],
        [78.5822, 25.3866],
        [78.58164, 25.38612],
        [78.5815, 25.386],
        [78.581, 25.3857],
        [78.5807, 25.3863],
        [78.5806, 25.3865],
        [78.5793, 25.3882],
        [78.57859, 25.38856],
        [78.5781, 25.3888],
        [78.5766, 25.3904],
        [78.5756, 25.391],
        [78.57322, 25.39187],
        [78.57255, 25.39213],
        [78.57213, 25.39229],
        [78.5706, 25.3929],
        [78.5664, 25.3936],
        [78.56627, 25.39124],
        [78.5662, 25.39],
        [78.5662, 25.38933],
        [78.5662, 25.3881],
        [78.56609, 25.38703],
        [78.566, 25.3862],
        [78.56592, 25.38613],
        [78.56521, 25.38551],
        [78.56492, 25.38604],
        [78.56346, 25.38914],
        [78.56237, 25.39064],
        [78.56156, 25.39207],
        [78.56127, 25.3939],
        [78.5614, 25.396],
        [78.56151, 25.39791],
        [78.56238, 25.39968],
        [78.56206, 25.39991],
        [78.56171, 25.40006],
        [78.56121, 25.40013],
        [78.56034, 25.40008],
        [78.55853, 25.39994],
        [78.55743, 25.39997],
        [78.55546, 25.40024],
        [78.55162, 25.40045],
        [78.54901, 25.4006],
        [78.54657, 25.40068],
        [78.54366, 25.40126],
        [78.54173, 25.40176],
        [78.5402, 25.40217],
        [78.53891, 25.4029],
        [78.53805, 25.40353],
        [78.5372, 25.40428],
        [78.53689, 25.40471],
        [78.5366, 25.40574],
        [78.53637, 25.40697],
        [78.53607, 25.40864],
        [78.53522, 25.41286],
        [78.53467, 25.41424],
        [78.53404, 25.41627],
        [78.53321, 25.41799],
        [78.53196, 25.42034],
        [78.53122, 25.42141],
        [78.53051, 25.42244],
        [78.5295, 25.42369],
        [78.52831, 25.42493],
        [78.52709, 25.42583],
        [78.52561, 25.42665],
        [78.52437, 25.42731],
        [78.52285, 25.42813],
        [78.52092, 25.42903],
        [78.51963, 25.42951],
        [78.51834, 25.42984],
        [78.51797, 25.43011],
        [78.51782, 25.43049],
        [78.51775, 25.43179],
        [78.51765, 25.43268],
        [78.51766, 25.43394],
        [78.5178, 25.43708],
        [78.51802, 25.43921],
        [78.51825, 25.44083],
        [78.51871, 25.44244],
        [78.51914, 25.44368],
        [78.51981, 25.445],
        [78.52018, 25.44547],
        [78.52054, 25.44567],
        [78.52108, 25.44581],
        [78.52154, 25.44588],
        [78.52191, 25.44569],
        [78.52237, 25.4454],
        [78.52305, 25.44482],
        [78.5238, 25.44428],
        [78.52445, 25.44382],
        [78.5251, 25.44356],
        [78.52555, 25.44347],
        [78.52615, 25.44347],
        [78.5268, 25.4436],
        [78.52721, 25.44398],
        [78.52771, 25.44461],
        [78.52834, 25.44574],
        [78.52896, 25.44686],
        [78.52935, 25.44757],
        [78.53013, 25.44877],
        [78.53136, 25.45039],
        [78.53246, 25.45173],
        [78.53419, 25.4539],
        [78.53775, 25.45853],
        [78.54017, 25.46223],
        [78.54153, 25.46426],
        [78.542, 25.46553],
        [78.54238, 25.46717],
        [78.54257, 25.46792],
        [78.54306, 25.46901],
        [78.54392, 25.46999],
        [78.54476, 25.47086],
        [78.54583, 25.47162],
        [78.54667, 25.47209],
        [78.54757, 25.47233],
        [78.54876, 25.47244],
        [78.55006, 25.47251],
        [78.55148, 25.47226],
        [78.55262, 25.47212],
        [78.55369, 25.47176],
        [78.55488, 25.47115],
        [78.55605, 25.47005],
        [78.55721, 25.46884],
        [78.55837, 25.46729],
        [78.55931, 25.46647],
        [78.56045, 25.46585],
        [78.56091, 25.46578],
        [78.56095, 25.46694],
        [78.56146, 25.46869],
        [78.56176, 25.47254],
        [78.56202, 25.47486],
        [78.5616, 25.47584],
        [78.56132, 25.4761],
        [78.56111, 25.4763],
        [78.55921, 25.4765],
        [78.55562, 25.47702],
        [78.55159, 25.47748],
        [78.54869, 25.4776],
        [78.54838, 25.47761],
        [78.54467, 25.47706],
        [78.54128, 25.47646],
        [78.53863, 25.47586],
        [78.53639, 25.47488],
        [78.53397, 25.4743],
        [78.53233, 25.47421],
        [78.53214, 25.47534],
        [78.53232, 25.47717],
        [78.53305, 25.47916],
        [78.53309, 25.48073],
        [78.53278, 25.48198],
        [78.53191, 25.483],
        [78.53042, 25.48332],
        [78.52949, 25.48371],
        [78.52886, 25.48511],
        [78.529, 25.48655],
        [78.53013, 25.4881],
        [78.53187, 25.4893],
        [78.53297, 25.49058],
        [78.53309, 25.49174],
        [78.53302, 25.49322],
        [78.53245, 25.49449],
        [78.52949, 25.49478],
        [78.52753, 25.49554],
        [78.52536, 25.49603],
        [78.52244, 25.49673],
        [78.52033, 25.49801],
        [78.51792, 25.49926],
        [78.51496, 25.50083],
        [78.5107, 25.50354],
        [78.50822, 25.50528],
        [78.50585, 25.50728],
        [78.50325, 25.51009],
        [78.50088, 25.51263],
        [78.50126, 25.51325],
        [78.5017, 25.5153],
        [78.50219, 25.51802],
        [78.50269, 25.51968],
        [78.50289, 25.52113],
        [78.5034, 25.52279],
        [78.50425, 25.52383],
        [78.50561, 25.525],
        [78.50696, 25.52609],
        [78.50941, 25.52756],
        [78.51, 25.5289],
        [78.51121, 25.53241],
        [78.51127, 25.53258],
        [78.51447, 25.53059],
        [78.52068, 25.52755],
        [78.52293, 25.526],
        [78.5254, 25.52464],
        [78.52811, 25.5239],
        [78.53041, 25.52311],
        [78.53235, 25.52269],
        [78.53484, 25.52185],
        [78.53832, 25.52093],
        [78.53874, 25.52186],
        [78.53975, 25.52306],
        [78.54025, 25.52337],
        [78.54117, 25.52394],
        [78.54243, 25.52426],
        [78.54445, 25.52439],
        [78.54704, 25.52349],
        [78.54942, 25.52275],
        [78.5533, 25.52163],
        [78.55577, 25.5209],
        [78.55952, 25.51976],
        [78.55977, 25.5222],
        [78.56373, 25.52092],
        [78.56793, 25.51965],
        [78.57112, 25.51883],
        [78.57381, 25.51863],
        [78.57722, 25.51896],
        [78.58111, 25.51947],
        [78.58206, 25.51962],
        [78.58194, 25.51879],
        [78.58164, 25.51604],
        [78.58218, 25.51526],
        [78.58354, 25.51449],
        [78.5857, 25.51348],
        [78.58795, 25.51249],
        [78.59015, 25.51186],
        [78.59204, 25.5109],
        [78.59324, 25.50966],
        [78.5948, 25.50939],
        [78.59494, 25.50701],
        [78.5955, 25.50515],
        [78.59646, 25.5019],
        [78.59662, 25.49868],
        [78.59659, 25.49573],
        [78.5967, 25.49484],
        [78.59676, 25.49436],
        [78.59765, 25.49311],
        [78.59876, 25.49178],
        [78.6, 25.49046],
        [78.60054, 25.48918],
        [78.60043, 25.48748],
        [78.60014, 25.48604],
        [78.60036, 25.48503],
        [78.60095, 25.48413],
        [78.6021, 25.4831],
        [78.60333, 25.48215],
        [78.60404, 25.4826],
        [78.60554, 25.48316],
        [78.60798, 25.48353],
        [78.60973, 25.4841],
        [78.60998, 25.48428],
        [78.61175, 25.48558],
        [78.61436, 25.48787],
        [78.61592, 25.48945],
        [78.61929, 25.49146],
        [78.62243, 25.49287],
        [78.62427, 25.49372],
        [78.6256, 25.49465],
        [78.62568, 25.49476],
        [78.62707, 25.49684],
        [78.62776, 25.49973],
        [78.62795, 25.50157],
        [78.63079, 25.50109],
        [78.63487, 25.49929],
        [78.63874, 25.4969],
        [78.6434, 25.49465],
        [78.64939, 25.49097],
        [78.65308, 25.48872],
        [78.65596, 25.48749],
        [78.65752, 25.48622],
        [78.65913, 25.48463],
        [78.66075, 25.48379],
        [78.66241, 25.48251],
        [78.66395, 25.48148],
        [78.66457, 25.48133],
        [78.66417, 25.48009],
        [78.66348, 25.478],
        [78.66322, 25.47662],
        [78.66234, 25.47509],
        [78.65997, 25.47246],
        [78.65682, 25.47014],
        [78.65493, 25.4684],
        [78.65682, 25.46751],
        [78.65755, 25.46657],
        [78.65825, 25.46536],
        [78.6593, 25.46285],
        [78.661, 25.46009],
        [78.66188, 25.45813],
        [78.66263, 25.45697],
        [78.66341, 25.45594],
        [78.66436, 25.45463],
        [78.66499, 25.45366],
        [78.66577, 25.45317],
        [78.667, 25.45239],
        [78.66772, 25.45203],
        [78.66848, 25.45185],
        [78.66563, 25.45059],
        [78.66471, 25.44993],
        [78.66369, 25.44837],
        [78.6631, 25.4463],
        [78.66275, 25.44456],
        [78.6623, 25.4421],
        [78.66205, 25.44093],
        [78.66238, 25.4408],
        [78.662, 25.4409],
        [78.66116, 25.44127],
        [78.6604, 25.4416],
        [78.6597, 25.4417],
        [78.6586, 25.4414],
        [78.65859, 25.44138],
        [78.6577, 25.4395],
        [78.6565, 25.4379],
        [78.6556, 25.4378],
        [78.6549, 25.438],
        [78.65443, 25.43817],
        [78.65412, 25.43832],
        [78.65401, 25.43833],
        [78.6538, 25.4384],
        [78.6507, 25.4365],
        [78.6504, 25.4363],
        [78.64587, 25.43571],
        [78.6435, 25.4354],
        [78.643, 25.43532],
        [78.6429, 25.4353],
        [78.64289, 25.4353],
        [78.64286, 25.43529],
        [78.64267, 25.43515],
        [78.6421, 25.4348],
        [78.64171, 25.43423],
        [78.6412, 25.4335],
        [78.6413, 25.4317],
        [78.64139, 25.43041],
        [78.6414, 25.4303],
        [78.641, 25.4296],
        [78.641, 25.42939],
        [78.641, 25.4291],
        [78.64118, 25.42856],
        [78.6413, 25.4282],
        [78.64148, 25.42747],
        [78.6416, 25.427],
        [78.6419, 25.426],
        [78.6419, 25.4254],
        [78.642, 25.4246],
        [78.6424, 25.4238],
        [78.6424, 25.42379],
        [78.6424, 25.42322],
        [78.64239, 25.42295],
        [78.6424, 25.42292],
        [78.6424, 25.4229],
        [78.64244, 25.4228],
        [78.6427, 25.4222],
        [78.6437, 25.42053],
        [78.6442, 25.4197],
        [78.6442, 25.4191],
        [78.6439, 25.4183],
        [78.6437, 25.4179],
        [78.6438, 25.4174],
        [78.64381, 25.41739],
        [78.64381, 25.41736],
        [78.64398, 25.41716],
        [78.6444, 25.4166],
        [78.6448, 25.4162],
        [78.64486, 25.41575],
        [78.6449, 25.4154],
        [78.6449, 25.41487],
        [78.6449, 25.4146],
        [78.6449, 25.4139],
        [78.6446, 25.4128],
        [78.6438, 25.4116],
        [78.6418, 25.41],
        [78.6406, 25.4087],
        [78.64009, 25.40737],
        [78.6393, 25.4053],
        [78.6381, 25.4035],
        [78.63806, 25.40346],
        [78.6374, 25.4028],
        [78.63667, 25.40216],
        [78.63655, 25.40206],
        [78.63639, 25.40169],
        [78.6362, 25.4013],
        [78.6355, 25.4009],
        [78.6335, 25.4007],
        [78.6322, 25.4002],
        [78.6313, 25.3998],
        [78.63097, 25.39976],
        [78.6305, 25.3997],
        [78.62999, 25.39996],
        [78.6299, 25.4],
        [78.62961, 25.4],
        [78.629, 25.4],
        [78.62851, 25.40049],
        [78.6285, 25.4005],
        [78.62842, 25.40053],
        [78.6279, 25.4007],
        [78.62691, 25.40095],
        [78.6267, 25.401],
        [78.62591, 25.40139],
        [78.62574, 25.40177],
        [78.6255, 25.4023],
        [78.62534, 25.40263],
        [78.6248, 25.4037],
        [78.62442, 25.40713],
        [78.6244, 25.4073],
        [78.6242, 25.40788],
        [78.6236, 25.4096],
        [78.6235, 25.4116],
        [78.6235, 25.4127],
        [78.6235, 25.41272],
        [78.6235, 25.4136],
        [78.6206, 25.4151],
        [78.6195, 25.4156],
        [78.6188, 25.41548],
        [78.6172, 25.4152],
        [78.61613, 25.41501],
        [78.6155, 25.4149],
        [78.6141, 25.4146],
        [78.6131, 25.4151],
        [78.6115, 25.4158],
        [78.6099, 25.416],
        [78.60895, 25.41574],
        [78.6077, 25.4154],
        [78.60575, 25.41428],
        [78.60423, 25.41342],
        [78.6042, 25.4134],
        [78.60484, 25.41308],
        [78.6056, 25.4127],
        [78.6065, 25.4117],
        [78.60649, 25.4117],
        [78.60528, 25.41126],
        [78.6043, 25.4109],
        [78.6035, 25.4105],
        [78.60293, 25.41004],
        [78.6025, 25.4097],
        [78.601, 25.4092],
        [78.6011, 25.40886],
        [78.6012, 25.4085],
        [78.60128, 25.40813],
        [78.6014, 25.4076],
        [78.60146, 25.4072],
        [78.6015, 25.4069],
        [78.60136, 25.40641],
        [78.6013, 25.4062],
        [78.6012, 25.4055],
        [78.60139, 25.40521],
        [78.6016, 25.4049],
        [78.6019, 25.4042],
        [78.6019, 25.40419],
        [78.6019, 25.4038],
        [78.60178, 25.40319],
        [78.60166, 25.40306],
        [78.601, 25.4024],
        [78.601, 25.40209],
        [78.601, 25.4017],
        [78.60121, 25.40132],
        [78.6015, 25.4008],
        [78.6021, 25.3994],
        [78.60218, 25.39928],
        [78.60227, 25.39907],
        [78.602, 25.3988],
        [78.60063, 25.39787],
        [78.5998, 25.3973],
        [78.599, 25.3967],
        [78.59854, 25.39616],
        [78.5984, 25.396],
        [78.5984, 25.39598],
        [78.5984, 25.395],
        [78.5984, 25.39497],
        [78.59871, 25.39421],
        [78.5988, 25.394],
        [78.59882, 25.39396],
        [78.5993, 25.393],
        [78.5994, 25.3926],
        [78.59732, 25.39137],
        [78.5955, 25.3903],
        [78.5928, 25.3889],
        [78.59249, 25.38867],
        [78.5905, 25.3872],
        [78.5905, 25.3867],
        [78.59033, 25.38637],
        [78.5902, 25.3861],
        [78.58998, 25.38599],
        [78.58976, 25.3859],
        [78.58951, 25.38593],
        [78.58876, 25.38602],
        [78.58866, 25.38605],
        [78.588, 25.3863],
        [78.5874, 25.38639],
        [78.5873, 25.3864],
        [78.5865, 25.3864],
        [78.58625, 25.3864]
      ]
    ]
  }
}
