{
  "type": "Feature",
  "id": "UP-AC-239",
  "properties": {
    "stateName": "UTTAR PRADESH",
    "stateCode": "UP",
    "districtName": "FATEHPUR",
    "acNo": 239,
    "acName": "HANDIA",
    "seatType": null,
    "pcNo": null,
    "pcName": null,
    "quality": "unverified",
    "sources": [
      "TBD"
    ]
  },
  "geometry": {
    "type": "Polygon",
    "coordinates": [
      [
        [80.6701, 26.10228],
        [80.6701, 26.10203],
        [80.67012, 26.10179],
        [80.67016, 26.10154],
        [80.67024, 26.1013],
        [80.67263, 26.1002],
        [80.67303, 26.10007],
        [80.67343, 26.09993],
        [80.67382, 26.09978],
        [80.67421, 26.09961],
        [80.67459, 26.09944],
        [80.67497, 26.09925],
        [80.67534, 26.09905],
        [80.6757, 26.09883],
        [80.67606, 26.09861],
        [80.67635, 26.09833],
        [80.67665, 26.09806],
        [80.67696, 26.0978],
        [80.67728, 26.09754],
        [80.6776, 26.0973],
        [80.67793, 26.09706],
        [80.67827, 26.09683],
        [80.67861, 26.09662],
        [80.67896, 26.09641],
        [80.67974, 26.09592],
        [80.68053, 26.09546],
        [80.68134, 26.09503],
        [80.68217, 26.09464],
        [80.68302, 26.09429],
        [80.68388, 26.09397],
        [80.68476, 26.09369],
        [80.68564, 26.09345],
        [80.68654, 26.09325],
        [80.68752, 26.09303],
        [80.6885, 26.09277],
        [80.68946, 26.09249],
        [80.69042, 26.09217],
        [80.69137, 26.09182],
        [80.69231, 26.09144],
        [80.69323, 26.09103],
        [80.69414, 26.09059],
        [80.69503, 26.09012],
        [80.69739, 26.08845],
        [80.69832, 26.08798],
        [80.69924, 26.08748],
        [80.70013, 26.08696],
        [80.70101, 26.08641],
        [80.70188, 26.08583],
        [80.70272, 26.08522],
        [80.70355, 26.08459],
        [80.70436, 26.08394],
        [80.70514, 26.08326],
        [80.70757, 26.08086],
        [80.70814, 26.0803],
        [80.70873, 26.07977],
        [80.70935, 26.07926],
        [80.71, 26.07879],
        [80.71066, 26.07835],
        [80.71134, 26.07794],
        [80.71205, 26.07757],
        [80.71277, 26.07723],
        [80.71351, 26.07692],
        [80.71432, 26.07657],
        [80.71515, 26.07625],
        [80.71599, 26.07597],
        [80.71684, 26.07571],
        [80.7177, 26.07549],
        [80.71856, 26.07531],
        [80.71944, 26.07516],
        [80.72032, 26.07504],
        [80.7212, 26.07496],
        [80.72187, 26.07492],
        [80.72255, 26.07487],
        [80.72323, 26.07482],
        [80.7239, 26.07476],
        [80.72458, 26.07469],
        [80.72525, 26.07462],
        [80.72592, 26.07454],
        [80.7266, 26.07446],
        [80.72727, 26.07437],
        [80.72757, 26.07429],
        [80.72788, 26.07422],
        [80.72819, 26.07416],
        [80.7285, 26.07412],
        [80.72881, 26.07409],
        [80.72913, 26.07407],
        [80.72944, 26.07407],
        [80.72976, 26.07408],
        [80.73026, 26.07416],
        [80.73065, 26.07421],
        [80.73104, 26.07418],
        [80.73142, 26.07407],
        [80.73177, 26.07389],
        [80.73284, 26.07302],
        [80.73304, 26.07285],
        [80.73326, 26.07271],
        [80.7335, 26.0726],
        [80.73375, 26.07252],
        [80.734, 26.07246],
        [80.73426, 26.07244],
        [80.73453, 26.07245],
        [80.73478, 26.07249],
        [80.73503, 26.07256],
        [80.73552, 26.07262],
        [80.736, 26.07267],
        [80.73649, 26.0727],
        [80.73698, 26.07271],
        [80.73746, 26.07271],
        [80.73795, 26.0727],
        [80.73843, 26.07267],
        [80.73892, 26.07263],
        [80.7394, 26.07257],
        [80.74, 26.07248],
        [80.74059, 26.07242],
        [80.74119, 26.07239],
        [80.74179, 26.07238],
        [80.74239, 26.0724],
        [80.74299, 26.07245],
        [80.74358, 26.07252],
        [80.74417, 26.07263],
        [80.74476, 26.07276],
        [80.74495, 26.07283],
        [80.74514, 26.0729],
        [80.74534, 26.07295],
        [80.74554, 26.07301],
        [80.74575, 26.07305],
        [80.74595, 26.07308],
        [80.74615, 26.07311],
        [80.74636, 26.07312],
        [80.74657, 26.07313],
        [80.74906, 26.07265],
        [80.74864, 26.07329],
        [80.74891, 26.07331],
        [80.74919, 26.07333],
        [80.74946, 26.07336],
        [80.74974, 26.07338],
        [80.75001, 26.07341],
        [80.75028, 26.07345],
        [80.75056, 26.07348],
        [80.75083, 26.07353],
        [80.75162, 26.07358],
        [80.75241, 26.07365],
        [80.75321, 26.07372],
        [80.754, 26.07379],
        [80.75479, 26.07386],
        [80.75558, 26.07394],
        [80.75637, 26.07402],
        [80.75716, 26.07411],
        [80.75795, 26.0742],
        [80.7582, 26.07424],
        [80.75845, 26.07422],
        [80.75869, 26.07413],
        [80.7589, 26.07399],
        [80.75931, 26.07358],
        [80.75964, 26.07327],
        [80.75997, 26.07296],
        [80.7603, 26.07266],
        [80.76064, 26.07235],
        [80.76098, 26.07206],
        [80.76132, 26.07176],
        [80.76166, 26.07147],
        [80.762, 26.07118],
        [80.76242, 26.07095],
        [80.76283, 26.07071],
        [80.76324, 26.07046],
        [80.76364, 26.0702],
        [80.76404, 26.06993],
        [80.76443, 26.06966],
        [80.76481, 26.06938],
        [80.76519, 26.06909],
        [80.76556, 26.06879],
        [80.7661, 26.06834],
        [80.76665, 26.06791],
        [80.76721, 26.06749],
        [80.76778, 26.06709],
        [80.76836, 26.0667],
        [80.76895, 26.06633],
        [80.76955, 26.06596],
        [80.77016, 26.06562],
        [80.77078, 26.06529],
        [80.77114, 26.06511],
        [80.77149, 26.06491],
        [80.77183, 26.06469],
        [80.77217, 26.06447],
        [80.77249, 26.06422],
        [80.7728, 26.06397],
        [80.77311, 26.0637],
        [80.7734, 26.06342],
        [80.77368, 26.06313],
        [80.77392, 26.06285],
        [80.77418, 26.06257],
        [80.77444, 26.06231],
        [80.77472, 26.06205],
        [80.77501, 26.06181],
        [80.77531, 26.06159],
        [80.77561, 26.06137],
        [80.77593, 26.06117],
        [80.77626, 26.06099],
        [80.77666, 26.06061],
        [80.77706, 26.06023],
        [80.77746, 26.05984],
        [80.77786, 26.05945],
        [80.77825, 26.05907],
        [80.77865, 26.05868],
        [80.77904, 26.05828],
        [80.77943, 26.05789],
        [80.77968, 26.05763],
        [80.77986, 26.05742],
        [80.78035, 26.05748],
        [80.78058, 26.05774],
        [80.78076, 26.05795],
        [80.78115, 26.05834],
        [80.78155, 26.05873],
        [80.78195, 26.05911],
        [80.78235, 26.05949],
        [80.78276, 26.05987],
        [80.78317, 26.06025],
        [80.78358, 26.06062],
        [80.78399, 26.06099],
        [80.78488, 26.0617],
        [80.78577, 26.06242],
        [80.78664, 26.06315],
        [80.78751, 26.06389],
        [80.78837, 26.06464],
        [80.78922, 26.0654],
        [80.79006, 26.06617],
        [80.7909, 26.06695],
        [80.79172, 26.06773],
        [80.79191, 26.06787],
        [80.79213, 26.06796],
        [80.79236, 26.06799],
        [80.79259, 26.06796],
        [80.79363, 26.06735],
        [80.79385, 26.06725],
        [80.79407, 26.06716],
        [80.7943, 26.06708],
        [80.79453, 26.067],
        [80.79476, 26.06694],
        [80.795, 26.06689],
        [80.79524, 26.06685],
        [80.79548, 26.06682],
        [80.79572, 26.0668],
        [80.79623, 26.06675],
        [80.79674, 26.06669],
        [80.79725, 26.0666],
        [80.79775, 26.0665],
        [80.79825, 26.06638],
        [80.79875, 26.06623],
        [80.79924, 26.06607],
        [80.79972, 26.06589],
        [80.8002, 26.0657],
        [80.80054, 26.06554],
        [80.80085, 26.06534],
        [80.80112, 26.06508],
        [80.80134, 26.06479],
        [80.80152, 26.06446],
        [80.80163, 26.0641],
        [80.80169, 26.06374],
        [80.80168, 26.06336],
        [80.80161, 26.063],
        [80.80152, 26.06187],
        [80.80145, 26.06075],
        [80.8014, 26.05963],
        [80.80137, 26.0585],
        [80.80136, 26.05738],
        [80.80136, 26.05625],
        [80.80138, 26.05513],
        [80.80143, 26.054],
        [80.80148, 26.05288],
        [80.8015, 26.05236],
        [80.80155, 26.05184],
        [80.80162, 26.05133],
        [80.80173, 26.05082],
        [80.80187, 26.05032],
        [80.80204, 26.04983],
        [80.80224, 26.04934],
        [80.80247, 26.04888],
        [80.80272, 26.04842],
        [80.80339, 26.04751],
        [80.80401, 26.04656],
        [80.80457, 26.04558],
        [80.80508, 26.04457],
        [80.80553, 26.04353],
        [80.80591, 26.04246],
        [80.80624, 26.04138],
        [80.80651, 26.04028],
        [80.80671, 26.03916],
        [80.8068, 26.03845],
        [80.8069, 26.03773],
        [80.80702, 26.03701],
        [80.80716, 26.0363],
        [80.80731, 26.03559],
        [80.80747, 26.03488],
        [80.80766, 26.03418],
        [80.80785, 26.03348],
        [80.80806, 26.03279],
        [80.8084, 26.03218],
        [80.80875, 26.03157],
        [80.8091, 26.03097],
        [80.80946, 26.03037],
        [80.80982, 26.02978],
        [80.81019, 26.02919],
        [80.81057, 26.0286],
        [80.81095, 26.02802],
        [80.81133, 26.02744],
        [80.81212, 26.02678],
        [80.81293, 26.02616],
        [80.81378, 26.02559],
        [80.81465, 26.02507],
        [80.81556, 26.02459],
        [80.81648, 26.02415],
        [80.81743, 26.02377],
        [80.81839, 26.02343],
        [80.81937, 26.02314],
        [80.81993, 26.02297],
        [80.82048, 26.02276],
        [80.82102, 26.02252],
        [80.82153, 26.02224],
        [80.82203, 26.02193],
        [80.82251, 26.02159],
        [80.82278, 26.02137],
        [80.82244, 26.01989],
        [80.81885, 26.00509],
        [80.81823, 26.00249],
        [80.81825, 26.00111],
        [80.81826, 26.00034],
        [80.81847, 25.99964],
        [80.81858, 25.99894],
        [80.81907, 25.99824],
        [80.82005, 25.99754],
        [80.81984, 25.99749],
        [80.81926, 25.99726],
        [80.8189, 25.99666],
        [80.81862, 25.99594],
        [80.81804, 25.99522],
        [80.81775, 25.99474],
        [80.81797, 25.99417],
        [80.81846, 25.99416],
        [80.81877, 25.99391],
        [80.81888, 25.99359],
        [80.81878, 25.99335],
        [80.8187, 25.9927],
        [80.81822, 25.99206],
        [80.81725, 25.99087],
        [80.81543, 25.98775],
        [80.81514, 25.9876],
        [80.81494, 25.98768],
        [80.81463, 25.98769],
        [80.81425, 25.98721],
        [80.81339, 25.98506],
        [80.81228, 25.98518],
        [80.81033, 25.98499],
        [80.80982, 25.98428],
        [80.80929, 25.98415],
        [80.80876, 25.98409],
        [80.80796, 25.98404],
        [80.80689, 25.9842],
        [80.80609, 25.98437],
        [80.80457, 25.98454],
        [80.80394, 25.9847],
        [80.80252, 25.98473],
        [80.80172, 25.98482],
        [80.80073, 25.98499],
        [80.79994, 25.98494],
        [80.79985, 25.9849],
        [80.79958, 25.9848],
        [80.79934, 25.98423],
        [80.7991, 25.98337],
        [80.79886, 25.98252],
        [80.7988, 25.98165],
        [80.79868, 25.98007],
        [80.79873, 25.97863],
        [80.79893, 25.97531],
        [80.799, 25.97351],
        [80.79919, 25.97311],
        [80.79938, 25.97271],
        [80.79985, 25.97205],
        [80.8005, 25.97124],
        [80.80141, 25.97058],
        [80.80169, 25.97043],
        [80.80276, 25.9699],
        [80.80322, 25.96939],
        [80.80368, 25.96888],
        [80.80379, 25.9683],
        [80.80356, 25.9673],
        [80.80316, 25.96593],
        [80.80226, 25.96441],
        [80.79041, 25.96668],
        [80.78569, 25.9574],
        [80.78284, 25.95174],
        [80.78205, 25.95016],
        [80.77991, 25.94585],
        [80.77923, 25.94449],
        [80.7768, 25.94513],
        [80.77568, 25.94529],
        [80.77481, 25.94409],
        [80.77468, 25.94287],
        [80.77415, 25.94211],
        [80.77346, 25.94105],
        [80.77238, 25.94046],
        [80.77041, 25.93896],
        [80.76934, 25.9382],
        [80.76844, 25.9376],
        [80.76773, 25.93715],
        [80.76683, 25.93655],
        [80.7663, 25.93595],
        [80.76622, 25.93499],
        [80.76618, 25.93458],
        [80.7662, 25.93396],
        [80.76825, 25.93333],
        [80.7692, 25.93256],
        [80.77037, 25.93103],
        [80.77115, 25.92995],
        [80.77212, 25.92873],
        [80.77221, 25.92862],
        [80.77289, 25.9278],
        [80.77222, 25.92598],
        [80.77132, 25.92387],
        [80.76695, 25.91363],
        [80.76633, 25.91424],
        [80.76605, 25.91475],
        [80.76577, 25.91533],
        [80.76541, 25.91576],
        [80.76518, 25.9159],
        [80.76505, 25.91598],
        [80.76393, 25.91592],
        [80.76221, 25.91571],
        [80.76109, 25.9155],
        [80.76014, 25.91554],
        [80.76053, 25.91435],
        [80.76099, 25.91355],
        [80.76197, 25.9129],
        [80.7625, 25.91246],
        [80.76295, 25.91203],
        [80.7635, 25.9113],
        [80.76372, 25.91101],
        [80.76395, 25.91072],
        [80.76523, 25.90961],
        [80.76209, 25.90224],
        [80.76177, 25.90072],
        [80.76164, 25.89935],
        [80.76124, 25.89825],
        [80.76114, 25.89798],
        [80.76081, 25.89707],
        [80.76047, 25.89616],
        [80.76067, 25.89555],
        [80.76104, 25.89539],
        [80.76056, 25.89362],
        [80.76024, 25.89276],
        [80.75957, 25.89226],
        [80.75899, 25.89168],
        [80.75849, 25.89111],
        [80.75851, 25.89046],
        [80.75852, 25.89003],
        [80.75888, 25.88952],
        [80.7595, 25.88902],
        [80.76021, 25.88815],
        [80.761, 25.88751],
        [80.76101, 25.88729],
        [80.76102, 25.88686],
        [80.76069, 25.88657],
        [80.76001, 25.88643],
        [80.75959, 25.88614],
        [80.75951, 25.88571],
        [80.75953, 25.8852],
        [80.75963, 25.88477],
        [80.7594, 25.88384],
        [80.75908, 25.8829],
        [80.75901, 25.88226],
        [80.75912, 25.88146],
        [80.75913, 25.88096],
        [80.75915, 25.88024],
        [80.75909, 25.87952],
        [80.7591, 25.87916],
        [80.75954, 25.87852],
        [80.75981, 25.87823],
        [80.76033, 25.87772],
        [80.76069, 25.87715],
        [80.76105, 25.8765],
        [80.76141, 25.87578],
        [80.76159, 25.87535],
        [80.76136, 25.87435],
        [80.76122, 25.87298],
        [80.76105, 25.87233],
        [80.76072, 25.87196],
        [80.75971, 25.87139],
        [80.75852, 25.87095],
        [80.75751, 25.87052],
        [80.75539, 25.86994],
        [80.75336, 25.86943],
        [80.75017, 25.86769],
        [80.74866, 25.86668],
        [80.74766, 25.86595],
        [80.7469, 25.86566],
        [80.74681, 25.86566],
        [80.74622, 25.86566],
        [80.74477, 25.86615],
        [80.74368, 25.86766],
        [80.74362, 25.86773],
        [80.74264, 25.86945],
        [80.74207, 25.87183],
        [80.74154, 25.87385],
        [80.74004, 25.87586],
        [80.73962, 25.87626],
        [80.73889, 25.87696],
        [80.73531, 25.87991],
        [80.73292, 25.882],
        [80.7326, 25.88228],
        [80.73124, 25.88327],
        [80.72963, 25.88443],
        [80.7268, 25.88753],
        [80.72543, 25.88914],
        [80.72368, 25.8912],
        [80.72117, 25.89465],
        [80.72015, 25.89674],
        [80.71981, 25.89862],
        [80.71984, 25.89935],
        [80.71941, 25.89982],
        [80.71872, 25.90082],
        [80.71824, 25.90183],
        [80.71797, 25.90312],
        [80.71663, 25.9066],
        [80.71582, 25.9077],
        [80.71448, 25.90852],
        [80.71208, 25.90905],
        [80.70968, 25.90931],
        [80.70762, 25.90929],
        [80.7056, 25.9087],
        [80.70541, 25.90846],
        [80.70439, 25.90831],
        [80.7038, 25.90823],
        [80.70149, 25.90835],
        [80.69953, 25.90848],
        [80.69798, 25.90876],
        [80.69651, 25.90918],
        [80.69495, 25.90991],
        [80.69442, 25.91017],
        [80.69338, 25.91052],
        [80.69261, 25.91066],
        [80.69193, 25.91058],
        [80.69161, 25.91029],
        [80.69137, 25.90992],
        [80.69117, 25.90946],
        [80.68875, 25.90986],
        [80.68695, 25.91041],
        [80.68469, 25.91147],
        [80.68314, 25.91196],
        [80.68171, 25.9118],
        [80.67968, 25.91103],
        [80.67955, 25.91098],
        [80.67768, 25.90937],
        [80.67439, 25.90746],
        [80.6705, 25.90561],
        [80.66806, 25.90356],
        [80.66575, 25.90252],
        [80.66484, 25.90215],
        [80.66464, 25.90212],
        [80.66367, 25.90199],
        [80.66239, 25.90233],
        [80.66196, 25.90262],
        [80.66162, 25.90276],
        [80.66152, 25.903],
        [80.66115, 25.90391],
        [80.66087, 25.90462],
        [80.66049, 25.90563],
        [80.66038, 25.90628],
        [80.6601, 25.907],
        [80.65983, 25.90743],
        [80.65923, 25.90778],
        [80.65864, 25.90799],
        [80.65805, 25.90813],
        [80.65727, 25.90877],
        [80.6565, 25.90912],
        [80.65609, 25.90912],
        [80.6556, 25.911],
        [80.65495, 25.91258],
        [80.65321, 25.91437],
        [80.65219, 25.91494],
        [80.6516, 25.915],
        [80.65111, 25.91485],
        [80.65052, 25.91477],
        [80.64985, 25.91498],
        [80.6489, 25.91577],
        [80.64628, 25.91842],
        [80.64365, 25.92086],
        [80.64187, 25.92261],
        [80.63971, 25.92064],
        [80.63679, 25.91621],
        [80.6354, 25.91374],
        [80.63193, 25.90763],
        [80.63148, 25.90684],
        [80.62919, 25.90283],
        [80.62717, 25.90152],
        [80.62571, 25.90099],
        [80.62395, 25.90058],
        [80.62234, 25.90005],
        [80.6209, 25.89913],
        [80.62058, 25.89884],
        [80.61975, 25.89809],
        [80.61879, 25.89589],
        [80.61857, 25.89331],
        [80.61889, 25.89216],
        [80.61952, 25.89134],
        [80.61996, 25.89076],
        [80.62147, 25.88911],
        [80.62334, 25.88728],
        [80.62603, 25.88467],
        [80.63568, 25.87797],
        [80.63675, 25.87747],
        [80.63713, 25.87721],
        [80.63769, 25.87684],
        [80.63816, 25.87632],
        [80.63823, 25.87614],
        [80.63851, 25.87542],
        [80.63841, 25.87452],
        [80.63611, 25.86985],
        [80.6341, 25.86517],
        [80.63333, 25.86254],
        [80.63265, 25.86067],
        [80.63131, 25.85698],
        [80.62978, 25.8528],
        [80.62909, 25.85162],
        [80.62822, 25.85109],
        [80.6269, 25.85069],
        [80.62555, 25.85094],
        [80.62404, 25.85119],
        [80.62314, 25.85144],
        [80.62293, 25.85153],
        [80.62192, 25.85195],
        [80.6212, 25.85226],
        [80.6207, 25.85247],
        [80.61995, 25.85272],
        [80.61875, 25.85284],
        [80.61773, 25.85284],
        [80.61711, 25.85283],
        [80.61607, 25.85283],
        [80.61533, 25.85269],
        [80.61253, 25.85229],
        [80.61166, 25.85189],
        [80.61067, 25.85151],
        [80.60946, 25.85123],
        [80.60799, 25.8511],
        [80.60678, 25.85115],
        [80.60516, 25.85122],
        [80.60367, 25.85148],
        [80.60232, 25.85187],
        [80.59963, 25.85226],
        [80.59785, 25.85307],
        [80.59675, 25.85357],
        [80.59581, 25.85461],
        [80.59457, 25.85552],
        [80.59394, 25.85605],
        [80.59333, 25.85656],
        [80.59225, 25.85721],
        [80.58818, 25.85866],
        [80.58561, 25.85958],
        [80.58483, 25.85988],
        [80.58425, 25.86011],
        [80.58257, 25.8609],
        [80.58118, 25.86181],
        [80.5783, 25.86407],
        [80.57804, 25.86427],
        [80.57444, 25.86672],
        [80.57134, 25.86827],
        [80.56985, 25.86841],
        [80.56821, 25.86832],
        [80.56821, 25.86857],
        [80.56822, 25.8707],
        [80.56869, 25.87323],
        [80.56936, 25.8745],
        [80.57046, 25.87564],
        [80.5757, 25.88024],
        [80.57554, 25.88068],
        [80.57527, 25.8813],
        [80.57499, 25.88217],
        [80.57322, 25.88499],
        [80.57085, 25.88742],
        [80.5699, 25.88874],
        [80.5693, 25.89036],
        [80.56872, 25.89085],
        [80.56824, 25.89144],
        [80.56797, 25.89218],
        [80.56792, 25.89297],
        [80.56788, 25.89351],
        [80.56801, 25.89418],
        [80.56956, 25.89424],
        [80.57046, 25.89393],
        [80.57112, 25.89373],
        [80.57195, 25.89358],
        [80.57272, 25.89337],
        [80.57404, 25.8939],
        [80.57444, 25.89421],
        [80.57498, 25.89489],
        [80.57506, 25.89557],
        [80.57445, 25.89697],
        [80.57295, 25.89842],
        [80.57149, 25.89993],
        [80.56831, 25.90235],
        [80.56773, 25.90303],
        [80.56705, 25.90344],
        [80.56689, 25.90406],
        [80.56691, 25.90463],
        [80.56735, 25.90521],
        [80.56785, 25.90569],
        [80.56854, 25.90606],
        [80.56922, 25.90643],
        [80.56969, 25.90654],
        [80.57058, 25.90654],
        [80.5712, 25.90613],
        [80.57158, 25.90577],
        [80.57174, 25.90524],
        [80.57196, 25.90452],
        [80.57241, 25.90394],
        [80.57289, 25.90306],
        [80.57344, 25.90265],
        [80.57435, 25.90234],
        [80.57468, 25.90187],
        [80.57493, 25.90156],
        [80.57542, 25.90125],
        [80.57624, 25.90141],
        [80.57657, 25.90177],
        [80.5769, 25.90219],
        [80.57725, 25.90224],
        [80.57775, 25.90218],
        [80.57795, 25.90327],
        [80.57795, 25.90386],
        [80.57698, 25.90624],
        [80.57621, 25.90739],
        [80.57451, 25.90966],
        [80.5736, 25.91052],
        [80.57273, 25.91091],
        [80.57221, 25.91134],
        [80.56978, 25.91245],
        [80.56891, 25.91261],
        [80.56802, 25.91311],
        [80.56675, 25.91363],
        [80.56617, 25.91456],
        [80.56589, 25.91504],
        [80.56599, 25.91571],
        [80.56601, 25.91644],
        [80.56577, 25.91756],
        [80.56561, 25.91822],
        [80.56535, 25.91878],
        [80.56515, 25.91902],
        [80.56486, 25.91923],
        [80.56455, 25.91923],
        [80.56426, 25.91912],
        [80.5636, 25.91886],
        [80.56312, 25.91864],
        [80.56233, 25.91847],
        [80.56177, 25.91843],
        [80.56099, 25.91855],
        [80.56011, 25.91881],
        [80.55961, 25.91888],
        [80.55917, 25.91896],
        [80.55819, 25.91923],
        [80.55692, 25.91972],
        [80.5563, 25.92012],
        [80.5556, 25.92089],
        [80.55434, 25.92165],
        [80.55353, 25.92317],
        [80.5535, 25.925],
        [80.55387, 25.92609],
        [80.55408, 25.92664],
        [80.5543, 25.92804],
        [80.55438, 25.92925],
        [80.55463, 25.92996],
        [80.55428, 25.93045],
        [80.553, 25.93056],
        [80.55174, 25.93036],
        [80.55049, 25.93003],
        [80.54958, 25.9299],
        [80.54893, 25.93001],
        [80.54837, 25.93007],
        [80.54805, 25.93112],
        [80.54949, 25.93261],
        [80.55022, 25.93341],
        [80.55092, 25.93373],
        [80.55251, 25.93427],
        [80.55422, 25.93465],
        [80.55461, 25.93513],
        [80.55505, 25.93592],
        [80.55482, 25.93676],
        [80.5546, 25.9371],
        [80.55429, 25.93759],
        [80.55371, 25.93832],
        [80.55157, 25.93904],
        [80.55076, 25.93971],
        [80.54984, 25.94175],
        [80.54892, 25.94332],
        [80.54749, 25.9446],
        [80.54605, 25.94588],
        [80.5441, 25.94676],
        [80.54322, 25.9467],
        [80.54263, 25.94648],
        [80.54206, 25.94595],
        [80.54186, 25.94521],
        [80.54162, 25.94416],
        [80.54129, 25.94353],
        [80.5409, 25.94305],
        [80.54055, 25.94294],
        [80.54, 25.94315],
        [80.53981, 25.94357],
        [80.53955, 25.94404],
        [80.53946, 25.94446],
        [80.53902, 25.94498],
        [80.53747, 25.94634],
        [80.53685, 25.94692],
        [80.53624, 25.94744],
        [80.53558, 25.94754],
        [80.53399, 25.94737],
        [80.53244, 25.94722],
        [80.53163, 25.94714],
        [80.53061, 25.94745],
        [80.52897, 25.9485],
        [80.5286, 25.94896],
        [80.52847, 25.94913],
        [80.52845, 25.94955],
        [80.52849, 25.95008],
        [80.52903, 25.95114],
        [80.52967, 25.95208],
        [80.5304, 25.95316],
        [80.53101, 25.95543],
        [80.53197, 25.95945],
        [80.53325, 25.96469],
        [80.53326, 25.96601],
        [80.53312, 25.96659],
        [80.53196, 25.96775],
        [80.53143, 25.96804],
        [80.53089, 25.96832],
        [80.53013, 25.96832],
        [80.52949, 25.96806],
        [80.52904, 25.96753],
        [80.52835, 25.96557],
        [80.52805, 25.96398],
        [80.52801, 25.9634],
        [80.52773, 25.96298],
        [80.52704, 25.96276],
        [80.5261, 25.96271],
        [80.52556, 25.96297],
        [80.52514, 25.96339],
        [80.52465, 25.96403],
        [80.52388, 25.96445],
        [80.52334, 25.96482],
        [80.52286, 25.96529],
        [80.52238, 25.96558],
        [80.52172, 25.96598],
        [80.52093, 25.96709],
        [80.52079, 25.96799],
        [80.52077, 25.96858],
        [80.52074, 25.96953],
        [80.52089, 25.97048],
        [80.51985, 25.97108],
        [80.51812, 25.97152],
        [80.51682, 25.97158],
        [80.51572, 25.97152],
        [80.51521, 25.97143],
        [80.5153, 25.97464],
        [80.51574, 25.97608],
        [80.51597, 25.97808],
        [80.51694, 25.98064],
        [80.51807, 25.98208],
        [80.51969, 25.98301],
        [80.52097, 25.98401],
        [80.52254, 25.98688],
        [80.52323, 25.98975],
        [80.52359, 25.99212],
        [80.52375, 25.99637],
        [80.52315, 25.99931],
        [80.52147, 26.00245],
        [80.51968, 26.00415],
        [80.517, 26.00618],
        [80.51676, 26.00642],
        [80.51572, 26.00744],
        [80.51454, 26.00921],
        [80.51413, 26.01009],
        [80.51378, 26.01053],
        [80.51374, 26.01078],
        [80.51371, 26.01104],
        [80.51391, 26.01141],
        [80.51444, 26.01197],
        [80.51525, 26.0129],
        [80.51655, 26.01421],
        [80.5174, 26.01463],
        [80.51923, 26.01499],
        [80.52119, 26.01515],
        [80.52316, 26.01476],
        [80.52522, 26.01389],
        [80.527, 26.01588],
        [80.52926, 26.01868],
        [80.53131, 26.02266],
        [80.53342, 26.02695],
        [80.53462, 26.02844],
        [80.53533, 26.02974],
        [80.53509, 26.03023],
        [80.53469, 26.03065],
        [80.53411, 26.03178],
        [80.53381, 26.03289],
        [80.53254, 26.03445],
        [80.52997, 26.03528],
        [80.52825, 26.03599],
        [80.52687, 26.03639],
        [80.52564, 26.03729],
        [80.5256, 26.03701],
        [80.52548, 26.03632],
        [80.52236, 26.03345],
        [80.52176, 26.03474],
        [80.52004, 26.03665],
        [80.51858, 26.03764],
        [80.51733, 26.03791],
        [80.51598, 26.03778],
        [80.51343, 26.03695],
        [80.51197, 26.03688],
        [80.51108, 26.03704],
        [80.50988, 26.0372],
        [80.50868, 26.03713],
        [80.508, 26.03723],
        [80.50701, 26.03745],
        [80.50586, 26.03751],
        [80.50486, 26.03797],
        [80.50376, 26.03891],
        [80.50151, 26.04016],
        [80.50009, 26.04154],
        [80.4992, 26.04253],
        [80.50009, 26.04319],
        [80.50202, 26.04495],
        [80.50322, 26.04668],
        [80.50515, 26.04805],
        [80.50572, 26.04857],
        [80.50804, 26.04941],
        [80.50712, 26.05049],
        [80.50696, 26.0512],
        [80.50692, 26.05165],
        [80.50688, 26.05209],
        [80.50704, 26.05227],
        [80.50751, 26.05245],
        [80.50783, 26.05248],
        [80.50839, 26.05262],
        [80.50871, 26.05317],
        [80.5099, 26.05448],
        [80.5104, 26.05621],
        [80.51066, 26.0571],
        [80.51046, 26.05833],
        [80.50994, 26.05864],
        [80.50962, 26.05887],
        [80.50867, 26.05885],
        [80.50771, 26.05887],
        [80.50683, 26.05881],
        [80.50516, 26.0587],
        [80.50348, 26.05859],
        [80.50141, 26.05893],
        [80.50005, 26.05933],
        [80.49924, 26.05996],
        [80.49895, 26.06065],
        [80.49895, 26.06266],
        [80.49924, 26.06493],
        [80.4998, 26.06645],
        [80.49992, 26.06682],
        [80.50016, 26.06721],
        [80.5004, 26.06759],
        [80.50076, 26.06788],
        [80.50111, 26.06814],
        [80.50153, 26.06772],
        [80.50291, 26.06731],
        [80.50545, 26.06741],
        [80.50614, 26.06761],
        [80.50689, 26.06846],
        [80.50833, 26.0701],
        [80.51087, 26.07182],
        [80.51369, 26.07315],
        [80.5157, 26.07375],
        [80.51885, 26.07384],
        [80.52023, 26.07379],
        [80.52133, 26.0763],
        [80.52254, 26.07783],
        [80.52572, 26.08232],
        [80.52738, 26.08157],
        [80.52972, 26.08034],
        [80.53019, 26.08001],
        [80.53067, 26.07969],
        [80.53176, 26.07918],
        [80.53278, 26.07888],
        [80.53344, 26.07866],
        [80.53402, 26.0785],
        [80.53468, 26.07855],
        [80.53526, 26.07868],
        [80.53585, 26.0788],
        [80.53665, 26.07892],
        [80.5376, 26.07937],
        [80.53833, 26.0799],
        [80.53899, 26.08058],
        [80.53965, 26.08131],
        [80.54023, 26.08213],
        [80.54075, 26.08356],
        [80.54185, 26.0849],
        [80.54313, 26.0855],
        [80.54297, 26.08571],
        [80.54285, 26.08614],
        [80.54282, 26.08664],
        [80.54282, 26.08706],
        [80.54273, 26.08754],
        [80.54142, 26.08974],
        [80.5406, 26.09123],
        [80.54042, 26.09201],
        [80.54036, 26.09273],
        [80.54014, 26.09337],
        [80.53909, 26.09449],
        [80.53864, 26.09516],
        [80.53979, 26.09711],
        [80.54145, 26.09959],
        [80.54257, 26.103],
        [80.54353, 26.10686],
        [80.54409, 26.11042],
        [80.54445, 26.11218],
        [80.54603, 26.11316],
        [80.5491, 26.11446],
        [80.55014, 26.11511],
        [80.55102, 26.1155],
        [80.55132, 26.11471],
        [80.55151, 26.11427],
        [80.55141, 26.11355],
        [80.55138, 26.11303],
        [80.55141, 26.11254],
        [80.55172, 26.11201],
        [80.55215, 26.11121],
        [80.55278, 26.11067],
        [80.55309, 26.11044],
        [80.55359, 26.1103],
        [80.55456, 26.11022],
        [80.55717, 26.11087],
        [80.55867, 26.1115],
        [80.55902, 26.11185],
        [80.5598, 26.11151],
        [80.56008, 26.11114],
        [80.56089, 26.11031],
        [80.56248, 26.10886],
        [80.56328, 26.10811],
        [80.56472, 26.10742],
        [80.56672, 26.10685],
        [80.56937, 26.10653],
        [80.57161, 26.10626],
        [80.5723, 26.10602],
        [80.57465, 26.10565],
        [80.57901, 26.10514],
        [80.57985, 26.10552],
        [80.57973, 26.10588],
        [80.57903, 26.10709],
        [80.57898, 26.10798],
        [80.57904, 26.10857],
        [80.57917, 26.1091],
        [80.57961, 26.10973],
        [80.58223, 26.11198],
        [80.58478, 26.11399],
        [80.58578, 26.11489],
        [80.58628, 26.11593],
        [80.58629, 26.11653],
        [80.58617, 26.11707],
        [80.5858, 26.1175],
        [80.5876, 26.11888],
        [80.5884, 26.11914],
        [80.58973, 26.11981],
        [80.59077, 26.12018],
        [80.59362, 26.12095],
        [80.59442, 26.1211],
        [80.59607, 26.12194],
        [80.59639, 26.12235],
        [80.59688, 26.12314],
        [80.59709, 26.12411],
        [80.59726, 26.12516],
        [80.59728, 26.12555],
        [80.59814, 26.12532],
        [80.59944, 26.12518],
        [80.60147, 26.12518],
        [80.60158, 26.12497],
        [80.60268, 26.12381],
        [80.60384, 26.12265],
        [80.60513, 26.12209],
        [80.60562, 26.122],
        [80.60655, 26.12212],
        [80.60736, 26.12231],
        [80.60785, 26.1227],
        [80.60835, 26.12291],
        [80.6091, 26.12334],
        [80.60935, 26.12369],
        [80.61014, 26.12285],
        [80.6113, 26.122],
        [80.61157, 26.12135],
        [80.61197, 26.12203],
        [80.61241, 26.1226],
        [80.61297, 26.12298],
        [80.61409, 26.12351],
        [80.6149, 26.12382],
        [80.61664, 26.1245],
        [80.62103, 26.12494],
        [80.62308, 26.12529],
        [80.62395, 26.12535],
        [80.62469, 26.12543],
        [80.62519, 26.12552],
        [80.62544, 26.12562],
        [80.62563, 26.12579],
        [80.62576, 26.12603],
        [80.62583, 26.12634],
        [80.62584, 26.1267],
        [80.6261, 26.12718],
        [80.62666, 26.12726],
        [80.62778, 26.12725],
        [80.63083, 26.1273],
        [80.63243, 26.12759],
        [80.63319, 26.12714],
        [80.63432, 26.12647],
        [80.63615, 26.12617],
        [80.63658, 26.12601],
        [80.63782, 26.12586],
        [80.63832, 26.12595],
        [80.63864, 26.12611],
        [80.63903, 26.1264],
        [80.6397, 26.12716],
        [80.64023, 26.12756],
        [80.64307, 26.1308],
        [80.64387, 26.13153],
        [80.64428, 26.13141],
        [80.64494, 26.13129],
        [80.64561, 26.13124],
        [80.64643, 26.13123],
        [80.64725, 26.13116],
        [80.64806, 26.13102],
        [80.64885, 26.13082],
        [80.64963, 26.13055],
        [80.65038, 26.13023],
        [80.65111, 26.12984],
        [80.6518, 26.1294],
        [80.65245, 26.12891],
        [80.65293, 26.12854],
        [80.65339, 26.12814],
        [80.6538, 26.1277],
        [80.65417, 26.12723],
        [80.65451, 26.12672],
        [80.65479, 26.12619],
        [80.65503, 26.12564],
        [80.65522, 26.12506],
        [80.65536, 26.12447],
        [80.65542, 26.12425],
        [80.65548, 26.12403],
        [80.65557, 26.12381],
        [80.65568, 26.12361],
        [80.6558, 26.12341],
        [80.65594, 26.12323],
        [80.65609, 26.12305],
        [80.65626, 26.12289],
        [80.65644, 26.12275],
        [80.65681, 26.12243],
        [80.65715, 26.12209],
        [80.65748, 26.12172],
        [80.65778, 26.12134],
        [80.65806, 26.12094],
        [80.65831, 26.12052],
        [80.65853, 26.12009],
        [80.65873, 26.11964],
        [80.6589, 26.11918],
        [80.65907, 26.11875],
        [80.65924, 26.11832],
        [80.65942, 26.11788],
        [80.6596, 26.11745],
        [80.65978, 26.11702],
        [80.65997, 26.1166],
        [80.66016, 26.11617],
        [80.66035, 26.11575],
        [80.66055, 26.11532],
        [80.66067, 26.11501],
        [80.6608, 26.11471],
        [80.66095, 26.11442],
        [80.66111, 26.11414],
        [80.6613, 26.11386],
        [80.66149, 26.11359],
        [80.6617, 26.11334],
        [80.66192, 26.1131],
        [80.66216, 26.11287],
        [80.66244, 26.11253],
        [80.6627, 26.11218],
        [80.66295, 26.11182],
        [80.66319, 26.11145],
        [80.66341, 26.11107],
        [80.66362, 26.11069],
        [80.66382, 26.11029],
        [80.66399, 26.10989],
        [80.66415, 26.10949],
        [80.66447, 26.10902],
        [80.6648, 26.10857],
        [80.66516, 26.10813],
        [80.66552, 26.10771],
        [80.6659, 26.1073],
        [80.6663, 26.1069],
        [80.66671, 26.10651],
        [80.66713, 26.10615],
        [80.66757, 26.10579],
        [80.66915, 26.10442],
        [80.66935, 26.10424],
        [80.66954, 26.10404],
        [80.6697, 26.10382],
        [80.66983, 26.10359],
        [80.66994, 26.10334],
        [80.67003, 26.10308],
        [80.67019, 26.10281],
        [80.67015, 26.10255],
        [80.6701, 26.10228]
      ]
    ]
  }
}
