{
  "type": "Feature",
  "id": "UP-AC-240",
  "properties": {
    "stateName": "UTTAR PRADESH",
    "stateCode": "UP",
    "districtName": "FATEHPUR",
    "acNo": 240,
    "acName": "MEJA",
    "seatType": null,
    "pcNo": null,
    "pcName": null,
    "quality": "unverified",
    "sources": [
      "TBD"
    ]
  },
  "geometry": {
    "type": "Polygon",
    "coordinates": [
      [
        [80.87668, 26.0376],
        [80.87708, 26.03721],
        [80.87737, 26.03672],
        [80.87768, 26.03613],
        [80.87778, 26.03536],
        [80.87744, 26.03429],
        [80.87797, 26.03283],
        [80.87864, 26.03205],
        [80.87902, 26.03176],
        [80.87976, 26.03136],
        [80.88073, 26.03097],
        [80.88087, 26.03077],
        [80.88126, 26.03038],
        [80.88169, 26.02961],
        [80.8819, 26.02873],
        [80.8822, 26.02805],
        [80.88281, 26.02786],
        [80.88374, 26.02784],
        [80.88465, 26.02803],
        [80.88559, 26.02802],
        [80.88573, 26.02808],
        [80.88603, 26.02821],
        [80.88844, 26.02653],
        [80.89025, 26.02593],
        [80.89122, 26.02562],
        [80.89278, 26.02493],
        [80.89184, 26.02353],
        [80.89161, 26.0229],
        [80.89148, 26.02219],
        [80.89174, 26.02147],
        [80.89218, 26.02083],
        [80.89301, 26.02019],
        [80.89382, 26.0197],
        [80.89394, 26.01964],
        [80.89484, 26.01913],
        [80.90209, 26.01606],
        [80.90342, 26.01524],
        [80.90443, 26.01467],
        [80.90506, 26.0141],
        [80.9054, 26.01338],
        [80.90547, 26.01235],
        [80.9056, 26.01178],
        [80.90555, 26.01093],
        [80.9054, 26.00862],
        [80.90519, 26.0072],
        [80.90516, 26.00586],
        [80.90586, 26.00356],
        [80.90624, 26.003],
        [80.90701, 26.00187],
        [80.90791, 26.00114],
        [80.90811, 26.00095],
        [80.90872, 26.00034],
        [80.90913, 25.99993],
        [80.91035, 25.99879],
        [80.91266, 25.99683],
        [80.91397, 25.99569],
        [80.91419, 25.99555],
        [80.91497, 25.99503],
        [80.91592, 25.99463],
        [80.91576, 25.99384],
        [80.91548, 25.99329],
        [80.9151, 25.99298],
        [80.91442, 25.99259],
        [80.91375, 25.99189],
        [80.91329, 25.99117],
        [80.91276, 25.98966],
        [80.913, 25.9886],
        [80.91341, 25.98811],
        [80.91404, 25.98728],
        [80.91455, 25.98687],
        [80.91526, 25.9862],
        [80.91579, 25.98538],
        [80.91621, 25.9848],
        [80.91643, 25.98391],
        [80.91584, 25.98389],
        [80.91515, 25.98391],
        [80.91396, 25.98402],
        [80.91298, 25.98389],
        [80.9123, 25.98375],
        [80.91162, 25.98345],
        [80.91085, 25.98307],
        [80.90935, 25.98266],
        [80.909, 25.98257],
        [80.90873, 25.98217],
        [80.90895, 25.9816],
        [80.90955, 25.98126],
        [80.90996, 25.98077],
        [80.90998, 25.98029],
        [80.9098, 25.97981],
        [80.90943, 25.97934],
        [80.90876, 25.97888],
        [80.9082, 25.97833],
        [80.90754, 25.97771],
        [80.90706, 25.9774],
        [80.90639, 25.97711],
        [80.90591, 25.97688],
        [80.90523, 25.97674],
        [80.90424, 25.97701],
        [80.90346, 25.97711],
        [80.90325, 25.9771],
        [80.90278, 25.97705],
        [80.9024, 25.97675],
        [80.90119, 25.97519],
        [80.90144, 25.97492],
        [80.902, 25.97403],
        [80.90221, 25.97323],
        [80.90251, 25.97228],
        [80.90353, 25.97077],
        [80.90358, 25.97037],
        [80.90248, 25.96869],
        [80.90141, 25.96713],
        [80.90039, 25.9663],
        [80.89849, 25.96536],
        [80.89678, 25.96368],
        [80.8958, 25.96179],
        [80.8948, 25.96049],
        [80.89443, 25.96014],
        [80.89638, 25.9593],
        [80.8972, 25.95868],
        [80.8977, 25.95807],
        [80.89798, 25.9568],
        [80.89791, 25.95632],
        [80.90041, 25.95665],
        [80.90161, 25.95682],
        [80.90274, 25.95678],
        [80.90444, 25.95646],
        [80.90559, 25.95582],
        [80.90716, 25.95444],
        [80.90787, 25.95489],
        [80.90905, 25.95597],
        [80.90965, 25.95748],
        [80.90994, 25.9586],
        [80.90992, 25.9594],
        [80.90987, 25.961],
        [80.91019, 25.96261],
        [80.91157, 25.96289],
        [80.91244, 25.96314],
        [80.91341, 25.96333],
        [80.9142, 25.96337],
        [80.91473, 25.96343],
        [80.9158, 25.96332],
        [80.91759, 25.96267],
        [80.91795, 25.96244],
        [80.9184, 25.96221],
        [80.91867, 25.9622],
        [80.91981, 25.96252],
        [80.92059, 25.963],
        [80.92221, 25.96345],
        [80.92355, 25.96341],
        [80.92533, 25.96334],
        [80.92721, 25.96291],
        [80.92999, 25.96215],
        [80.93259, 25.96147],
        [80.9342, 25.96112],
        [80.93555, 25.96063],
        [80.93593, 25.96055],
        [80.93645, 25.96045],
        [80.93707, 25.96049],
        [80.93796, 25.96083],
        [80.93854, 25.96116],
        [80.93957, 25.96044],
        [80.94009, 25.95992],
        [80.94061, 25.95956],
        [80.94319, 25.95871],
        [80.94444, 25.95816],
        [80.94546, 25.95803],
        [80.94628, 25.958],
        [80.94649, 25.95799],
        [80.94744, 25.95757],
        [80.9494, 25.95836],
        [80.95112, 25.95849],
        [80.95195, 25.95819],
        [80.95236, 25.9579],
        [80.95327, 25.9576],
        [80.95352, 25.95752],
        [80.95418, 25.95756],
        [80.95458, 25.95774],
        [80.95499, 25.95826],
        [80.95548, 25.95844],
        [80.95597, 25.95849],
        [80.9568, 25.95832],
        [80.95862, 25.95717],
        [80.96078, 25.95527],
        [80.96311, 25.95257],
        [80.96394, 25.9518],
        [80.96501, 25.95109],
        [80.96526, 25.95108],
        [80.9654, 25.95123],
        [80.96543, 25.9516],
        [80.96583, 25.95218],
        [80.96673, 25.95261],
        [80.96837, 25.95281],
        [80.97083, 25.95297],
        [80.97356, 25.95252],
        [80.9735, 25.95285],
        [80.97381, 25.95325],
        [80.97432, 25.95365],
        [80.97493, 25.95404],
        [80.97585, 25.95458],
        [80.97902, 25.95645],
        [80.98353, 25.95885],
        [80.98569, 25.96026],
        [80.98651, 25.9609],
        [80.98682, 25.96139],
        [80.98681, 25.96187],
        [80.99027, 25.96284],
        [80.99126, 25.963],
        [80.99138, 25.96307],
        [80.99316, 25.96014],
        [80.99455, 25.95794],
        [80.99627, 25.95612],
        [80.9993, 25.95384],
        [81.002, 25.95198],
        [81.00297, 25.95094],
        [81.00303, 25.95067],
        [81.00321, 25.94979],
        [81.00322, 25.94822],
        [81.00464, 25.94778],
        [81.00566, 25.9474],
        [81.0074, 25.94708],
        [81.01406, 25.94609],
        [81.01722, 25.94527],
        [81.01843, 25.94446],
        [81.02005, 25.94363],
        [81.02086, 25.943],
        [81.02122, 25.94274],
        [81.02197, 25.9422],
        [81.02258, 25.94141],
        [81.02307, 25.94048],
        [81.02317, 25.9403],
        [81.02357, 25.9392],
        [81.02589, 25.93298],
        [81.02656, 25.93121],
        [81.02673, 25.93021],
        [81.02701, 25.92929],
        [81.02776, 25.9278],
        [81.02815, 25.927],
        [81.02844, 25.92641],
        [81.02872, 25.92599],
        [81.03023, 25.92659],
        [81.03114, 25.92696],
        [81.03274, 25.92746],
        [81.03424, 25.92763],
        [81.03613, 25.92787],
        [81.0389, 25.92809],
        [81.03863, 25.92722],
        [81.03861, 25.92652],
        [81.03881, 25.92561],
        [81.03927, 25.92508],
        [81.03974, 25.92466],
        [81.04056, 25.92422],
        [81.04114, 25.9238],
        [81.04173, 25.92357],
        [81.04243, 25.92314],
        [81.04324, 25.9224],
        [81.04356, 25.92149],
        [81.04364, 25.92049],
        [81.04337, 25.9196],
        [81.04309, 25.91832],
        [81.04258, 25.91725],
        [81.0416, 25.9141],
        [81.04112, 25.91254],
        [81.0411, 25.91154],
        [81.04107, 25.91065],
        [81.04104, 25.90949],
        [81.04103, 25.90926],
        [81.04098, 25.90727],
        [81.04096, 25.90638],
        [81.04094, 25.90538],
        [81.04079, 25.9042],
        [81.04063, 25.90378],
        [81.04042, 25.90322],
        [81.04029, 25.90263],
        [81.04016, 25.90213],
        [81.037, 25.89719],
        [81.03574, 25.8954],
        [81.03422, 25.89322],
        [81.03326, 25.89187],
        [81.03084, 25.88854],
        [81.03038, 25.8879],
        [81.02977, 25.88632],
        [81.02917, 25.88485],
        [81.02893, 25.88406],
        [81.02882, 25.88371],
        [81.02857, 25.88288],
        [81.02856, 25.88169],
        [81.02903, 25.88077],
        [81.02962, 25.88005],
        [81.03069, 25.87901],
        [81.03175, 25.87837],
        [81.03281, 25.87763],
        [81.03387, 25.8767],
        [81.03423, 25.87609],
        [81.03482, 25.87527],
        [81.03523, 25.87437],
        [81.03529, 25.87425],
        [81.0354, 25.87335],
        [81.0354, 25.87218],
        [81.03534, 25.8716],
        [81.03529, 25.87106],
        [81.03435, 25.8689],
        [81.03329, 25.86705],
        [81.03223, 25.86619],
        [81.02693, 25.86188],
        [81.02575, 25.86113],
        [81.02457, 25.86057],
        [81.02375, 25.86],
        [81.02339, 25.85931],
        [81.02312, 25.85878],
        [81.02304, 25.85863],
        [81.02258, 25.85764],
        [81.02211, 25.85686],
        [81.02188, 25.85617],
        [81.02165, 25.85527],
        [81.02142, 25.85438],
        [81.02131, 25.85339],
        [81.02108, 25.85249],
        [81.02098, 25.85099],
        [81.02087, 25.8499],
        [81.021, 25.84879],
        [81.02149, 25.84797],
        [81.0221, 25.84695],
        [81.02258, 25.84613],
        [81.02307, 25.84521],
        [81.02333, 25.8437],
        [81.02346, 25.84259],
        [81.02416, 25.84166],
        [81.02431, 25.84146],
        [81.02563, 25.84021],
        [81.02742, 25.83915],
        [81.03077, 25.83723],
        [81.03494, 25.83479],
        [81.03577, 25.83416],
        [81.03638, 25.83344],
        [81.03662, 25.83283],
        [81.03652, 25.83183],
        [81.03626, 25.83144],
        [81.03607, 25.83115],
        [81.0356, 25.83056],
        [81.03503, 25.82997],
        [81.03409, 25.8295],
        [81.03156, 25.82587],
        [81.03091, 25.82473],
        [81.03077, 25.82448],
        [81.03019, 25.8235],
        [81.0301, 25.82229],
        [81.03001, 25.82129],
        [81.0299, 25.82049],
        [81.02947, 25.81899],
        [81.02925, 25.81799],
        [81.02901, 25.8157],
        [81.02896, 25.81518],
        [81.02923, 25.81397],
        [81.0293, 25.81386],
        [81.02984, 25.81304],
        [81.03069, 25.81211],
        [81.03153, 25.81168],
        [81.03261, 25.81114],
        [81.03404, 25.81059],
        [81.03523, 25.81005],
        [81.03714, 25.80929],
        [81.03787, 25.80866],
        [81.0386, 25.80773],
        [81.03898, 25.80672],
        [81.03913, 25.8056],
        [81.03903, 25.8049],
        [81.0387, 25.80402],
        [81.03789, 25.80332],
        [81.03731, 25.80283],
        [81.0365, 25.80235],
        [81.03568, 25.80207],
        [81.0351, 25.80188],
        [81.03404, 25.80171],
        [81.03297, 25.80174],
        [81.03167, 25.80178],
        [81.02945, 25.80209],
        [81.02882, 25.80218],
        [81.02703, 25.80264],
        [81.02535, 25.8032],
        [81.02456, 25.80346],
        [81.02403, 25.80364],
        [81.02259, 25.80409],
        [81.02164, 25.80423],
        [81.01938, 25.8043],
        [81.01795, 25.80435],
        [81.01545, 25.80433],
        [81.01267, 25.80401],
        [81.01212, 25.80395],
        [81.01093, 25.80348],
        [81.01041, 25.8032],
        [81.00987, 25.80291],
        [81.00906, 25.80214],
        [81.00824, 25.80146],
        [81.00766, 25.80077],
        [81.00684, 25.79999],
        [81.00638, 25.7993],
        [81.00616, 25.7987],
        [81.00582, 25.7978],
        [81.00462, 25.7938],
        [81.00429, 25.7927],
        [81.0036, 25.79181],
        [81.00349, 25.79166],
        [81.00325, 25.79132],
        [81.00254, 25.79094],
        [81.00171, 25.79077],
        [81.00064, 25.7902],
        [80.99959, 25.78943],
        [80.998, 25.7878],
        [80.99702, 25.7868],
        [80.99645, 25.78581],
        [80.99636, 25.78479],
        [80.99628, 25.78358],
        [80.99609, 25.78186],
        [80.99612, 25.78105],
        [80.99603, 25.78004],
        [80.99619, 25.77891],
        [80.99626, 25.77855],
        [80.99633, 25.77819],
        [80.99684, 25.77716],
        [80.99722, 25.77684],
        [80.99808, 25.77619],
        [80.99851, 25.77592],
        [80.99943, 25.77532],
        [81.00029, 25.77488],
        [81.00416, 25.77402],
        [81.0049, 25.77399],
        [81.00524, 25.77398],
        [81.0062, 25.77394],
        [81.00728, 25.7738],
        [81.00813, 25.77356],
        [81.00873, 25.77344],
        [81.00935, 25.7728],
        [81.01034, 25.77195],
        [81.01108, 25.77121],
        [81.01195, 25.77036],
        [81.01293, 25.76961],
        [81.0138, 25.76876],
        [81.01514, 25.7681],
        [81.01599, 25.76777],
        [81.01683, 25.76743],
        [81.01756, 25.7671],
        [81.01805, 25.76678],
        [81.01815, 25.76653],
        [81.01857, 25.76553],
        [81.01849, 25.76462],
        [81.01796, 25.76389],
        [81.01769, 25.76352],
        [81.01621, 25.76163],
        [81.01529, 25.76074],
        [81.01392, 25.75925],
        [81.0136, 25.75824],
        [81.0131, 25.7557],
        [81.01331, 25.7543],
        [81.01359, 25.7524],
        [81.01435, 25.7489],
        [81.01478, 25.7469],
        [81.01483, 25.74288],
        [81.0147, 25.74041],
        [81.01479, 25.73959],
        [81.01297, 25.74069],
        [81.01128, 25.74156],
        [81.01024, 25.74201],
        [81.0092, 25.74232],
        [81.00858, 25.74228],
        [81.00819, 25.74209],
        [81.00725, 25.74193],
        [81.0064, 25.74169],
        [81.00578, 25.74145],
        [81.00382, 25.74126],
        [81.00178, 25.7408],
        [80.99946, 25.73975],
        [80.99863, 25.73891],
        [80.99764, 25.73631],
        [80.9967, 25.73431],
        [80.99626, 25.73358],
        [80.99563, 25.73322],
        [80.99484, 25.73332],
        [80.99403, 25.7337],
        [80.99369, 25.73405],
        [80.99271, 25.73478],
        [80.99117, 25.73546],
        [80.98996, 25.73592],
        [80.98924, 25.73616],
        [80.98812, 25.73621],
        [80.98717, 25.73594],
        [80.98648, 25.73575],
        [80.98516, 25.7352],
        [80.98373, 25.73513],
        [80.98309, 25.73516],
        [80.9823, 25.7352],
        [80.98054, 25.73549],
        [80.9798, 25.73587],
        [80.97896, 25.73693],
        [80.97827, 25.73804],
        [80.97758, 25.73909],
        [80.97619, 25.73997],
        [80.97467, 25.74012],
        [80.97338, 25.74025],
        [80.97208, 25.74079],
        [80.97126, 25.74144],
        [80.9698, 25.74367],
        [80.96768, 25.74633],
        [80.96595, 25.74873],
        [80.96581, 25.74892],
        [80.96441, 25.75],
        [80.96359, 25.75051],
        [80.96277, 25.75095],
        [80.96227, 25.75145],
        [80.96042, 25.75349],
        [80.95964, 25.75487],
        [80.95881, 25.75558],
        [80.95684, 25.75638],
        [80.95657, 25.75613],
        [80.9552, 25.75533],
        [80.95449, 25.75523],
        [80.95336, 25.75529],
        [80.95288, 25.75532],
        [80.95243, 25.75534],
        [80.95215, 25.75536],
        [80.95143, 25.75526],
        [80.95096, 25.75515],
        [80.95032, 25.75505],
        [80.94879, 25.755],
        [80.94799, 25.75511],
        [80.9475, 25.75527],
        [80.94683, 25.75584],
        [80.94599, 25.75675],
        [80.94533, 25.75712],
        [80.94485, 25.75715],
        [80.94461, 25.75696],
        [80.94422, 25.75658],
        [80.9427, 25.75453],
        [80.94056, 25.75171],
        [80.9399, 25.74994],
        [80.93896, 25.74946],
        [80.93855, 25.74948],
        [80.93766, 25.74953],
        [80.93684, 25.74978],
        [80.93576, 25.75051],
        [80.93296, 25.7518],
        [80.93017, 25.75276],
        [80.92969, 25.75266],
        [80.92922, 25.75235],
        [80.92868, 25.75172],
        [80.9284, 25.7506],
        [80.92839, 25.75042],
        [80.92773, 25.75092],
        [80.92696, 25.75196],
        [80.92668, 25.75271],
        [80.9268, 25.75377],
        [80.92726, 25.75448],
        [80.92789, 25.75504],
        [80.92828, 25.75541],
        [80.92864, 25.75639],
        [80.92862, 25.75693],
        [80.92835, 25.75761],
        [80.9276, 25.75818],
        [80.92677, 25.75876],
        [80.92562, 25.75929],
        [80.92487, 25.75973],
        [80.92461, 25.76021],
        [80.92394, 25.76071],
        [80.92247, 25.76119],
        [80.92074, 25.76175],
        [80.9196, 25.76201],
        [80.91869, 25.7624],
        [80.91819, 25.76289],
        [80.91791, 25.76383],
        [80.91787, 25.76509],
        [80.9176, 25.76762],
        [80.91787, 25.76766],
        [80.91811, 25.76778],
        [80.91842, 25.76823],
        [80.91922, 25.76871],
        [80.92018, 25.76899],
        [80.92082, 25.76922],
        [80.92154, 25.76951],
        [80.92209, 25.76988],
        [80.9232, 25.77082],
        [80.92366, 25.77152],
        [80.92364, 25.77198],
        [80.92329, 25.7728],
        [80.92311, 25.77347],
        [80.92291, 25.77461],
        [80.92282, 25.77494],
        [80.92305, 25.77546],
        [80.92352, 25.77583],
        [80.92401, 25.77587],
        [80.92441, 25.77585],
        [80.92521, 25.77601],
        [80.92528, 25.77634],
        [80.92535, 25.77673],
        [80.92508, 25.77774],
        [80.92499, 25.77807],
        [80.9253, 25.77832],
        [80.9257, 25.77843],
        [80.92594, 25.77855],
        [80.9261, 25.77881],
        [80.92625, 25.77913],
        [80.9264, 25.77952],
        [80.9271, 25.78028],
        [80.92814, 25.78063],
        [80.92849, 25.78081],
        [80.92828, 25.78151],
        [80.9282, 25.78209],
        [80.92754, 25.78218],
        [80.92608, 25.78239],
        [80.92543, 25.78236],
        [80.92487, 25.78219],
        [80.92311, 25.78175],
        [80.92149, 25.7819],
        [80.91978, 25.78212],
        [80.9188, 25.78237],
        [80.91814, 25.78293],
        [80.91697, 25.78438],
        [80.91556, 25.78577],
        [80.91398, 25.78763],
        [80.91322, 25.78872],
        [80.91296, 25.78972],
        [80.91293, 25.7909],
        [80.9135, 25.79282],
        [80.9127, 25.79299],
        [80.91197, 25.79303],
        [80.91117, 25.79313],
        [80.91003, 25.79332],
        [80.90942, 25.79348],
        [80.90914, 25.79355],
        [80.90768, 25.79401],
        [80.90639, 25.79414],
        [80.90478, 25.79414],
        [80.90341, 25.79414],
        [80.90219, 25.79445],
        [80.90141, 25.79496],
        [80.9004, 25.79442],
        [80.89977, 25.79379],
        [80.8993, 25.79309],
        [80.89885, 25.79154],
        [80.89799, 25.79007],
        [80.89719, 25.78958],
        [80.8963, 25.78948],
        [80.89566, 25.78944],
        [80.89453, 25.78956],
        [80.89372, 25.78966],
        [80.89291, 25.79008],
        [80.89229, 25.79048],
        [80.8912, 25.79093],
        [80.89088, 25.79095],
        [80.88975, 25.79079],
        [80.8888, 25.78985],
        [80.88817, 25.78877],
        [80.8877, 25.78826],
        [80.88738, 25.78801],
        [80.88673, 25.78804],
        [80.88617, 25.78819],
        [80.88576, 25.7886],
        [80.88503, 25.78889],
        [80.88332, 25.7894],
        [80.88306, 25.78959],
        [80.88275, 25.78982],
        [80.88234, 25.79068],
        [80.88168, 25.79129],
        [80.88087, 25.79171],
        [80.88006, 25.79193],
        [80.87844, 25.79277],
        [80.87786, 25.79357],
        [80.87736, 25.79483],
        [80.87711, 25.79595],
        [80.87612, 25.79819],
        [80.87563, 25.79796],
        [80.87524, 25.79745],
        [80.87412, 25.79651],
        [80.87276, 25.79584],
        [80.87116, 25.7955],
        [80.86971, 25.79535],
        [80.86794, 25.7956],
        [80.8678, 25.79563],
        [80.86536, 25.79614],
        [80.86354, 25.79644],
        [80.86356, 25.79614],
        [80.86357, 25.79581],
        [80.86357, 25.79497],
        [80.8635, 25.79432],
        [80.86334, 25.79413],
        [80.86286, 25.79395],
        [80.8623, 25.79391],
        [80.86077, 25.79389],
        [80.8594, 25.79419],
        [80.85851, 25.79454],
        [80.85689, 25.79569],
        [80.85616, 25.79604],
        [80.85568, 25.79611],
        [80.8548, 25.79621],
        [80.85423, 25.79648],
        [80.85294, 25.79684],
        [80.85238, 25.79725],
        [80.85125, 25.79767],
        [80.85085, 25.79768],
        [80.84916, 25.79779],
        [80.8486, 25.79787],
        [80.84747, 25.79822],
        [80.84715, 25.79868],
        [80.84714, 25.79927],
        [80.8473, 25.79972],
        [80.8473, 25.80024],
        [80.84722, 25.80043],
        [80.84657, 25.80051],
        [80.84618, 25.80007],
        [80.84579, 25.79968],
        [80.84562, 25.7995],
        [80.8429, 25.79691],
        [80.83899, 25.79318],
        [80.83703, 25.79071],
        [80.83591, 25.78937],
        [80.8344, 25.78986],
        [80.83223, 25.79043],
        [80.82951, 25.79081],
        [80.8275, 25.79104],
        [80.82646, 25.79126],
        [80.82446, 25.79129],
        [80.82435, 25.79128],
        [80.82366, 25.79118],
        [80.82286, 25.79093],
        [80.8211, 25.79116],
        [80.81974, 25.79163],
        [80.8179, 25.79282],
        [80.81774, 25.79302],
        [80.8167, 25.79433],
        [80.81495, 25.79701],
        [80.81415, 25.79896],
        [80.81397, 25.79995],
        [80.81391, 25.80026],
        [80.81375, 25.80149],
        [80.81391, 25.80343],
        [80.81463, 25.80628],
        [80.81571, 25.80906],
        [80.81732, 25.81325],
        [80.81803, 25.81525],
        [80.81858, 25.81635],
        [80.81945, 25.81783],
        [80.81936, 25.81894],
        [80.81952, 25.81978],
        [80.81983, 25.82037],
        [80.82039, 25.82094],
        [80.82134, 25.82177],
        [80.82237, 25.8226],
        [80.82316, 25.82305],
        [80.82387, 25.82342],
        [80.82451, 25.824],
        [80.8249, 25.82477],
        [80.82549, 25.8255],
        [80.82473, 25.82618],
        [80.82268, 25.82836],
        [80.8213, 25.82952],
        [80.82018, 25.8309],
        [80.8185, 25.83184],
        [80.81587, 25.83377],
        [80.813, 25.83499],
        [80.80927, 25.83608],
        [80.80752, 25.83702],
        [80.80704, 25.83768],
        [80.80696, 25.83827],
        [80.80695, 25.83869],
        [80.80696, 25.83879],
        [80.80711, 25.83983],
        [80.80702, 25.84035],
        [80.80662, 25.84095],
        [80.80583, 25.84154],
        [80.80431, 25.843],
        [80.80137, 25.84597],
        [80.80089, 25.8467],
        [80.80017, 25.84755],
        [80.79851, 25.84855],
        [80.79597, 25.85021],
        [80.79541, 25.85126],
        [80.79509, 25.85218],
        [80.79523, 25.85369],
        [80.7956, 25.85565],
        [80.79574, 25.85755],
        [80.79596, 25.8586],
        [80.79719, 25.86064],
        [80.7965, 25.86103],
        [80.79238, 25.86218],
        [80.79134, 25.86252],
        [80.79079, 25.86253],
        [80.79, 25.86253],
        [80.78945, 25.86254],
        [80.78898, 25.86254],
        [80.78858, 25.86254],
        [80.78732, 25.86268],
        [80.78669, 25.86282],
        [80.78519, 25.86276],
        [80.78362, 25.86238],
        [80.78236, 25.86232],
        [80.78121, 25.86233],
        [80.77976, 25.8624],
        [80.77873, 25.86274],
        [80.77825, 25.86293],
        [80.7773, 25.86327],
        [80.77706, 25.86353],
        [80.77666, 25.86406],
        [80.77649, 25.86459],
        [80.77647, 25.8656],
        [80.77647, 25.86571],
        [80.7765, 25.86597],
        [80.77444, 25.86643],
        [80.77235, 25.86695],
        [80.77029, 25.86777],
        [80.76869, 25.86858],
        [80.76775, 25.86936],
        [80.76711, 25.87036],
        [80.76601, 25.87139],
        [80.7655, 25.87178],
        [80.76468, 25.87224],
        [80.762, 25.87339],
        [80.7613, 25.87261],
        [80.76105, 25.87233],
        [80.76122, 25.87298],
        [80.76136, 25.87435],
        [80.76159, 25.87535],
        [80.76141, 25.87578],
        [80.76105, 25.8765],
        [80.76069, 25.87715],
        [80.76033, 25.87772],
        [80.75981, 25.87823],
        [80.75954, 25.87852],
        [80.7591, 25.87916],
        [80.75909, 25.87952],
        [80.75915, 25.88024],
        [80.75913, 25.88096],
        [80.75912, 25.88146],
        [80.75901, 25.88226],
        [80.75908, 25.8829],
        [80.7594, 25.88384],
        [80.75963, 25.88477],
        [80.75953, 25.8852],
        [80.75951, 25.88571],
        [80.75959, 25.88614],
        [80.76001, 25.88643],
        [80.76069, 25.88657],
        [80.76102, 25.88686],
        [80.76101, 25.88729],
        [80.761, 25.88751],
        [80.76021, 25.88815],
        [80.7595, 25.88902],
        [80.75888, 25.88952],
        [80.75852, 25.89003],
        [80.75851, 25.89046],
        [80.75849, 25.89111],
        [80.75899, 25.89168],
        [80.75957, 25.89226],
        [80.76024, 25.89276],
        [80.76056, 25.89362],
        [80.76104, 25.89539],
        [80.76067, 25.89555],
        [80.76047, 25.89616],
        [80.76081, 25.89707],
        [80.76114, 25.89798],
        [80.76124, 25.89825],
        [80.76164, 25.89935],
        [80.76177, 25.90072],
        [80.76209, 25.90224],
        [80.76523, 25.90961],
        [80.76395, 25.91072],
        [80.76372, 25.91101],
        [80.7635, 25.9113],
        [80.76295, 25.91203],
        [80.7625, 25.91246],
        [80.76197, 25.9129],
        [80.76099, 25.91355],
        [80.76053, 25.91435],
        [80.76014, 25.91554],
        [80.76109, 25.9155],
        [80.76221, 25.91571],
        [80.76393, 25.91592],
        [80.76505, 25.91598],
        [80.76518, 25.9159],
        [80.76541, 25.91576],
        [80.76577, 25.91533],
        [80.76605, 25.91475],
        [80.76633, 25.91424],
        [80.76695, 25.91363],
        [80.77132, 25.92387],
        [80.77222, 25.92598],
        [80.77289, 25.9278],
        [80.77221, 25.92862],
        [80.77212, 25.92873],
        [80.77115, 25.92995],
        [80.77037, 25.93103],
        [80.7692, 25.93256],
        [80.76825, 25.93333],
        [80.7662, 25.93396],
        [80.76618, 25.93458],
        [80.76622, 25.93499],
        [80.7663, 25.93595],
        [80.76683, 25.93655],
        [80.76773, 25.93715],
        [80.76844, 25.9376],
        [80.76934, 25.9382],
        [80.77041, 25.93896],
        [80.77238, 25.94046],
        [80.77346, 25.94105],
        [80.77415, 25.94211],
        [80.77468, 25.94287],
        [80.77481, 25.94409],
        [80.77568, 25.94529],
        [80.7768, 25.94513],
        [80.77923, 25.94449],
        [80.77991, 25.94585],
        [80.78205, 25.95016],
        [80.78284, 25.95174],
        [80.78569, 25.9574],
        [80.79041, 25.96668],
        [80.80226, 25.96441],
        [80.80316, 25.96593],
        [80.80356, 25.9673],
        [80.80379, 25.9683],
        [80.80368, 25.96888],
        [80.80322, 25.96939],
        [80.80276, 25.9699],
        [80.80169, 25.97043],
        [80.80141, 25.97058],
        [80.8005, 25.97124],
        [80.79985, 25.97205],
        [80.79938, 25.97271],
        [80.79919, 25.97311],
        [80.799, 25.97351],
        [80.79893, 25.97531],
        [80.79873, 25.97863],
        [80.79868, 25.98007],
        [80.7988, 25.98165],
        [80.79886, 25.98252],
        [80.7991, 25.98337],
        [80.79934, 25.98423],
        [80.79958, 25.9848],
        [80.79985, 25.9849],
        [80.79994, 25.98494],
        [80.80073, 25.98499],
        [80.80172, 25.98482],
        [80.80252, 25.98473],
        [80.80394, 25.9847],
        [80.80457, 25.98454],
        [80.80609, 25.98437],
        [80.80689, 25.9842],
        [80.80796, 25.98404],
        [80.80876, 25.98409],
        [80.80929, 25.98415],
        [80.80982, 25.98428],
        [80.81033, 25.98499],
        [80.81228, 25.98518],
        [80.81339, 25.98506],
        [80.81425, 25.98721],
        [80.81463, 25.98769],
        [80.81494, 25.98768],
        [80.81514, 25.9876],
        [80.81543, 25.98775],
        [80.81725, 25.99087],
        [80.81822, 25.99206],
        [80.8187, 25.9927],
        [80.81878, 25.99335],
        [80.81888, 25.99359],
        [80.81877, 25.99391],
        [80.81846, 25.99416],
        [80.81797, 25.99417],
        [80.81775, 25.99474],
        [80.81804, 25.99522],
        [80.81862, 25.99594],
        [80.8189, 25.99666],
        [80.81926, 25.99726],
        [80.81984, 25.99749],
        [80.82005, 25.99754],
        [80.81907, 25.99824],
        [80.81858, 25.99894],
        [80.81847, 25.99964],
        [80.81826, 26.00034],
        [80.81825, 26.00111],
        [80.81823, 26.00249],
        [80.81885, 26.00509],
        [80.82244, 26.01989],
        [80.82278, 26.02137],
        [80.82296, 26.02122],
        [80.82339, 26.02082],
        [80.82379, 26.02039],
        [80.82441, 26.02009],
        [80.82504, 26.01982],
        [80.82569, 26.01958],
        [80.82634, 26.01937],
        [80.827, 26.01918],
        [80.82767, 26.01903],
        [80.82834, 26.0189],
        [80.82902, 26.0188],
        [80.8297, 26.01873],
        [80.83087, 26.01872],
        [80.83203, 26.01879],
        [80.83318, 26.01892],
        [80.83433, 26.01912],
        [80.83546, 26.01939],
        [80.83657, 26.01973],
        [80.83767, 26.02013],
        [80.83873, 26.02059],
        [80.83977, 26.02112],
        [80.84056, 26.02163],
        [80.84134, 26.02217],
        [80.84208, 26.02275],
        [80.84281, 26.02336],
        [80.8435, 26.024],
        [80.84417, 26.02467],
        [80.8448, 26.02536],
        [80.84541, 26.02609],
        [80.84598, 26.02684],
        [80.8465, 26.02751],
        [80.84702, 26.02818],
        [80.84755, 26.02884],
        [80.84809, 26.02949],
        [80.84863, 26.03014],
        [80.84919, 26.03078],
        [80.84975, 26.03141],
        [80.85031, 26.03204],
        [80.85089, 26.03266],
        [80.85126, 26.03314],
        [80.85161, 26.03363],
        [80.85194, 26.03413],
        [80.85226, 26.03465],
        [80.85256, 26.03517],
        [80.85285, 26.0357],
        [80.85311, 26.03624],
        [80.85336, 26.03679],
        [80.85359, 26.03735],
        [80.85387, 26.03799],
        [80.85419, 26.0386],
        [80.85456, 26.03919],
        [80.85497, 26.03975],
        [80.85542, 26.04028],
        [80.85591, 26.04077],
        [80.85644, 26.04123],
        [80.85699, 26.04164],
        [80.85758, 26.04201],
        [80.85804, 26.04227],
        [80.85849, 26.04254],
        [80.85893, 26.04284],
        [80.85936, 26.04314],
        [80.85978, 26.04346],
        [80.86018, 26.0438],
        [80.86058, 26.04415],
        [80.86096, 26.04452],
        [80.86132, 26.0449],
        [80.86161, 26.04533],
        [80.86193, 26.04574],
        [80.86227, 26.04614],
        [80.86262, 26.04651],
        [80.863, 26.04687],
        [80.86341, 26.0472],
        [80.86382, 26.04751],
        [80.86426, 26.04779],
        [80.86471, 26.04805],
        [80.86574, 26.0487],
        [80.86677, 26.04936],
        [80.8678, 26.05002],
        [80.86883, 26.05068],
        [80.86985, 26.05135],
        [80.87087, 26.05202],
        [80.87189, 26.0527],
        [80.8729, 26.05337],
        [80.87391, 26.05406],
        [80.87427, 26.05433],
        [80.87464, 26.05458],
        [80.87614, 26.03946],
        [80.87668, 26.0376]
      ]
    ]
  }
}
