{
  "type": "Feature",
  "id": "UP-AC-262",
  "properties": {
    "stateName": "UTTAR PRADESH",
    "stateCode": "UP",
    "districtName": "ALLAHABAD",
    "acNo": 262,
    "acName": "AKBARPUR",
    "seatType": null,
    "pcNo": null,
    "pcName": null,
    "quality": "unverified",
    "sources": [
      "TBD"
    ]
  },
  "geometry": {
    "type": "Polygon",
    "coordinates": [
      [
        [81.88041, 25.50953],
        [81.88254, 25.50465],
        [81.88928, 25.49389],
        [81.89509, 25.48699],
        [81.89937, 25.48302],
        [81.8999, 25.48252],
        [81.90513, 25.47714],
        [81.90768, 25.47463],
        [81.9085, 25.47325],
        [81.90861, 25.47285],
        [81.90894, 25.47163],
        [81.90899, 25.47024],
        [81.90892, 25.46935],
        [81.90889, 25.46907],
        [81.90829, 25.4679],
        [81.90742, 25.46668],
        [81.90729, 25.46649],
        [81.90705, 25.46618],
        [81.90592, 25.46473],
        [81.90383, 25.46144],
        [81.90348, 25.46069],
        [81.90264, 25.45889],
        [81.90127, 25.45594],
        [81.89694, 25.44366],
        [81.89661, 25.44328],
        [81.8953, 25.44177],
        [81.89491, 25.44276],
        [81.89456, 25.44574],
        [81.89428, 25.44861],
        [81.8938, 25.45159],
        [81.89339, 25.45452],
        [81.8925, 25.45433],
        [81.89195, 25.45365],
        [81.89051, 25.45321],
        [81.88907, 25.45327],
        [81.88811, 25.45395],
        [81.88756, 25.45495],
        [81.8864, 25.4552],
        [81.88297, 25.45569],
        [81.87803, 25.45594],
        [81.87673, 25.45457],
        [81.87543, 25.45401],
        [81.87433, 25.45407],
        [81.87467, 25.45556],
        [81.8744, 25.45674],
        [81.86898, 25.45711],
        [81.86364, 25.45748],
        [81.8574, 25.45785],
        [81.85569, 25.45561],
        [81.84598, 25.45566],
        [81.83704, 25.45578],
        [81.83638, 25.45784],
        [81.83821, 25.45904],
        [81.8385, 25.4617],
        [81.84223, 25.46316],
        [81.84245, 25.46656],
        [81.84106, 25.46655],
        [81.84098, 25.46735],
        [81.83974, 25.46735],
        [81.84018, 25.46875],
        [81.83761, 25.46901],
        [81.83761, 25.47207],
        [81.83761, 25.474],
        [81.83929, 25.47466],
        [81.84002, 25.47765],
        [81.8336, 25.49859],
        [81.83489, 25.49941],
        [81.83643, 25.50071],
        [81.83805, 25.50227],
        [81.83901, 25.5039],
        [81.83998, 25.50544],
        [81.84039, 25.50698],
        [81.8406, 25.50869],
        [81.84102, 25.50988],
        [81.84153, 25.51108],
        [81.84205, 25.51202],
        [81.84276, 25.51288],
        [81.84394, 25.51381],
        [81.8443, 25.51409],
        [81.84831, 25.51635],
        [81.85142, 25.51766],
        [81.85484, 25.51855],
        [81.85687, 25.51891],
        [81.85776, 25.51896],
        [81.85873, 25.51902],
        [81.86012, 25.51929],
        [81.86114, 25.51955],
        [81.86197, 25.51973],
        [81.86262, 25.51982],
        [81.86327, 25.51983],
        [81.86411, 25.51984],
        [81.86476, 25.51976],
        [81.86543, 25.5196],
        [81.86609, 25.51943],
        [81.86814, 25.51879],
        [81.8694, 25.51843],
        [81.87116, 25.51785],
        [81.87284, 25.51734],
        [81.87306, 25.51722],
        [81.87427, 25.5166],
        [81.87521, 25.51601],
        [81.8764, 25.51528],
        [81.87717, 25.51461],
        [81.87786, 25.51394],
        [81.87834, 25.51341],
        [81.87916, 25.51174],
        [81.88041, 25.50953]
      ]
    ]
  }
}
