{
  "type": "Feature",
  "id": "UP-AC-269",
  "properties": {
    "stateName": "UTTAR PRADESH",
    "stateCode": "UP",
    "districtName": "BARA BANKI",
    "acNo": 269,
    "acName": "KAISERGANJ",
    "seatType": null,
    "pcNo": null,
    "pcName": null,
    "quality": "unverified",
    "sources": [
      "TBD"
    ]
  },
  "geometry": {
    "type": "Polygon",
    "coordinates": [
      [
        [81.27462, 27.0528],
        [81.28334, 27.04737],
        [81.28452, 27.04663],
        [81.28541, 27.0453],
        [81.28567, 27.04492],
        [81.28613, 27.0432],
        [81.28598, 27.03946],
        [81.28583, 27.03593],
        [81.28548, 27.03419],
        [81.28595, 27.03235],
        [81.28778, 27.03068],
        [81.28781, 27.0297],
        [81.28755, 27.02932],
        [81.28664, 27.02817],
        [81.28667, 27.02706],
        [81.28738, 27.0261],
        [81.28877, 27.02493],
        [81.28948, 27.02433],
        [81.29045, 27.02375],
        [81.29127, 27.02366],
        [81.29262, 27.02383],
        [81.29422, 27.02463],
        [81.29516, 27.02516],
        [81.29568, 27.02579],
        [81.29712, 27.02757],
        [81.29816, 27.02896],
        [81.29882, 27.0296],
        [81.2999, 27.02963],
        [81.30053, 27.02947],
        [81.30155, 27.0292],
        [81.30229, 27.02889],
        [81.30264, 27.02874],
        [81.30363, 27.02755],
        [81.30394, 27.02633],
        [81.30441, 27.02437],
        [81.31072, 27.01363],
        [81.31115, 27.01291],
        [81.31153, 27.01253],
        [81.31199, 27.01207],
        [81.31296, 27.01161],
        [81.31392, 27.01128],
        [81.31501, 27.01094],
        [81.31542, 27.01083],
        [81.31613, 27.00987],
        [81.31642, 27.008],
        [81.31681, 27.00547],
        [81.31698, 27.00449],
        [81.31741, 27.00376],
        [81.31967, 27.00113],
        [81.31957, 26.9999],
        [81.31952, 26.9998],
        [81.31932, 26.9994],
        [81.31866, 26.99901],
        [81.31676, 26.99895],
        [81.31596, 26.9988],
        [81.31563, 26.99836],
        [81.31531, 26.99792],
        [81.31533, 26.9973],
        [81.31577, 26.99633],
        [81.31607, 26.99561],
        [81.31601, 26.99508],
        [81.31596, 26.99462],
        [81.31599, 26.99376],
        [81.31628, 26.99316],
        [81.31724, 26.99282],
        [81.32051, 26.99074],
        [81.32184, 26.99024],
        [81.32838, 26.98774],
        [81.33449, 26.98541],
        [81.33611, 26.98533],
        [81.3384, 26.98553],
        [81.34011, 26.98668],
        [81.34199, 26.98699],
        [81.34308, 26.98677],
        [81.34352, 26.98593],
        [81.344, 26.98373],
        [81.34404, 26.9825],
        [81.34475, 26.98179],
        [81.34624, 26.98159],
        [81.34746, 26.9815],
        [81.35305, 26.98339],
        [81.35442, 26.98306],
        [81.35607, 26.98213],
        [81.35627, 26.98029],
        [81.35687, 26.97993],
        [81.35724, 26.9797],
        [81.35791, 26.97973],
        [81.35831, 26.97974],
        [81.36005, 26.98016],
        [81.36127, 26.98054],
        [81.36274, 26.98081],
        [81.36409, 26.98013],
        [81.36385, 26.97869],
        [81.36343, 26.97621],
        [81.36388, 26.97499],
        [81.36471, 26.9744],
        [81.36567, 26.97394],
        [81.36622, 26.97359],
        [81.36696, 26.97189],
        [81.36818, 26.9713],
        [81.36888, 26.97096],
        [81.36968, 26.97099],
        [81.37222, 26.97155],
        [81.3754, 26.97288],
        [81.37661, 26.97279],
        [81.37711, 26.97228],
        [81.37731, 26.97208],
        [81.37605, 26.9697],
        [81.37595, 26.96884],
        [81.37624, 26.96835],
        [81.37839, 26.9683],
        [81.3808, 26.96849],
        [81.38175, 26.9684],
        [81.38283, 26.96806],
        [81.38289, 26.96659],
        [81.3826, 26.96569],
        [81.38217, 26.96435],
        [81.38166, 26.9636],
        [81.38102, 26.96296],
        [81.37969, 26.96243],
        [81.37638, 26.96135],
        [81.37559, 26.96083],
        [81.37562, 26.95997],
        [81.37564, 26.9596],
        [81.37772, 26.95794],
        [81.37803, 26.95697],
        [81.37778, 26.95634],
        [81.37659, 26.95594],
        [81.37528, 26.95504],
        [81.3749, 26.95441],
        [81.37477, 26.95393],
        [81.3745, 26.95296],
        [81.37471, 26.95216],
        [81.37511, 26.95088],
        [81.37479, 26.95006],
        [81.37392, 26.94971],
        [81.36738, 26.94506],
        [81.36652, 26.94382],
        [81.36627, 26.94241],
        [81.36614, 26.94073],
        [81.36566, 26.93997],
        [81.36537, 26.93959],
        [81.36419, 26.93853],
        [81.36341, 26.93767],
        [81.36224, 26.93633],
        [81.36137, 26.93537],
        [81.36139, 26.93521],
        [81.36153, 26.93407],
        [81.36206, 26.93362],
        [81.36257, 26.93364],
        [81.36306, 26.93402],
        [81.36375, 26.93451],
        [81.36417, 26.93463],
        [81.36476, 26.93482],
        [81.36589, 26.93466],
        [81.36643, 26.93393],
        [81.36641, 26.93206],
        [81.36666, 26.93104],
        [81.36719, 26.93069],
        [81.36795, 26.92968],
        [81.36747, 26.92883],
        [81.36709, 26.92835],
        [81.36628, 26.92823],
        [81.36577, 26.92813],
        [81.365, 26.92717],
        [81.36496, 26.92577],
        [81.36418, 26.92491],
        [81.3631, 26.92404],
        [81.36158, 26.92363],
        [81.36016, 26.9235],
        [81.35565, 26.92374],
        [81.35425, 26.92315],
        [81.35347, 26.92229],
        [81.35331, 26.92126],
        [81.35337, 26.92005],
        [81.35394, 26.91876],
        [81.35448, 26.91793],
        [81.35451, 26.91739],
        [81.35456, 26.91626],
        [81.3546, 26.91542],
        [81.35579, 26.91414],
        [81.35725, 26.91353],
        [81.35952, 26.91294],
        [81.36198, 26.91282],
        [81.36485, 26.91261],
        [81.3668, 26.91239],
        [81.36886, 26.91207],
        [81.36979, 26.91181],
        [81.37045, 26.9109],
        [81.37059, 26.91015],
        [81.36961, 26.90919],
        [81.36803, 26.90812],
        [81.3637, 26.9068],
        [81.36284, 26.90556],
        [81.36287, 26.90491],
        [81.36299, 26.90454],
        [81.36371, 26.90437],
        [81.36435, 26.90392],
        [81.36379, 26.90269],
        [81.36269, 26.9022],
        [81.36038, 26.90148],
        [81.35968, 26.90109],
        [81.35943, 26.89987],
        [81.35953, 26.89897],
        [81.35965, 26.89798],
        [81.36069, 26.89727],
        [81.36289, 26.89732],
        [81.36467, 26.89792],
        [81.36726, 26.89835],
        [81.36947, 26.89841],
        [81.3721, 26.89811],
        [81.37367, 26.8987],
        [81.37444, 26.89945],
        [81.37518, 26.90076],
        [81.37617, 26.90097],
        [81.37699, 26.90062],
        [81.37766, 26.89917],
        [81.37946, 26.89704],
        [81.38042, 26.8959],
        [81.3805, 26.89581],
        [81.38192, 26.89412],
        [81.38282, 26.89211],
        [81.3829, 26.89064],
        [81.382, 26.88841],
        [81.3815, 26.88637],
        [81.38253, 26.88584],
        [81.38276, 26.88529],
        [81.38448, 26.88517],
        [81.38658, 26.88501],
        [81.3882, 26.88487],
        [81.38978, 26.88527],
        [81.39052, 26.88658],
        [81.3929, 26.88701],
        [81.39469, 26.88724],
        [81.40152, 26.88649],
        [81.40295, 26.88633],
        [81.40434, 26.88655],
        [81.4055, 26.88732],
        [81.40625, 26.88845],
        [81.4084, 26.88943],
        [81.41163, 26.88896],
        [81.41323, 26.88899],
        [81.41422, 26.88902],
        [81.41515, 26.89052],
        [81.41549, 26.89165],
        [81.41543, 26.89294],
        [81.41599, 26.8935],
        [81.41638, 26.89389],
        [81.41668, 26.8939],
        [81.41738, 26.89392],
        [81.41799, 26.89375],
        [81.4196, 26.8936],
        [81.42039, 26.89362],
        [81.42299, 26.89369],
        [81.42419, 26.89372],
        [81.4246, 26.89303],
        [81.42506, 26.89226],
        [81.42453, 26.89095],
        [81.42282, 26.88905],
        [81.42249, 26.88774],
        [81.42255, 26.88663],
        [81.42342, 26.88517],
        [81.42523, 26.88503],
        [81.42643, 26.88487],
        [81.42688, 26.88395],
        [81.4266, 26.88171],
        [81.42636, 26.88],
        [81.42587, 26.87631],
        [81.42495, 26.8748],
        [81.4238, 26.87384],
        [81.42112, 26.87136],
        [81.41989, 26.86942],
        [81.41945, 26.86873],
        [81.41951, 26.86761],
        [81.41997, 26.86651],
        [81.42512, 26.86364],
        [81.42499, 26.86233],
        [81.42444, 26.86139],
        [81.42243, 26.86104],
        [81.42206, 26.86097],
        [81.41885, 26.86004],
        [81.41653, 26.85937],
        [81.41439, 26.85821],
        [81.4102, 26.85404],
        [81.40882, 26.85345],
        [81.40662, 26.85341],
        [81.39824, 26.85288],
        [81.39665, 26.85267],
        [81.39507, 26.85227],
        [81.39393, 26.85095],
        [81.3928, 26.84963],
        [81.39456, 26.84409],
        [81.39472, 26.84363],
        [81.39491, 26.8431],
        [81.39563, 26.84231],
        [81.39673, 26.8417],
        [81.39743, 26.84135],
        [81.39843, 26.84082],
        [81.4014, 26.83781],
        [81.40252, 26.83674],
        [81.40344, 26.83595],
        [81.40393, 26.83568],
        [81.40474, 26.83524],
        [81.4084, 26.83386],
        [81.4095, 26.83333],
        [81.40989, 26.83303],
        [81.41064, 26.83247],
        [81.41252, 26.82882],
        [81.41283, 26.82747],
        [81.41259, 26.82589],
        [81.41185, 26.82355],
        [81.41183, 26.82348],
        [81.41151, 26.8219],
        [81.41131, 26.82099],
        [81.4114, 26.81919],
        [81.41142, 26.81889],
        [81.41147, 26.81784],
        [81.4125, 26.81508],
        [81.41402, 26.81297],
        [81.41573, 26.81062],
        [81.41753, 26.80814],
        [81.4181, 26.80706],
        [81.42083, 26.80187],
        [81.4215, 26.80128],
        [81.4228, 26.80106],
        [81.42336, 26.80114],
        [81.42472, 26.80138],
        [81.42604, 26.80155],
        [81.42673, 26.80163],
        [81.42882, 26.80173],
        [81.42979, 26.80166],
        [81.43078, 26.80122],
        [81.43113, 26.80061],
        [81.43178, 26.79896],
        [81.43229, 26.79518],
        [81.4323, 26.79404],
        [81.43237, 26.78635],
        [81.43238, 26.78593],
        [81.43239, 26.78488],
        [81.43243, 26.78389],
        [81.43281, 26.78283],
        [81.43351, 26.78162],
        [81.43779, 26.77838],
        [81.44205, 26.77567],
        [81.44412, 26.77428],
        [81.44447, 26.77404],
        [81.45091, 26.76659],
        [81.45128, 26.76548],
        [81.45139, 26.76514],
        [81.45142, 26.76438],
        [81.45091, 26.76339],
        [81.45015, 26.76264],
        [81.44578, 26.75831],
        [81.44442, 26.75696],
        [81.44238, 26.75559],
        [81.44087, 26.75498],
        [81.43841, 26.75399],
        [81.4349, 26.75323],
        [81.43354, 26.75292],
        [81.43243, 26.75264],
        [81.43234, 26.75262],
        [81.43187, 26.75225],
        [81.43156, 26.75201],
        [81.43042, 26.75072],
        [81.43016, 26.75009],
        [81.42948, 26.74843],
        [81.42892, 26.74676],
        [81.42715, 26.74374],
        [81.42692, 26.74334],
        [81.42531, 26.74166],
        [81.42369, 26.7403],
        [81.42188, 26.73954],
        [81.42041, 26.73919],
        [81.41934, 26.73894],
        [81.41831, 26.73869],
        [81.41679, 26.73834],
        [81.41375, 26.73804],
        [81.41109, 26.73768],
        [81.40991, 26.73752],
        [81.40752, 26.73707],
        [81.40653, 26.7364],
        [81.40539, 26.73511],
        [81.40466, 26.73367],
        [81.40473, 26.73227],
        [81.40479, 26.73132],
        [81.40518, 26.72988],
        [81.40654, 26.72851],
        [81.4134, 26.72353],
        [81.41464, 26.72284],
        [81.41599, 26.72162],
        [81.41868, 26.71822],
        [81.419, 26.7178],
        [81.42024, 26.71726],
        [81.42139, 26.7168],
        [81.42367, 26.71618],
        [81.43173, 26.71531],
        [81.43491, 26.71496],
        [81.43717, 26.71494],
        [81.43737, 26.71497],
        [81.43861, 26.71509],
        [81.44093, 26.71566],
        [81.44122, 26.71573],
        [81.44226, 26.71598],
        [81.44424, 26.71666],
        [81.44599, 26.71675],
        [81.44664, 26.71679],
        [81.44818, 26.71671],
        [81.44945, 26.71652],
        [81.4498, 26.71647],
        [81.45141, 26.71646],
        [81.45301, 26.71652],
        [81.45454, 26.71667],
        [81.45664, 26.71692],
        [81.4581, 26.71684],
        [81.45948, 26.71667],
        [81.46038, 26.71644],
        [81.46146, 26.71581],
        [81.46223, 26.71497],
        [81.46353, 26.71304],
        [81.46396, 26.71089],
        [81.46401, 26.70974],
        [81.46383, 26.70897],
        [81.46328, 26.70661],
        [81.46263, 26.70523],
        [81.4603, 26.70204],
        [81.45948, 26.70082],
        [81.45826, 26.69946],
        [81.45748, 26.69875],
        [81.45558, 26.69704],
        [81.45209, 26.69455],
        [81.45182, 26.6942],
        [81.45134, 26.69357],
        [81.4507, 26.69202],
        [81.44713, 26.67912],
        [81.44685, 26.67821],
        [81.44684, 26.67771],
        [81.44679, 26.67631],
        [81.44712, 26.67491],
        [81.44531, 26.67601],
        [81.44377, 26.67631],
        [81.44277, 26.67612],
        [81.44214, 26.67565],
        [81.4404, 26.67686],
        [81.43791, 26.67854],
        [81.43339, 26.68149],
        [81.43064, 26.67977],
        [81.42848, 26.68139],
        [81.42647, 26.68224],
        [81.4247, 26.68252],
        [81.42422, 26.68307],
        [81.42328, 26.68344],
        [81.4222, 26.68381],
        [81.42072, 26.68502],
        [81.4191, 26.68622],
        [81.41833, 26.68702],
        [81.41796, 26.6876],
        [81.41729, 26.688],
        [81.41659, 26.68826],
        [81.41241, 26.68888],
        [81.41075, 26.68922],
        [81.40937, 26.69003],
        [81.40891, 26.69082],
        [81.40822, 26.69165],
        [81.40727, 26.69224],
        [81.40287, 26.69411],
        [81.40023, 26.695],
        [81.39893, 26.69573],
        [81.39928, 26.69658],
        [81.39996, 26.69768],
        [81.40052, 26.69835],
        [81.4006, 26.69894],
        [81.40026, 26.7002],
        [81.39894, 26.70203],
        [81.39737, 26.70371],
        [81.39672, 26.70479],
        [81.39615, 26.70563],
        [81.39668, 26.70681],
        [81.39702, 26.70765],
        [81.39698, 26.70781],
        [81.39683, 26.70836],
        [81.39626, 26.70873],
        [81.39486, 26.70918],
        [81.39399, 26.70945],
        [81.39339, 26.70964],
        [81.39305, 26.71016],
        [81.39317, 26.71067],
        [81.39315, 26.71123],
        [81.39286, 26.71138],
        [81.39224, 26.71135],
        [81.39156, 26.71161],
        [81.39125, 26.71224],
        [81.39137, 26.71279],
        [81.39179, 26.71309],
        [81.39223, 26.7136],
        [81.39221, 26.71408],
        [81.39195, 26.71438],
        [81.39152, 26.71438],
        [81.39122, 26.71424],
        [81.39095, 26.71413],
        [81.39045, 26.71394],
        [81.38956, 26.71373],
        [81.38875, 26.71344],
        [81.38819, 26.71285],
        [81.38802, 26.71248],
        [81.38797, 26.71185],
        [81.38783, 26.71152],
        [81.38736, 26.71156],
        [81.38565, 26.71209],
        [81.38419, 26.7128],
        [81.3835, 26.71316],
        [81.38489, 26.71423],
        [81.38549, 26.71511],
        [81.38528, 26.71566],
        [81.38542, 26.71632],
        [81.38619, 26.71714],
        [81.38688, 26.71791],
        [81.38594, 26.71822],
        [81.3848, 26.71836],
        [81.38423, 26.71828],
        [81.3836, 26.71761],
        [81.38327, 26.71672],
        [81.38293, 26.71596],
        [81.38229, 26.71561],
        [81.38147, 26.71575],
        [81.38019, 26.71629],
        [81.37833, 26.71804],
        [81.37683, 26.71957],
        [81.37581, 26.71998],
        [81.37376, 26.72003],
        [81.37155, 26.72062],
        [81.36929, 26.72099],
        [81.36831, 26.72158],
        [81.36674, 26.72167],
        [81.36697, 26.72232],
        [81.367, 26.72264],
        [81.36706, 26.72317],
        [81.36706, 26.72394],
        [81.36673, 26.72443],
        [81.36625, 26.72517],
        [81.36601, 26.72602],
        [81.36582, 26.72716],
        [81.36578, 26.72875],
        [81.36602, 26.7298],
        [81.36629, 26.73045],
        [81.36674, 26.73098],
        [81.36719, 26.73151],
        [81.36733, 26.73216],
        [81.36661, 26.73265],
        [81.36568, 26.73302],
        [81.36458, 26.73323],
        [81.36394, 26.73396],
        [81.36452, 26.73526],
        [81.36534, 26.7368],
        [81.36207, 26.73884],
        [81.35736, 26.74174],
        [81.3557, 26.74271],
        [81.35874, 26.74551],
        [81.36058, 26.74826],
        [81.36114, 26.74984],
        [81.36129, 26.75025],
        [81.36126, 26.75191],
        [81.3609, 26.75319],
        [81.36171, 26.75299],
        [81.36278, 26.75306],
        [81.36421, 26.75333],
        [81.36453, 26.75361],
        [81.36483, 26.75387],
        [81.36486, 26.75474],
        [81.36421, 26.75615],
        [81.36289, 26.75803],
        [81.36037, 26.76098],
        [81.36334, 26.76319],
        [81.36449, 26.76445],
        [81.36527, 26.76516],
        [81.36579, 26.76563],
        [81.36661, 26.76634],
        [81.36692, 26.76645],
        [81.36545, 26.76912],
        [81.36476, 26.77056],
        [81.36458, 26.77186],
        [81.36472, 26.77283],
        [81.36527, 26.77503],
        [81.36608, 26.77594],
        [81.36668, 26.77646],
        [81.36574, 26.77721],
        [81.36537, 26.77734],
        [81.36501, 26.77729],
        [81.36467, 26.77687],
        [81.36424, 26.77641],
        [81.36376, 26.77611],
        [81.36327, 26.77594],
        [81.36232, 26.77594],
        [81.36088, 26.77559],
        [81.35959, 26.77517],
        [81.35836, 26.77444],
        [81.3574, 26.7736],
        [81.35665, 26.77225],
        [81.35577, 26.77183],
        [81.35562, 26.77233],
        [81.35461, 26.7738],
        [81.35352, 26.77494],
        [81.35219, 26.77548],
        [81.35124, 26.77564],
        [81.35098, 26.77613],
        [81.35131, 26.77657],
        [81.35194, 26.77733],
        [81.35128, 26.77776],
        [81.35007, 26.77803],
        [81.34683, 26.77811],
        [81.3434, 26.77795],
        [81.34026, 26.77812],
        [81.3383, 26.77843],
        [81.33676, 26.77834],
        [81.33608, 26.77801],
        [81.33557, 26.77712],
        [81.33339, 26.78006],
        [81.33208, 26.78129],
        [81.33107, 26.78257],
        [81.32997, 26.78348],
        [81.32905, 26.78403],
        [81.32837, 26.78442],
        [81.32816, 26.78399],
        [81.32726, 26.78228],
        [81.32491, 26.77958],
        [81.32455, 26.77947],
        [81.32356, 26.77941],
        [81.32242, 26.77969],
        [81.32165, 26.78014],
        [81.31956, 26.78215],
        [81.31922, 26.78145],
        [81.31796, 26.77971],
        [81.31747, 26.77888],
        [81.31689, 26.77839],
        [81.31607, 26.77825],
        [81.31484, 26.77859],
        [81.31343, 26.77969],
        [81.31127, 26.78045],
        [81.30964, 26.78134],
        [81.30907, 26.78203],
        [81.30768, 26.78265],
        [81.3059, 26.78347],
        [81.30512, 26.7831],
        [81.3046, 26.783],
        [81.30313, 26.78272],
        [81.30172, 26.7829],
        [81.29865, 26.78399],
        [81.29661, 26.78453],
        [81.29503, 26.78416],
        [81.29348, 26.78306],
        [81.2925, 26.77903],
        [81.29194, 26.77811],
        [81.29154, 26.77772],
        [81.29099, 26.7772],
        [81.28842, 26.77646],
        [81.28723, 26.77628],
        [81.28658, 26.77587],
        [81.28606, 26.77555],
        [81.28072, 26.77007],
        [81.27922, 26.7693],
        [81.27895, 26.76916],
        [81.27717, 26.76862],
        [81.27478, 26.76826],
        [81.27311, 26.76785],
        [81.27259, 26.76772],
        [81.27081, 26.76699],
        [81.26908, 26.765],
        [81.26439, 26.76044],
        [81.26194, 26.75803],
        [81.25241, 26.74834],
        [81.24106, 26.73676],
        [81.24041, 26.73613],
        [81.24021, 26.73593],
        [81.24012, 26.73585],
        [81.2388, 26.73475],
        [81.23605, 26.73422],
        [81.23488, 26.73386],
        [81.23348, 26.73387],
        [81.23188, 26.73389],
        [81.21995, 26.73807],
        [81.21831, 26.73834],
        [81.2172, 26.73841],
        [81.21709, 26.73841],
        [81.21613, 26.73756],
        [81.21568, 26.73557],
        [81.21564, 26.73452],
        [81.21538, 26.72477],
        [81.21514, 26.72303],
        [81.21501, 26.72237],
        [81.21441, 26.72251],
        [81.21441, 26.72279],
        [81.21372, 26.72279],
        [81.21267, 26.7225],
        [81.21156, 26.72264],
        [81.21029, 26.72325],
        [81.2087, 26.7239],
        [81.20791, 26.72437],
        [81.20675, 26.72498],
        [81.20595, 26.72583],
        [81.2061, 26.72673],
        [81.20494, 26.72791],
        [81.20308, 26.72956],
        [81.20302, 26.73088],
        [81.20456, 26.73691],
        [81.2046, 26.73937],
        [81.20432, 26.74211],
        [81.20432, 26.7424],
        [81.20207, 26.74679],
        [81.20053, 26.74858],
        [81.19867, 26.75085],
        [81.19659, 26.75396],
        [81.19208, 26.75825],
        [81.19012, 26.75999],
        [81.18906, 26.76126],
        [81.18916, 26.76221],
        [81.18941, 26.76307],
        [81.19036, 26.7643],
        [81.19266, 26.76673],
        [81.19339, 26.76905],
        [81.19464, 26.77019],
        [81.19769, 26.77234],
        [81.19984, 26.77396],
        [81.20058, 26.77482],
        [81.20121, 26.77535],
        [81.20223, 26.77607],
        [81.20404, 26.7774],
        [81.20548, 26.77851],
        [81.20704, 26.77962],
        [81.20894, 26.78059],
        [81.21039, 26.78092],
        [81.21222, 26.78114],
        [81.21363, 26.78296],
        [81.2136, 26.78386],
        [81.21325, 26.78457],
        [81.21263, 26.78518],
        [81.21111, 26.7863],
        [81.21014, 26.78689],
        [81.20489, 26.78971],
        [81.20252, 26.79065],
        [81.19893, 26.79208],
        [81.19746, 26.79248],
        [81.19656, 26.79255],
        [81.19471, 26.79252],
        [81.19302, 26.79189],
        [81.19226, 26.79113],
        [81.19186, 26.79037],
        [81.19192, 26.78857],
        [81.192, 26.78244],
        [81.19143, 26.78106],
        [81.19044, 26.78],
        [81.18871, 26.77948],
        [81.18628, 26.77964],
        [81.18523, 26.78014],
        [81.1844, 26.78125],
        [81.18094, 26.78473],
        [81.17631, 26.78871],
        [81.17517, 26.78935],
        [81.17455, 26.78938],
        [81.17368, 26.78928],
        [81.1727, 26.78883],
        [81.17199, 26.78803],
        [81.17099, 26.7858],
        [81.16934, 26.78227],
        [81.16642, 26.77803],
        [81.16484, 26.77609],
        [81.16363, 26.77555],
        [81.1621, 26.77517],
        [81.1602, 26.77514],
        [81.15877, 26.77571],
        [81.15825, 26.77619],
        [81.15811, 26.77704],
        [81.15796, 26.77848],
        [81.15832, 26.77981],
        [81.15937, 26.7835],
        [81.16012, 26.79091],
        [81.16001, 26.79162],
        [81.1595, 26.7929],
        [81.15875, 26.79423],
        [81.15818, 26.79496],
        [81.15602, 26.79698],
        [81.15587, 26.79745],
        [81.15606, 26.79799],
        [81.15689, 26.79901],
        [81.15766, 26.79932],
        [81.15853, 26.79982],
        [81.15939, 26.80046],
        [81.16045, 26.80109],
        [81.16423, 26.80384],
        [81.16822, 26.80699],
        [81.16855, 26.80751],
        [81.16855, 26.80787],
        [81.16841, 26.8082],
        [81.1676, 26.80874],
        [81.16722, 26.80891],
        [81.16674, 26.80895],
        [81.1662, 26.80872],
        [81.16545, 26.80827],
        [81.1644, 26.80766],
        [81.16312, 26.80732],
        [81.16153, 26.80709],
        [81.16027, 26.80709],
        [81.15948, 26.80744],
        [81.15877, 26.80853],
        [81.15822, 26.80978],
        [81.15706, 26.81184],
        [81.15642, 26.81263],
        [81.15559, 26.8131],
        [81.15471, 26.81348],
        [81.15286, 26.81378],
        [81.15096, 26.81345],
        [81.1497, 26.81319],
        [81.14821, 26.8127],
        [81.14471, 26.81177],
        [81.14322, 26.81109],
        [81.14225, 26.81146],
        [81.14142, 26.81206],
        [81.1394, 26.81395],
        [81.13876, 26.8148],
        [81.13857, 26.8157],
        [81.13855, 26.81987],
        [81.13862, 26.82079],
        [81.13843, 26.82321],
        [81.13828, 26.8238],
        [81.13721, 26.82709],
        [81.13665, 26.82799],
        [81.13615, 26.82884],
        [81.13522, 26.82991],
        [81.13423, 26.83105],
        [81.13325, 26.83175],
        [81.13081, 26.83337],
        [81.12976, 26.8337],
        [81.1283, 26.83391],
        [81.12756, 26.83403],
        [81.12635, 26.83422],
        [81.12383, 26.83517],
        [81.12253, 26.83557],
        [81.12167, 26.83566],
        [81.12066, 26.83576],
        [81.13695, 26.83727],
        [81.13912, 26.83814],
        [81.14137, 26.83894],
        [81.14192, 26.83956],
        [81.14193, 26.84014],
        [81.14201, 26.84059],
        [81.14247, 26.8411],
        [81.14337, 26.84155],
        [81.145, 26.84182],
        [81.14662, 26.84215],
        [81.14757, 26.8425],
        [81.14799, 26.84297],
        [81.14811, 26.8438],
        [81.14852, 26.84457],
        [81.14938, 26.84492],
        [81.15046, 26.84504],
        [81.15134, 26.84486],
        [81.15056, 26.84657],
        [81.15043, 26.84823],
        [81.15065, 26.84951],
        [81.15126, 26.8509],
        [81.15252, 26.85255],
        [81.1532, 26.8532],
        [81.15369, 26.85368],
        [81.15779, 26.85802],
        [81.15881, 26.85893],
        [81.16024, 26.86021],
        [81.16221, 26.86158],
        [81.16555, 26.86324],
        [81.16857, 26.86397],
        [81.17089, 26.86425],
        [81.17106, 26.86339],
        [81.17123, 26.86161],
        [81.17131, 26.86041],
        [81.17127, 26.8594],
        [81.17174, 26.85821],
        [81.17222, 26.8576],
        [81.17281, 26.85709],
        [81.17357, 26.85669],
        [81.1742, 26.85642],
        [81.17451, 26.85595],
        [81.1746, 26.85537],
        [81.17487, 26.85476],
        [81.17528, 26.85434],
        [81.17597, 26.85398],
        [81.17691, 26.85311],
        [81.17737, 26.85353],
        [81.17823, 26.85421],
        [81.17846, 26.85454],
        [81.17921, 26.8559],
        [81.17989, 26.85666],
        [81.18113, 26.85767],
        [81.1832, 26.85877],
        [81.18385, 26.85901],
        [81.18464, 26.85916],
        [81.18556, 26.85946],
        [81.18611, 26.8598],
        [81.1863, 26.85998],
        [81.18645, 26.86028],
        [81.18649, 26.86057],
        [81.18651, 26.86089],
        [81.18661, 26.86134],
        [81.18685, 26.86187],
        [81.1883, 26.86386],
        [81.19171, 26.86727],
        [81.19201, 26.86796],
        [81.19243, 26.86865],
        [81.1928, 26.87046],
        [81.1932, 26.87102],
        [81.19347, 26.87133],
        [81.19365, 26.87159],
        [81.19436, 26.87189],
        [81.19444, 26.87178],
        [81.19465, 26.87166],
        [81.19531, 26.87143],
        [81.19564, 26.8709],
        [81.19623, 26.87034],
        [81.19689, 26.87011],
        [81.19778, 26.87013],
        [81.19837, 26.87016],
        [81.19899, 26.87016],
        [81.19916, 26.87014],
        [81.19928, 26.87015],
        [81.19941, 26.87005],
        [81.19946, 26.86964],
        [81.19945, 26.86911],
        [81.19973, 26.86934],
        [81.20035, 26.86949],
        [81.20163, 26.86984],
        [81.20251, 26.87034],
        [81.20501, 26.8715],
        [81.20639, 26.87261],
        [81.20718, 26.87395],
        [81.20762, 26.87476],
        [81.20791, 26.87549],
        [81.20804, 26.87676],
        [81.20788, 26.8779],
        [81.20762, 26.87919],
        [81.20715, 26.8806],
        [81.20696, 26.88115],
        [81.20678, 26.88274],
        [81.20722, 26.88348],
        [81.20792, 26.88401],
        [81.20839, 26.88424],
        [81.20906, 26.88431],
        [81.20969, 26.88417],
        [81.21039, 26.88369],
        [81.21121, 26.88275],
        [81.21175, 26.88227],
        [81.21286, 26.88413],
        [81.21317, 26.8858],
        [81.213, 26.88818],
        [81.21234, 26.89173],
        [81.21233, 26.89446],
        [81.21223, 26.89557],
        [81.21321, 26.89611],
        [81.2148, 26.89672],
        [81.21727, 26.89805],
        [81.21861, 26.89652],
        [81.21898, 26.89526],
        [81.21938, 26.89435],
        [81.21991, 26.89337],
        [81.22068, 26.8927],
        [81.22123, 26.89238],
        [81.22259, 26.89204],
        [81.22251, 26.89192],
        [81.22236, 26.89124],
        [81.22259, 26.89008],
        [81.22291, 26.8891],
        [81.22374, 26.88769],
        [81.22417, 26.88733],
        [81.2251, 26.88656],
        [81.22607, 26.88595],
        [81.2273, 26.88489],
        [81.22822, 26.88324],
        [81.22841, 26.88242],
        [81.22885, 26.88099],
        [81.22887, 26.88089],
        [81.22901, 26.88096],
        [81.23227, 26.88225],
        [81.23393, 26.88251],
        [81.23551, 26.88256],
        [81.23718, 26.88265],
        [81.23735, 26.88143],
        [81.23847, 26.88015],
        [81.24133, 26.8777],
        [81.24157, 26.87791],
        [81.24225, 26.878],
        [81.24333, 26.87796],
        [81.24398, 26.87805],
        [81.24462, 26.87811],
        [81.24551, 26.87763],
        [81.24613, 26.87734],
        [81.24753, 26.87712],
        [81.24764, 26.87738],
        [81.24832, 26.8784],
        [81.25, 26.88001],
        [81.25292, 26.87936],
        [81.25583, 26.87893],
        [81.25753, 26.87867],
        [81.25916, 26.87874],
        [81.26053, 26.87897],
        [81.26223, 26.87936],
        [81.26381, 26.87951],
        [81.26606, 26.8788],
        [81.26689, 26.88085],
        [81.26904, 26.88341],
        [81.2707, 26.88479],
        [81.27389, 26.8868],
        [81.27688, 26.88854],
        [81.27949, 26.89039],
        [81.27943, 26.89048],
        [81.2777, 26.89636],
        [81.2771, 26.89744],
        [81.27643, 26.89813],
        [81.27626, 26.8983],
        [81.27317, 26.9003],
        [81.27197, 26.90109],
        [81.27061, 26.90138],
        [81.26936, 26.90123],
        [81.26795, 26.90071],
        [81.26612, 26.89934],
        [81.26494, 26.8986],
        [81.26366, 26.89851],
        [81.2623, 26.89874],
        [81.26108, 26.89981],
        [81.26064, 26.90127],
        [81.26073, 26.90324],
        [81.26164, 26.9048],
        [81.26297, 26.90637],
        [81.26322, 26.90747],
        [81.26301, 26.90812],
        [81.26206, 26.9087],
        [81.25617, 26.91038],
        [81.25396, 26.91048],
        [81.25322, 26.91051],
        [81.25293, 26.9116],
        [81.2526, 26.91323],
        [81.25108, 26.91575],
        [81.24958, 26.91766],
        [81.24855, 26.91943],
        [81.24824, 26.92074],
        [81.24869, 26.92162],
        [81.24982, 26.92254],
        [81.251, 26.9234],
        [81.25243, 26.92427],
        [81.25398, 26.92536],
        [81.25795, 26.9284],
        [81.2602, 26.93001],
        [81.2617, 26.93215],
        [81.26245, 26.93321],
        [81.26335, 26.93505],
        [81.26344, 26.93622],
        [81.26348, 26.93687],
        [81.26372, 26.93852],
        [81.26432, 26.94019],
        [81.26566, 26.94178],
        [81.26707, 26.94314],
        [81.26801, 26.94405],
        [81.26871, 26.94496],
        [81.26874, 26.94567],
        [81.26866, 26.94627],
        [81.26803, 26.94669],
        [81.26741, 26.94689],
        [81.26721, 26.94727],
        [81.2672, 26.94747],
        [81.26719, 26.94776],
        [81.26765, 26.94844],
        [81.26806, 26.94889],
        [81.26844, 26.94995],
        [81.26864, 26.95055],
        [81.26915, 26.95217],
        [81.26998, 26.95358],
        [81.27014, 26.95374],
        [81.27121, 26.95483],
        [81.27289, 26.95561],
        [81.27478, 26.95584],
        [81.27599, 26.9561],
        [81.27661, 26.95636],
        [81.27749, 26.95552],
        [81.27926, 26.9541],
        [81.28142, 26.95335],
        [81.2822, 26.95251],
        [81.28706, 26.95224],
        [81.29052, 26.9523],
        [81.29397, 26.95275],
        [81.29647, 26.95293],
        [81.29914, 26.95327],
        [81.29924, 26.95397],
        [81.29965, 26.95463],
        [81.29974, 26.95478],
        [81.29999, 26.95576],
        [81.30047, 26.95946],
        [81.30069, 26.9603],
        [81.30134, 26.9622],
        [81.30213, 26.9644],
        [81.30242, 26.96565],
        [81.30258, 26.96682],
        [81.30242, 26.96779],
        [81.30167, 26.9689],
        [81.30135, 26.9692],
        [81.30244, 26.97001],
        [81.30344, 26.97114],
        [81.30411, 26.97202],
        [81.30403, 26.97292],
        [81.30296, 26.97379],
        [81.3011, 26.97463],
        [81.30032, 26.97566],
        [81.30031, 26.97698],
        [81.2996, 26.97831],
        [81.2984, 26.97913],
        [81.29701, 26.97973],
        [81.29505, 26.98],
        [81.29405, 26.97996],
        [81.29402, 26.98126],
        [81.29341, 26.98238],
        [81.29281, 26.98339],
        [81.29222, 26.98426],
        [81.2917, 26.985],
        [81.29102, 26.98595],
        [81.28992, 26.98543],
        [81.28879, 26.98473],
        [81.28803, 26.98365],
        [81.2873, 26.98351],
        [81.28632, 26.9837],
        [81.28545, 26.98405],
        [81.28428, 26.98423],
        [81.28312, 26.98419],
        [81.28215, 26.98393],
        [81.28111, 26.98401],
        [81.27983, 26.98439],
        [81.27831, 26.98539],
        [81.27737, 26.98596],
        [81.27631, 26.98653],
        [81.27537, 26.98721],
        [81.27461, 26.98785],
        [81.27379, 26.98853],
        [81.27238, 26.98859],
        [81.27153, 26.98839],
        [81.27022, 26.9874],
        [81.2683, 26.98633],
        [81.26615, 26.98481],
        [81.26535, 26.98385],
        [81.26267, 26.98682],
        [81.26017, 26.98917],
        [81.25813, 26.99147],
        [81.25721, 26.9934],
        [81.25659, 26.99444],
        [81.25597, 26.99519],
        [81.25586, 26.99514],
        [81.25313, 26.996],
        [81.25111, 26.99671],
        [81.2488, 26.99711],
        [81.24711, 26.99709],
        [81.24633, 26.997],
        [81.24543, 26.99689],
        [81.2429, 26.99662],
        [81.24186, 26.99646],
        [81.24136, 26.99635],
        [81.24116, 26.99621],
        [81.24097, 26.99608],
        [81.2407, 26.99612],
        [81.24043, 26.99644],
        [81.23815, 26.99868],
        [81.23729, 26.99934],
        [81.23689, 26.99961],
        [81.23761, 26.99998],
        [81.23974, 27.00199],
        [81.24213, 27.00645],
        [81.24244, 27.00749],
        [81.24242, 27.00813],
        [81.24212, 27.0085],
        [81.2419, 27.00881],
        [81.24137, 27.00862],
        [81.24079, 27.00865],
        [81.23941, 27.00895],
        [81.23816, 27.00931],
        [81.23767, 27.00928],
        [81.23698, 27.00904],
        [81.2364, 27.0089],
        [81.23579, 27.0089],
        [81.23457, 27.00907],
        [81.23337, 27.00932],
        [81.22564, 27.01096],
        [81.22416, 27.01128],
        [81.22358, 27.01115],
        [81.22315, 27.01224],
        [81.22266, 27.01297],
        [81.222, 27.01342],
        [81.21996, 27.01419],
        [81.21492, 27.01582],
        [81.21456, 27.01606],
        [81.21441, 27.01643],
        [81.2142, 27.0173],
        [81.21432, 27.01852],
        [81.21458, 27.02024],
        [81.21483, 27.02171],
        [81.21479, 27.02283],
        [81.21464, 27.02346],
        [81.21465, 27.02374],
        [81.21484, 27.02403],
        [81.21543, 27.02428],
        [81.21884, 27.02587],
        [81.22047, 27.02662],
        [81.22115, 27.02724],
        [81.2215, 27.02781],
        [81.22279, 27.02697],
        [81.22447, 27.02573],
        [81.22509, 27.025],
        [81.22607, 27.02349],
        [81.22798, 27.02188],
        [81.22948, 27.02104],
        [81.23111, 27.02056],
        [81.23358, 27.02018],
        [81.23616, 27.01985],
        [81.23632, 27.01981],
        [81.23643, 27.02185],
        [81.23615, 27.02403],
        [81.23591, 27.02523],
        [81.23581, 27.02599],
        [81.23583, 27.02653],
        [81.23604, 27.02694],
        [81.23639, 27.02738],
        [81.23674, 27.02787],
        [81.23689, 27.02837],
        [81.23697, 27.02889],
        [81.23716, 27.02929],
        [81.23745, 27.02957],
        [81.23794, 27.02974],
        [81.23857, 27.02989],
        [81.23917, 27.02992],
        [81.2396, 27.0299],
        [81.23987, 27.02979],
        [81.24022, 27.02953],
        [81.24067, 27.0291],
        [81.24102, 27.02866],
        [81.2417, 27.0282],
        [81.24268, 27.02791],
        [81.2434, 27.02794],
        [81.24386, 27.02805],
        [81.24418, 27.02845],
        [81.2451, 27.02967],
        [81.24665, 27.03198],
        [81.24776, 27.03266],
        [81.24917, 27.03323],
        [81.25097, 27.034],
        [81.25189, 27.03443],
        [81.25248, 27.03473],
        [81.253, 27.03514],
        [81.25318, 27.03573],
        [81.25324, 27.03582],
        [81.2518, 27.03635],
        [81.25096, 27.0367],
        [81.25035, 27.03711],
        [81.24956, 27.03767],
        [81.24897, 27.03846],
        [81.24853, 27.03917],
        [81.24909, 27.04236],
        [81.24965, 27.04555],
        [81.24968, 27.04715],
        [81.24959, 27.04796],
        [81.2492, 27.04889],
        [81.24787, 27.05022],
        [81.24855, 27.05028],
        [81.24906, 27.05058],
        [81.24993, 27.05144],
        [81.25092, 27.0525],
        [81.25174, 27.05364],
        [81.252, 27.05471],
        [81.25196, 27.0557],
        [81.25163, 27.05668],
        [81.25118, 27.05825],
        [81.25103, 27.05947],
        [81.25065, 27.06033],
        [81.24995, 27.06078],
        [81.24916, 27.06111],
        [81.24845, 27.06175],
        [81.24811, 27.06273],
        [81.24777, 27.0663],
        [81.24772, 27.06757],
        [81.24773, 27.06852],
        [81.24747, 27.07003],
        [81.24804, 27.0713],
        [81.24924, 27.0732],
        [81.25005, 27.07401],
        [81.25183, 27.07407],
        [81.25267, 27.074],
        [81.25376, 27.07297],
        [81.25378, 27.07248],
        [81.25372, 27.07121],
        [81.25366, 27.06995],
        [81.25369, 27.06917],
        [81.25428, 27.06734],
        [81.25461, 27.06687],
        [81.25674, 27.06607],
        [81.2575, 27.06596],
        [81.2578, 27.06591],
        [81.25896, 27.06576],
        [81.26085, 27.06519],
        [81.26129, 27.06506],
        [81.26237, 27.06432],
        [81.26379, 27.06272],
        [81.26456, 27.06168],
        [81.26531, 27.06132],
        [81.26704, 27.06002],
        [81.26808, 27.05929],
        [81.26951, 27.05828],
        [81.26968, 27.05753],
        [81.27462, 27.0528]
      ]
    ]
  }
}
