{
  "type": "Feature",
  "id": "UP-AC-273",
  "properties": {
    "stateName": "UTTAR PRADESH",
    "stateCode": "UP",
    "districtName": "FAIZABAD",
    "acNo": 273,
    "acName": "GAINSARI",
    "seatType": null,
    "pcNo": null,
    "pcName": null,
    "quality": "unverified",
    "sources": [
      "TBD"
    ]
  },
  "geometry": {
    "type": "Polygon",
    "coordinates": [
      [
        [81.84736, 26.70982],
        [81.85123, 26.71241],
        [81.85432, 26.71382],
        [81.85841, 26.71504],
        [81.85928, 26.71538],
        [81.86304, 26.71687],
        [81.86487, 26.71719],
        [81.86994, 26.71807],
        [81.87378, 26.71842],
        [81.87737, 26.71875],
        [81.87878, 26.71888],
        [81.8802, 26.71901],
        [81.88452, 26.71954],
        [81.88543, 26.71999],
        [81.88622, 26.72038],
        [81.88727, 26.72103],
        [81.88807, 26.7218],
        [81.88848, 26.72281],
        [81.88892, 26.72452],
        [81.889, 26.72516],
        [81.88908, 26.72579],
        [81.88977, 26.72739],
        [81.89082, 26.72769],
        [81.89245, 26.72784],
        [81.8927, 26.72787],
        [81.89307, 26.72769],
        [81.89463, 26.72694],
        [81.89482, 26.72685],
        [81.89598, 26.72625],
        [81.89728, 26.72622],
        [81.89859, 26.72647],
        [81.90056, 26.72692],
        [81.9024, 26.72736],
        [81.90371, 26.72747],
        [81.90526, 26.72704],
        [81.90617, 26.7267],
        [81.90706, 26.72566],
        [81.90754, 26.7243],
        [81.90778, 26.72321],
        [81.90801, 26.72225],
        [81.90837, 26.72089],
        [81.90941, 26.71819],
        [81.9103, 26.71743],
        [81.91094, 26.71707],
        [81.91248, 26.71678],
        [81.91493, 26.71673],
        [81.91686, 26.71676],
        [81.9193, 26.71685],
        [81.92051, 26.71665],
        [81.92146, 26.71649],
        [81.925, 26.71572],
        [81.92594, 26.71539],
        [81.92687, 26.71506],
        [81.9296, 26.71366],
        [81.93165, 26.71123],
        [81.93283, 26.70926],
        [81.93311, 26.70876],
        [81.9339, 26.70729],
        [81.93473, 26.70598],
        [81.9351, 26.70565],
        [81.93558, 26.70524],
        [81.9376, 26.7042],
        [81.93828, 26.70414],
        [81.93896, 26.70407],
        [81.94132, 26.70419],
        [81.9433, 26.70427],
        [81.94565, 26.70426],
        [81.94681, 26.70411],
        [81.94798, 26.70396],
        [81.94931, 26.70327],
        [81.95089, 26.70247],
        [81.95234, 26.70137],
        [81.95351, 26.70083],
        [81.95476, 26.70025],
        [81.95696, 26.69993],
        [81.95904, 26.70003],
        [81.96075, 26.70022],
        [81.963, 26.70058],
        [81.96381, 26.7007],
        [81.9651, 26.70169],
        [81.96609, 26.70265],
        [81.96721, 26.70403],
        [81.96897, 26.70774],
        [81.97046, 26.71002],
        [81.97144, 26.71125],
        [81.97266, 26.71195],
        [81.97447, 26.71216],
        [81.97603, 26.71149],
        [81.97711, 26.71077],
        [81.97818, 26.7099],
        [81.98011, 26.70941],
        [81.98108, 26.70945],
        [81.98205, 26.70948],
        [81.98399, 26.71011],
        [81.9857, 26.71099],
        [81.98862, 26.71256],
        [81.99049, 26.71344],
        [81.99093, 26.71364],
        [81.99354, 26.71461],
        [81.99475, 26.71474],
        [81.99621, 26.71474],
        [81.99688, 26.71445],
        [81.99755, 26.71417],
        [81.99913, 26.7132],
        [82.00133, 26.7106],
        [82.00341, 26.7077],
        [82.00526, 26.70535],
        [82.00673, 26.70451],
        [82.00765, 26.70403],
        [82.00858, 26.70356],
        [82.00965, 26.70309],
        [82.01067, 26.70263],
        [82.01362, 26.70151],
        [82.01596, 26.70102],
        [82.01731, 26.70072],
        [82.01983, 26.70067],
        [82.02142, 26.70054],
        [82.02234, 26.70062],
        [82.02326, 26.70071],
        [82.02485, 26.70099],
        [82.02657, 26.701],
        [82.02853, 26.70089],
        [82.03014, 26.70019],
        [82.03125, 26.69945],
        [82.03286, 26.69847],
        [82.03483, 26.69808],
        [82.03655, 26.69809],
        [82.0379, 26.69806],
        [82.03901, 26.69788],
        [82.04038, 26.69715],
        [82.04164, 26.69558],
        [82.04295, 26.69412],
        [82.04385, 26.6931],
        [82.04573, 26.69186],
        [82.0471, 26.69114],
        [82.04883, 26.691],
        [82.04963, 26.69099],
        [82.05044, 26.69099],
        [82.05168, 26.69067],
        [82.05243, 26.69003],
        [82.05284, 26.68881],
        [82.05299, 26.6877],
        [82.05339, 26.68634],
        [82.05429, 26.68515],
        [82.05529, 26.68468],
        [82.05653, 26.68463],
        [82.058, 26.68489],
        [82.05921, 26.68582],
        [82.0598, 26.6867],
        [82.06037, 26.68856],
        [82.06071, 26.68956],
        [82.0613, 26.69058],
        [82.0624, 26.69108],
        [82.064, 26.69107],
        [82.06575, 26.69036],
        [82.06689, 26.6892],
        [82.06747, 26.68853],
        [82.06881, 26.68698],
        [82.0722, 26.68222],
        [82.07559, 26.67747],
        [82.07745, 26.67517],
        [82.07931, 26.67288],
        [82.0806, 26.67103],
        [82.08075, 26.67006],
        [82.08077, 26.66951],
        [82.07979, 26.6693],
        [82.07916, 26.66939],
        [82.07829, 26.66974],
        [82.0774, 26.67051],
        [82.07528, 26.67119],
        [82.07379, 26.67121],
        [82.07324, 26.67117],
        [82.07255, 26.67112],
        [82.07133, 26.67075],
        [82.06998, 26.67009],
        [82.06923, 26.66889],
        [82.06915, 26.66877],
        [82.06869, 26.66762],
        [82.06883, 26.66695],
        [82.06897, 26.66625],
        [82.06988, 26.66479],
        [82.07115, 26.66378],
        [82.06949, 26.65559],
        [82.06908, 26.65361],
        [82.06828, 26.64944],
        [82.06791, 26.64853],
        [82.06731, 26.64857],
        [82.06686, 26.6486],
        [82.06366, 26.65025],
        [82.06089, 26.65106],
        [82.05706, 26.65178],
        [82.05639, 26.65216],
        [82.05437, 26.65391],
        [82.05384, 26.65445],
        [82.05302, 26.65541],
        [82.05262, 26.65538],
        [82.05225, 26.65447],
        [82.05112, 26.65247],
        [82.05034, 26.65211],
        [82.04877, 26.65168],
        [82.04603, 26.65086],
        [82.04484, 26.65076],
        [82.04379, 26.65082],
        [82.04169, 26.65064],
        [82.04038, 26.65023],
        [82.03907, 26.64997],
        [82.0367, 26.64946],
        [82.03542, 26.64935],
        [82.03498, 26.6499],
        [82.03482, 26.65121],
        [82.03481, 26.65165],
        [82.03518, 26.65286],
        [82.03554, 26.65495],
        [82.03651, 26.65871],
        [82.03763, 26.6619],
        [82.03938, 26.66617],
        [82.03923, 26.66675],
        [82.03857, 26.66713],
        [82.03528, 26.66787],
        [82.03173, 26.66785],
        [82.03081, 26.66792],
        [82.0299, 26.66769],
        [82.02977, 26.66738],
        [82.02965, 26.66678],
        [82.02966, 26.66634],
        [82.02942, 26.66529],
        [82.02909, 26.66443],
        [82.02854, 26.663],
        [82.02816, 26.66208],
        [82.02765, 26.6613],
        [82.02662, 26.66003],
        [82.0265, 26.65942],
        [82.02665, 26.65841],
        [82.02612, 26.65644],
        [82.02575, 26.65493],
        [82.02525, 26.65342],
        [82.02487, 26.6525],
        [82.0241, 26.6511],
        [82.02385, 26.65049],
        [82.02333, 26.64985],
        [82.02295, 26.64938],
        [82.02229, 26.64902],
        [82.02191, 26.6484],
        [82.02152, 26.64777],
        [82.02167, 26.64675],
        [82.02194, 26.64634],
        [82.02261, 26.64581],
        [82.02355, 26.64487],
        [82.02435, 26.64465],
        [82.02515, 26.64443],
        [82.02727, 26.64405],
        [82.0278, 26.64395],
        [82.03072, 26.64363],
        [82.03111, 26.64367],
        [82.03176, 26.64319],
        [82.03186, 26.64283],
        [82.03178, 26.64253],
        [82.03139, 26.64195],
        [82.03111, 26.64115],
        [82.03113, 26.64038],
        [82.03124, 26.64007],
        [82.03174, 26.63956],
        [82.03204, 26.63926],
        [82.03285, 26.63835],
        [82.03467, 26.63654],
        [82.03508, 26.63592],
        [82.03529, 26.63539],
        [82.03561, 26.6341],
        [82.03573, 26.63356],
        [82.03565, 26.63246],
        [82.03556, 26.63201],
        [82.03519, 26.63088],
        [82.03491, 26.6302],
        [82.03398, 26.62737],
        [82.03341, 26.62623],
        [82.03343, 26.62568],
        [82.03353, 26.62536],
        [82.03383, 26.62517],
        [82.03423, 26.6251],
        [82.03543, 26.62498],
        [82.0387, 26.62484],
        [82.0393, 26.62456],
        [82.03952, 26.62419],
        [82.03961, 26.62404],
        [82.03993, 26.62319],
        [82.04005, 26.62233],
        [82.04018, 26.62103],
        [82.03994, 26.61849],
        [82.03996, 26.61772],
        [82.04019, 26.61654],
        [82.0406, 26.61602],
        [82.04082, 26.61539],
        [82.04081, 26.61531],
        [82.04263, 26.61482],
        [82.04416, 26.6144],
        [82.04508, 26.61427],
        [82.04558, 26.61412],
        [82.04595, 26.61395],
        [82.04632, 26.61393],
        [82.04678, 26.61392],
        [82.0471, 26.61409],
        [82.04727, 26.61436],
        [82.04754, 26.61479],
        [82.0478, 26.61527],
        [82.04828, 26.61592],
        [82.04891, 26.61648],
        [82.04949, 26.61698],
        [82.04998, 26.61743],
        [82.05029, 26.61781],
        [82.05033, 26.61798],
        [82.05053, 26.61632],
        [82.05065, 26.61499],
        [82.05076, 26.61396],
        [82.05066, 26.6131],
        [82.05015, 26.611],
        [82.0498, 26.61043],
        [82.04937, 26.60968],
        [82.04906, 26.60929],
        [82.04879, 26.6086],
        [82.04865, 26.60804],
        [82.04834, 26.60748],
        [82.04799, 26.60687],
        [82.04744, 26.60597],
        [82.04709, 26.60545],
        [82.04664, 26.60474],
        [82.04628, 26.60505],
        [82.04605, 26.60541],
        [82.0457, 26.60632],
        [82.04558, 26.6069],
        [82.04543, 26.60843],
        [82.04528, 26.61007],
        [82.04503, 26.61117],
        [82.04464, 26.61167],
        [82.04427, 26.6117],
        [82.04357, 26.61182],
        [82.04173, 26.61219],
        [82.0399, 26.61256],
        [82.0399, 26.61235],
        [82.04012, 26.61171],
        [82.03993, 26.61126],
        [82.03924, 26.61087],
        [82.03835, 26.61068],
        [82.03639, 26.60973],
        [82.036, 26.60937],
        [82.03601, 26.60893],
        [82.03622, 26.60852],
        [82.03663, 26.60822],
        [82.03713, 26.60805],
        [82.03854, 26.60719],
        [82.03986, 26.60643],
        [82.04026, 26.60603],
        [82.04038, 26.6056],
        [82.04039, 26.6052],
        [82.0401, 26.60459],
        [82.03953, 26.60389],
        [82.03798, 26.602],
        [82.03791, 26.60122],
        [82.03843, 26.60018],
        [82.03896, 26.59956],
        [82.03915, 26.59933],
        [82.03937, 26.59869],
        [82.03928, 26.59814],
        [82.0391, 26.59769],
        [82.03911, 26.59714],
        [82.03923, 26.59649],
        [82.03935, 26.59574],
        [82.03966, 26.59533],
        [82.03996, 26.59514],
        [82.04069, 26.59422],
        [82.0415, 26.59353],
        [82.04211, 26.59325],
        [82.04311, 26.5929],
        [82.04411, 26.59266],
        [82.04428, 26.59217],
        [82.04433, 26.59203],
        [82.04425, 26.59147],
        [82.04388, 26.59046],
        [82.04198, 26.58712],
        [82.04181, 26.58634],
        [82.04182, 26.5859],
        [82.04213, 26.58539],
        [82.04235, 26.58464],
        [82.04229, 26.58332],
        [82.04185, 26.58121],
        [82.04209, 26.58033],
        [82.0424, 26.58003],
        [82.04414, 26.57902],
        [82.04453, 26.5788],
        [82.04582, 26.57892],
        [82.04699, 26.57967],
        [82.04872, 26.58146],
        [82.05127, 26.58267],
        [82.05266, 26.58268],
        [82.05343, 26.58274],
        [82.05404, 26.5828],
        [82.05473, 26.58275],
        [82.05553, 26.58249],
        [82.05633, 26.58244],
        [82.05802, 26.58182],
        [82.05961, 26.58152],
        [82.06161, 26.5806],
        [82.06444, 26.5793],
        [82.06512, 26.57854],
        [82.06535, 26.57829],
        [82.06607, 26.57715],
        [82.06618, 26.57683],
        [82.06669, 26.57589],
        [82.0675, 26.57498],
        [82.0684, 26.57461],
        [82.07126, 26.57419],
        [82.07405, 26.57362],
        [82.07584, 26.57289],
        [82.07647, 26.57161],
        [82.07639, 26.57099],
        [82.07613, 26.56963],
        [82.07586, 26.56906],
        [82.07571, 26.56889],
        [82.07538, 26.56848],
        [82.07489, 26.56833],
        [82.07461, 26.56788],
        [82.07423, 26.56741],
        [82.07387, 26.5663],
        [82.07371, 26.56509],
        [82.07361, 26.56462],
        [82.07325, 26.56408],
        [82.07296, 26.56373],
        [82.0725, 26.56282],
        [82.07135, 26.56143],
        [82.07113, 26.56124],
        [82.07078, 26.56095],
        [82.06989, 26.56077],
        [82.06811, 26.56084],
        [82.06684, 26.56063],
        [82.06644, 26.5606],
        [82.06606, 26.56002],
        [82.06597, 26.55969],
        [82.06599, 26.55915],
        [82.06611, 26.5584],
        [82.06613, 26.55764],
        [82.06618, 26.55591],
        [82.06564, 26.5538],
        [82.06547, 26.55245],
        [82.06558, 26.55192],
        [82.06589, 26.55151],
        [82.0663, 26.55122],
        [82.067, 26.55095],
        [82.0678, 26.55069],
        [82.06903, 26.55003],
        [82.06921, 26.54993],
        [82.06961, 26.54964],
        [82.06982, 26.54922],
        [82.06994, 26.54876],
        [82.06995, 26.54836],
        [82.06957, 26.54768],
        [82.0692, 26.54679],
        [82.06761, 26.54341],
        [82.0674, 26.54301],
        [82.06676, 26.54183],
        [82.06651, 26.5405],
        [82.06653, 26.53953],
        [82.06655, 26.53899],
        [82.06677, 26.53825],
        [82.06779, 26.53747],
        [82.07149, 26.53452],
        [82.07263, 26.5332],
        [82.07348, 26.53197],
        [82.07361, 26.53122],
        [82.07376, 26.52975],
        [82.07378, 26.52929],
        [82.07352, 26.52798],
        [82.0728, 26.52587],
        [82.0722, 26.52322],
        [82.07122, 26.51991],
        [82.07115, 26.51905],
        [82.07118, 26.5183],
        [82.07154, 26.51682],
        [82.07156, 26.51629],
        [82.07152, 26.51478],
        [82.07123, 26.51433],
        [82.07019, 26.51253],
        [82.06962, 26.51142],
        [82.06923, 26.51106],
        [82.06855, 26.51037],
        [82.06776, 26.50966],
        [82.06748, 26.509],
        [82.0673, 26.50834],
        [82.06722, 26.50748],
        [82.06705, 26.5065],
        [82.06696, 26.50622],
        [82.06677, 26.50562],
        [82.06658, 26.50518],
        [82.06598, 26.50491],
        [82.06506, 26.50516],
        [82.06423, 26.50573],
        [82.06361, 26.50621],
        [82.06131, 26.50772],
        [82.06089, 26.50833],
        [82.06087, 26.50886],
        [82.06073, 26.51003],
        [82.06001, 26.5105],
        [82.0597, 26.51058],
        [82.0588, 26.5104],
        [82.0585, 26.51027],
        [82.05779, 26.5102],
        [82.05751, 26.50975],
        [82.05753, 26.50911],
        [82.05765, 26.50836],
        [82.05787, 26.50785],
        [82.0581, 26.50712],
        [82.05803, 26.50636],
        [82.05785, 26.50581],
        [82.05756, 26.50546],
        [82.05718, 26.50489],
        [82.057, 26.50445],
        [82.05702, 26.50402],
        [82.05714, 26.5036],
        [82.05746, 26.50309],
        [82.05768, 26.50268],
        [82.05802, 26.50186],
        [82.05784, 26.50152],
        [82.05764, 26.5015],
        [82.05734, 26.50169],
        [82.05702, 26.50198],
        [82.05633, 26.50202],
        [82.05605, 26.50178],
        [82.05589, 26.50134],
        [82.05582, 26.5009],
        [82.05574, 26.50057],
        [82.05546, 26.50034],
        [82.05522, 26.50031],
        [82.05478, 26.50027],
        [82.05357, 26.5008],
        [82.05245, 26.50144],
        [82.0515, 26.502],
        [82.05061, 26.50213],
        [82.05032, 26.5021],
        [82.05013, 26.50187],
        [82.05016, 26.50144],
        [82.05037, 26.50125],
        [82.0511, 26.50067],
        [82.05162, 26.50019],
        [82.05164, 26.49987],
        [82.05156, 26.49965],
        [82.0513, 26.49962],
        [82.05029, 26.49963],
        [82.04937, 26.50008],
        [82.04745, 26.50086],
        [82.04694, 26.50113],
        [82.046, 26.5019],
        [82.04528, 26.50236],
        [82.04477, 26.50264],
        [82.04375, 26.50296],
        [82.04256, 26.50306],
        [82.04178, 26.50298],
        [82.04057, 26.50319],
        [82.03959, 26.50309],
        [82.03851, 26.50287],
        [82.03705, 26.5024],
        [82.03665, 26.50236],
        [82.03553, 26.50278],
        [82.03428, 26.50362],
        [82.03324, 26.50438],
        [82.0329, 26.50499],
        [82.03265, 26.50582],
        [82.03262, 26.50635],
        [82.03272, 26.50777],
        [82.03238, 26.50838],
        [82.03196, 26.50888],
        [82.03165, 26.50906],
        [82.03134, 26.50914],
        [82.03064, 26.50917],
        [82.02995, 26.5091],
        [82.02886, 26.50898],
        [82.02598, 26.50825],
        [82.02401, 26.5076],
        [82.02274, 26.50714],
        [82.02175, 26.50692],
        [82.02095, 26.50683],
        [82.02065, 26.5068],
        [82.02034, 26.50687],
        [82.01992, 26.50715],
        [82.0195, 26.50753],
        [82.01887, 26.50811],
        [82.01826, 26.50847],
        [82.017, 26.50962],
        [82.0159, 26.5096],
        [82.01566, 26.50952],
        [82.01481, 26.50925],
        [82.01442, 26.50888],
        [82.01403, 26.5083],
        [82.01385, 26.50763],
        [82.01349, 26.50672],
        [82.01313, 26.50592],
        [82.01267, 26.50521],
        [82.01135, 26.50375],
        [82.01019, 26.50296],
        [82.00952, 26.50244],
        [82.00877, 26.50159],
        [82.00841, 26.50089],
        [82.00831, 26.49959],
        [82.00826, 26.49836],
        [82.00824, 26.49787],
        [82.00814, 26.49659],
        [82.00814, 26.49526],
        [82.00769, 26.49287],
        [82.00761, 26.49246],
        [82.00733, 26.49206],
        [82.00681, 26.49133],
        [82.00649, 26.49121],
        [82.00599, 26.49105],
        [82.00545, 26.49068],
        [82.00498, 26.4901],
        [82.00461, 26.49007],
        [82.00387, 26.49063],
        [82.00349, 26.49153],
        [82.00286, 26.49212],
        [82.00252, 26.49265],
        [82.00248, 26.49294],
        [82.00216, 26.49347],
        [82.00135, 26.4943],
        [81.99991, 26.49547],
        [81.99859, 26.49584],
        [81.98442, 26.50041],
        [81.98366, 26.5012],
        [81.98113, 26.50281],
        [81.98051, 26.50362],
        [81.9809, 26.50393],
        [81.98275, 26.5061],
        [81.98238, 26.50696],
        [81.98223, 26.5074],
        [81.98163, 26.50954],
        [81.9809, 26.51047],
        [81.98004, 26.51092],
        [81.97845, 26.51162],
        [81.97678, 26.51199],
        [81.9759, 26.51321],
        [81.97509, 26.51394],
        [81.974, 26.51441],
        [81.97272, 26.51449],
        [81.97012, 26.51441],
        [81.96871, 26.51391],
        [81.96548, 26.51204],
        [81.96366, 26.51144],
        [81.96173, 26.51081],
        [81.96053, 26.51034],
        [81.95964, 26.51074],
        [81.95849, 26.51089],
        [81.95729, 26.51087],
        [81.95641, 26.511],
        [81.95513, 26.51055],
        [81.95488, 26.51024],
        [81.95438, 26.51055],
        [81.9535, 26.51107],
        [81.95214, 26.51162],
        [81.95109, 26.51225],
        [81.95026, 26.51217],
        [81.94886, 26.51207],
        [81.94711, 26.5117],
        [81.94588, 26.51115],
        [81.94505, 26.51032],
        [81.94404, 26.51],
        [81.94299, 26.50961],
        [81.94203, 26.50867],
        [81.94005, 26.50711],
        [81.93877, 26.50735],
        [81.93702, 26.50865],
        [81.93531, 26.5105],
        [81.93296, 26.51201],
        [81.93077, 26.51159],
        [81.92913, 26.51139],
        [81.92806, 26.5118],
        [81.92715, 26.51261],
        [81.92671, 26.51373],
        [81.92658, 26.51459],
        [81.92676, 26.51631],
        [81.92423, 26.51751],
        [81.9221, 26.51853],
        [81.91952, 26.51897],
        [81.91918, 26.51874],
        [81.91736, 26.51947],
        [81.91501, 26.51519],
        [81.91361, 26.51214],
        [81.91267, 26.50883],
        [81.91235, 26.50779],
        [81.91178, 26.50787],
        [81.91107, 26.50852],
        [81.91045, 26.50956],
        [81.90923, 26.5098],
        [81.90751, 26.5099],
        [81.90652, 26.51],
        [81.90621, 26.51024],
        [81.90451, 26.51039],
        [81.90219, 26.51047],
        [81.90154, 26.51076],
        [81.9012, 26.51118],
        [81.89946, 26.51042],
        [81.89862, 26.51],
        [81.89721, 26.50875],
        [81.8968, 26.50805],
        [81.89641, 26.50787],
        [81.89596, 26.50836],
        [81.89575, 26.50896],
        [81.89547, 26.50959],
        [81.89474, 26.51021],
        [81.89388, 26.51063],
        [81.89367, 26.51227],
        [81.89363, 26.51314],
        [81.89362, 26.51337],
        [81.89307, 26.51592],
        [81.89222, 26.51754],
        [81.89187, 26.51788],
        [81.88966, 26.52077],
        [81.88861, 26.52275],
        [81.88898, 26.52332],
        [81.89112, 26.52499],
        [81.89263, 26.52444],
        [81.89414, 26.52359],
        [81.89511, 26.52311],
        [81.89573, 26.52335],
        [81.89695, 26.5246],
        [81.89831, 26.52731],
        [81.89859, 26.52828],
        [81.89865, 26.52896],
        [81.89815, 26.5294],
        [81.89737, 26.52963],
        [81.89367, 26.53125],
        [81.89023, 26.53305],
        [81.88945, 26.53354],
        [81.88848, 26.53422],
        [81.88747, 26.53451],
        [81.88528, 26.53474],
        [81.88429, 26.53479],
        [81.88346, 26.53464],
        [81.88276, 26.53485],
        [81.882, 26.53526],
        [81.88127, 26.5362],
        [81.88086, 26.53706],
        [81.88007, 26.5374],
        [81.87934, 26.5374],
        [81.87882, 26.53756],
        [81.87648, 26.53818],
        [81.87578, 26.53787],
        [81.87541, 26.53737],
        [81.87523, 26.5368],
        [81.87502, 26.53659],
        [81.87453, 26.53646],
        [81.87369, 26.53623],
        [81.87267, 26.53537],
        [81.87163, 26.53404],
        [81.8714, 26.53331],
        [81.87108, 26.53341],
        [81.87025, 26.5337],
        [81.86949, 26.53409],
        [81.86864, 26.53396],
        [81.86671, 26.53253],
        [81.86645, 26.53268],
        [81.86535, 26.53443],
        [81.86491, 26.53446],
        [81.86387, 26.53404],
        [81.86298, 26.53331],
        [81.86183, 26.53182],
        [81.86063, 26.52885],
        [81.86001, 26.5276],
        [81.85866, 26.52489],
        [81.8587, 26.52426],
        [81.85899, 26.52353],
        [81.85876, 26.52288],
        [81.85806, 26.52254],
        [81.85671, 26.52267],
        [81.85542, 26.52296],
        [81.85253, 26.52356],
        [81.85117, 26.52374],
        [81.84865, 26.52379],
        [81.84738, 26.52385],
        [81.8475, 26.52231],
        [81.84789, 26.52113],
        [81.84826, 26.51988],
        [81.84766, 26.51777],
        [81.84716, 26.51639],
        [81.84712, 26.51555],
        [81.84734, 26.51519],
        [81.84703, 26.51485],
        [81.84693, 26.51402],
        [81.84716, 26.51292],
        [81.84716, 26.51245],
        [81.84699, 26.51217],
        [81.84651, 26.51204],
        [81.84589, 26.51211],
        [81.84451, 26.51235],
        [81.84346, 26.5129],
        [81.84323, 26.51331],
        [81.84287, 26.51394],
        [81.84237, 26.51425],
        [81.84169, 26.51441],
        [81.8412, 26.51475],
        [81.84099, 26.51519],
        [81.84141, 26.51548],
        [81.83987, 26.51569],
        [81.83841, 26.51582],
        [81.8363, 26.51642],
        [81.83315, 26.51775],
        [81.83179, 26.51845],
        [81.83148, 26.51887],
        [81.83145, 26.5191],
        [81.83169, 26.51926],
        [81.83258, 26.51973],
        [81.833, 26.52017],
        [81.8338, 26.52111],
        [81.83291, 26.5215],
        [81.83271, 26.52132],
        [81.83242, 26.52092],
        [81.83171, 26.52095],
        [81.83091, 26.5209],
        [81.83052, 26.52064],
        [81.83007, 26.52087],
        [81.82814, 26.52179],
        [81.82747, 26.52176],
        [81.82726, 26.5221],
        [81.82486, 26.52306],
        [81.82382, 26.52348],
        [81.82297, 26.52382],
        [81.82296, 26.52405],
        [81.82312, 26.52486],
        [81.82293, 26.52504],
        [81.82241, 26.52541],
        [81.82221, 26.52569],
        [81.82221, 26.52635],
        [81.822, 26.52689],
        [81.82161, 26.52677],
        [81.82046, 26.52702],
        [81.82033, 26.52726],
        [81.82059, 26.5282],
        [81.81986, 26.52885],
        [81.82012, 26.53],
        [81.81945, 26.53062],
        [81.81929, 26.53172],
        [81.81908, 26.53274],
        [81.81846, 26.53313],
        [81.81655, 26.53419],
        [81.81257, 26.53672],
        [81.81199, 26.53727],
        [81.81174, 26.53774],
        [81.81132, 26.53802],
        [81.8108, 26.5381],
        [81.81077, 26.53831],
        [81.81043, 26.53875],
        [81.80973, 26.5399],
        [81.8092, 26.54001],
        [81.80892, 26.53988],
        [81.80874, 26.53951],
        [81.80868, 26.53922],
        [81.80845, 26.53896],
        [81.80804, 26.53891],
        [81.80772, 26.53883],
        [81.80764, 26.53854],
        [81.80769, 26.53831],
        [81.80788, 26.53808],
        [81.80795, 26.53774],
        [81.80795, 26.5375],
        [81.80769, 26.53724],
        [81.80738, 26.53735],
        [81.80694, 26.53766],
        [81.80655, 26.53771],
        [81.80631, 26.53763],
        [81.8059, 26.53771],
        [81.80574, 26.53753],
        [81.80548, 26.53753],
        [81.80543, 26.5379],
        [81.80506, 26.538],
        [81.80486, 26.53782],
        [81.80488, 26.5374],
        [81.80491, 26.5368],
        [81.80566, 26.53531],
        [81.80574, 26.5349],
        [81.80553, 26.53474],
        [81.80535, 26.5344],
        [81.80524, 26.53383],
        [81.80519, 26.53352],
        [81.80506, 26.53328],
        [81.80493, 26.53312],
        [81.80467, 26.53315],
        [81.80449, 26.53328],
        [81.80397, 26.53338],
        [81.80379, 26.53354],
        [81.80368, 26.5338],
        [81.80329, 26.53406],
        [81.80287, 26.53375],
        [81.80269, 26.53331],
        [81.80241, 26.53291],
        [81.80212, 26.53265],
        [81.80175, 26.53268],
        [81.80087, 26.53284],
        [81.80071, 26.53266],
        [81.80105, 26.53232],
        [81.80136, 26.53216],
        [81.80136, 26.5319],
        [81.80149, 26.53153],
        [81.80189, 26.53109],
        [81.80154, 26.53099],
        [81.80123, 26.53117],
        [81.80064, 26.53135],
        [81.80003, 26.53122],
        [81.79967, 26.53101],
        [81.79961, 26.53065],
        [81.79974, 26.53049],
        [81.79985, 26.53018],
        [81.79957, 26.53005],
        [81.7992, 26.53],
        [81.79868, 26.52987],
        [81.79876, 26.52968],
        [81.79923, 26.52937],
        [81.79935, 26.52911],
        [81.79941, 26.52877],
        [81.79923, 26.52859],
        [81.79902, 26.52838],
        [81.79836, 26.52843],
        [81.79787, 26.52843],
        [81.79769, 26.52901],
        [81.79743, 26.52966],
        [81.79707, 26.53054],
        [81.79631, 26.53187],
        [81.79545, 26.53271],
        [81.79378, 26.53396],
        [81.79297, 26.53464],
        [81.7898, 26.53646],
        [81.78899, 26.53693],
        [81.78829, 26.53701],
        [81.78771, 26.53714],
        [81.78748, 26.53729],
        [81.78745, 26.53876],
        [81.78693, 26.53954],
        [81.78662, 26.54],
        [81.7862, 26.54032],
        [81.78539, 26.54068],
        [81.78521, 26.54126],
        [81.78459, 26.54219],
        [81.78367, 26.54282],
        [81.78297, 26.54376],
        [81.7824, 26.54373],
        [81.78195, 26.54352],
        [81.7817, 26.54357],
        [81.78125, 26.54384],
        [81.78089, 26.54397],
        [81.78008, 26.54384],
        [81.77885, 26.54308],
        [81.77732, 26.54258],
        [81.77565, 26.54222],
        [81.77416, 26.54233],
        [81.7734, 26.54256],
        [81.77329, 26.54259],
        [81.772, 26.54235],
        [81.77136, 26.54194],
        [81.77085, 26.54189],
        [81.76953, 26.54337],
        [81.76889, 26.54364],
        [81.76819, 26.54358],
        [81.76761, 26.5433],
        [81.76626, 26.54294],
        [81.76508, 26.54307],
        [81.7643, 26.5434],
        [81.76353, 26.54434],
        [81.76278, 26.54589],
        [81.76221, 26.54675],
        [81.76131, 26.54696],
        [81.761, 26.54618],
        [81.76064, 26.54584],
        [81.76033, 26.54576],
        [81.75852, 26.54623],
        [81.75697, 26.54688],
        [81.75599, 26.54711],
        [81.75534, 26.54706],
        [81.75485, 26.54688],
        [81.75234, 26.54594],
        [81.75087, 26.54504],
        [81.74823, 26.54333],
        [81.7478, 26.54342],
        [81.74717, 26.54351],
        [81.7471, 26.54401],
        [81.74653, 26.54416],
        [81.74631, 26.54375],
        [81.74603, 26.54375],
        [81.7459, 26.54433],
        [81.74534, 26.54442],
        [81.7451, 26.54475],
        [81.74451, 26.54464],
        [81.74425, 26.54462],
        [81.74419, 26.54492],
        [81.74403, 26.54509],
        [81.74364, 26.54507],
        [81.74342, 26.54481],
        [81.74323, 26.54468],
        [81.74286, 26.54479],
        [81.74196, 26.54505],
        [81.74131, 26.54499],
        [81.73952, 26.54548],
        [81.7365, 26.54638],
        [81.73624, 26.54638],
        [81.73573, 26.54609],
        [81.73482, 26.54583],
        [81.73236, 26.54607],
        [81.73168, 26.54594],
        [81.73153, 26.54568],
        [81.73071, 26.54459],
        [81.7299, 26.54403],
        [81.72924, 26.54353],
        [81.72872, 26.54266],
        [81.7284, 26.54212],
        [81.72785, 26.54164],
        [81.72718, 26.54138],
        [81.72582, 26.54083],
        [81.72552, 26.54055],
        [81.72487, 26.53983],
        [81.72391, 26.53905],
        [81.723, 26.53874],
        [81.72164, 26.53878],
        [81.72051, 26.53903],
        [81.7201, 26.53899],
        [81.7201, 26.53874],
        [81.72055, 26.53857],
        [81.72081, 26.53834],
        [81.72081, 26.53808],
        [81.7206, 26.5378],
        [81.72035, 26.5377],
        [81.72003, 26.53778],
        [81.71952, 26.53815],
        [81.71897, 26.53816],
        [81.71878, 26.53797],
        [81.71892, 26.53779],
        [81.71878, 26.53758],
        [81.71818, 26.5375],
        [81.7177, 26.53745],
        [81.71742, 26.53645],
        [81.71746, 26.53626],
        [81.71755, 26.53586],
        [81.7171, 26.53552],
        [81.71683, 26.53517],
        [81.71681, 26.53489],
        [81.71729, 26.53445],
        [81.71723, 26.53424],
        [81.71705, 26.53406],
        [81.71685, 26.53374],
        [81.7167, 26.53317],
        [81.71668, 26.53287],
        [81.71765, 26.53272],
        [81.7188, 26.53272],
        [81.72043, 26.53302],
        [81.72052, 26.53163],
        [81.72071, 26.53121],
        [81.72203, 26.53028],
        [81.72242, 26.52969],
        [81.72295, 26.52861],
        [81.72354, 26.52811],
        [81.72447, 26.52763],
        [81.72553, 26.52715],
        [81.72438, 26.5263],
        [81.72406, 26.52631],
        [81.72376, 26.52639],
        [81.72256, 26.52687],
        [81.72152, 26.52735],
        [81.72089, 26.52741],
        [81.71993, 26.52772],
        [81.71883, 26.52769],
        [81.71777, 26.52754],
        [81.71692, 26.52698],
        [81.71627, 26.52652],
        [81.7157, 26.52644],
        [81.71544, 26.52613],
        [81.71505, 26.52559],
        [81.71488, 26.52513],
        [81.71523, 26.52415],
        [81.71549, 26.52309],
        [81.7161, 26.52196],
        [81.71703, 26.52137],
        [81.7178, 26.52122],
        [81.72132, 26.52113],
        [81.72004, 26.51768],
        [81.71955, 26.51531],
        [81.71883, 26.5122],
        [81.71829, 26.51124],
        [81.71798, 26.51085],
        [81.71695, 26.51063],
        [81.71625, 26.51078],
        [81.71525, 26.51124],
        [81.71438, 26.51203],
        [81.71261, 26.51418],
        [81.711, 26.51594],
        [81.70957, 26.51685],
        [81.70818, 26.51831],
        [81.70591, 26.5208],
        [81.70472, 26.52159],
        [81.70307, 26.52202],
        [81.70113, 26.522],
        [81.69916, 26.52196],
        [81.69612, 26.52226],
        [81.69202, 26.52282],
        [81.69006, 26.52332],
        [81.68774, 26.52396],
        [81.68674, 26.52409],
        [81.68442, 26.52452],
        [81.68255, 26.52513],
        [81.68069, 26.526],
        [81.6752, 26.52815],
        [81.6742, 26.52861],
        [81.67362, 26.52919],
        [81.67349, 26.52985],
        [81.67366, 26.5305],
        [81.67479, 26.53352],
        [81.67596, 26.53747],
        [81.67671, 26.53943],
        [81.67815, 26.54189],
        [81.67893, 26.54271],
        [81.68214, 26.54478],
        [81.68246, 26.54488],
        [81.68378, 26.54441],
        [81.6851, 26.54365],
        [81.68673, 26.54232],
        [81.68862, 26.54097],
        [81.69003, 26.53947],
        [81.69073, 26.53926],
        [81.69409, 26.5406],
        [81.696, 26.54171],
        [81.69745, 26.5428],
        [81.69802, 26.54336],
        [81.69803, 26.5436],
        [81.69835, 26.5448],
        [81.69829, 26.54545],
        [81.69792, 26.54728],
        [81.69771, 26.54952],
        [81.69801, 26.55258],
        [81.69829, 26.55386],
        [81.69858, 26.55471],
        [81.69922, 26.55662],
        [81.70051, 26.56125],
        [81.70113, 26.56399],
        [81.70122, 26.56575],
        [81.70109, 26.56621],
        [81.70042, 26.56799],
        [81.69979, 26.56988],
        [81.69979, 26.57109],
        [81.69987, 26.5717],
        [81.70007, 26.57385],
        [81.70007, 26.57473],
        [81.69974, 26.57561],
        [81.69979, 26.57618],
        [81.70012, 26.57685],
        [81.70287, 26.58048],
        [81.70346, 26.58114],
        [81.7038, 26.58231],
        [81.70376, 26.585],
        [81.70361, 26.58557],
        [81.70354, 26.58581],
        [81.70295, 26.5874],
        [81.7025, 26.58833],
        [81.70511, 26.58848],
        [81.70555, 26.5888],
        [81.70575, 26.58991],
        [81.70571, 26.59086],
        [81.70611, 26.59147],
        [81.70657, 26.59179],
        [81.70739, 26.59197],
        [81.70832, 26.5917],
        [81.71, 26.59045],
        [81.71118, 26.5898],
        [81.7117, 26.58959],
        [81.71218, 26.58954],
        [81.71273, 26.59024],
        [81.71331, 26.59217],
        [81.71372, 26.5923],
        [81.71398, 26.59226],
        [81.71466, 26.59176],
        [81.7153, 26.59133],
        [81.71618, 26.59135],
        [81.71664, 26.59178],
        [81.71664, 26.59228],
        [81.71646, 26.59348],
        [81.71662, 26.5943],
        [81.7172, 26.59475],
        [81.71791, 26.59484],
        [81.71987, 26.59473],
        [81.72036, 26.59497],
        [81.72093, 26.59549],
        [81.72231, 26.59613],
        [81.72296, 26.59649],
        [81.72343, 26.5969],
        [81.72343, 26.59747],
        [81.72322, 26.59797],
        [81.72322, 26.59824],
        [81.72338, 26.59844],
        [81.72412, 26.5981],
        [81.72445, 26.5979],
        [81.72525, 26.59792],
        [81.72736, 26.60009],
        [81.72815, 26.60081],
        [81.72886, 26.60099],
        [81.72931, 26.60136],
        [81.72931, 26.60176],
        [81.72931, 26.60229],
        [81.72886, 26.60276],
        [81.7282, 26.60306],
        [81.728, 26.6034],
        [81.728, 26.60403],
        [81.72824, 26.60453],
        [81.72861, 26.605],
        [81.73018, 26.60582],
        [81.73074, 26.60627],
        [81.73097, 26.60679],
        [81.73118, 26.60733],
        [81.73179, 26.60763],
        [81.73229, 26.60817],
        [81.73248, 26.60883],
        [81.73277, 26.60926],
        [81.73325, 26.60931],
        [81.7339, 26.60939],
        [81.73413, 26.60955],
        [81.73413, 26.61012],
        [81.73413, 26.61061],
        [81.73424, 26.61104],
        [81.73467, 26.61118],
        [81.73531, 26.6112],
        [81.73553, 26.61121],
        [81.73576, 26.61132],
        [81.73579, 26.61179],
        [81.73647, 26.61229],
        [81.73697, 26.61234],
        [81.73745, 26.61254],
        [81.7377, 26.61313],
        [81.73811, 26.61327],
        [81.73861, 26.61308],
        [81.7387, 26.61256],
        [81.73886, 26.61243],
        [81.73968, 26.61288],
        [81.74011, 26.61313],
        [81.74084, 26.61311],
        [81.74139, 26.61293],
        [81.742, 26.61297],
        [81.74204, 26.61349],
        [81.74206, 26.61385],
        [81.74227, 26.61417],
        [81.74234, 26.61444],
        [81.74234, 26.61484],
        [81.74277, 26.61487],
        [81.74311, 26.61473],
        [81.74338, 26.61485],
        [81.74345, 26.61507],
        [81.74345, 26.6155],
        [81.74354, 26.61589],
        [81.74375, 26.61614],
        [81.74441, 26.61621],
        [81.74507, 26.61625],
        [81.74538, 26.61632],
        [81.74541, 26.61661],
        [81.74538, 26.61684],
        [81.74525, 26.61704],
        [81.74518, 26.61736],
        [81.74531, 26.61756],
        [81.74584, 26.61763],
        [81.74607, 26.6177],
        [81.74631, 26.61754],
        [81.74647, 26.6172],
        [81.74705, 26.61718],
        [81.74718, 26.61747],
        [81.74721, 26.61809],
        [81.74746, 26.6187],
        [81.74763, 26.61936],
        [81.74768, 26.62003],
        [81.74752, 26.62042],
        [81.74741, 26.62085],
        [81.74732, 26.62125],
        [81.74747, 26.62184],
        [81.74827, 26.62218],
        [81.74882, 26.62252],
        [81.74898, 26.62282],
        [81.74882, 26.6232],
        [81.74832, 26.62338],
        [81.74775, 26.62325],
        [81.74725, 26.62307],
        [81.74659, 26.623],
        [81.74591, 26.62336],
        [81.74531, 26.62399],
        [81.7452, 26.62429],
        [81.745, 26.62494],
        [81.74496, 26.62556],
        [81.74464, 26.62617],
        [81.7442, 26.62687],
        [81.74459, 26.62807],
        [81.7445, 26.62904],
        [81.74434, 26.62963],
        [81.74415, 26.63018],
        [81.74402, 26.63108],
        [81.74393, 26.6316],
        [81.74441, 26.63218],
        [81.74452, 26.63248],
        [81.74387, 26.63291],
        [81.74345, 26.63316],
        [81.74341, 26.63373],
        [81.7437, 26.63409],
        [81.74445, 26.63418],
        [81.74498, 26.63418],
        [81.74563, 26.63427],
        [81.74577, 26.63443],
        [81.74563, 26.63477],
        [81.74559, 26.63513],
        [81.74631, 26.6352],
        [81.74684, 26.63529],
        [81.7483, 26.63663],
        [81.74882, 26.6371],
        [81.74895, 26.63775],
        [81.74875, 26.63823],
        [81.74837, 26.63861],
        [81.7477, 26.63868],
        [81.74747, 26.63904],
        [81.74752, 26.63929],
        [81.74823, 26.63948],
        [81.74853, 26.63957],
        [81.74886, 26.63979],
        [81.74879, 26.64022],
        [81.7485, 26.64068],
        [81.74811, 26.64108],
        [81.74788, 26.64124],
        [81.74763, 26.64176],
        [81.74773, 26.64244],
        [81.74818, 26.64282],
        [81.74864, 26.64316],
        [81.74868, 26.64353],
        [81.74864, 26.64412],
        [81.74834, 26.64466],
        [81.74763, 26.64513],
        [81.74536, 26.64591],
        [81.74361, 26.64647],
        [81.74319, 26.64676],
        [81.74264, 26.64705],
        [81.74214, 26.64705],
        [81.74132, 26.64692],
        [81.74087, 26.64708],
        [81.74036, 26.64758],
        [81.73927, 26.64832],
        [81.73816, 26.64912],
        [81.738, 26.64966],
        [81.73786, 26.65072],
        [81.73791, 26.65111],
        [81.738, 26.65177],
        [81.73804, 26.65321],
        [81.73793, 26.6538],
        [81.73734, 26.65443],
        [81.737, 26.65502],
        [81.73695, 26.65548],
        [81.73695, 26.65636],
        [81.73688, 26.65742],
        [81.73688, 26.65803],
        [81.737, 26.65828],
        [81.73746, 26.65855],
        [81.73834, 26.65867],
        [81.73888, 26.6588],
        [81.73957, 26.65846],
        [81.74009, 26.65836],
        [81.74071, 26.65859],
        [81.74114, 26.65868],
        [81.74157, 26.65868],
        [81.74191, 26.65882],
        [81.74246, 26.65882],
        [81.7428, 26.65862],
        [81.74335, 26.65871],
        [81.74323, 26.65914],
        [81.74293, 26.65948],
        [81.74293, 26.65988],
        [81.74252, 26.66016],
        [81.74239, 26.66045],
        [81.74187, 26.66059],
        [81.74148, 26.66079],
        [81.74127, 26.66104],
        [81.74068, 26.66131],
        [81.74123, 26.66156],
        [81.74093, 26.66179],
        [81.74064, 26.66201],
        [81.74043, 26.66231],
        [81.74046, 26.66251],
        [81.74061, 26.66274],
        [81.74119, 26.66312],
        [81.74155, 26.66342],
        [81.74237, 26.66342],
        [81.74314, 26.66326],
        [81.74382, 26.66326],
        [81.74489, 26.66367],
        [81.74553, 26.66433],
        [81.7458, 26.66482],
        [81.74582, 26.66525],
        [81.7457, 26.66561],
        [81.74556, 26.666],
        [81.74547, 26.66634],
        [81.74552, 26.66672],
        [81.74561, 26.66718],
        [81.74557, 26.6678],
        [81.74575, 26.66807],
        [81.74584, 26.66844],
        [81.74566, 26.66889],
        [81.74527, 26.66921],
        [81.74513, 26.66937],
        [81.74534, 26.66984],
        [81.74561, 26.67027],
        [81.74589, 26.67073],
        [81.74595, 26.67123],
        [81.74602, 26.67168],
        [81.74634, 26.67197],
        [81.74809, 26.67265],
        [81.74877, 26.6728],
        [81.75033, 26.67372],
        [81.75083, 26.6738],
        [81.75118, 26.67372],
        [81.75152, 26.67315],
        [81.75171, 26.67301],
        [81.75216, 26.6728],
        [81.75276, 26.67283],
        [81.75309, 26.6731],
        [81.75334, 26.67366],
        [81.75334, 26.67536],
        [81.75328, 26.67603],
        [81.75329, 26.67633],
        [81.75679, 26.68053],
        [81.75713, 26.68107],
        [81.75514, 26.68143],
        [81.75228, 26.68254],
        [81.7515, 26.68294],
        [81.75091, 26.68308],
        [81.75114, 26.68487],
        [81.75116, 26.68645],
        [81.75106, 26.68711],
        [81.75023, 26.68845],
        [81.75068, 26.68878],
        [81.75153, 26.68922],
        [81.75195, 26.68975],
        [81.75204, 26.69025],
        [81.75075, 26.6903],
        [81.75035, 26.69041],
        [81.75023, 26.69074],
        [81.75028, 26.69257],
        [81.74974, 26.69275],
        [81.74989, 26.69342],
        [81.75125, 26.69586],
        [81.7525, 26.69737],
        [81.75429, 26.69983],
        [81.75458, 26.7006],
        [81.75493, 26.70136],
        [81.75514, 26.70156],
        [81.75577, 26.70205],
        [81.75646, 26.7026],
        [81.75694, 26.70299],
        [81.75715, 26.70362],
        [81.7572, 26.70461],
        [81.75732, 26.70701],
        [81.75769, 26.70702],
        [81.75833, 26.70681],
        [81.75884, 26.70641],
        [81.76005, 26.70533],
        [81.76102, 26.70452],
        [81.76136, 26.70434],
        [81.76199, 26.70427],
        [81.76251, 26.70422],
        [81.7628, 26.7041],
        [81.76284, 26.70318],
        [81.76297, 26.70219],
        [81.76375, 26.70138],
        [81.76426, 26.70111],
        [81.76484, 26.70062],
        [81.76554, 26.69919],
        [81.76635, 26.69803],
        [81.76681, 26.69713],
        [81.76727, 26.69528],
        [81.76759, 26.69431],
        [81.76769, 26.69381],
        [81.76795, 26.69332],
        [81.76842, 26.69275],
        [81.76903, 26.69233],
        [81.77009, 26.69143],
        [81.77106, 26.69099],
        [81.77261, 26.69039],
        [81.77387, 26.68979],
        [81.77468, 26.68938],
        [81.77546, 26.68859],
        [81.77622, 26.68792],
        [81.77699, 26.68774],
        [81.77922, 26.68709],
        [81.77982, 26.68683],
        [81.78019, 26.68647],
        [81.7806, 26.68545],
        [81.78143, 26.68515],
        [81.7822, 26.68471],
        [81.78312, 26.68543],
        [81.78465, 26.68834],
        [81.78597, 26.69032],
        [81.78604, 26.69157],
        [81.78579, 26.69203],
        [81.78544, 26.69215],
        [81.7844, 26.69263],
        [81.78289, 26.69385],
        [81.78198, 26.69471],
        [81.7815, 26.69529],
        [81.78138, 26.69596],
        [81.78129, 26.69674],
        [81.78182, 26.69775],
        [81.78361, 26.69967],
        [81.78569, 26.70122],
        [81.78683, 26.70152],
        [81.78748, 26.70177],
        [81.78922, 26.70406],
        [81.78974, 26.70452],
        [81.79043, 26.7039],
        [81.7924, 26.70304],
        [81.79482, 26.70175],
        [81.79583, 26.70131],
        [81.79613, 26.70108],
        [81.79626, 26.70067],
        [81.79652, 26.70052],
        [81.79674, 26.70055],
        [81.79724, 26.70057],
        [81.79895, 26.69979],
        [81.7996, 26.69926],
        [81.80211, 26.69782],
        [81.80528, 26.69614],
        [81.80665, 26.69517],
        [81.80648, 26.69503],
        [81.80488, 26.69471],
        [81.80389, 26.69441],
        [81.80268, 26.69416],
        [81.80138, 26.6939],
        [81.803, 26.6917],
        [81.80226, 26.68914],
        [81.80208, 26.68878],
        [81.80082, 26.68841],
        [81.80128, 26.68661],
        [81.80175, 26.68466],
        [81.80168, 26.68356],
        [81.80089, 26.68248],
        [81.79929, 26.68152],
        [81.79729, 26.68035],
        [81.79747, 26.67987],
        [81.79778, 26.67933],
        [81.79896, 26.67887],
        [81.79958, 26.6785],
        [81.79951, 26.67806],
        [81.79967, 26.67732],
        [81.79995, 26.67684],
        [81.80034, 26.6767],
        [81.80074, 26.67645],
        [81.80099, 26.67617],
        [81.80131, 26.67606],
        [81.80171, 26.67606],
        [81.80225, 26.67587],
        [81.80328, 26.67547],
        [81.80455, 26.67481],
        [81.80497, 26.67479],
        [81.80504, 26.67608],
        [81.80548, 26.67707],
        [81.80645, 26.67788],
        [81.8072, 26.67832],
        [81.80801, 26.67852],
        [81.80784, 26.67891],
        [81.80716, 26.67931],
        [81.80694, 26.67942],
        [81.80847, 26.6809],
        [81.80878, 26.68115],
        [81.80903, 26.68106],
        [81.81051, 26.68044],
        [81.81296, 26.68326],
        [81.81333, 26.68381],
        [81.81213, 26.68598],
        [81.81234, 26.68625],
        [81.81342, 26.68695],
        [81.81402, 26.68817],
        [81.81379, 26.68894],
        [81.8136, 26.68956],
        [81.81366, 26.68995],
        [81.81361, 26.69034],
        [81.81349, 26.69067],
        [81.81334, 26.69099],
        [81.81326, 26.69129],
        [81.8133, 26.69175],
        [81.81345, 26.6921],
        [81.81352, 26.6926],
        [81.81368, 26.69293],
        [81.81361, 26.6936],
        [81.8134, 26.69408],
        [81.81312, 26.69454],
        [81.81303, 26.69485],
        [81.81303, 26.69521],
        [81.81305, 26.69547],
        [81.8137, 26.69603],
        [81.81472, 26.69651],
        [81.8175, 26.69783],
        [81.81821, 26.69794],
        [81.81836, 26.69778],
        [81.81945, 26.69602],
        [81.8199, 26.69582],
        [81.82053, 26.69584],
        [81.82095, 26.69605],
        [81.82143, 26.69649],
        [81.82173, 26.69679],
        [81.82243, 26.69679],
        [81.82307, 26.69626],
        [81.82328, 26.69596],
        [81.8234, 26.69579],
        [81.82341, 26.69552],
        [81.82338, 26.69533],
        [81.82319, 26.69505],
        [81.82298, 26.69482],
        [81.8227, 26.69462],
        [81.82268, 26.69443],
        [81.82321, 26.69432],
        [81.82379, 26.69441],
        [81.82421, 26.69452],
        [81.82488, 26.69455],
        [81.82548, 26.69446],
        [81.82585, 26.69427],
        [81.82624, 26.69427],
        [81.82652, 26.69432],
        [81.82688, 26.69461],
        [81.82719, 26.69496],
        [81.82761, 26.69503],
        [81.82815, 26.69507],
        [81.82854, 26.69484],
        [81.82904, 26.69477],
        [81.82942, 26.69478],
        [81.82981, 26.69503],
        [81.83039, 26.69515],
        [81.83074, 26.69507],
        [81.83113, 26.69471],
        [81.83126, 26.69424],
        [81.83147, 26.6939],
        [81.83189, 26.69369],
        [81.83247, 26.69349],
        [81.83315, 26.69342],
        [81.83395, 26.69337],
        [81.83464, 26.69328],
        [81.83507, 26.69327],
        [81.83591, 26.69341],
        [81.83652, 26.69355],
        [81.83746, 26.69355],
        [81.83862, 26.69371],
        [81.83937, 26.69418],
        [81.83981, 26.69476],
        [81.83997, 26.69603],
        [81.83999, 26.69686],
        [81.84022, 26.69746],
        [81.84097, 26.69801],
        [81.84143, 26.69849],
        [81.84164, 26.69895],
        [81.84164, 26.69955],
        [81.84155, 26.70006],
        [81.84123, 26.7005],
        [81.84048, 26.70068],
        [81.83999, 26.70092],
        [81.83962, 26.70124],
        [81.8392, 26.70131],
        [81.83894, 26.7011],
        [81.84138, 26.70427],
        [81.84736, 26.70982]
      ]
    ]
  }
}
