{
  "type": "Feature",
  "id": "UP-AC-307",
  "properties": {
    "stateName": "UTTAR PRADESH",
    "stateCode": "UP",
    "districtName": "BASTI",
    "acNo": 307,
    "acName": "SAHJANWA",
    "seatType": null,
    "pcNo": null,
    "pcName": null,
    "quality": "unverified",
    "sources": [
      "TBD"
    ]
  },
  "geometry": {
    "type": "Polygon",
    "coordinates": [
      [
        [82.25036, 26.93456],
        [82.25204, 26.93518],
        [82.25258, 26.93552],
        [82.25278, 26.93592],
        [82.25288, 26.93608],
        [82.25317, 26.93625],
        [82.25353, 26.93637],
        [82.25407, 26.93651],
        [82.25452, 26.93727],
        [82.25494, 26.93755],
        [82.25525, 26.93772],
        [82.25548, 26.9378],
        [82.25581, 26.93814],
        [82.25598, 26.93854],
        [82.25635, 26.93888],
        [82.25668, 26.93927],
        [82.25674, 26.93998],
        [82.25651, 26.94091],
        [82.25674, 26.94169],
        [82.25702, 26.94206],
        [82.258, 26.94218],
        [82.25888, 26.94217],
        [82.26065, 26.94186],
        [82.26211, 26.94181],
        [82.2633, 26.94167],
        [82.26445, 26.94127],
        [82.26554, 26.94029],
        [82.26594, 26.93964],
        [82.26667, 26.93938],
        [82.26757, 26.93924],
        [82.26835, 26.93896],
        [82.2692, 26.93834],
        [82.2706, 26.93795],
        [82.27134, 26.93763],
        [82.27277, 26.93673],
        [82.27404, 26.93606],
        [82.27429, 26.93673],
        [82.27417, 26.93724],
        [82.27375, 26.93783],
        [82.27345, 26.93831],
        [82.27314, 26.93882],
        [82.27308, 26.93939],
        [82.27317, 26.93989],
        [82.27347, 26.94026],
        [82.27392, 26.94054],
        [82.2746, 26.94102],
        [82.27471, 26.94141],
        [82.27471, 26.94192],
        [82.27435, 26.94246],
        [82.27404, 26.94274],
        [82.27404, 26.9431],
        [82.27437, 26.94319],
        [82.2755, 26.94299],
        [82.27646, 26.94302],
        [82.27769, 26.94336],
        [82.27865, 26.94373],
        [82.2798, 26.94392],
        [82.28045, 26.9442],
        [82.28127, 26.94457],
        [82.28174, 26.94446],
        [82.28228, 26.94426],
        [82.28256, 26.94429],
        [82.2827, 26.94446],
        [82.2827, 26.94466],
        [82.28256, 26.94485],
        [82.28197, 26.94514],
        [82.28174, 26.94528],
        [82.28166, 26.94556],
        [82.28197, 26.94595],
        [82.28337, 26.94722],
        [82.28411, 26.94745],
        [82.28517, 26.94778],
        [82.28613, 26.9484],
        [82.28779, 26.94908],
        [82.28889, 26.94934],
        [82.28956, 26.94984],
        [82.28981, 26.95029],
        [82.28981, 26.9508],
        [82.28979, 26.95151],
        [82.28984, 26.95252],
        [82.28987, 26.95283],
        [82.29009, 26.95283],
        [82.29063, 26.95297],
        [82.29142, 26.95308],
        [82.29198, 26.95345],
        [82.29215, 26.95382],
        [82.29232, 26.95421],
        [82.29246, 26.95463],
        [82.29333, 26.95537],
        [82.29454, 26.95641],
        [82.2955, 26.95754],
        [82.29578, 26.95805],
        [82.29623, 26.95892],
        [82.29623, 26.9601],
        [82.2964, 26.96072],
        [82.29665, 26.96084],
        [82.29716, 26.96101],
        [82.29778, 26.961],
        [82.29839, 26.96103],
        [82.29887, 26.96143],
        [82.29868, 26.96171],
        [82.29825, 26.96196],
        [82.29823, 26.96222],
        [82.29823, 26.96255],
        [82.29831, 26.96278],
        [82.2987, 26.96306],
        [82.29943, 26.9634],
        [82.29993, 26.96367],
        [82.30005, 26.96374],
        [82.30093, 26.96396],
        [82.30191, 26.96411],
        [82.30256, 26.96419],
        [82.30283, 26.96453],
        [82.30283, 26.96506],
        [82.30261, 26.96546],
        [82.30248, 26.96588],
        [82.30248, 26.96611],
        [82.30264, 26.9667],
        [82.30301, 26.96681],
        [82.30343, 26.96673],
        [82.30371, 26.96664],
        [82.30444, 26.96664],
        [82.30506, 26.96673],
        [82.30571, 26.96695],
        [82.30635, 26.96729],
        [82.30717, 26.96757],
        [82.30768, 26.96763],
        [82.3083, 26.9676],
        [82.3088, 26.96763],
        [82.30933, 26.9678],
        [82.30945, 26.96817],
        [82.30956, 26.96842],
        [82.3101, 26.96859],
        [82.31055, 26.96879],
        [82.31102, 26.96879],
        [82.31161, 26.9685],
        [82.31206, 26.96847],
        [82.31226, 26.96856],
        [82.3128, 26.96879],
        [82.3133, 26.96907],
        [82.314, 26.96943],
        [82.31445, 26.96963],
        [82.31465, 26.96994],
        [82.31457, 26.97042],
        [82.3142, 26.97146],
        [82.3137, 26.97231],
        [82.3133, 26.97287],
        [82.31293, 26.97338],
        [82.31271, 26.97375],
        [82.31296, 26.97468],
        [82.31364, 26.97535],
        [82.31434, 26.97606],
        [82.31451, 26.97659],
        [82.3146, 26.97733],
        [82.3147, 26.97767],
        [82.31479, 26.97792],
        [82.3151, 26.97798],
        [82.31555, 26.97797],
        [82.31597, 26.97786],
        [82.3165, 26.97769],
        [82.31695, 26.97767],
        [82.31735, 26.97705],
        [82.31738, 26.97631],
        [82.31749, 26.97597],
        [82.31777, 26.97566],
        [82.31847, 26.97547],
        [82.31873, 26.97513],
        [82.31912, 26.97471],
        [82.32005, 26.97428],
        [82.32042, 26.97403],
        [82.32078, 26.97355],
        [82.3221, 26.97287],
        [82.32406, 26.97043],
        [82.32454, 26.96991],
        [82.32704, 26.9671],
        [82.32734, 26.96517],
        [82.32738, 26.96352],
        [82.32716, 26.96043],
        [82.32699, 26.95921],
        [82.32647, 26.95749],
        [82.32647, 26.9569],
        [82.32658, 26.95643],
        [82.32671, 26.95601],
        [82.32757, 26.95504],
        [82.32953, 26.95382],
        [82.3308, 26.95318],
        [82.33218, 26.95292],
        [82.3322, 26.95181],
        [82.33208, 26.95158],
        [82.3316, 26.95153],
        [82.33139, 26.9515],
        [82.33132, 26.95124],
        [82.3318, 26.95093],
        [82.332, 26.95072],
        [82.33218, 26.95023],
        [82.33223, 26.94992],
        [82.33234, 26.94964],
        [82.33276, 26.94909],
        [82.33317, 26.9488],
        [82.3344, 26.9482],
        [82.33754, 26.94645],
        [82.3398, 26.94519],
        [82.34092, 26.94458],
        [82.34207, 26.94387],
        [82.34313, 26.94281],
        [82.34384, 26.94201],
        [82.34628, 26.93948],
        [82.34704, 26.93877],
        [82.34933, 26.93649],
        [82.35024, 26.93564],
        [82.3532, 26.93286],
        [82.35453, 26.93137],
        [82.35569, 26.93219],
        [82.35629, 26.93265],
        [82.35662, 26.93271],
        [82.3569, 26.93263],
        [82.35853, 26.93164],
        [82.35909, 26.93127],
        [82.35985, 26.93115],
        [82.36157, 26.93083],
        [82.36199, 26.93083],
        [82.36234, 26.93113],
        [82.36337, 26.93214],
        [82.36407, 26.93289],
        [82.36446, 26.93332],
        [82.36469, 26.93346],
        [82.36555, 26.93306],
        [82.36853, 26.93191],
        [82.36916, 26.9329],
        [82.36991, 26.9347],
        [82.37022, 26.93548],
        [82.37117, 26.93611],
        [82.3717, 26.93648],
        [82.37198, 26.93648],
        [82.37225, 26.93635],
        [82.37271, 26.93642],
        [82.37342, 26.93659],
        [82.37402, 26.93659],
        [82.37482, 26.93646],
        [82.37548, 26.93625],
        [82.37576, 26.93659],
        [82.37633, 26.93652],
        [82.37684, 26.93638],
        [82.37838, 26.93627],
        [82.3789, 26.93694],
        [82.3793, 26.93767],
        [82.37971, 26.93855],
        [82.38036, 26.93956],
        [82.38096, 26.93958],
        [82.38357, 26.93931],
        [82.38472, 26.93922],
        [82.38583, 26.93895],
        [82.38611, 26.93905],
        [82.38692, 26.94062],
        [82.3874, 26.9417],
        [82.38764, 26.94234],
        [82.38781, 26.94284],
        [82.38784, 26.94321],
        [82.3877, 26.94396],
        [82.38731, 26.94481],
        [82.38698, 26.94547],
        [82.38685, 26.94585],
        [82.38676, 26.94636],
        [82.38668, 26.94669],
        [82.38668, 26.94714],
        [82.38669, 26.94739],
        [82.38724, 26.9481],
        [82.38819, 26.94901],
        [82.38849, 26.94918],
        [82.38913, 26.9488],
        [82.3911, 26.94787],
        [82.3919, 26.94754],
        [82.39303, 26.94709],
        [82.39365, 26.94682],
        [82.39418, 26.94672],
        [82.39523, 26.94662],
        [82.39546, 26.94572],
        [82.39806, 26.94497],
        [82.40066, 26.94396],
        [82.40268, 26.94292],
        [82.40339, 26.94239],
        [82.40494, 26.94181],
        [82.40648, 26.94134],
        [82.40762, 26.94082],
        [82.4083, 26.94039],
        [82.40968, 26.93902],
        [82.41057, 26.9382],
        [82.41156, 26.9377],
        [82.41293, 26.93878],
        [82.41437, 26.93791],
        [82.41733, 26.93639],
        [82.41834, 26.93613],
        [82.41931, 26.93581],
        [82.42161, 26.93485],
        [82.42255, 26.93458],
        [82.42444, 26.93356],
        [82.4252, 26.93286],
        [82.42582, 26.93217],
        [82.42684, 26.9308],
        [82.42804, 26.92976],
        [82.42896, 26.92931],
        [82.43095, 26.92845],
        [82.43182, 26.9281],
        [82.435, 26.9271],
        [82.43606, 26.92676],
        [82.43699, 26.92643],
        [82.43764, 26.92633],
        [82.43853, 26.9265],
        [82.43942, 26.92702],
        [82.44048, 26.92793],
        [82.44166, 26.92932],
        [82.44295, 26.93084],
        [82.44371, 26.9317],
        [82.4441, 26.93202],
        [82.44484, 26.93161],
        [82.44469, 26.93117],
        [82.44583, 26.93057],
        [82.44782, 26.92926],
        [82.44868, 26.92862],
        [82.44923, 26.92894],
        [82.45095, 26.9279],
        [82.45244, 26.92692],
        [82.45305, 26.92645],
        [82.45297, 26.92615],
        [82.4523, 26.92502],
        [82.45403, 26.92366],
        [82.45459, 26.92335],
        [82.45516, 26.92298],
        [82.45455, 26.92206],
        [82.4548, 26.92184],
        [82.45643, 26.92116],
        [82.45783, 26.92048],
        [82.45836, 26.92006],
        [82.45862, 26.91965],
        [82.4588, 26.91928],
        [82.45919, 26.91879],
        [82.46009, 26.91837],
        [82.46128, 26.91781],
        [82.4622, 26.9175],
        [82.46289, 26.91737],
        [82.46431, 26.91669],
        [82.46522, 26.91635],
        [82.46636, 26.91575],
        [82.4673, 26.91499],
        [82.46805, 26.91401],
        [82.46923, 26.91241],
        [82.46955, 26.91212],
        [82.47119, 26.91121],
        [82.47185, 26.91078],
        [82.47309, 26.91022],
        [82.47478, 26.9094],
        [82.47677, 26.90827],
        [82.47775, 26.90783],
        [82.47852, 26.90733],
        [82.47844, 26.9071],
        [82.47797, 26.90664],
        [82.47783, 26.90617],
        [82.47783, 26.90565],
        [82.47801, 26.90469],
        [82.47829, 26.90411],
        [82.47874, 26.90356],
        [82.47929, 26.9033],
        [82.47995, 26.90325],
        [82.48068, 26.90354],
        [82.48099, 26.9038],
        [82.48181, 26.90411],
        [82.48244, 26.90412],
        [82.48303, 26.90394],
        [82.48386, 26.90354],
        [82.48504, 26.90354],
        [82.48593, 26.90346],
        [82.48672, 26.90357],
        [82.48736, 26.904],
        [82.48802, 26.90501],
        [82.4884, 26.90566],
        [82.48931, 26.90514],
        [82.49043, 26.9045],
        [82.49161, 26.90408],
        [82.49218, 26.90382],
        [82.49295, 26.90337],
        [82.49358, 26.90293],
        [82.49415, 26.90249],
        [82.49473, 26.90205],
        [82.49676, 26.90102],
        [82.49686, 26.9006],
        [82.49695, 26.89966],
        [82.49692, 26.89818],
        [82.49691, 26.8973],
        [82.49727, 26.89398],
        [82.49719, 26.89387],
        [82.49674, 26.89266],
        [82.49625, 26.89203],
        [82.49536, 26.89121],
        [82.49469, 26.89032],
        [82.49394, 26.88946],
        [82.49169, 26.88662],
        [82.49141, 26.88628],
        [82.49124, 26.88629],
        [82.49107, 26.88629],
        [82.49076, 26.88644],
        [82.49021, 26.88674],
        [82.48987, 26.88709],
        [82.48973, 26.88724],
        [82.48964, 26.88726],
        [82.48936, 26.88735],
        [82.48898, 26.88728],
        [82.4887, 26.88713],
        [82.48839, 26.88672],
        [82.48807, 26.88627],
        [82.48776, 26.88567],
        [82.48745, 26.88514],
        [82.48634, 26.88371],
        [82.48575, 26.88322],
        [82.48561, 26.88303],
        [82.48527, 26.88299],
        [82.48509, 26.88299],
        [82.48496, 26.88306],
        [82.48485, 26.88314],
        [82.48465, 26.88333],
        [82.48441, 26.88363],
        [82.48407, 26.88393],
        [82.48393, 26.88404],
        [82.48369, 26.88415],
        [82.48331, 26.88434],
        [82.48256, 26.8846],
        [82.48218, 26.88467],
        [82.48156, 26.88501],
        [82.48112, 26.88512],
        [82.48074, 26.88519],
        [82.48039, 26.88518],
        [82.48001, 26.88514],
        [82.47951, 26.88517],
        [82.47904, 26.88523],
        [82.47862, 26.88538],
        [82.47663, 26.88663],
        [82.47624, 26.88676],
        [82.47579, 26.88674],
        [82.47491, 26.88656],
        [82.47489, 26.88507],
        [82.47483, 26.88432],
        [82.47465, 26.88363],
        [82.47436, 26.88307],
        [82.47389, 26.88237],
        [82.47348, 26.88186],
        [82.47194, 26.88024],
        [82.46983, 26.87774],
        [82.46902, 26.87678],
        [82.46819, 26.87781],
        [82.46778, 26.87831],
        [82.46729, 26.87873],
        [82.46639, 26.87943],
        [82.4649, 26.88042],
        [82.46422, 26.88075],
        [82.46343, 26.881],
        [82.46264, 26.8811],
        [82.46185, 26.8812],
        [82.46092, 26.88115],
        [82.4606, 26.88111],
        [82.46042, 26.88002],
        [82.46039, 26.87962],
        [82.46021, 26.87928],
        [82.45993, 26.87883],
        [82.4595, 26.87848],
        [82.45932, 26.87818],
        [82.45918, 26.87777],
        [82.45918, 26.87722],
        [82.45911, 26.87678],
        [82.45883, 26.87633],
        [82.45858, 26.87599],
        [82.45847, 26.87547],
        [82.45844, 26.87492],
        [82.45801, 26.87366],
        [82.45791, 26.87318],
        [82.45798, 26.87289],
        [82.45809, 26.87241],
        [82.4584, 26.87227],
        [82.45899, 26.872],
        [82.45961, 26.87178],
        [82.46098, 26.87155],
        [82.46398, 26.87181],
        [82.46508, 26.87176],
        [82.46657, 26.87166],
        [82.46596, 26.87006],
        [82.46564, 26.86919],
        [82.46545, 26.86777],
        [82.46548, 26.86753],
        [82.46561, 26.86666],
        [82.4659, 26.86593],
        [82.46648, 26.86515],
        [82.46723, 26.86456],
        [82.46822, 26.86404],
        [82.46904, 26.86351],
        [82.46973, 26.86292],
        [82.46996, 26.86231],
        [82.47001, 26.86157],
        [82.46994, 26.86083],
        [82.46988, 26.86033],
        [82.46981, 26.85977],
        [82.46972, 26.85899],
        [82.46935, 26.85911],
        [82.46897, 26.85906],
        [82.4686, 26.85865],
        [82.4683, 26.85776],
        [82.46808, 26.85705],
        [82.46791, 26.85665],
        [82.46762, 26.85655],
        [82.46708, 26.85645],
        [82.46662, 26.85643],
        [82.46624, 26.85655],
        [82.46604, 26.85663],
        [82.46562, 26.85688],
        [82.46533, 26.85696],
        [82.46508, 26.85695],
        [82.46483, 26.8568],
        [82.4647, 26.85623],
        [82.46469, 26.85553],
        [82.46475, 26.85523],
        [82.46485, 26.85478],
        [82.46542, 26.85349],
        [82.46628, 26.85128],
        [82.46725, 26.84793],
        [82.46745, 26.84706],
        [82.46748, 26.84644],
        [82.4674, 26.846],
        [82.46739, 26.84574],
        [82.46843, 26.84618],
        [82.4691, 26.8462],
        [82.4698, 26.84608],
        [82.4705, 26.84567],
        [82.47421, 26.84277],
        [82.47536, 26.84223],
        [82.47634, 26.84177],
        [82.4777, 26.84141],
        [82.4786, 26.84104],
        [82.47994, 26.84079],
        [82.48003, 26.84137],
        [82.48004, 26.84229],
        [82.48022, 26.84292],
        [82.48028, 26.84302],
        [82.48133, 26.83935],
        [82.48167, 26.83869],
        [82.48205, 26.83816],
        [82.48254, 26.83749],
        [82.48413, 26.83562],
        [82.48435, 26.83525],
        [82.48523, 26.83451],
        [82.48614, 26.83375],
        [82.48686, 26.83323],
        [82.48757, 26.83257],
        [82.48967, 26.83086],
        [82.49075, 26.83028],
        [82.49107, 26.83009],
        [82.49127, 26.83],
        [82.49331, 26.82855],
        [82.49464, 26.82736],
        [82.49551, 26.82613],
        [82.49617, 26.82511],
        [82.49663, 26.82428],
        [82.49741, 26.8231],
        [82.49791, 26.82234],
        [82.49811, 26.82267],
        [82.49837, 26.82284],
        [82.49887, 26.82317],
        [82.4994, 26.8235],
        [82.49993, 26.82397],
        [82.50047, 26.82444],
        [82.5009, 26.82486],
        [82.50123, 26.82525],
        [82.50146, 26.82555],
        [82.50154, 26.82579],
        [82.50262, 26.82542],
        [82.50314, 26.82521],
        [82.5036, 26.82488],
        [82.50401, 26.8246],
        [82.50442, 26.82433],
        [82.50549, 26.82348],
        [82.50626, 26.82269],
        [82.50669, 26.8224],
        [82.50708, 26.82214],
        [82.50761, 26.82179],
        [82.50807, 26.82153],
        [82.50859, 26.82122],
        [82.50912, 26.82094],
        [82.50958, 26.82062],
        [82.51004, 26.82019],
        [82.51034, 26.81985],
        [82.51066, 26.81937],
        [82.51092, 26.81899],
        [82.51122, 26.81847],
        [82.51134, 26.81797],
        [82.51157, 26.81758],
        [82.51222, 26.8167],
        [82.51236, 26.81698],
        [82.51253, 26.81735],
        [82.5133, 26.81822],
        [82.51416, 26.8181],
        [82.51476, 26.81807],
        [82.51525, 26.81801],
        [82.51565, 26.81786],
        [82.51637, 26.81748],
        [82.51676, 26.81708],
        [82.51702, 26.81664],
        [82.51722, 26.81614],
        [82.51751, 26.81553],
        [82.51756, 26.81474],
        [82.51752, 26.814],
        [82.51742, 26.81329],
        [82.51728, 26.81264],
        [82.51687, 26.81199],
        [82.5165, 26.81117],
        [82.51632, 26.81088],
        [82.51722, 26.81036],
        [82.51784, 26.81003],
        [82.5183, 26.80976],
        [82.51869, 26.80947],
        [82.51902, 26.80917],
        [82.51932, 26.80894],
        [82.51954, 26.80869],
        [82.51977, 26.80838],
        [82.52, 26.80803],
        [82.52016, 26.8076],
        [82.52035, 26.80721],
        [82.52058, 26.8069],
        [82.52107, 26.80663],
        [82.52146, 26.80649],
        [82.52264, 26.80607],
        [82.5234, 26.80571],
        [82.52415, 26.80555],
        [82.52468, 26.80543],
        [82.5252, 26.80534],
        [82.5258, 26.80526],
        [82.52622, 26.80523],
        [82.52675, 26.80521],
        [82.52711, 26.80531],
        [82.52741, 26.80533],
        [82.52806, 26.80524],
        [82.528, 26.80503],
        [82.52806, 26.80449],
        [82.52805, 26.80376],
        [82.52908, 26.80023],
        [82.52937, 26.79956],
        [82.52981, 26.79896],
        [82.53014, 26.79857],
        [82.53055, 26.7982],
        [82.53096, 26.79804],
        [82.53133, 26.79786],
        [82.53166, 26.7976],
        [82.53218, 26.79741],
        [82.53251, 26.79727],
        [82.5326, 26.7971],
        [82.53265, 26.79698],
        [82.53276, 26.79656],
        [82.53282, 26.79605],
        [82.53289, 26.79566],
        [82.53345, 26.79365],
        [82.53385, 26.79325],
        [82.53422, 26.79307],
        [82.53466, 26.79287],
        [82.53507, 26.79275],
        [82.5354, 26.79257],
        [82.53551, 26.79243],
        [82.53562, 26.79213],
        [82.53565, 26.79173],
        [82.53579, 26.79127],
        [82.53585, 26.79064],
        [82.5358, 26.79019],
        [82.53565, 26.78968],
        [82.53549, 26.78921],
        [82.5354, 26.78855],
        [82.53542, 26.78767],
        [82.53541, 26.7871],
        [82.53544, 26.78646],
        [82.5356, 26.78561],
        [82.53627, 26.7836],
        [82.53647, 26.78279],
        [82.53691, 26.78235],
        [82.53811, 26.78165],
        [82.53858, 26.78146],
        [82.53928, 26.78127],
        [82.53953, 26.78112],
        [82.53993, 26.78091],
        [82.54063, 26.78077],
        [82.54118, 26.78067],
        [82.54162, 26.7806],
        [82.54205, 26.7804],
        [82.54256, 26.78018],
        [82.5435, 26.77952],
        [82.54434, 26.77877],
        [82.54401, 26.77824],
        [82.5436, 26.7776],
        [82.54317, 26.77695],
        [82.54276, 26.77612],
        [82.54112, 26.77197],
        [82.5408, 26.7713],
        [82.54058, 26.77084],
        [82.53997, 26.76984],
        [82.54081, 26.76915],
        [82.54126, 26.76886],
        [82.54156, 26.76858],
        [82.54189, 26.76846],
        [82.5418, 26.76798],
        [82.54178, 26.76745],
        [82.54185, 26.76699],
        [82.54306, 26.76517],
        [82.54337, 26.7648],
        [82.54383, 26.7645],
        [82.54417, 26.76426],
        [82.54432, 26.76412],
        [82.5444, 26.7639],
        [82.54413, 26.76393],
        [82.5437, 26.76385],
        [82.54211, 26.76287],
        [82.5418, 26.76263],
        [82.54147, 26.76222],
        [82.54107, 26.76157],
        [82.54042, 26.76043],
        [82.54005, 26.75962],
        [82.53986, 26.7593],
        [82.53949, 26.75867],
        [82.53813, 26.75683],
        [82.53749, 26.75597],
        [82.53717, 26.75551],
        [82.53618, 26.75443],
        [82.53702, 26.75376],
        [82.53731, 26.7534],
        [82.53757, 26.75296],
        [82.53782, 26.75257],
        [82.53797, 26.75216],
        [82.53805, 26.7516],
        [82.53845, 26.75187],
        [82.53893, 26.75203],
        [82.53943, 26.75216],
        [82.53997, 26.75227],
        [82.54096, 26.7527],
        [82.54134, 26.75277],
        [82.54176, 26.75292],
        [82.54226, 26.75302],
        [82.5427, 26.75305],
        [82.54314, 26.7531],
        [82.54374, 26.75326],
        [82.54415, 26.75344],
        [82.54451, 26.75361],
        [82.54543, 26.75404],
        [82.54579, 26.75425],
        [82.54621, 26.75454],
        [82.54648, 26.75469],
        [82.54684, 26.7549],
        [82.54713, 26.755],
        [82.54761, 26.75505],
        [82.54799, 26.75501],
        [82.55018, 26.75497],
        [82.55068, 26.75491],
        [82.55104, 26.75492],
        [82.55163, 26.75495],
        [82.55213, 26.75496],
        [82.55269, 26.75481],
        [82.55322, 26.75483],
        [82.55373, 26.75487],
        [82.55435, 26.75491],
        [82.55503, 26.75489],
        [82.55548, 26.75492],
        [82.55601, 26.75504],
        [82.55664, 26.75518],
        [82.5569, 26.75526],
        [82.55745, 26.75543],
        [82.5579, 26.75563],
        [82.55844, 26.75589],
        [82.55905, 26.75623],
        [82.5602, 26.75659],
        [82.56065, 26.75663],
        [82.56098, 26.7567],
        [82.56187, 26.75671],
        [82.56207, 26.75671],
        [82.56235, 26.75672],
        [82.56294, 26.75665],
        [82.5636, 26.7566],
        [82.5638, 26.75658],
        [82.56433, 26.75637],
        [82.56468, 26.75621],
        [82.56518, 26.75606],
        [82.56545, 26.75597],
        [82.56571, 26.75588],
        [82.5662, 26.75559],
        [82.56658, 26.75524],
        [82.56738, 26.75455],
        [82.56852, 26.7531],
        [82.56952, 26.75146],
        [82.56967, 26.75129],
        [82.56995, 26.75095],
        [82.57036, 26.75078],
        [82.57062, 26.7506],
        [82.57091, 26.75016],
        [82.57104, 26.75008],
        [82.57125, 26.75014],
        [82.57159, 26.75035],
        [82.57193, 26.75052],
        [82.57217, 26.75065],
        [82.57254, 26.75083],
        [82.57284, 26.75096],
        [82.57309, 26.75109],
        [82.57339, 26.75108],
        [82.57349, 26.75101],
        [82.57359, 26.75093],
        [82.57375, 26.75049],
        [82.57405, 26.75002],
        [82.5745, 26.74942],
        [82.57509, 26.74861],
        [82.57579, 26.74753],
        [82.57599, 26.74723],
        [82.57643, 26.7469],
        [82.57663, 26.74678],
        [82.57674, 26.74653],
        [82.57673, 26.7463],
        [82.57676, 26.74612],
        [82.5768, 26.74594],
        [82.57699, 26.74558],
        [82.5773, 26.7444],
        [82.57786, 26.74311],
        [82.5783, 26.74227],
        [82.57875, 26.74172],
        [82.57909, 26.74136],
        [82.57936, 26.74075],
        [82.57943, 26.74042],
        [82.57943, 26.73989],
        [82.57939, 26.73954],
        [82.5793, 26.73902],
        [82.57923, 26.73876],
        [82.57921, 26.73832],
        [82.57916, 26.73737],
        [82.57908, 26.73694],
        [82.57907, 26.73681],
        [82.57909, 26.73661],
        [82.57914, 26.7365],
        [82.57852, 26.73612],
        [82.57833, 26.73599],
        [82.57796, 26.73575],
        [82.57788, 26.73563],
        [82.57772, 26.73541],
        [82.57752, 26.73487],
        [82.57731, 26.73429],
        [82.57684, 26.73365],
        [82.57654, 26.7333],
        [82.57622, 26.73286],
        [82.57585, 26.73253],
        [82.57544, 26.73223],
        [82.57477, 26.73192],
        [82.57429, 26.73173],
        [82.57367, 26.73139],
        [82.57325, 26.73105],
        [82.57277, 26.73074],
        [82.57222, 26.73053],
        [82.5717, 26.73004],
        [82.57064, 26.72918],
        [82.57024, 26.72914],
        [82.56989, 26.72916],
        [82.56954, 26.72921],
        [82.56922, 26.72924],
        [82.56878, 26.72931],
        [82.56831, 26.72937],
        [82.56799, 26.72944],
        [82.56755, 26.72947],
        [82.56714, 26.72948],
        [82.56679, 26.72947],
        [82.56643, 26.72938],
        [82.56622, 26.7293],
        [82.56591, 26.7294],
        [82.56564, 26.72937],
        [82.56541, 26.72942],
        [82.56517, 26.72943],
        [82.56473, 26.72943],
        [82.5645, 26.72948],
        [82.56389, 26.7296],
        [82.56385, 26.72947],
        [82.56364, 26.72925],
        [82.56337, 26.72906],
        [82.56328, 26.729],
        [82.56283, 26.72869],
        [82.56236, 26.72845],
        [82.56188, 26.7282],
        [82.56137, 26.72795],
        [82.56081, 26.72765],
        [82.5603, 26.72737],
        [82.55977, 26.72704],
        [82.55923, 26.72668],
        [82.55898, 26.72652],
        [82.55867, 26.72632],
        [82.55822, 26.72581],
        [82.55811, 26.72535],
        [82.55801, 26.72488],
        [82.55804, 26.7243],
        [82.55806, 26.72396],
        [82.55813, 26.7235],
        [82.558, 26.72314],
        [82.55788, 26.72287],
        [82.55773, 26.72267],
        [82.5574, 26.72242],
        [82.55699, 26.72226],
        [82.55667, 26.72209],
        [82.55635, 26.72192],
        [82.55612, 26.72182],
        [82.55624, 26.72266],
        [82.55625, 26.72301],
        [82.55621, 26.72333],
        [82.55589, 26.72399],
        [82.55568, 26.72433],
        [82.55522, 26.72468],
        [82.55449, 26.72508],
        [82.55378, 26.72544],
        [82.55309, 26.72568],
        [82.55232, 26.72587],
        [82.55169, 26.72587],
        [82.55063, 26.72572],
        [82.55031, 26.72553],
        [82.54989, 26.72544],
        [82.5494, 26.72534],
        [82.5489, 26.72512],
        [82.5483, 26.72499],
        [82.54799, 26.72497],
        [82.54771, 26.72495],
        [82.5475, 26.72512],
        [82.54726, 26.72527],
        [82.54713, 26.72545],
        [82.54706, 26.72564],
        [82.54686, 26.72601],
        [82.54665, 26.72626],
        [82.54624, 26.72658],
        [82.54549, 26.72754],
        [82.54483, 26.72815],
        [82.5446, 26.72872],
        [82.54429, 26.72906],
        [82.54396, 26.72925],
        [82.54359, 26.72934],
        [82.54334, 26.72933],
        [82.54302, 26.72922],
        [82.54277, 26.72905],
        [82.54242, 26.72882],
        [82.5421, 26.72875],
        [82.54185, 26.72875],
        [82.54161, 26.72882],
        [82.54147, 26.72896],
        [82.54123, 26.7292],
        [82.54102, 26.72948],
        [82.54085, 26.72974],
        [82.54067, 26.72991],
        [82.54033, 26.73025],
        [82.54005, 26.73044],
        [82.53984, 26.73065],
        [82.53959, 26.73077],
        [82.53914, 26.73088],
        [82.53887, 26.73111],
        [82.53875, 26.73122],
        [82.53854, 26.7313],
        [82.53837, 26.73127],
        [82.53818, 26.73098],
        [82.53818, 26.73061],
        [82.53824, 26.73018],
        [82.53827, 26.72965],
        [82.53823, 26.72907],
        [82.53811, 26.72855],
        [82.53803, 26.72801],
        [82.53778, 26.72767],
        [82.5375, 26.72745],
        [82.53707, 26.72729],
        [82.53665, 26.72733],
        [82.53647, 26.72738],
        [82.53615, 26.72741],
        [82.53577, 26.72754],
        [82.53469, 26.72759],
        [82.53466, 26.72799],
        [82.53449, 26.72833],
        [82.53432, 26.7285],
        [82.53396, 26.72876],
        [82.53343, 26.72895],
        [82.53312, 26.7291],
        [82.53262, 26.72924],
        [82.53193, 26.7287],
        [82.53164, 26.72864],
        [82.53093, 26.72869],
        [82.5306, 26.72876],
        [82.53022, 26.72882],
        [82.52989, 26.72902],
        [82.52937, 26.72915],
        [82.52888, 26.72928],
        [82.5284, 26.72945],
        [82.5281, 26.72966],
        [82.52795, 26.72993],
        [82.52773, 26.73019],
        [82.52755, 26.73051],
        [82.52729, 26.73089],
        [82.52688, 26.73129],
        [82.52632, 26.7319],
        [82.5259, 26.73179],
        [82.52492, 26.7318],
        [82.52436, 26.73192],
        [82.52395, 26.73224],
        [82.52364, 26.73245],
        [82.52315, 26.7328],
        [82.52281, 26.73313],
        [82.52251, 26.73347],
        [82.52221, 26.73377],
        [82.52195, 26.73407],
        [82.52164, 26.73432],
        [82.52123, 26.73456],
        [82.52085, 26.73467],
        [82.52062, 26.73464],
        [82.52039, 26.73443],
        [82.52016, 26.73388],
        [82.5199, 26.73333],
        [82.51963, 26.73261],
        [82.5194, 26.73176],
        [82.51898, 26.73084],
        [82.51864, 26.72985],
        [82.51796, 26.72881],
        [82.51705, 26.7277],
        [82.5158, 26.72599],
        [82.51417, 26.7239],
        [82.5147, 26.72319],
        [82.51502, 26.72256],
        [82.51523, 26.7218],
        [82.51534, 26.72103],
        [82.51552, 26.71999],
        [82.51553, 26.71865],
        [82.51532, 26.71505],
        [82.51528, 26.71445],
        [82.51522, 26.71354],
        [82.51516, 26.7128],
        [82.51491, 26.7092],
        [82.51505, 26.70808],
        [82.51523, 26.70707],
        [82.51555, 26.70637],
        [82.51604, 26.70565],
        [82.51635, 26.70518],
        [82.51715, 26.70465],
        [82.51863, 26.70344],
        [82.51897, 26.70315],
        [82.52069, 26.70172],
        [82.52321, 26.69956],
        [82.52362, 26.6988],
        [82.52371, 26.69863],
        [82.5243, 26.69768],
        [82.52515, 26.69614],
        [82.52541, 26.69548],
        [82.52555, 26.69514],
        [82.52613, 26.69444],
        [82.52761, 26.6934],
        [82.5282, 26.69318],
        [82.52806, 26.69293],
        [82.5277, 26.69271],
        [82.52714, 26.69255],
        [82.52626, 26.69237],
        [82.52583, 26.69207],
        [82.5254, 26.69158],
        [82.52412, 26.68991],
        [82.52351, 26.68899],
        [82.5233, 26.68863],
        [82.52302, 26.68813],
        [82.52272, 26.68758],
        [82.52245, 26.68686],
        [82.52211, 26.68616],
        [82.52162, 26.68549],
        [82.52128, 26.68515],
        [82.52076, 26.68462],
        [82.52003, 26.68361],
        [82.5201, 26.68329],
        [82.52003, 26.68312],
        [82.51996, 26.68295],
        [82.51997, 26.68274],
        [82.52, 26.6825],
        [82.5201, 26.68205],
        [82.51996, 26.682],
        [82.51982, 26.68177],
        [82.51968, 26.68155],
        [82.51951, 26.68128],
        [82.51916, 26.68083],
        [82.51888, 26.68055],
        [82.51863, 26.68028],
        [82.51839, 26.68],
        [82.51814, 26.67981],
        [82.51793, 26.67954],
        [82.51762, 26.67922],
        [82.51741, 26.67903],
        [82.51713, 26.6788],
        [82.51685, 26.6786],
        [82.5166, 26.67853],
        [82.51629, 26.67846],
        [82.51597, 26.67842],
        [82.51558, 26.67842],
        [82.51443, 26.67853],
        [82.51414, 26.67855],
        [82.5139, 26.67856],
        [82.51365, 26.67853],
        [82.51326, 26.67862],
        [82.51291, 26.6787],
        [82.51242, 26.67881],
        [82.51203, 26.67893],
        [82.51181, 26.67911],
        [82.51167, 26.67918],
        [82.51146, 26.6792],
        [82.51114, 26.67925],
        [82.51083, 26.67922],
        [82.51069, 26.67921],
        [82.51032, 26.67905],
        [82.51025, 26.67895],
        [82.50923, 26.67843],
        [82.50825, 26.6783],
        [82.50708, 26.67847],
        [82.50563, 26.67888],
        [82.50487, 26.67924],
        [82.50266, 26.6796],
        [82.49878, 26.68002],
        [82.49826, 26.67998],
        [82.4977, 26.68004],
        [82.49731, 26.68013],
        [82.49689, 26.6804],
        [82.49636, 26.68059],
        [82.4959, 26.68071],
        [82.49538, 26.68066],
        [82.49457, 26.68059],
        [82.49397, 26.68055],
        [82.49344, 26.68054],
        [82.49294, 26.6805],
        [82.49238, 26.68038],
        [82.49199, 26.68019],
        [82.4915, 26.6798],
        [82.49101, 26.67941],
        [82.49042, 26.67881],
        [82.48975, 26.67817],
        [82.48926, 26.67758],
        [82.48665, 26.67551],
        [82.48632, 26.67527],
        [82.48599, 26.67502],
        [82.48543, 26.67461],
        [82.48518, 26.67442],
        [82.48463, 26.67399],
        [82.48404, 26.67346],
        [82.48331, 26.67288],
        [82.48259, 26.67234],
        [82.48231, 26.67207],
        [82.4819, 26.67164],
        [82.48152, 26.67139],
        [82.48115, 26.67113],
        [82.48056, 26.67075],
        [82.48009, 26.67035],
        [82.47961, 26.66998],
        [82.47904, 26.66949],
        [82.4786, 26.66916],
        [82.4783, 26.66882],
        [82.47812, 26.6684],
        [82.47814, 26.66819],
        [82.47784, 26.66795],
        [82.47744, 26.66761],
        [82.47705, 26.66727],
        [82.47666, 26.66691],
        [82.47607, 26.66641],
        [82.47547, 26.6659],
        [82.47487, 26.6654],
        [82.47427, 26.6649],
        [82.47367, 26.66441],
        [82.47306, 26.66392],
        [82.47245, 26.66343],
        [82.47184, 26.66295],
        [82.47122, 26.66247],
        [82.47062, 26.66192],
        [82.47001, 26.66137],
        [82.46939, 26.66083],
        [82.46877, 26.66029],
        [82.46814, 26.65977],
        [82.46751, 26.65924],
        [82.46687, 26.65873],
        [82.46622, 26.65823],
        [82.46557, 26.65773],
        [82.46519, 26.65744],
        [82.46482, 26.65714],
        [82.46447, 26.65683],
        [82.46412, 26.6565],
        [82.46379, 26.65616],
        [82.46347, 26.65581],
        [82.46316, 26.65544],
        [82.46287, 26.65507],
        [82.46259, 26.65468],
        [82.46226, 26.65439],
        [82.46194, 26.65408],
        [82.46163, 26.65375],
        [82.46133, 26.65341],
        [82.46106, 26.65306],
        [82.46079, 26.6527],
        [82.46055, 26.65232],
        [82.46032, 26.65194],
        [82.46011, 26.65154],
        [82.46, 26.65114],
        [82.45988, 26.65075],
        [82.45974, 26.65036],
        [82.45958, 26.64997],
        [82.4594, 26.6496],
        [82.45921, 26.64923],
        [82.459, 26.64888],
        [82.45877, 26.64853],
        [82.45852, 26.64819],
        [82.45667, 26.64593],
        [82.45626, 26.64543],
        [82.45585, 26.64494],
        [82.45544, 26.64444],
        [82.45502, 26.64395],
        [82.45461, 26.64346],
        [82.45419, 26.64297],
        [82.45378, 26.64247],
        [82.45336, 26.64198],
        [82.45295, 26.64149],
        [82.45265, 26.64112],
        [82.45232, 26.64077],
        [82.45196, 26.64046],
        [82.45157, 26.64019],
        [82.45116, 26.63995],
        [82.45073, 26.63976],
        [82.45028, 26.63961],
        [82.44981, 26.6395],
        [82.44934, 26.63945],
        [82.44867, 26.63936],
        [82.44801, 26.6393],
        [82.44734, 26.63927],
        [82.44667, 26.63926],
        [82.446, 26.63927],
        [82.44533, 26.63931],
        [82.44467, 26.63937],
        [82.44401, 26.63946],
        [82.44335, 26.63957],
        [82.44261, 26.63974],
        [82.44187, 26.63991],
        [82.44113, 26.64007],
        [82.44039, 26.64025],
        [82.43965, 26.64042],
        [82.43891, 26.64059],
        [82.43818, 26.64077],
        [82.43744, 26.64094],
        [82.4367, 26.64112],
        [82.43627, 26.64117],
        [82.43584, 26.6412],
        [82.43541, 26.64122],
        [82.43498, 26.64123],
        [82.43455, 26.64122],
        [82.43411, 26.6412],
        [82.43368, 26.64117],
        [82.43325, 26.64112],
        [82.43282, 26.64106],
        [82.43225, 26.64109],
        [82.43168, 26.64113],
        [82.43111, 26.64117],
        [82.43054, 26.64122],
        [82.42997, 26.64127],
        [82.4294, 26.64134],
        [82.42883, 26.6414],
        [82.42827, 26.64148],
        [82.4277, 26.64156],
        [82.42722, 26.64161],
        [82.42675, 26.64168],
        [82.42628, 26.64177],
        [82.42581, 26.64189],
        [82.42535, 26.64203],
        [82.4249, 26.64219],
        [82.42446, 26.64237],
        [82.42403, 26.64258],
        [82.4236, 26.6428],
        [82.42315, 26.64311],
        [82.42272, 26.64343],
        [82.42231, 26.64378],
        [82.42191, 26.64415],
        [82.42153, 26.64453],
        [82.42117, 26.64494],
        [82.42083, 26.64536],
        [82.42051, 26.6458],
        [82.42022, 26.64625],
        [82.41986, 26.64668],
        [82.41951, 26.64711],
        [82.41914, 26.64754],
        [82.41877, 26.64796],
        [82.4184, 26.64838],
        [82.41802, 26.64879],
        [82.41764, 26.6492],
        [82.41726, 26.64961],
        [82.41686, 26.65001],
        [82.41655, 26.65022],
        [82.41625, 26.65047],
        [82.41599, 26.65074],
        [82.41575, 26.65104],
        [82.41554, 26.65136],
        [82.41536, 26.6517],
        [82.41521, 26.65206],
        [82.41511, 26.65243],
        [82.41503, 26.6528],
        [82.41504, 26.65329],
        [82.41504, 26.65378],
        [82.41506, 26.65428],
        [82.41507, 26.65476],
        [82.4151, 26.65525],
        [82.41513, 26.65574],
        [82.41516, 26.65623],
        [82.4152, 26.65672],
        [82.41525, 26.65721],
        [82.41527, 26.65755],
        [82.41526, 26.65789],
        [82.41519, 26.65823],
        [82.41509, 26.65856],
        [82.41494, 26.65887],
        [82.41476, 26.65915],
        [82.41454, 26.65942],
        [82.41429, 26.65965],
        [82.41401, 26.65985],
        [82.4135, 26.66019],
        [82.41296, 26.66051],
        [82.41242, 26.6608],
        [82.41185, 26.66106],
        [82.41128, 26.66128],
        [82.41069, 26.66148],
        [82.4101, 26.66164],
        [82.40949, 26.66177],
        [82.40888, 26.66187],
        [82.40806, 26.66201],
        [82.40723, 26.66215],
        [82.40641, 26.6623],
        [82.40559, 26.66245],
        [82.40477, 26.6626],
        [82.40395, 26.66275],
        [82.40313, 26.66291],
        [82.40231, 26.66307],
        [82.40149, 26.66323],
        [82.40108, 26.6633],
        [82.40068, 26.66339],
        [82.40029, 26.6635],
        [82.3999, 26.66364],
        [82.39952, 26.66379],
        [82.39915, 26.66397],
        [82.39879, 26.66417],
        [82.39844, 26.66439],
        [82.39811, 26.66463],
        [82.39783, 26.66495],
        [82.39756, 26.66527],
        [82.39729, 26.6656],
        [82.39702, 26.66593],
        [82.39676, 26.66626],
        [82.3965, 26.66659],
        [82.39624, 26.66693],
        [82.39599, 26.66727],
        [82.39575, 26.66762],
        [82.39567, 26.66785],
        [82.39557, 26.66808],
        [82.39547, 26.6683],
        [82.39535, 26.66852],
        [82.39522, 26.66873],
        [82.39508, 26.66894],
        [82.39493, 26.66914],
        [82.39477, 26.66933],
        [82.3946, 26.66951],
        [82.39437, 26.66971],
        [82.39414, 26.66989],
        [82.39389, 26.67007],
        [82.39364, 26.67023],
        [82.39337, 26.67037],
        [82.3931, 26.6705],
        [82.39282, 26.6706],
        [82.39253, 26.6707],
        [82.39224, 26.67078],
        [82.39195, 26.67091],
        [82.39165, 26.67105],
        [82.39135, 26.67117],
        [82.39105, 26.67128],
        [82.39074, 26.67139],
        [82.39043, 26.67149],
        [82.39012, 26.67158],
        [82.38981, 26.67166],
        [82.38949, 26.67174],
        [82.38902, 26.67179],
        [82.38855, 26.67185],
        [82.38808, 26.67192],
        [82.38761, 26.67198],
        [82.38714, 26.67206],
        [82.38667, 26.67213],
        [82.3862, 26.67221],
        [82.38574, 26.6723],
        [82.38527, 26.67239],
        [82.38486, 26.67246],
        [82.38446, 26.67258],
        [82.38407, 26.67272],
        [82.3837, 26.67291],
        [82.38334, 26.67312],
        [82.38301, 26.67337],
        [82.3827, 26.67365],
        [82.38242, 26.67396],
        [82.38217, 26.67429],
        [82.38181, 26.67467],
        [82.38145, 26.67506],
        [82.38109, 26.67544],
        [82.38073, 26.67583],
        [82.38037, 26.67622],
        [82.38001, 26.6766],
        [82.37965, 26.67699],
        [82.3793, 26.67738],
        [82.37894, 26.67776],
        [82.37852, 26.67815],
        [82.37811, 26.67854],
        [82.3777, 26.67893],
        [82.37729, 26.67933],
        [82.37688, 26.67973],
        [82.37648, 26.68012],
        [82.37607, 26.68053],
        [82.37567, 26.68093],
        [82.37528, 26.68133],
        [82.37514, 26.6815],
        [82.37501, 26.68168],
        [82.37491, 26.68187],
        [82.37482, 26.68207],
        [82.37475, 26.68227],
        [82.3747, 26.68248],
        [82.37468, 26.6827],
        [82.37467, 26.68291],
        [82.37469, 26.68313],
        [82.37477, 26.68336],
        [82.37486, 26.68358],
        [82.37495, 26.68381],
        [82.37504, 26.68403],
        [82.37514, 26.68425],
        [82.37524, 26.68447],
        [82.37534, 26.68469],
        [82.37545, 26.68491],
        [82.37556, 26.68512],
        [82.37568, 26.68531],
        [82.37577, 26.68552],
        [82.37585, 26.68573],
        [82.37591, 26.68595],
        [82.37595, 26.68618],
        [82.37596, 26.6864],
        [82.37595, 26.68663],
        [82.37592, 26.68686],
        [82.37586, 26.68708],
        [82.3758, 26.68731],
        [82.37572, 26.68754],
        [82.37564, 26.68776],
        [82.37554, 26.68798],
        [82.37543, 26.6882],
        [82.37531, 26.6884],
        [82.37519, 26.68861],
        [82.37505, 26.68881],
        [82.3749, 26.689],
        [82.37475, 26.68916],
        [82.37461, 26.68934],
        [82.37448, 26.68951],
        [82.37435, 26.6897],
        [82.37422, 26.68988],
        [82.37411, 26.69008],
        [82.37401, 26.69027],
        [82.37391, 26.69047],
        [82.37382, 26.69068],
        [82.37376, 26.69093],
        [82.37369, 26.69119],
        [82.3736, 26.69143],
        [82.3735, 26.69167],
        [82.37338, 26.69191],
        [82.37324, 26.69213],
        [82.37308, 26.69234],
        [82.37291, 26.69254],
        [82.37273, 26.69273],
        [82.37248, 26.69296],
        [82.37223, 26.69321],
        [82.372, 26.69347],
        [82.37177, 26.69373],
        [82.37156, 26.69401],
        [82.37135, 26.69429],
        [82.37116, 26.69458],
        [82.37098, 26.69487],
        [82.37081, 26.69518],
        [82.37071, 26.69537],
        [82.37063, 26.69556],
        [82.37057, 26.69576],
        [82.37052, 26.69597],
        [82.37048, 26.69617],
        [82.37046, 26.69638],
        [82.37046, 26.69659],
        [82.37047, 26.69681],
        [82.3705, 26.69702],
        [82.37054, 26.69733],
        [82.37061, 26.69764],
        [82.3707, 26.69794],
        [82.37081, 26.69823],
        [82.37096, 26.69851],
        [82.37112, 26.69878],
        [82.37131, 26.69904],
        [82.37151, 26.69927],
        [82.37174, 26.69949],
        [82.37201, 26.6997],
        [82.37227, 26.69993],
        [82.37252, 26.70017],
        [82.37275, 26.70042],
        [82.37297, 26.70068],
        [82.37318, 26.70096],
        [82.37337, 26.70125],
        [82.37354, 26.70155],
        [82.37369, 26.70186],
        [82.3738, 26.70204],
        [82.37391, 26.70223],
        [82.374, 26.70243],
        [82.37409, 26.70262],
        [82.37417, 26.70282],
        [82.37424, 26.70303],
        [82.3743, 26.70324],
        [82.37436, 26.70344],
        [82.37441, 26.70365],
        [82.37439, 26.70385],
        [82.37437, 26.70405],
        [82.37435, 26.70425],
        [82.37432, 26.70445],
        [82.37429, 26.70465],
        [82.37425, 26.70484],
        [82.37422, 26.70504],
        [82.37417, 26.70524],
        [82.37413, 26.70543],
        [82.374, 26.70586],
        [82.37388, 26.7063],
        [82.37378, 26.70674],
        [82.37369, 26.70719],
        [82.37361, 26.70763],
        [82.37355, 26.70808],
        [82.3735, 26.70853],
        [82.37347, 26.70898],
        [82.37343, 26.7096],
        [82.37342, 26.70994],
        [82.37344, 26.71028],
        [82.37349, 26.71062],
        [82.37357, 26.71095],
        [82.37389, 26.71176],
        [82.37396, 26.71198],
        [82.37401, 26.7122],
        [82.37405, 26.71243],
        [82.37408, 26.71266],
        [82.37409, 26.71272],
        [82.3741, 26.71289],
        [82.37411, 26.71312],
        [82.3741, 26.71335],
        [82.37408, 26.71357],
        [82.37404, 26.7138],
        [82.37387, 26.71412],
        [82.37369, 26.71444],
        [82.37351, 26.71476],
        [82.37331, 26.71507],
        [82.37312, 26.71538],
        [82.37291, 26.71568],
        [82.37271, 26.71598],
        [82.37249, 26.71628],
        [82.37227, 26.71657],
        [82.3721, 26.71688],
        [82.37192, 26.71717],
        [82.37171, 26.71745],
        [82.37149, 26.71773],
        [82.37126, 26.71798],
        [82.37101, 26.71823],
        [82.37075, 26.71846],
        [82.37048, 26.71867],
        [82.37019, 26.71887],
        [82.36972, 26.71918],
        [82.36925, 26.7195],
        [82.36879, 26.71983],
        [82.36833, 26.72017],
        [82.36788, 26.72052],
        [82.36744, 26.72087],
        [82.367, 26.72123],
        [82.36657, 26.7216],
        [82.36615, 26.72198],
        [82.36578, 26.72226],
        [82.36542, 26.72254],
        [82.36505, 26.72282],
        [82.36468, 26.7231],
        [82.36432, 26.72339],
        [82.36395, 26.72367],
        [82.36359, 26.72395],
        [82.36322, 26.72424],
        [82.36286, 26.72452],
        [82.36239, 26.72481],
        [82.36192, 26.7251],
        [82.36146, 26.7254],
        [82.361, 26.7257],
        [82.36054, 26.72601],
        [82.36009, 26.72633],
        [82.35965, 26.72665],
        [82.3592, 26.72698],
        [82.35877, 26.72732],
        [82.35848, 26.72752],
        [82.35822, 26.72775],
        [82.35798, 26.728],
        [82.35777, 26.72827],
        [82.35758, 26.72856],
        [82.35741, 26.72887],
        [82.35728, 26.72919],
        [82.35717, 26.72952],
        [82.3571, 26.72986],
        [82.35703, 26.73018],
        [82.35695, 26.7305],
        [82.35685, 26.73082],
        [82.35674, 26.73113],
        [82.35661, 26.73144],
        [82.35647, 26.73174],
        [82.35632, 26.73204],
        [82.35616, 26.73233],
        [82.35598, 26.73266],
        [82.35581, 26.73299],
        [82.35562, 26.73332],
        [82.35543, 26.73365],
        [82.35523, 26.73397],
        [82.35503, 26.73429],
        [82.35482, 26.7346],
        [82.35461, 26.73491],
        [82.35438, 26.73521],
        [82.35417, 26.73545],
        [82.35394, 26.73568],
        [82.35371, 26.73591],
        [82.35348, 26.73614],
        [82.35325, 26.73636],
        [82.35301, 26.73657],
        [82.35277, 26.73679],
        [82.35252, 26.737],
        [82.35227, 26.7372],
        [82.35183, 26.7374],
        [82.35139, 26.7376],
        [82.35095, 26.7378],
        [82.35051, 26.73799],
        [82.35006, 26.73818],
        [82.34961, 26.73837],
        [82.34917, 26.73855],
        [82.34872, 26.73873],
        [82.34827, 26.73891],
        [82.34785, 26.73915],
        [82.34743, 26.7394],
        [82.34702, 26.73967],
        [82.34662, 26.73994],
        [82.34622, 26.74021],
        [82.34582, 26.7405],
        [82.34543, 26.74079],
        [82.34505, 26.74109],
        [82.34467, 26.74139],
        [82.3443, 26.74177],
        [82.34391, 26.74213],
        [82.34352, 26.74248],
        [82.34312, 26.74282],
        [82.34271, 26.74315],
        [82.34228, 26.74346],
        [82.34185, 26.74377],
        [82.34142, 26.74406],
        [82.34097, 26.74434],
        [82.34048, 26.74457],
        [82.33999, 26.74479],
        [82.33949, 26.74499],
        [82.33898, 26.74519],
        [82.33848, 26.74537],
        [82.33797, 26.74554],
        [82.33745, 26.7457],
        [82.33693, 26.74585],
        [82.33641, 26.74598],
        [82.33597, 26.74615],
        [82.33553, 26.7463],
        [82.33508, 26.74644],
        [82.33463, 26.74656],
        [82.33417, 26.74667],
        [82.33371, 26.74676],
        [82.33325, 26.74684],
        [82.33279, 26.7469],
        [82.33232, 26.74695],
        [82.33175, 26.74693],
        [82.33118, 26.7469],
        [82.3306, 26.74687],
        [82.33003, 26.74683],
        [82.32946, 26.74679],
        [82.32889, 26.74674],
        [82.32831, 26.74668],
        [82.32774, 26.74661],
        [82.32717, 26.74654],
        [82.32684, 26.74654],
        [82.3265, 26.74657],
        [82.32616, 26.74664],
        [82.32584, 26.74674],
        [82.32553, 26.74688],
        [82.32524, 26.74706],
        [82.32497, 26.74726],
        [82.32473, 26.74749],
        [82.32451, 26.74775],
        [82.3243, 26.74794],
        [82.3241, 26.74812],
        [82.3239, 26.74832],
        [82.32371, 26.74852],
        [82.32352, 26.74872],
        [82.32334, 26.74893],
        [82.32317, 26.74914],
        [82.323, 26.74936],
        [82.32283, 26.74958],
        [82.32217, 26.75033],
        [82.32138, 26.75098],
        [82.32035, 26.75136],
        [82.3184, 26.75163],
        [82.31658, 26.75207],
        [82.31529, 26.75225],
        [82.31258, 26.75276],
        [82.3103, 26.75362],
        [82.30889, 26.75447],
        [82.30707, 26.75583],
        [82.3048, 26.75784],
        [82.30345, 26.75913],
        [82.30229, 26.76005],
        [82.30011, 26.76102],
        [82.29814, 26.76214],
        [82.29667, 26.76288],
        [82.29599, 26.76359],
        [82.2949, 26.76424],
        [82.29325, 26.76495],
        [82.29158, 26.76595],
        [82.29055, 26.76704],
        [82.29017, 26.7681],
        [82.29004, 26.76899],
        [82.29019, 26.77008],
        [82.29013, 26.7707],
        [82.28954, 26.77165],
        [82.28851, 26.77303],
        [82.28754, 26.7743],
        [82.28574, 26.77525],
        [82.28415, 26.77569],
        [82.28265, 26.77584],
        [82.2815, 26.77575],
        [82.27932, 26.77548],
        [82.27811, 26.77572],
        [82.27659, 26.77681],
        [82.27514, 26.77767],
        [82.27238, 26.77941],
        [82.27022, 26.78082],
        [82.26822, 26.7823],
        [82.26654, 26.78419],
        [82.26519, 26.78599],
        [82.26404, 26.78705],
        [82.26292, 26.78858],
        [82.26098, 26.79083],
        [82.2595, 26.79242],
        [82.25818, 26.79366],
        [82.25655, 26.79475],
        [82.25514, 26.79546],
        [82.25353, 26.79587],
        [82.25167, 26.79614],
        [82.25017, 26.79649],
        [82.24943, 26.79682],
        [82.24824, 26.7972],
        [82.24672, 26.79957],
        [82.24588, 26.80068],
        [82.24434, 26.8039],
        [82.24358, 26.80523],
        [82.24224, 26.80765],
        [82.24162, 26.80821],
        [82.24022, 26.80914],
        [82.23556, 26.81098],
        [82.23337, 26.81168],
        [82.23139, 26.81205],
        [82.22897, 26.81245],
        [82.23529, 26.81683],
        [82.23796, 26.81867],
        [82.23831, 26.81862],
        [82.24013, 26.81739],
        [82.24284, 26.81527],
        [82.24394, 26.81459],
        [82.24486, 26.81364],
        [82.24597, 26.81173],
        [82.24656, 26.8111],
        [82.24723, 26.81075],
        [82.24819, 26.81072],
        [82.25008, 26.81083],
        [82.2514, 26.81101],
        [82.25229, 26.81109],
        [82.25299, 26.8113],
        [82.25337, 26.81163],
        [82.25394, 26.81245],
        [82.25511, 26.81428],
        [82.25485, 26.81463],
        [82.25459, 26.81505],
        [82.25443, 26.81526],
        [82.25426, 26.8157],
        [82.25429, 26.81602],
        [82.25441, 26.81647],
        [82.25462, 26.81685],
        [82.25497, 26.81717],
        [82.255, 26.81753],
        [82.255, 26.81788],
        [82.25506, 26.81871],
        [82.25576, 26.82151],
        [82.25671, 26.82505],
        [82.25671, 26.82549],
        [82.25573, 26.8257],
        [82.25391, 26.82561],
        [82.25226, 26.82523],
        [82.25084, 26.82487],
        [82.25037, 26.82499],
        [82.24978, 26.82547],
        [82.2489, 26.82629],
        [82.24816, 26.8267],
        [82.24727, 26.82742],
        [82.247, 26.82788],
        [82.24708, 26.82853],
        [82.24665, 26.82936],
        [82.24663, 26.82987],
        [82.2468, 26.8307],
        [82.24677, 26.83121],
        [82.24577, 26.8323],
        [82.24671, 26.83326],
        [82.24698, 26.83364],
        [82.24696, 26.83412],
        [82.24686, 26.83432],
        [82.24667, 26.83474],
        [82.24657, 26.83557],
        [82.24613, 26.83584],
        [82.24562, 26.83601],
        [82.24484, 26.83603],
        [82.2441, 26.83611],
        [82.24371, 26.83647],
        [82.2434, 26.837],
        [82.2424, 26.8392],
        [82.24184, 26.84028],
        [82.24159, 26.84154],
        [82.2411, 26.84358],
        [82.24027, 26.84545],
        [82.23943, 26.84733],
        [82.23842, 26.84943],
        [82.23744, 26.85088],
        [82.23737, 26.85142],
        [82.23731, 26.85196],
        [82.23703, 26.85279],
        [82.23676, 26.85316],
        [82.23684, 26.85341],
        [82.2385, 26.85387],
        [82.24025, 26.85464],
        [82.2404, 26.85486],
        [82.23651, 26.85837],
        [82.23807, 26.85976],
        [82.23786, 26.85999],
        [82.23733, 26.86028],
        [82.23628, 26.86059],
        [82.23352, 26.86169],
        [82.23229, 26.86206],
        [82.23227, 26.86231],
        [82.23221, 26.86298],
        [82.23162, 26.86407],
        [82.23101, 26.86619],
        [82.23065, 26.86821],
        [82.23089, 26.86927],
        [82.23124, 26.87016],
        [82.2318, 26.87133],
        [82.23213, 26.87184],
        [82.23361, 26.87206],
        [82.2341, 26.87184],
        [82.23455, 26.87163],
        [82.23487, 26.87181],
        [82.23513, 26.87213],
        [82.23525, 26.87235],
        [82.23567, 26.87246],
        [82.23618, 26.87225],
        [82.23792, 26.87389],
        [82.23799, 26.87443],
        [82.2398, 26.87679],
        [82.23916, 26.87734],
        [82.23969, 26.87842],
        [82.24274, 26.88311],
        [82.24377, 26.88579],
        [82.24459, 26.88716],
        [82.24702, 26.89074],
        [82.24899, 26.89325],
        [82.24982, 26.89498],
        [82.25006, 26.89589],
        [82.25015, 26.89685],
        [82.24928, 26.90002],
        [82.2476, 26.9043],
        [82.24674, 26.90555],
        [82.24542, 26.90687],
        [82.24323, 26.90958],
        [82.2413, 26.91131],
        [82.23793, 26.91411],
        [82.23706, 26.91458],
        [82.23871, 26.91865],
        [82.23801, 26.91898],
        [82.2341, 26.91972],
        [82.2339, 26.91997],
        [82.23427, 26.92083],
        [82.23752, 26.92656],
        [82.2385, 26.92717],
        [82.23945, 26.92933],
        [82.24077, 26.93171],
        [82.24365, 26.93377],
        [82.2443, 26.93406],
        [82.24459, 26.93365],
        [82.24562, 26.93344],
        [82.24665, 26.93336],
        [82.24706, 26.93353],
        [82.24816, 26.93445],
        [82.24889, 26.93428],
        [82.25036, 26.93456]
      ]
    ]
  }
}
