{
  "type": "Feature",
  "id": "UP-AC-308",
  "properties": {
    "stateName": "UTTAR PRADESH",
    "stateCode": "UP",
    "districtName": "BASTI",
    "acNo": 308,
    "acName": "KHAJANI (SC)",
    "seatType": null,
    "pcNo": null,
    "pcName": null,
    "quality": "unverified",
    "sources": [
      "TBD"
    ]
  },
  "geometry": {
    "type": "Polygon",
    "coordinates": [
      [
        [82.58854, 26.9937],
        [82.5902, 26.99257],
        [82.59187, 26.99076],
        [82.59369, 26.98888],
        [82.59435, 26.98845],
        [82.59749, 26.98639],
        [82.59918, 26.98527],
        [82.5994, 26.98514],
        [82.60127, 26.98807],
        [82.60202, 26.98958],
        [82.60271, 26.99066],
        [82.60383, 26.99207],
        [82.60447, 26.99278],
        [82.60523, 26.99189],
        [82.60616, 26.99086],
        [82.60705, 26.99038],
        [82.60769, 26.99024],
        [82.60846, 26.9902],
        [82.60815, 26.98928],
        [82.60818, 26.98842],
        [82.60827, 26.98821],
        [82.61288, 26.98894],
        [82.61727, 26.98938],
        [82.61967, 26.98979],
        [82.62106, 26.99022],
        [82.62331, 26.99096],
        [82.62477, 26.9909],
        [82.6259, 26.99054],
        [82.62665, 26.98991],
        [82.62745, 26.98859],
        [82.62885, 26.98676],
        [82.6288, 26.98652],
        [82.63139, 26.98746],
        [82.63312, 26.98785],
        [82.63501, 26.98792],
        [82.63629, 26.98778],
        [82.63749, 26.98776],
        [82.63893, 26.98746],
        [82.63953, 26.98737],
        [82.641, 26.98772],
        [82.6421, 26.98768],
        [82.64363, 26.98789],
        [82.64485, 26.98812],
        [82.64569, 26.98808],
        [82.64585, 26.98797],
        [82.64745, 26.9888],
        [82.64884, 26.98936],
        [82.64997, 26.98983],
        [82.65127, 26.99029],
        [82.65259, 26.99061],
        [82.65244, 26.98943],
        [82.65209, 26.98838],
        [82.65173, 26.98726],
        [82.65105, 26.9857],
        [82.65019, 26.98354],
        [82.64894, 26.98112],
        [82.64869, 26.98056],
        [82.64866, 26.97995],
        [82.64859, 26.97866],
        [82.64902, 26.97675],
        [82.64897, 26.97578],
        [82.64861, 26.97466],
        [82.64864, 26.97423],
        [82.64798, 26.97414],
        [82.6476, 26.97394],
        [82.64729, 26.97377],
        [82.64705, 26.97329],
        [82.64664, 26.97272],
        [82.64669, 26.97262],
        [82.64695, 26.97035],
        [82.6471, 26.96899],
        [82.64697, 26.96839],
        [82.64691, 26.96811],
        [82.64618, 26.96713],
        [82.64545, 26.96603],
        [82.64541, 26.96531],
        [82.64566, 26.96417],
        [82.64586, 26.9622],
        [82.64555, 26.95986],
        [82.64507, 26.95976],
        [82.64423, 26.95941],
        [82.6436, 26.95886],
        [82.64317, 26.95784],
        [82.6428, 26.95642],
        [82.6427, 26.9558],
        [82.64259, 26.95519],
        [82.64225, 26.95446],
        [82.64168, 26.95324],
        [82.63961, 26.94844],
        [82.63923, 26.94756],
        [82.6382, 26.94385],
        [82.63818, 26.94341],
        [82.63814, 26.94265],
        [82.63824, 26.94156],
        [82.63865, 26.94099],
        [82.63954, 26.94084],
        [82.64026, 26.94058],
        [82.64037, 26.93984],
        [82.6399, 26.93934],
        [82.63945, 26.9392],
        [82.63928, 26.93918],
        [82.64016, 26.93846],
        [82.64013, 26.93789],
        [82.63997, 26.93755],
        [82.64193, 26.93754],
        [82.6425, 26.93732],
        [82.64337, 26.93753],
        [82.64394, 26.93714],
        [82.64489, 26.93693],
        [82.64625, 26.93695],
        [82.64619, 26.93576],
        [82.64604, 26.93468],
        [82.64623, 26.93361],
        [82.64625, 26.93287],
        [82.64626, 26.93265],
        [82.64569, 26.93143],
        [82.64466, 26.93026],
        [82.6445, 26.92996],
        [82.64442, 26.92952],
        [82.64386, 26.92894],
        [82.64346, 26.92851],
        [82.64305, 26.92771],
        [82.64297, 26.9271],
        [82.6428, 26.92639],
        [82.64272, 26.92604],
        [82.64269, 26.92536],
        [82.64296, 26.92449],
        [82.64439, 26.92223],
        [82.64622, 26.91975],
        [82.64662, 26.91949],
        [82.64703, 26.91952],
        [82.64768, 26.91961],
        [82.6487, 26.91976],
        [82.6496, 26.91946],
        [82.65009, 26.91932],
        [82.65042, 26.91937],
        [82.65103, 26.91963],
        [82.65099, 26.91896],
        [82.65129, 26.91816],
        [82.65144, 26.91702],
        [82.65131, 26.91508],
        [82.65117, 26.91465],
        [82.65263, 26.91383],
        [82.65392, 26.91226],
        [82.65476, 26.91105],
        [82.65497, 26.90978],
        [82.65504, 26.90842],
        [82.65504, 26.90832],
        [82.65822, 26.90831],
        [82.65903, 26.90834],
        [82.65983, 26.90859],
        [82.65984, 26.90849],
        [82.66038, 26.90812],
        [82.66132, 26.90777],
        [82.662, 26.9071],
        [82.66285, 26.90655],
        [82.66395, 26.90615],
        [82.66482, 26.90594],
        [82.66491, 26.90564],
        [82.6658, 26.90685],
        [82.66611, 26.90755],
        [82.66785, 26.90578],
        [82.66888, 26.90493],
        [82.66891, 26.90378],
        [82.66861, 26.90284],
        [82.66848, 26.90264],
        [82.6719, 26.90162],
        [82.67326, 26.90116],
        [82.67344, 26.902],
        [82.67389, 26.90254],
        [82.67451, 26.90386],
        [82.6749, 26.90474],
        [82.67591, 26.90427],
        [82.67662, 26.90376],
        [82.67722, 26.90335],
        [82.67796, 26.90266],
        [82.67888, 26.90189],
        [82.67946, 26.90135],
        [82.67951, 26.90123],
        [82.68044, 26.90145],
        [82.68103, 26.90166],
        [82.68225, 26.90221],
        [82.68202, 26.90115],
        [82.6825, 26.90005],
        [82.68338, 26.89912],
        [82.68633, 26.89691],
        [82.68682, 26.8973],
        [82.6877, 26.89837],
        [82.68853, 26.89979],
        [82.68857, 26.89992],
        [82.68915, 26.89958],
        [82.69258, 26.89886],
        [82.6962, 26.89886],
        [82.69742, 26.8992],
        [82.69771, 26.89924],
        [82.69905, 26.89921],
        [82.70059, 26.89916],
        [82.70019, 26.89781],
        [82.69967, 26.89647],
        [82.69915, 26.89459],
        [82.69864, 26.89117],
        [82.69897, 26.88855],
        [82.69921, 26.88646],
        [82.69922, 26.88575],
        [82.69923, 26.88562],
        [82.69932, 26.8845],
        [82.69906, 26.88303],
        [82.69868, 26.88184],
        [82.69784, 26.8802],
        [82.69756, 26.87927],
        [82.69753, 26.87808],
        [82.69777, 26.87686],
        [82.69818, 26.87599],
        [82.69837, 26.87413],
        [82.69835, 26.8731],
        [82.69849, 26.87213],
        [82.69778, 26.87145],
        [82.69763, 26.87131],
        [82.69589, 26.86996],
        [82.69579, 26.86988],
        [82.69337, 26.86906],
        [82.69162, 26.86872],
        [82.6906, 26.86781],
        [82.69022, 26.86702],
        [82.69015, 26.86611],
        [82.69042, 26.86563],
        [82.69069, 26.86517],
        [82.69124, 26.86399],
        [82.69131, 26.86293],
        [82.69124, 26.86203],
        [82.69205, 26.86039],
        [82.69248, 26.85993],
        [82.69254, 26.85985],
        [82.6929, 26.85929],
        [82.69299, 26.85841],
        [82.69276, 26.85785],
        [82.6926, 26.85744],
        [82.69225, 26.85702],
        [82.69157, 26.85636],
        [82.6907, 26.85486],
        [82.68994, 26.85355],
        [82.68982, 26.85333],
        [82.68813, 26.85036],
        [82.68806, 26.8502],
        [82.68716, 26.84814],
        [82.68584, 26.84511],
        [82.68526, 26.84353],
        [82.68376, 26.8395],
        [82.68328, 26.83823],
        [82.68254, 26.83667],
        [82.68133, 26.8352],
        [82.67985, 26.8344],
        [82.67823, 26.83375],
        [82.67676, 26.83313],
        [82.67667, 26.83309],
        [82.67466, 26.83238],
        [82.67332, 26.83142],
        [82.67264, 26.83077],
        [82.67254, 26.83045],
        [82.67223, 26.82945],
        [82.672, 26.82641],
        [82.67333, 26.8254],
        [82.67545, 26.82374],
        [82.67597, 26.82321],
        [82.67675, 26.82239],
        [82.67726, 26.82169],
        [82.67795, 26.82127],
        [82.67806, 26.8212],
        [82.67853, 26.82078],
        [82.67937, 26.82001],
        [82.68011, 26.81872],
        [82.68084, 26.81726],
        [82.68183, 26.8138],
        [82.68184, 26.81326],
        [82.68184, 26.81206],
        [82.68175, 26.81078],
        [82.68141, 26.80993],
        [82.68079, 26.80904],
        [82.67834, 26.80784],
        [82.67588, 26.80664],
        [82.67397, 26.80622],
        [82.67243, 26.80386],
        [82.66988, 26.8008],
        [82.66937, 26.79984],
        [82.66886, 26.79887],
        [82.6682, 26.79647],
        [82.66797, 26.79468],
        [82.66812, 26.79394],
        [82.66852, 26.7928],
        [82.66912, 26.79205],
        [82.66959, 26.79145],
        [82.67064, 26.79035],
        [82.67076, 26.79022],
        [82.67211, 26.78869],
        [82.67333, 26.78812],
        [82.67516, 26.78666],
        [82.67639, 26.78499],
        [82.67687, 26.78364],
        [82.67737, 26.78262],
        [82.67753, 26.7821],
        [82.67759, 26.78167],
        [82.67752, 26.78159],
        [82.67727, 26.78129],
        [82.67609, 26.78089],
        [82.67367, 26.77964],
        [82.6721, 26.77797],
        [82.6713, 26.77645],
        [82.67085, 26.77558],
        [82.66928, 26.7726],
        [82.66824, 26.77048],
        [82.66819, 26.7697],
        [82.6682, 26.7696],
        [82.66832, 26.76885],
        [82.66894, 26.76848],
        [82.66729, 26.7651],
        [82.66633, 26.76126],
        [82.66539, 26.75689],
        [82.66381, 26.75593],
        [82.66052, 26.75437],
        [82.65824, 26.75401],
        [82.65791, 26.75395],
        [82.65458, 26.7532],
        [82.65387, 26.75314],
        [82.65333, 26.75311],
        [82.65001, 26.75305],
        [82.64862, 26.75365],
        [82.64851, 26.75371],
        [82.64786, 26.75407],
        [82.64684, 26.75434],
        [82.64628, 26.75514],
        [82.64622, 26.75523],
        [82.64566, 26.75634],
        [82.64484, 26.75667],
        [82.64469, 26.75673],
        [82.64361, 26.75671],
        [82.64249, 26.75641],
        [82.64208, 26.7562],
        [82.64198, 26.75615],
        [82.64143, 26.7554],
        [82.64061, 26.75427],
        [82.63952, 26.75391],
        [82.63886, 26.7537],
        [82.63713, 26.75335],
        [82.63624, 26.75362],
        [82.63512, 26.75375],
        [82.63205, 26.75359],
        [82.63013, 26.75363],
        [82.62808, 26.75326],
        [82.62762, 26.75307],
        [82.62804, 26.75445],
        [82.62649, 26.75466],
        [82.62491, 26.75554],
        [82.62261, 26.75663],
        [82.62036, 26.75749],
        [82.61851, 26.75615],
        [82.61876, 26.75433],
        [82.61833, 26.75179],
        [82.61586, 26.74844],
        [82.61667, 26.74758],
        [82.61673, 26.74752],
        [82.61748, 26.74673],
        [82.61916, 26.74449],
        [82.61989, 26.7435],
        [82.62125, 26.74114],
        [82.62179, 26.74026],
        [82.62239, 26.73929],
        [82.62311, 26.7381],
        [82.62424, 26.73646],
        [82.62439, 26.73533],
        [82.62442, 26.73512],
        [82.62425, 26.73374],
        [82.62391, 26.73288],
        [82.62359, 26.7322],
        [82.623, 26.73164],
        [82.62187, 26.73128],
        [82.62049, 26.73119],
        [82.61798, 26.73073],
        [82.61595, 26.72985],
        [82.61557, 26.72968],
        [82.6141, 26.72835],
        [82.61366, 26.72795],
        [82.61263, 26.72684],
        [82.61159, 26.72572],
        [82.61122, 26.72501],
        [82.61064, 26.72386],
        [82.61049, 26.72357],
        [82.61001, 26.72267],
        [82.60994, 26.72244],
        [82.60966, 26.72154],
        [82.6101, 26.71994],
        [82.61068, 26.71852],
        [82.61089, 26.71792],
        [82.61114, 26.71723],
        [82.61122, 26.71648],
        [82.61115, 26.71627],
        [82.61088, 26.7155],
        [82.61058, 26.71514],
        [82.6093, 26.71444],
        [82.60453, 26.71429],
        [82.60262, 26.71422],
        [82.60111, 26.71392],
        [82.59847, 26.71294],
        [82.597, 26.71199],
        [82.59607, 26.71138],
        [82.59416, 26.70901],
        [82.59354, 26.70765],
        [82.59345, 26.70703],
        [82.59332, 26.70623],
        [82.59354, 26.70551],
        [82.59467, 26.70422],
        [82.59504, 26.70365],
        [82.59528, 26.70327],
        [82.59549, 26.7024],
        [82.59556, 26.70134],
        [82.5955, 26.70041],
        [82.59543, 26.69932],
        [82.59535, 26.69808],
        [82.5958, 26.6968],
        [82.59604, 26.69647],
        [82.59629, 26.69613],
        [82.59758, 26.69548],
        [82.59917, 26.69519],
        [82.59946, 26.69514],
        [82.60125, 26.69481],
        [82.60155, 26.69476],
        [82.60337, 26.6939],
        [82.60517, 26.69288],
        [82.60696, 26.6917],
        [82.60732, 26.69159],
        [82.60808, 26.69137],
        [82.60887, 26.69115],
        [82.61069, 26.69042],
        [82.61193, 26.68913],
        [82.61239, 26.68815],
        [82.61242, 26.68762],
        [82.61244, 26.68709],
        [82.61241, 26.68677],
        [82.61234, 26.68586],
        [82.61222, 26.68446],
        [82.6117, 26.68299],
        [82.61105, 26.68175],
        [82.6109, 26.68147],
        [82.60955, 26.67969],
        [82.60896, 26.67897],
        [82.60892, 26.6789],
        [82.60789, 26.67723],
        [82.60741, 26.67622],
        [82.60666, 26.67516],
        [82.60589, 26.67458],
        [82.60567, 26.67442],
        [82.60525, 26.67411],
        [82.60414, 26.67342],
        [82.60173, 26.67291],
        [82.60065, 26.67253],
        [82.5997, 26.67201],
        [82.59885, 26.67121],
        [82.59827, 26.67031],
        [82.59832, 26.66994],
        [82.59844, 26.66912],
        [82.5989, 26.6683],
        [82.60039, 26.6674],
        [82.60296, 26.66536],
        [82.60488, 26.66401],
        [82.60529, 26.66372],
        [82.60668, 26.66224],
        [82.60684, 26.66207],
        [82.60759, 26.66053],
        [82.60771, 26.66028],
        [82.60811, 26.65899],
        [82.60832, 26.65721],
        [82.60825, 26.6565],
        [82.60821, 26.65609],
        [82.60808, 26.65483],
        [82.60803, 26.6544],
        [82.60772, 26.6523],
        [82.60748, 26.65071],
        [82.60714, 26.64856],
        [82.60702, 26.64769],
        [82.60621, 26.6422],
        [82.60612, 26.64147],
        [82.60592, 26.63981],
        [82.60577, 26.63918],
        [82.60542, 26.63764],
        [82.60475, 26.63603],
        [82.60415, 26.63512],
        [82.60333, 26.63384],
        [82.60246, 26.63212],
        [82.60221, 26.63076],
        [82.60208, 26.62927],
        [82.60254, 26.62814],
        [82.60346, 26.62476],
        [82.60372, 26.62211],
        [82.6037, 26.61983],
        [82.60368, 26.6194],
        [82.6036, 26.61604],
        [82.60352, 26.60937],
        [82.60318, 26.60799],
        [82.60303, 26.608],
        [82.60261, 26.60805],
        [82.6022, 26.60812],
        [82.60178, 26.60819],
        [82.60136, 26.60827],
        [82.60095, 26.60836],
        [82.60053, 26.60846],
        [82.60012, 26.60856],
        [82.5997, 26.60869],
        [82.5993, 26.60883],
        [82.5989, 26.60898],
        [82.59851, 26.60915],
        [82.59812, 26.60934],
        [82.59774, 26.60954],
        [82.59737, 26.60976],
        [82.59678, 26.61008],
        [82.59619, 26.61042],
        [82.5956, 26.61077],
        [82.59502, 26.61112],
        [82.59445, 26.61148],
        [82.59388, 26.61185],
        [82.59331, 26.61223],
        [82.59275, 26.61261],
        [82.5922, 26.61301],
        [82.59178, 26.61332],
        [82.59137, 26.61365],
        [82.59096, 26.61398],
        [82.59056, 26.61432],
        [82.59017, 26.61467],
        [82.58978, 26.61503],
        [82.5894, 26.61539],
        [82.58902, 26.61576],
        [82.58866, 26.61614],
        [82.58796, 26.61666],
        [82.58727, 26.61718],
        [82.58656, 26.61768],
        [82.58584, 26.61817],
        [82.58511, 26.61865],
        [82.58438, 26.61912],
        [82.58364, 26.61957],
        [82.58289, 26.62001],
        [82.58213, 26.62043],
        [82.58162, 26.62071],
        [82.58111, 26.621],
        [82.58061, 26.6213],
        [82.58012, 26.6216],
        [82.57962, 26.62191],
        [82.57914, 26.62223],
        [82.57866, 26.62256],
        [82.57818, 26.62289],
        [82.57771, 26.62323],
        [82.57733, 26.62343],
        [82.57695, 26.62362],
        [82.57657, 26.62381],
        [82.57619, 26.62399],
        [82.5758, 26.62416],
        [82.57542, 26.62433],
        [82.57503, 26.6245],
        [82.57463, 26.62466],
        [82.57424, 26.62481],
        [82.57371, 26.62496],
        [82.5732, 26.62514],
        [82.57269, 26.62534],
        [82.57219, 26.62558],
        [82.57172, 26.62584],
        [82.57125, 26.62613],
        [82.57081, 26.62645],
        [82.57038, 26.62679],
        [82.56998, 26.62715],
        [82.56942, 26.62771],
        [82.56886, 26.62825],
        [82.56829, 26.62877],
        [82.5677, 26.62929],
        [82.56711, 26.6298],
        [82.56651, 26.6303],
        [82.5659, 26.63078],
        [82.56528, 26.63126],
        [82.56465, 26.63172],
        [82.56439, 26.63191],
        [82.56412, 26.63208],
        [82.56383, 26.63221],
        [82.56353, 26.63233],
        [82.56322, 26.63241],
        [82.5629, 26.63247],
        [82.56258, 26.6325],
        [82.56226, 26.6325],
        [82.56194, 26.63247],
        [82.56158, 26.63242],
        [82.56122, 26.63236],
        [82.56086, 26.63229],
        [82.5605, 26.6322],
        [82.56015, 26.63211],
        [82.5598, 26.632],
        [82.55945, 26.63189],
        [82.5591, 26.63177],
        [82.55876, 26.63163],
        [82.55737, 26.6311],
        [82.55598, 26.63056],
        [82.55459, 26.63],
        [82.55321, 26.62944],
        [82.55183, 26.62886],
        [82.55045, 26.62828],
        [82.54908, 26.62769],
        [82.54772, 26.62708],
        [82.54635, 26.62647],
        [82.54593, 26.6263],
        [82.54549, 26.62618],
        [82.54504, 26.6261],
        [82.54458, 26.62607],
        [82.54412, 26.62609],
        [82.54367, 26.62616],
        [82.54322, 26.62628],
        [82.5428, 26.62645],
        [82.54239, 26.62666],
        [82.54192, 26.62686],
        [82.54144, 26.62702],
        [82.54095, 26.62715],
        [82.54045, 26.62723],
        [82.53994, 26.62728],
        [82.53944, 26.62728],
        [82.53893, 26.62724],
        [82.53843, 26.62715],
        [82.53794, 26.62703],
        [82.53753, 26.62696],
        [82.53711, 26.62692],
        [82.5367, 26.6269],
        [82.53628, 26.62691],
        [82.53586, 26.62694],
        [82.53545, 26.62699],
        [82.53504, 26.62707],
        [82.53463, 26.62717],
        [82.53424, 26.6273],
        [82.53395, 26.62739],
        [82.53367, 26.62747],
        [82.53338, 26.62754],
        [82.5331, 26.6276],
        [82.53281, 26.62766],
        [82.53251, 26.62771],
        [82.53222, 26.62776],
        [82.53193, 26.6278],
        [82.53164, 26.62783],
        [82.53136, 26.62787],
        [82.53108, 26.62791],
        [82.5308, 26.62795],
        [82.53052, 26.628],
        [82.53025, 26.62805],
        [82.52997, 26.6281],
        [82.5297, 26.62816],
        [82.52942, 26.62822],
        [82.52915, 26.62828],
        [82.52835, 26.62836],
        [82.52755, 26.62847],
        [82.52675, 26.6286],
        [82.52596, 26.62875],
        [82.52518, 26.62893],
        [82.52439, 26.62912],
        [82.52362, 26.62934],
        [82.52285, 26.62957],
        [82.52209, 26.62983],
        [82.52105, 26.63025],
        [82.52002, 26.6307],
        [82.519, 26.63118],
        [82.518, 26.63169],
        [82.51701, 26.63222],
        [82.51604, 26.63278],
        [82.51509, 26.63337],
        [82.51415, 26.63399],
        [82.51322, 26.63463],
        [82.51273, 26.63493],
        [82.51225, 26.63524],
        [82.51178, 26.63558],
        [82.51132, 26.63593],
        [82.51087, 26.63629],
        [82.51044, 26.63668],
        [82.51002, 26.63707],
        [82.50961, 26.63748],
        [82.50922, 26.6379],
        [82.50887, 26.63841],
        [82.50856, 26.63893],
        [82.50827, 26.63948],
        [82.50802, 26.64003],
        [82.5078, 26.64061],
        [82.50761, 26.64119],
        [82.50746, 26.64179],
        [82.50734, 26.64239],
        [82.50726, 26.643],
        [82.50722, 26.64366],
        [82.50724, 26.64433],
        [82.5073, 26.64499],
        [82.5074, 26.64565],
        [82.50756, 26.6463],
        [82.50776, 26.64693],
        [82.508, 26.64755],
        [82.50829, 26.64815],
        [82.50862, 26.64873],
        [82.50899, 26.64926],
        [82.50935, 26.6498],
        [82.50968, 26.65035],
        [82.51, 26.65091],
        [82.51031, 26.65149],
        [82.51059, 26.65207],
        [82.51086, 26.65266],
        [82.5111, 26.65326],
        [82.51133, 26.65386],
        [82.51157, 26.65443],
        [82.51179, 26.65502],
        [82.51197, 26.65561],
        [82.51212, 26.65621],
        [82.51224, 26.65682],
        [82.51232, 26.65743],
        [82.51238, 26.65805],
        [82.5124, 26.65867],
        [82.51239, 26.65929],
        [82.51241, 26.6598],
        [82.51238, 26.66031],
        [82.51232, 26.66081],
        [82.5122, 26.6613],
        [82.51205, 26.66179],
        [82.51185, 26.66225],
        [82.51161, 26.6627],
        [82.51134, 26.66312],
        [82.51102, 26.66352],
        [82.51048, 26.66406],
        [82.50994, 26.66461],
        [82.5094, 26.66516],
        [82.50887, 26.66572],
        [82.50834, 26.66628],
        [82.50783, 26.66685],
        [82.50731, 26.66742],
        [82.5068, 26.668],
        [82.5063, 26.66858],
        [82.50574, 26.66904],
        [82.50516, 26.66947],
        [82.50455, 26.66986],
        [82.50392, 26.67022],
        [82.50328, 26.67054],
        [82.50261, 26.67082],
        [82.50193, 26.67107],
        [82.50124, 26.67128],
        [82.50053, 26.67144],
        [82.49813, 26.67197],
        [82.49753, 26.67192],
        [82.49694, 26.67202],
        [82.49634, 26.67211],
        [82.49574, 26.67219],
        [82.49514, 26.67228],
        [82.49454, 26.67235],
        [82.49394, 26.67243],
        [82.49334, 26.6725],
        [82.49273, 26.67256],
        [82.49214, 26.67258],
        [82.49156, 26.6726],
        [82.49097, 26.67261],
        [82.49038, 26.67263],
        [82.48979, 26.67264],
        [82.4892, 26.67265],
        [82.48861, 26.67266],
        [82.48802, 26.67268],
        [82.48743, 26.67269],
        [82.48698, 26.67264],
        [82.48652, 26.67258],
        [82.48607, 26.67249],
        [82.48563, 26.67238],
        [82.48519, 26.67226],
        [82.48475, 26.67212],
        [82.48432, 26.67195],
        [82.4839, 26.67177],
        [82.48349, 26.67157],
        [82.48312, 26.67143],
        [82.48275, 26.67127],
        [82.48239, 26.6711],
        [82.48203, 26.67092],
        [82.48169, 26.67072],
        [82.48134, 26.67052],
        [82.48101, 26.6703],
        [82.48068, 26.67008],
        [82.48036, 26.66984],
        [82.47993, 26.66954],
        [82.4795, 26.66924],
        [82.47908, 26.66892],
        [82.47866, 26.66861],
        [82.47825, 26.66828],
        [82.47814, 26.66819],
        [82.47812, 26.6684],
        [82.4783, 26.66882],
        [82.4786, 26.66916],
        [82.47904, 26.66949],
        [82.47961, 26.66998],
        [82.48009, 26.67035],
        [82.48056, 26.67075],
        [82.48115, 26.67113],
        [82.48152, 26.67139],
        [82.4819, 26.67164],
        [82.48231, 26.67207],
        [82.48259, 26.67234],
        [82.48331, 26.67288],
        [82.48404, 26.67346],
        [82.48463, 26.67399],
        [82.48518, 26.67442],
        [82.48543, 26.67461],
        [82.48599, 26.67502],
        [82.48632, 26.67527],
        [82.48665, 26.67551],
        [82.48926, 26.67758],
        [82.48975, 26.67817],
        [82.49042, 26.67881],
        [82.49101, 26.67941],
        [82.4915, 26.6798],
        [82.49199, 26.68019],
        [82.49238, 26.68038],
        [82.49294, 26.6805],
        [82.49344, 26.68054],
        [82.49397, 26.68055],
        [82.49457, 26.68059],
        [82.49538, 26.68066],
        [82.4959, 26.68071],
        [82.49636, 26.68059],
        [82.49689, 26.6804],
        [82.49731, 26.68013],
        [82.4977, 26.68004],
        [82.49826, 26.67998],
        [82.49878, 26.68002],
        [82.50266, 26.6796],
        [82.50487, 26.67924],
        [82.50563, 26.67888],
        [82.50708, 26.67847],
        [82.50825, 26.6783],
        [82.50923, 26.67843],
        [82.51025, 26.67895],
        [82.51032, 26.67905],
        [82.51069, 26.67921],
        [82.51083, 26.67922],
        [82.51114, 26.67925],
        [82.51146, 26.6792],
        [82.51167, 26.67918],
        [82.51181, 26.67911],
        [82.51203, 26.67893],
        [82.51242, 26.67881],
        [82.51291, 26.6787],
        [82.51326, 26.67862],
        [82.51365, 26.67853],
        [82.5139, 26.67856],
        [82.51414, 26.67855],
        [82.51443, 26.67853],
        [82.51558, 26.67842],
        [82.51597, 26.67842],
        [82.51629, 26.67846],
        [82.5166, 26.67853],
        [82.51685, 26.6786],
        [82.51713, 26.6788],
        [82.51741, 26.67903],
        [82.51762, 26.67922],
        [82.51793, 26.67954],
        [82.51814, 26.67981],
        [82.51839, 26.68],
        [82.51863, 26.68028],
        [82.51888, 26.68055],
        [82.51916, 26.68083],
        [82.51951, 26.68128],
        [82.51968, 26.68155],
        [82.51982, 26.68177],
        [82.51996, 26.682],
        [82.5201, 26.68205],
        [82.52, 26.6825],
        [82.51997, 26.68274],
        [82.51996, 26.68295],
        [82.52003, 26.68312],
        [82.5201, 26.68329],
        [82.52003, 26.68361],
        [82.52076, 26.68462],
        [82.52128, 26.68515],
        [82.52162, 26.68549],
        [82.52211, 26.68616],
        [82.52245, 26.68686],
        [82.52272, 26.68758],
        [82.52302, 26.68813],
        [82.5233, 26.68863],
        [82.52351, 26.68899],
        [82.52412, 26.68991],
        [82.5254, 26.69158],
        [82.52583, 26.69207],
        [82.52626, 26.69237],
        [82.52714, 26.69255],
        [82.5277, 26.69271],
        [82.52806, 26.69293],
        [82.5282, 26.69318],
        [82.52761, 26.6934],
        [82.52613, 26.69444],
        [82.52555, 26.69514],
        [82.52541, 26.69548],
        [82.52515, 26.69614],
        [82.5243, 26.69768],
        [82.52371, 26.69863],
        [82.52362, 26.6988],
        [82.52321, 26.69956],
        [82.52069, 26.70172],
        [82.51897, 26.70315],
        [82.51863, 26.70344],
        [82.51715, 26.70465],
        [82.51635, 26.70518],
        [82.51604, 26.70565],
        [82.51555, 26.70637],
        [82.51523, 26.70707],
        [82.51505, 26.70808],
        [82.51491, 26.7092],
        [82.51516, 26.7128],
        [82.51522, 26.71354],
        [82.51528, 26.71445],
        [82.51532, 26.71505],
        [82.51553, 26.71865],
        [82.51552, 26.71999],
        [82.51534, 26.72103],
        [82.51523, 26.7218],
        [82.51502, 26.72256],
        [82.5147, 26.72319],
        [82.51417, 26.7239],
        [82.5158, 26.72599],
        [82.51705, 26.7277],
        [82.51796, 26.72881],
        [82.51864, 26.72985],
        [82.51898, 26.73084],
        [82.5194, 26.73176],
        [82.51963, 26.73261],
        [82.5199, 26.73333],
        [82.52016, 26.73388],
        [82.52039, 26.73443],
        [82.52062, 26.73464],
        [82.52085, 26.73467],
        [82.52123, 26.73456],
        [82.52164, 26.73432],
        [82.52195, 26.73407],
        [82.52221, 26.73377],
        [82.52251, 26.73347],
        [82.52281, 26.73313],
        [82.52315, 26.7328],
        [82.52364, 26.73245],
        [82.52395, 26.73224],
        [82.52436, 26.73192],
        [82.52492, 26.7318],
        [82.5259, 26.73179],
        [82.52632, 26.7319],
        [82.52688, 26.73129],
        [82.52729, 26.73089],
        [82.52755, 26.73051],
        [82.52773, 26.73019],
        [82.52795, 26.72993],
        [82.5281, 26.72966],
        [82.5284, 26.72945],
        [82.52888, 26.72928],
        [82.52937, 26.72915],
        [82.52989, 26.72902],
        [82.53022, 26.72882],
        [82.5306, 26.72876],
        [82.53093, 26.72869],
        [82.53164, 26.72864],
        [82.53193, 26.7287],
        [82.53262, 26.72924],
        [82.53312, 26.7291],
        [82.53343, 26.72895],
        [82.53396, 26.72876],
        [82.53432, 26.7285],
        [82.53449, 26.72833],
        [82.53466, 26.72799],
        [82.53469, 26.72759],
        [82.53577, 26.72754],
        [82.53615, 26.72741],
        [82.53647, 26.72738],
        [82.53665, 26.72733],
        [82.53707, 26.72729],
        [82.5375, 26.72745],
        [82.53778, 26.72767],
        [82.53803, 26.72801],
        [82.53811, 26.72855],
        [82.53823, 26.72907],
        [82.53827, 26.72965],
        [82.53824, 26.73018],
        [82.53818, 26.73061],
        [82.53818, 26.73098],
        [82.53837, 26.73127],
        [82.53854, 26.7313],
        [82.53875, 26.73122],
        [82.53887, 26.73111],
        [82.53914, 26.73088],
        [82.53959, 26.73077],
        [82.53984, 26.73065],
        [82.54005, 26.73044],
        [82.54033, 26.73025],
        [82.54067, 26.72991],
        [82.54085, 26.72974],
        [82.54102, 26.72948],
        [82.54123, 26.7292],
        [82.54147, 26.72896],
        [82.54161, 26.72882],
        [82.54185, 26.72875],
        [82.5421, 26.72875],
        [82.54242, 26.72882],
        [82.54277, 26.72905],
        [82.54302, 26.72922],
        [82.54334, 26.72933],
        [82.54359, 26.72934],
        [82.54396, 26.72925],
        [82.54429, 26.72906],
        [82.5446, 26.72872],
        [82.54483, 26.72815],
        [82.54549, 26.72754],
        [82.54624, 26.72658],
        [82.54665, 26.72626],
        [82.54686, 26.72601],
        [82.54706, 26.72564],
        [82.54713, 26.72545],
        [82.54726, 26.72527],
        [82.5475, 26.72512],
        [82.54771, 26.72495],
        [82.54799, 26.72497],
        [82.5483, 26.72499],
        [82.5489, 26.72512],
        [82.5494, 26.72534],
        [82.54989, 26.72544],
        [82.55031, 26.72553],
        [82.55063, 26.72572],
        [82.55169, 26.72587],
        [82.55232, 26.72587],
        [82.55309, 26.72568],
        [82.55378, 26.72544],
        [82.55449, 26.72508],
        [82.55522, 26.72468],
        [82.55568, 26.72433],
        [82.55589, 26.72399],
        [82.55621, 26.72333],
        [82.55625, 26.72301],
        [82.55624, 26.72266],
        [82.55612, 26.72182],
        [82.55635, 26.72192],
        [82.55667, 26.72209],
        [82.55699, 26.72226],
        [82.5574, 26.72242],
        [82.55773, 26.72267],
        [82.55788, 26.72287],
        [82.558, 26.72314],
        [82.55813, 26.7235],
        [82.55806, 26.72396],
        [82.55804, 26.7243],
        [82.55801, 26.72488],
        [82.55811, 26.72535],
        [82.55822, 26.72581],
        [82.55867, 26.72632],
        [82.55898, 26.72652],
        [82.55923, 26.72668],
        [82.55977, 26.72704],
        [82.5603, 26.72737],
        [82.56081, 26.72765],
        [82.56137, 26.72795],
        [82.56188, 26.7282],
        [82.56236, 26.72845],
        [82.56283, 26.72869],
        [82.56328, 26.729],
        [82.56337, 26.72906],
        [82.56364, 26.72925],
        [82.56385, 26.72947],
        [82.56389, 26.7296],
        [82.5645, 26.72948],
        [82.56473, 26.72943],
        [82.56517, 26.72943],
        [82.56541, 26.72942],
        [82.56564, 26.72937],
        [82.56591, 26.7294],
        [82.56622, 26.7293],
        [82.56643, 26.72938],
        [82.56679, 26.72947],
        [82.56714, 26.72948],
        [82.56755, 26.72947],
        [82.56799, 26.72944],
        [82.56831, 26.72937],
        [82.56878, 26.72931],
        [82.56922, 26.72924],
        [82.56954, 26.72921],
        [82.56989, 26.72916],
        [82.57024, 26.72914],
        [82.57064, 26.72918],
        [82.5717, 26.73004],
        [82.57222, 26.73053],
        [82.57277, 26.73074],
        [82.57325, 26.73105],
        [82.57367, 26.73139],
        [82.57429, 26.73173],
        [82.57477, 26.73192],
        [82.57544, 26.73223],
        [82.57585, 26.73253],
        [82.57622, 26.73286],
        [82.57654, 26.7333],
        [82.57684, 26.73365],
        [82.57731, 26.73429],
        [82.57752, 26.73487],
        [82.57772, 26.73541],
        [82.57788, 26.73563],
        [82.57796, 26.73575],
        [82.57833, 26.73599],
        [82.57852, 26.73612],
        [82.57914, 26.7365],
        [82.57909, 26.73661],
        [82.57907, 26.73681],
        [82.57908, 26.73694],
        [82.57916, 26.73737],
        [82.57921, 26.73832],
        [82.57923, 26.73876],
        [82.5793, 26.73902],
        [82.57939, 26.73954],
        [82.57943, 26.73989],
        [82.57943, 26.74042],
        [82.57936, 26.74075],
        [82.57909, 26.74136],
        [82.57875, 26.74172],
        [82.5783, 26.74227],
        [82.57786, 26.74311],
        [82.5773, 26.7444],
        [82.57699, 26.74558],
        [82.5768, 26.74594],
        [82.57676, 26.74612],
        [82.57673, 26.7463],
        [82.57674, 26.74653],
        [82.57663, 26.74678],
        [82.57643, 26.7469],
        [82.57599, 26.74723],
        [82.57579, 26.74753],
        [82.57509, 26.74861],
        [82.5745, 26.74942],
        [82.57405, 26.75002],
        [82.57375, 26.75049],
        [82.57359, 26.75093],
        [82.57349, 26.75101],
        [82.57339, 26.75108],
        [82.57309, 26.75109],
        [82.57284, 26.75096],
        [82.57254, 26.75083],
        [82.57217, 26.75065],
        [82.57193, 26.75052],
        [82.57159, 26.75035],
        [82.57125, 26.75014],
        [82.57104, 26.75008],
        [82.57091, 26.75016],
        [82.57062, 26.7506],
        [82.57036, 26.75078],
        [82.56995, 26.75095],
        [82.56967, 26.75129],
        [82.56952, 26.75146],
        [82.56852, 26.7531],
        [82.56738, 26.75455],
        [82.56658, 26.75524],
        [82.5662, 26.75559],
        [82.56571, 26.75588],
        [82.56545, 26.75597],
        [82.56518, 26.75606],
        [82.56468, 26.75621],
        [82.56433, 26.75637],
        [82.5638, 26.75658],
        [82.5636, 26.7566],
        [82.56294, 26.75665],
        [82.56235, 26.75672],
        [82.56207, 26.75671],
        [82.56187, 26.75671],
        [82.56098, 26.7567],
        [82.56065, 26.75663],
        [82.5602, 26.75659],
        [82.55905, 26.75623],
        [82.55844, 26.75589],
        [82.5579, 26.75563],
        [82.55745, 26.75543],
        [82.5569, 26.75526],
        [82.55664, 26.75518],
        [82.55601, 26.75504],
        [82.55548, 26.75492],
        [82.55503, 26.75489],
        [82.55435, 26.75491],
        [82.55373, 26.75487],
        [82.55322, 26.75483],
        [82.55269, 26.75481],
        [82.55213, 26.75496],
        [82.55163, 26.75495],
        [82.55104, 26.75492],
        [82.55068, 26.75491],
        [82.55018, 26.75497],
        [82.54799, 26.75501],
        [82.54761, 26.75505],
        [82.54713, 26.755],
        [82.54684, 26.7549],
        [82.54648, 26.75469],
        [82.54621, 26.75454],
        [82.54579, 26.75425],
        [82.54543, 26.75404],
        [82.54451, 26.75361],
        [82.54415, 26.75344],
        [82.54374, 26.75326],
        [82.54314, 26.7531],
        [82.5427, 26.75305],
        [82.54226, 26.75302],
        [82.54176, 26.75292],
        [82.54134, 26.75277],
        [82.54096, 26.7527],
        [82.53997, 26.75227],
        [82.53943, 26.75216],
        [82.53893, 26.75203],
        [82.53845, 26.75187],
        [82.53805, 26.7516],
        [82.53797, 26.75216],
        [82.53782, 26.75257],
        [82.53757, 26.75296],
        [82.53731, 26.7534],
        [82.53702, 26.75376],
        [82.53618, 26.75443],
        [82.53717, 26.75551],
        [82.53749, 26.75597],
        [82.53813, 26.75683],
        [82.53949, 26.75867],
        [82.53986, 26.7593],
        [82.54005, 26.75962],
        [82.54042, 26.76043],
        [82.54107, 26.76157],
        [82.54147, 26.76222],
        [82.5418, 26.76263],
        [82.54211, 26.76287],
        [82.5437, 26.76385],
        [82.54413, 26.76393],
        [82.5444, 26.7639],
        [82.54432, 26.76412],
        [82.54417, 26.76426],
        [82.54383, 26.7645],
        [82.54337, 26.7648],
        [82.54306, 26.76517],
        [82.54185, 26.76699],
        [82.54178, 26.76745],
        [82.5418, 26.76798],
        [82.54189, 26.76846],
        [82.54156, 26.76858],
        [82.54126, 26.76886],
        [82.54081, 26.76915],
        [82.53997, 26.76984],
        [82.54058, 26.77084],
        [82.5408, 26.7713],
        [82.54112, 26.77197],
        [82.54276, 26.77612],
        [82.54317, 26.77695],
        [82.5436, 26.7776],
        [82.54401, 26.77824],
        [82.54434, 26.77877],
        [82.5435, 26.77952],
        [82.54256, 26.78018],
        [82.54205, 26.7804],
        [82.54162, 26.7806],
        [82.54118, 26.78067],
        [82.54063, 26.78077],
        [82.53993, 26.78091],
        [82.53953, 26.78112],
        [82.53928, 26.78127],
        [82.53858, 26.78146],
        [82.53811, 26.78165],
        [82.53691, 26.78235],
        [82.53647, 26.78279],
        [82.53627, 26.7836],
        [82.5356, 26.78561],
        [82.53544, 26.78646],
        [82.53541, 26.7871],
        [82.53542, 26.78767],
        [82.5354, 26.78855],
        [82.53549, 26.78921],
        [82.53565, 26.78968],
        [82.5358, 26.79019],
        [82.53585, 26.79064],
        [82.53579, 26.79127],
        [82.53565, 26.79173],
        [82.53562, 26.79213],
        [82.53551, 26.79243],
        [82.5354, 26.79257],
        [82.53507, 26.79275],
        [82.53466, 26.79287],
        [82.53422, 26.79307],
        [82.53385, 26.79325],
        [82.53345, 26.79365],
        [82.53289, 26.79566],
        [82.53282, 26.79605],
        [82.53276, 26.79656],
        [82.53265, 26.79698],
        [82.5326, 26.7971],
        [82.53251, 26.79727],
        [82.53218, 26.79741],
        [82.53166, 26.7976],
        [82.53133, 26.79786],
        [82.53096, 26.79804],
        [82.53055, 26.7982],
        [82.53014, 26.79857],
        [82.52981, 26.79896],
        [82.52937, 26.79956],
        [82.52908, 26.80023],
        [82.52805, 26.80376],
        [82.52806, 26.80449],
        [82.528, 26.80503],
        [82.52806, 26.80524],
        [82.52741, 26.80533],
        [82.52711, 26.80531],
        [82.52675, 26.80521],
        [82.52622, 26.80523],
        [82.5258, 26.80526],
        [82.5252, 26.80534],
        [82.52468, 26.80543],
        [82.52415, 26.80555],
        [82.5234, 26.80571],
        [82.52264, 26.80607],
        [82.52146, 26.80649],
        [82.52107, 26.80663],
        [82.52058, 26.8069],
        [82.52035, 26.80721],
        [82.52016, 26.8076],
        [82.52, 26.80803],
        [82.51977, 26.80838],
        [82.51954, 26.80869],
        [82.51932, 26.80894],
        [82.51902, 26.80917],
        [82.51869, 26.80947],
        [82.5183, 26.80976],
        [82.51784, 26.81003],
        [82.51722, 26.81036],
        [82.51632, 26.81088],
        [82.5165, 26.81117],
        [82.51687, 26.81199],
        [82.51728, 26.81264],
        [82.51742, 26.81329],
        [82.51752, 26.814],
        [82.51756, 26.81474],
        [82.51751, 26.81553],
        [82.51722, 26.81614],
        [82.51702, 26.81664],
        [82.51676, 26.81708],
        [82.51637, 26.81748],
        [82.51565, 26.81786],
        [82.51525, 26.81801],
        [82.51476, 26.81807],
        [82.51416, 26.8181],
        [82.5133, 26.81822],
        [82.51253, 26.81735],
        [82.51236, 26.81698],
        [82.51222, 26.8167],
        [82.51157, 26.81758],
        [82.51134, 26.81797],
        [82.51122, 26.81847],
        [82.51092, 26.81899],
        [82.51066, 26.81937],
        [82.51034, 26.81985],
        [82.51004, 26.82019],
        [82.50958, 26.82062],
        [82.50912, 26.82094],
        [82.50859, 26.82122],
        [82.50807, 26.82153],
        [82.50761, 26.82179],
        [82.50708, 26.82214],
        [82.50669, 26.8224],
        [82.50626, 26.82269],
        [82.50549, 26.82348],
        [82.50442, 26.82433],
        [82.50401, 26.8246],
        [82.5036, 26.82488],
        [82.50314, 26.82521],
        [82.50262, 26.82542],
        [82.50154, 26.82579],
        [82.50146, 26.82555],
        [82.50123, 26.82525],
        [82.5009, 26.82486],
        [82.50047, 26.82444],
        [82.49993, 26.82397],
        [82.4994, 26.8235],
        [82.49887, 26.82317],
        [82.49837, 26.82284],
        [82.49811, 26.82267],
        [82.49791, 26.82234],
        [82.49741, 26.8231],
        [82.49663, 26.82428],
        [82.49617, 26.82511],
        [82.49551, 26.82613],
        [82.49464, 26.82736],
        [82.49331, 26.82855],
        [82.49127, 26.83],
        [82.49107, 26.83009],
        [82.49075, 26.83028],
        [82.48967, 26.83086],
        [82.48757, 26.83257],
        [82.48686, 26.83323],
        [82.48614, 26.83375],
        [82.48523, 26.83451],
        [82.48435, 26.83525],
        [82.48413, 26.83562],
        [82.48254, 26.83749],
        [82.48205, 26.83816],
        [82.48167, 26.83869],
        [82.48133, 26.83935],
        [82.48028, 26.84302],
        [82.48022, 26.84292],
        [82.48004, 26.84229],
        [82.48003, 26.84137],
        [82.47994, 26.84079],
        [82.4786, 26.84104],
        [82.4777, 26.84141],
        [82.47634, 26.84177],
        [82.47536, 26.84223],
        [82.47421, 26.84277],
        [82.4705, 26.84567],
        [82.4698, 26.84608],
        [82.4691, 26.8462],
        [82.46843, 26.84618],
        [82.46739, 26.84574],
        [82.4674, 26.846],
        [82.46748, 26.84644],
        [82.46745, 26.84706],
        [82.46725, 26.84793],
        [82.46628, 26.85128],
        [82.46542, 26.85349],
        [82.46485, 26.85478],
        [82.46475, 26.85523],
        [82.46469, 26.85553],
        [82.4647, 26.85623],
        [82.46483, 26.8568],
        [82.46508, 26.85695],
        [82.46533, 26.85696],
        [82.46562, 26.85688],
        [82.46604, 26.85663],
        [82.46624, 26.85655],
        [82.46662, 26.85643],
        [82.46708, 26.85645],
        [82.46762, 26.85655],
        [82.46791, 26.85665],
        [82.46808, 26.85705],
        [82.4683, 26.85776],
        [82.4686, 26.85865],
        [82.46897, 26.85906],
        [82.46935, 26.85911],
        [82.46972, 26.85899],
        [82.46981, 26.85977],
        [82.46988, 26.86033],
        [82.46994, 26.86083],
        [82.47001, 26.86157],
        [82.46996, 26.86231],
        [82.46973, 26.86292],
        [82.46904, 26.86351],
        [82.46822, 26.86404],
        [82.46723, 26.86456],
        [82.46648, 26.86515],
        [82.4659, 26.86593],
        [82.46561, 26.86666],
        [82.46548, 26.86753],
        [82.46545, 26.86777],
        [82.46564, 26.86919],
        [82.46596, 26.87006],
        [82.46657, 26.87166],
        [82.46508, 26.87176],
        [82.46398, 26.87181],
        [82.46098, 26.87155],
        [82.45961, 26.87178],
        [82.45899, 26.872],
        [82.4584, 26.87227],
        [82.45809, 26.87241],
        [82.45798, 26.87289],
        [82.45791, 26.87318],
        [82.45801, 26.87366],
        [82.45844, 26.87492],
        [82.45847, 26.87547],
        [82.45858, 26.87599],
        [82.45883, 26.87633],
        [82.45911, 26.87678],
        [82.45918, 26.87722],
        [82.45918, 26.87777],
        [82.45932, 26.87818],
        [82.4595, 26.87848],
        [82.45993, 26.87883],
        [82.46021, 26.87928],
        [82.46039, 26.87962],
        [82.46042, 26.88002],
        [82.4606, 26.88111],
        [82.46092, 26.88115],
        [82.46185, 26.8812],
        [82.46264, 26.8811],
        [82.46343, 26.881],
        [82.46422, 26.88075],
        [82.4649, 26.88042],
        [82.46639, 26.87943],
        [82.46729, 26.87873],
        [82.46778, 26.87831],
        [82.46819, 26.87781],
        [82.46902, 26.87678],
        [82.46983, 26.87774],
        [82.47194, 26.88024],
        [82.47348, 26.88186],
        [82.47389, 26.88237],
        [82.47436, 26.88307],
        [82.47465, 26.88363],
        [82.47483, 26.88432],
        [82.47489, 26.88507],
        [82.47491, 26.88656],
        [82.47579, 26.88674],
        [82.47624, 26.88676],
        [82.47663, 26.88663],
        [82.47862, 26.88538],
        [82.47904, 26.88523],
        [82.47951, 26.88517],
        [82.48001, 26.88514],
        [82.48039, 26.88518],
        [82.48074, 26.88519],
        [82.48112, 26.88512],
        [82.48156, 26.88501],
        [82.48218, 26.88467],
        [82.48256, 26.8846],
        [82.48331, 26.88434],
        [82.48369, 26.88415],
        [82.48393, 26.88404],
        [82.48407, 26.88393],
        [82.48441, 26.88363],
        [82.48465, 26.88333],
        [82.48485, 26.88314],
        [82.48496, 26.88306],
        [82.48509, 26.88299],
        [82.48527, 26.88299],
        [82.48561, 26.88303],
        [82.48575, 26.88322],
        [82.48634, 26.88371],
        [82.48745, 26.88514],
        [82.48776, 26.88567],
        [82.48807, 26.88627],
        [82.48839, 26.88672],
        [82.4887, 26.88713],
        [82.48898, 26.88728],
        [82.48936, 26.88735],
        [82.48964, 26.88726],
        [82.48973, 26.88724],
        [82.48987, 26.88709],
        [82.49021, 26.88674],
        [82.49076, 26.88644],
        [82.49107, 26.88629],
        [82.49124, 26.88629],
        [82.49141, 26.88628],
        [82.49169, 26.88662],
        [82.49394, 26.88946],
        [82.49469, 26.89032],
        [82.49536, 26.89121],
        [82.49625, 26.89203],
        [82.49674, 26.89266],
        [82.49719, 26.89387],
        [82.49727, 26.89398],
        [82.49691, 26.8973],
        [82.49692, 26.89818],
        [82.49695, 26.89966],
        [82.49686, 26.9006],
        [82.49676, 26.90102],
        [82.49473, 26.90205],
        [82.49415, 26.90249],
        [82.49358, 26.90293],
        [82.49295, 26.90337],
        [82.49218, 26.90382],
        [82.49161, 26.90408],
        [82.49043, 26.9045],
        [82.48931, 26.90514],
        [82.4884, 26.90566],
        [82.48903, 26.90676],
        [82.48956, 26.90767],
        [82.48988, 26.90851],
        [82.49042, 26.90916],
        [82.49151, 26.9098],
        [82.49229, 26.91037],
        [82.49298, 26.91049],
        [82.49373, 26.91046],
        [82.49396, 26.91054],
        [82.49442, 26.91111],
        [82.49518, 26.91199],
        [82.49581, 26.91295],
        [82.49621, 26.9138],
        [82.49647, 26.91447],
        [82.49674, 26.9153],
        [82.49691, 26.9165],
        [82.49724, 26.91709],
        [82.4977, 26.91777],
        [82.49802, 26.91821],
        [82.49942, 26.92015],
        [82.49965, 26.92009],
        [82.49988, 26.92004],
        [82.50012, 26.91999],
        [82.50035, 26.91995],
        [82.50074, 26.91991],
        [82.50098, 26.92001],
        [82.50116, 26.9202],
        [82.50123, 26.92046],
        [82.50148, 26.92311],
        [82.50147, 26.92333],
        [82.50145, 26.92355],
        [82.50144, 26.92376],
        [82.50143, 26.92398],
        [82.50143, 26.9242],
        [82.50143, 26.92442],
        [82.50144, 26.92464],
        [82.50144, 26.92485],
        [82.50147, 26.92525],
        [82.50148, 26.92561],
        [82.50148, 26.92595],
        [82.50138, 26.92625],
        [82.5012, 26.9265],
        [82.5011, 26.92668],
        [82.50101, 26.92686],
        [82.50091, 26.92705],
        [82.50082, 26.92723],
        [82.50073, 26.92742],
        [82.50064, 26.92761],
        [82.50056, 26.9278],
        [82.50047, 26.92799],
        [82.50034, 26.92827],
        [82.50026, 26.92846],
        [82.50022, 26.92867],
        [82.50021, 26.92888],
        [82.50024, 26.92908],
        [82.50025, 26.92929],
        [82.50027, 26.9295],
        [82.5003, 26.92971],
        [82.50034, 26.92991],
        [82.50039, 26.93011],
        [82.50045, 26.93031],
        [82.50053, 26.93051],
        [82.50061, 26.9307],
        [82.50071, 26.93089],
        [82.50091, 26.93112],
        [82.50111, 26.93136],
        [82.50132, 26.93159],
        [82.50152, 26.93183],
        [82.50173, 26.93206],
        [82.50194, 26.93229],
        [82.50215, 26.93252],
        [82.50236, 26.93275],
        [82.50271, 26.93309],
        [82.50296, 26.93337],
        [82.50314, 26.93369],
        [82.50327, 26.93404],
        [82.5033, 26.93422],
        [82.50332, 26.9344],
        [82.50329, 26.93477],
        [82.50328, 26.93495],
        [82.50328, 26.93514],
        [82.50329, 26.93532],
        [82.50329, 26.9355],
        [82.50331, 26.93569],
        [82.50333, 26.93587],
        [82.50338, 26.93621],
        [82.50347, 26.9365],
        [82.5036, 26.93677],
        [82.50378, 26.93702],
        [82.504, 26.93723],
        [82.50422, 26.93747],
        [82.50442, 26.93771],
        [82.50463, 26.93795],
        [82.50482, 26.93821],
        [82.50501, 26.93846],
        [82.50519, 26.93872],
        [82.50536, 26.93899],
        [82.50553, 26.93926],
        [82.50568, 26.93954],
        [82.50577, 26.93978],
        [82.50588, 26.94001],
        [82.50602, 26.94023],
        [82.50619, 26.94042],
        [82.50639, 26.94059],
        [82.5066, 26.94074],
        [82.50683, 26.94085],
        [82.50708, 26.94093],
        [82.50733, 26.94097],
        [82.50763, 26.94107],
        [82.50792, 26.94117],
        [82.5082, 26.9413],
        [82.50848, 26.94145],
        [82.50874, 26.94161],
        [82.50899, 26.94179],
        [82.50923, 26.94199],
        [82.50945, 26.94221],
        [82.50966, 26.94244],
        [82.50993, 26.9427],
        [82.51004, 26.94286],
        [82.51012, 26.94303],
        [82.51018, 26.94321],
        [82.51021, 26.94339],
        [82.51022, 26.94359],
        [82.5102, 26.94377],
        [82.51016, 26.94396],
        [82.51011, 26.94418],
        [82.51008, 26.9444],
        [82.51007, 26.94463],
        [82.51009, 26.94486],
        [82.51013, 26.94508],
        [82.51018, 26.9453],
        [82.51026, 26.94551],
        [82.51036, 26.94572],
        [82.51047, 26.94591],
        [82.51067, 26.94617],
        [82.51088, 26.94641],
        [82.5111, 26.94664],
        [82.51133, 26.94687],
        [82.51157, 26.94708],
        [82.51182, 26.94728],
        [82.51208, 26.94747],
        [82.51234, 26.94765],
        [82.51262, 26.94782],
        [82.51291, 26.94795],
        [82.51321, 26.94808],
        [82.51351, 26.9482],
        [82.51381, 26.94832],
        [82.51411, 26.94843],
        [82.51442, 26.94854],
        [82.51473, 26.94864],
        [82.51504, 26.94873],
        [82.51535, 26.94881],
        [82.51568, 26.94897],
        [82.51601, 26.94913],
        [82.51633, 26.94931],
        [82.51665, 26.94949],
        [82.51697, 26.94967],
        [82.51728, 26.94987],
        [82.51759, 26.95007],
        [82.51789, 26.95028],
        [82.51818, 26.95049],
        [82.51836, 26.95061],
        [82.51854, 26.95072],
        [82.51872, 26.95083],
        [82.5189, 26.95093],
        [82.51909, 26.95104],
        [82.51927, 26.95114],
        [82.51946, 26.95124],
        [82.51965, 26.95134],
        [82.51984, 26.95143],
        [82.52014, 26.95152],
        [82.52045, 26.95155],
        [82.52076, 26.95153],
        [82.52106, 26.95145],
        [82.52135, 26.95135],
        [82.52165, 26.95125],
        [82.52194, 26.95115],
        [82.52224, 26.95106],
        [82.52254, 26.95097],
        [82.52286, 26.95093],
        [82.52318, 26.95089],
        [82.5235, 26.95085],
        [82.52381, 26.9508],
        [82.52412, 26.95072],
        [82.52443, 26.95061],
        [82.52473, 26.9505],
        [82.52504, 26.95039],
        [82.52534, 26.95028],
        [82.52556, 26.95025],
        [82.52577, 26.95023],
        [82.52599, 26.95021],
        [82.5262, 26.95018],
        [82.52642, 26.95015],
        [82.52663, 26.95013],
        [82.52685, 26.9501],
        [82.52706, 26.95007],
        [82.52728, 26.95005],
        [82.52766, 26.94995],
        [82.52806, 26.94988],
        [82.52845, 26.94984],
        [82.52905, 26.94986],
        [82.52931, 26.9499],
        [82.52957, 26.94995],
        [82.52982, 26.95001],
        [82.53008, 26.95007],
        [82.53033, 26.95015],
        [82.53058, 26.95023],
        [82.53083, 26.95031],
        [82.53108, 26.95041],
        [82.53132, 26.95051],
        [82.53174, 26.95058],
        [82.53217, 26.95064],
        [82.5326, 26.95068],
        [82.53303, 26.9507],
        [82.53346, 26.95071],
        [82.53389, 26.9507],
        [82.53432, 26.95068],
        [82.53475, 26.95063],
        [82.535, 26.95062],
        [82.53525, 26.95062],
        [82.5355, 26.95062],
        [82.53575, 26.95062],
        [82.536, 26.95062],
        [82.53625, 26.95063],
        [82.5365, 26.95064],
        [82.53675, 26.95066],
        [82.537, 26.95068],
        [82.53722, 26.95069],
        [82.53744, 26.95069],
        [82.53765, 26.95067],
        [82.53787, 26.95065],
        [82.53809, 26.95061],
        [82.5383, 26.95057],
        [82.53851, 26.95051],
        [82.53872, 26.95045],
        [82.53899, 26.9504],
        [82.53925, 26.95039],
        [82.53952, 26.95041],
        [82.53978, 26.95047],
        [82.54003, 26.95056],
        [82.54027, 26.95069],
        [82.54048, 26.95085],
        [82.54068, 26.95103],
        [82.54084, 26.95124],
        [82.54101, 26.95151],
        [82.54118, 26.95178],
        [82.54136, 26.95206],
        [82.54153, 26.95233],
        [82.54171, 26.9526],
        [82.54188, 26.95286],
        [82.54206, 26.95313],
        [82.54225, 26.9534],
        [82.54243, 26.95366],
        [82.54261, 26.95386],
        [82.54282, 26.95403],
        [82.54306, 26.95417],
        [82.54331, 26.95427],
        [82.54358, 26.95432],
        [82.54385, 26.95434],
        [82.54412, 26.95431],
        [82.54439, 26.95424],
        [82.54464, 26.95413],
        [82.54484, 26.95399],
        [82.54521, 26.95394],
        [82.54547, 26.95411],
        [82.54563, 26.95438],
        [82.54584, 26.95467],
        [82.54603, 26.95496],
        [82.54622, 26.95526],
        [82.54639, 26.95556],
        [82.54656, 26.95587],
        [82.54673, 26.95618],
        [82.54688, 26.9565],
        [82.54708, 26.95689],
        [82.54731, 26.95717],
        [82.54753, 26.95746],
        [82.54831, 26.95819],
        [82.54842, 26.9584],
        [82.54849, 26.95863],
        [82.54851, 26.95886],
        [82.54847, 26.9591],
        [82.54826, 26.95947],
        [82.54813, 26.95974],
        [82.54808, 26.96002],
        [82.54808, 26.9603],
        [82.5481, 26.96058],
        [82.54813, 26.96085],
        [82.54818, 26.96113],
        [82.54823, 26.9614],
        [82.54835, 26.96156],
        [82.54851, 26.96168],
        [82.5487, 26.96177],
        [82.5489, 26.9618],
        [82.54922, 26.96182],
        [82.54944, 26.96184],
        [82.54966, 26.96186],
        [82.54989, 26.96188],
        [82.55011, 26.96189],
        [82.55033, 26.9619],
        [82.55055, 26.96191],
        [82.55077, 26.96192],
        [82.55099, 26.96193],
        [82.55128, 26.96188],
        [82.55173, 26.96191],
        [82.55201, 26.962],
        [82.55227, 26.96215],
        [82.55259, 26.96226],
        [82.55292, 26.96233],
        [82.55326, 26.96236],
        [82.5536, 26.96234],
        [82.55398, 26.9623],
        [82.5542, 26.9623],
        [82.55441, 26.9623],
        [82.55463, 26.96232],
        [82.55484, 26.96234],
        [82.55506, 26.96237],
        [82.55527, 26.9624],
        [82.55548, 26.96245],
        [82.55569, 26.9625],
        [82.55601, 26.96255],
        [82.55632, 26.96264],
        [82.55661, 26.96278],
        [82.55688, 26.96296],
        [82.55717, 26.96317],
        [82.55752, 26.96334],
        [82.5579, 26.96345],
        [82.55829, 26.96349],
        [82.55868, 26.96347],
        [82.55925, 26.96349],
        [82.55962, 26.96361],
        [82.55996, 26.96379],
        [82.56026, 26.96395],
        [82.56053, 26.96405],
        [82.56081, 26.96414],
        [82.56109, 26.96422],
        [82.56137, 26.96429],
        [82.56173, 26.9644],
        [82.56205, 26.96459],
        [82.56232, 26.96484],
        [82.56253, 26.96514],
        [82.56261, 26.96531],
        [82.56273, 26.96553],
        [82.56286, 26.96573],
        [82.56301, 26.96593],
        [82.56316, 26.96608],
        [82.56335, 26.96639],
        [82.56338, 26.96675],
        [82.56333, 26.96697],
        [82.56327, 26.9672],
        [82.56322, 26.96743],
        [82.56316, 26.96766],
        [82.5631, 26.96787],
        [82.56304, 26.96806],
        [82.56294, 26.96824],
        [82.56252, 26.96863],
        [82.56245, 26.96987],
        [82.56246, 26.97004],
        [82.56247, 26.9702],
        [82.5625, 26.97037],
        [82.56253, 26.97053],
        [82.56257, 26.97069],
        [82.56261, 26.97085],
        [82.56266, 26.97101],
        [82.5627, 26.97111],
        [82.56276, 26.97122],
        [82.56282, 26.97132],
        [82.56289, 26.97141],
        [82.56298, 26.97149],
        [82.56307, 26.97156],
        [82.56317, 26.97163],
        [82.56327, 26.97168],
        [82.56338, 26.97172],
        [82.5635, 26.97183],
        [82.5636, 26.97195],
        [82.56369, 26.97208],
        [82.56377, 26.97222],
        [82.56382, 26.97237],
        [82.56386, 26.97252],
        [82.56389, 26.97268],
        [82.56389, 26.97284],
        [82.56388, 26.973],
        [82.56389, 26.97313],
        [82.56392, 26.97326],
        [82.56395, 26.97338],
        [82.564, 26.97351],
        [82.56404, 26.97363],
        [82.5641, 26.97375],
        [82.56416, 26.97387],
        [82.56423, 26.97398],
        [82.56431, 26.97408],
        [82.56435, 26.97415],
        [82.56439, 26.97422],
        [82.56443, 26.97429],
        [82.56447, 26.97436],
        [82.56451, 26.97443],
        [82.56455, 26.9745],
        [82.56458, 26.97457],
        [82.56462, 26.97464],
        [82.56465, 26.97471],
        [82.56469, 26.9748],
        [82.56471, 26.9749],
        [82.56472, 26.97499],
        [82.56472, 26.97509],
        [82.5647, 26.97519],
        [82.56467, 26.97528],
        [82.56462, 26.97537],
        [82.56456, 26.97545],
        [82.5645, 26.97552],
        [82.56443, 26.97557],
        [82.56436, 26.97562],
        [82.56429, 26.97568],
        [82.56423, 26.97573],
        [82.56417, 26.9758],
        [82.56412, 26.97586],
        [82.56406, 26.97593],
        [82.56402, 26.976],
        [82.56397, 26.97608],
        [82.56395, 26.97616],
        [82.56394, 26.97625],
        [82.56394, 26.97634],
        [82.56395, 26.97643],
        [82.56397, 26.97651],
        [82.56399, 26.9766],
        [82.56403, 26.97668],
        [82.56407, 26.97675],
        [82.56413, 26.97682],
        [82.56426, 26.97693],
        [82.56439, 26.97706],
        [82.56449, 26.9772],
        [82.56457, 26.97736],
        [82.56463, 26.97752],
        [82.56466, 26.9777],
        [82.56468, 26.97787],
        [82.56466, 26.97805],
        [82.56465, 26.97815],
        [82.56465, 26.97824],
        [82.56465, 26.97834],
        [82.56464, 26.97843],
        [82.56464, 26.97852],
        [82.56464, 26.97862],
        [82.56464, 26.97872],
        [82.56464, 26.97881],
        [82.56464, 26.9789],
        [82.56461, 26.97905],
        [82.56458, 26.9792],
        [82.56454, 26.97934],
        [82.56449, 26.97949],
        [82.56444, 26.97963],
        [82.56439, 26.97977],
        [82.56433, 26.97991],
        [82.56427, 26.98004],
        [82.5642, 26.98018],
        [82.56418, 26.9803],
        [82.56415, 26.98042],
        [82.56411, 26.98054],
        [82.56407, 26.98066],
        [82.56402, 26.98078],
        [82.56397, 26.9809],
        [82.56392, 26.98101],
        [82.56386, 26.98112],
        [82.5638, 26.98123],
        [82.56369, 26.98135],
        [82.56358, 26.98146],
        [82.56349, 26.98159],
        [82.5634, 26.98173],
        [82.56333, 26.98187],
        [82.56327, 26.98202],
        [82.56323, 26.98217],
        [82.56319, 26.98232],
        [82.56318, 26.98248],
        [82.56319, 26.98265],
        [82.56319, 26.98282],
        [82.56317, 26.98299],
        [82.56313, 26.98316],
        [82.56309, 26.98332],
        [82.56302, 26.98348],
        [82.56294, 26.98363],
        [82.56285, 26.98378],
        [82.56274, 26.98391],
        [82.56264, 26.98399],
        [82.56255, 26.98408],
        [82.56247, 26.98419],
        [82.5624, 26.9843],
        [82.56235, 26.98442],
        [82.56232, 26.98455],
        [82.5623, 26.98468],
        [82.56229, 26.9848],
        [82.56231, 26.98494],
        [82.56234, 26.985],
        [82.56239, 26.98507],
        [82.56244, 26.98513],
        [82.56249, 26.98518],
        [82.56255, 26.98524],
        [82.56261, 26.98529],
        [82.56267, 26.98533],
        [82.56273, 26.98537],
        [82.5628, 26.9854],
        [82.56287, 26.9855],
        [82.56293, 26.9856],
        [82.56298, 26.9857],
        [82.56302, 26.98581],
        [82.56306, 26.98591],
        [82.56309, 26.98603],
        [82.5631, 26.98614],
        [82.56311, 26.98625],
        [82.56311, 26.98637],
        [82.56316, 26.98649],
        [82.56322, 26.9866],
        [82.56328, 26.98671],
        [82.56336, 26.98682],
        [82.56344, 26.98691],
        [82.56354, 26.987],
        [82.56364, 26.98708],
        [82.56375, 26.98715],
        [82.56386, 26.98721],
        [82.56404, 26.9874],
        [82.56423, 26.98758],
        [82.56444, 26.98774],
        [82.56467, 26.98789],
        [82.5649, 26.98801],
        [82.56514, 26.98811],
        [82.56539, 26.9882],
        [82.56565, 26.98826],
        [82.56591, 26.9883],
        [82.56609, 26.98831],
        [82.56626, 26.98829],
        [82.56643, 26.98824],
        [82.56659, 26.98816],
        [82.56673, 26.98806],
        [82.56685, 26.98793],
        [82.56695, 26.98779],
        [82.56702, 26.98763],
        [82.56706, 26.98746],
        [82.5671, 26.9874],
        [82.56714, 26.98735],
        [82.56718, 26.9873],
        [82.56723, 26.98726],
        [82.56729, 26.98722],
        [82.56735, 26.98719],
        [82.56741, 26.98716],
        [82.56747, 26.98715],
        [82.56754, 26.98713],
        [82.56763, 26.98705],
        [82.56772, 26.98694],
        [82.56778, 26.98683],
        [82.56783, 26.98671],
        [82.56787, 26.98659],
        [82.56788, 26.98646],
        [82.56788, 26.98633],
        [82.56786, 26.9862],
        [82.56782, 26.98608],
        [82.56777, 26.98597],
        [82.56776, 26.98587],
        [82.56779, 26.98576],
        [82.56785, 26.98567],
        [82.56793, 26.9856],
        [82.56804, 26.98556],
        [82.56815, 26.98555],
        [82.56825, 26.98558],
        [82.56834, 26.98564],
        [82.56845, 26.9857],
        [82.56856, 26.98575],
        [82.56867, 26.98579],
        [82.56879, 26.98581],
        [82.5689, 26.98583],
        [82.56902, 26.98583],
        [82.56914, 26.98582],
        [82.56926, 26.9858],
        [82.56937, 26.98577],
        [82.56947, 26.98572],
        [82.56958, 26.9857],
        [82.5697, 26.9857],
        [82.56981, 26.98571],
        [82.56991, 26.98576],
        [82.57001, 26.98581],
        [82.57009, 26.98589],
        [82.57016, 26.98598],
        [82.57021, 26.98608],
        [82.57023, 26.98615],
        [82.57025, 26.98623],
        [82.57027, 26.9863],
        [82.57029, 26.98637],
        [82.57031, 26.98645],
        [82.57034, 26.98652],
        [82.57037, 26.98659],
        [82.5704, 26.98666],
        [82.57043, 26.98673],
        [82.57052, 26.98685],
        [82.57062, 26.98696],
        [82.57072, 26.98707],
        [82.57083, 26.98717],
        [82.57094, 26.98726],
        [82.57107, 26.98735],
        [82.57119, 26.98743],
        [82.57132, 26.9875],
        [82.57143, 26.98758],
        [82.57153, 26.98767],
        [82.57163, 26.98776],
        [82.57173, 26.98785],
        [82.57183, 26.98794],
        [82.57192, 26.98804],
        [82.572, 26.98814],
        [82.57209, 26.98825],
        [82.57217, 26.98836],
        [82.57226, 26.98843],
        [82.57236, 26.9885],
        [82.57246, 26.98857],
        [82.57255, 26.98864],
        [82.57266, 26.9887],
        [82.57276, 26.98876],
        [82.57286, 26.98883],
        [82.57296, 26.98889],
        [82.57307, 26.98895],
        [82.57314, 26.98903],
        [82.57321, 26.98912],
        [82.57326, 26.98921],
        [82.57331, 26.98931],
        [82.57336, 26.98941],
        [82.57339, 26.98952],
        [82.57342, 26.98963],
        [82.57343, 26.98974],
        [82.57344, 26.98985],
        [82.57348, 26.98997],
        [82.57353, 26.99008],
        [82.57359, 26.99019],
        [82.57366, 26.9903],
        [82.57374, 26.9904],
        [82.57382, 26.99049],
        [82.57392, 26.99057],
        [82.57402, 26.99065],
        [82.57412, 26.99072],
        [82.57421, 26.99077],
        [82.5743, 26.99083],
        [82.57439, 26.99089],
        [82.57447, 26.99095],
        [82.57455, 26.99101],
        [82.57464, 26.99108],
        [82.57472, 26.99114],
        [82.5748, 26.99121],
        [82.57487, 26.99128],
        [82.57498, 26.99133],
        [82.57509, 26.99137],
        [82.57521, 26.9914],
        [82.57532, 26.99141],
        [82.57544, 26.99142],
        [82.57556, 26.99141],
        [82.57567, 26.99139],
        [82.57579, 26.99136],
        [82.5759, 26.99131],
        [82.57606, 26.99129],
        [82.57622, 26.99127],
        [82.57638, 26.99126],
        [82.57655, 26.99125],
        [82.57671, 26.99125],
        [82.57687, 26.99125],
        [82.57704, 26.99125],
        [82.5772, 26.99126],
        [82.57736, 26.99128],
        [82.57749, 26.99132],
        [82.57762, 26.99138],
        [82.57774, 26.99145],
        [82.57785, 26.99154],
        [82.57796, 26.99163],
        [82.57804, 26.99174],
        [82.57812, 26.99186],
        [82.57818, 26.99199],
        [82.57823, 26.99212],
        [82.57825, 26.99227],
        [82.5783, 26.99241],
        [82.57837, 26.99254],
        [82.57847, 26.99265],
        [82.57859, 26.99274],
        [82.57872, 26.99281],
        [82.57886, 26.99286],
        [82.57901, 26.99288],
        [82.57916, 26.99286],
        [82.57957, 26.99266],
        [82.57972, 26.99262],
        [82.57986, 26.99259],
        [82.58001, 26.99255],
        [82.58015, 26.99251],
        [82.5803, 26.99247],
        [82.58044, 26.99243],
        [82.58059, 26.9924],
        [82.58073, 26.99236],
        [82.58088, 26.99229],
        [82.58102, 26.99223],
        [82.58117, 26.99216],
        [82.58132, 26.9921],
        [82.58146, 26.99204],
        [82.58161, 26.99197],
        [82.58175, 26.99191],
        [82.5819, 26.99185],
        [82.58205, 26.99178],
        [82.58217, 26.99176],
        [82.58229, 26.99175],
        [82.58241, 26.99174],
        [82.58253, 26.99176],
        [82.58266, 26.99178],
        [82.58277, 26.99181],
        [82.58289, 26.99185],
        [82.583, 26.99191],
        [82.5831, 26.99197],
        [82.58323, 26.99209],
        [82.58333, 26.99223],
        [82.58342, 26.99238],
        [82.58348, 26.99255],
        [82.58352, 26.99272],
        [82.58353, 26.99289],
        [82.58352, 26.99307],
        [82.58348, 26.99324],
        [82.58341, 26.9934],
        [82.58339, 26.99362],
        [82.58337, 26.99383],
        [82.58334, 26.99405],
        [82.58332, 26.99427],
        [82.58329, 26.99449],
        [82.58327, 26.99471],
        [82.58325, 26.99492],
        [82.58325, 26.99505],
        [82.58326, 26.99517],
        [82.58327, 26.99529],
        [82.58328, 26.99542],
        [82.58329, 26.99554],
        [82.58331, 26.99566],
        [82.58332, 26.99578],
        [82.58333, 26.9959],
        [82.58335, 26.99603],
        [82.58338, 26.99612],
        [82.58339, 26.99622],
        [82.58338, 26.99632],
        [82.58334, 26.99641],
        [82.58666, 26.99473],
        [82.58854, 26.9937]
      ]
    ]
  }
}
