{
  "type": "Feature",
  "id": "UP-AC-326",
  "properties": {
    "stateName": "UTTAR PRADESH",
    "stateCode": "UP",
    "districtName": "GORAKHPUR",
    "acNo": 326,
    "acName": "ATRAULIYA",
    "seatType": null,
    "pcNo": null,
    "pcName": null,
    "quality": "unverified",
    "sources": [
      "TBD"
    ]
  },
  "geometry": {
    "type": "Polygon",
    "coordinates": [
      [
        [83.56326, 26.74392],
        [83.56341, 26.74374],
        [83.56357, 26.74278],
        [83.56303, 26.74177],
        [83.56042, 26.74078],
        [83.55906, 26.73972],
        [83.55879, 26.73928],
        [83.5588, 26.73872],
        [83.5588, 26.73845],
        [83.5595, 26.73794],
        [83.56061, 26.73745],
        [83.56309, 26.73706],
        [83.56558, 26.73694],
        [83.56669, 26.73673],
        [83.56822, 26.73655],
        [83.56933, 26.73649],
        [83.57044, 26.73655],
        [83.57064, 26.73673],
        [83.57098, 26.73701],
        [83.57125, 26.73785],
        [83.57138, 26.73911],
        [83.5708, 26.74087],
        [83.57065, 26.74183],
        [83.57063, 26.74322],
        [83.57078, 26.7436],
        [83.57103, 26.74421],
        [83.57255, 26.74541],
        [83.5738, 26.74576],
        [83.57673, 26.74594],
        [83.57749, 26.74599],
        [83.57973, 26.74598],
        [83.58017, 26.74601],
        [83.58226, 26.74613],
        [83.58437, 26.74638],
        [83.58593, 26.74619],
        [83.58692, 26.74556],
        [83.58723, 26.74489],
        [83.58779, 26.74368],
        [83.58824, 26.73984],
        [83.58825, 26.73833],
        [83.58826, 26.73681],
        [83.58855, 26.73586],
        [83.58913, 26.73506],
        [83.59004, 26.73482],
        [83.5904, 26.73472],
        [83.59168, 26.73479],
        [83.59295, 26.73527],
        [83.59367, 26.73585],
        [83.59423, 26.73631],
        [83.59522, 26.73732],
        [83.5965, 26.73945],
        [83.59664, 26.74084],
        [83.59672, 26.7423],
        [83.59677, 26.74332],
        [83.59662, 26.74578],
        [83.5959, 26.74725],
        [83.59576, 26.74848],
        [83.59581, 26.74868],
        [83.59604, 26.74959],
        [83.59666, 26.75004],
        [83.59705, 26.75033],
        [83.59906, 26.75016],
        [83.60078, 26.74997],
        [83.60347, 26.74938],
        [83.60574, 26.74888],
        [83.60707, 26.74868],
        [83.6123, 26.74795],
        [83.61289, 26.74717],
        [83.61276, 26.74701],
        [83.61267, 26.74676],
        [83.6127, 26.74656],
        [83.61272, 26.74632],
        [83.61269, 26.74612],
        [83.61277, 26.74595],
        [83.61304, 26.74582],
        [83.61304, 26.7455],
        [83.61296, 26.74517],
        [83.61314, 26.74488],
        [83.61344, 26.74473],
        [83.6136, 26.74462],
        [83.61365, 26.74442],
        [83.61349, 26.74424],
        [83.61306, 26.74421],
        [83.61292, 26.74401],
        [83.61298, 26.74378],
        [83.61321, 26.74365],
        [83.61327, 26.74342],
        [83.61305, 26.7433],
        [83.61269, 26.74327],
        [83.61245, 26.74319],
        [83.61229, 26.74302],
        [83.61198, 26.74286],
        [83.61165, 26.74269],
        [83.61194, 26.74247],
        [83.61203, 26.74228],
        [83.61187, 26.7421],
        [83.61166, 26.74213],
        [83.61157, 26.74192],
        [83.61155, 26.74173],
        [83.61134, 26.74154],
        [83.61107, 26.74157],
        [83.61088, 26.74143],
        [83.61074, 26.74125],
        [83.61065, 26.74104],
        [83.61062, 26.74081],
        [83.61062, 26.74059],
        [83.61053, 26.74041],
        [83.61033, 26.74032],
        [83.61008, 26.74002],
        [83.60997, 26.73977],
        [83.60988, 26.73951],
        [83.60982, 26.73925],
        [83.60979, 26.73898],
        [83.60994, 26.73879],
        [83.61012, 26.73862],
        [83.61031, 26.73847],
        [83.61053, 26.73835],
        [83.61074, 26.73823],
        [83.61089, 26.73805],
        [83.61096, 26.73783],
        [83.61096, 26.7376],
        [83.61088, 26.73738],
        [83.611, 26.7371],
        [83.61114, 26.73685],
        [83.61129, 26.7366],
        [83.61147, 26.73636],
        [83.61171, 26.7362],
        [83.61198, 26.73607],
        [83.61224, 26.7359],
        [83.61246, 26.73571],
        [83.61267, 26.73548],
        [83.61271, 26.73524],
        [83.61278, 26.735],
        [83.61295, 26.73479],
        [83.61308, 26.73454],
        [83.61302, 26.73427],
        [83.61284, 26.73403],
        [83.61264, 26.73382],
        [83.61258, 26.7336],
        [83.61267, 26.73339],
        [83.613, 26.73322],
        [83.61337, 26.73314],
        [83.61364, 26.73299],
        [83.61353, 26.73273],
        [83.61334, 26.73262],
        [83.61312, 26.73253],
        [83.61301, 26.73233],
        [83.61307, 26.73212],
        [83.61323, 26.73198],
        [83.61342, 26.73188],
        [83.61351, 26.73161],
        [83.61348, 26.73133],
        [83.61324, 26.73117],
        [83.61309, 26.731],
        [83.61308, 26.73079],
        [83.61327, 26.73059],
        [83.6135, 26.7305],
        [83.61366, 26.73037],
        [83.61384, 26.73014],
        [83.61402, 26.72997],
        [83.61423, 26.72983],
        [83.61446, 26.72971],
        [83.61469, 26.72962],
        [83.61498, 26.7294],
        [83.6153, 26.72924],
        [83.61564, 26.72914],
        [83.61618, 26.72911],
        [83.61638, 26.72906],
        [83.61657, 26.72897],
        [83.61673, 26.72884],
        [83.61686, 26.72868],
        [83.61701, 26.72843],
        [83.61725, 26.72815],
        [83.61759, 26.72798],
        [83.61781, 26.72792],
        [83.618, 26.72779],
        [83.61813, 26.72761],
        [83.6182, 26.72739],
        [83.61843, 26.72726],
        [83.61868, 26.72719],
        [83.61907, 26.7272],
        [83.61938, 26.72729],
        [83.61962, 26.72722],
        [83.61979, 26.72704],
        [83.62012, 26.72716],
        [83.62028, 26.72747],
        [83.62035, 26.72765],
        [83.62052, 26.72779],
        [83.62073, 26.72788],
        [83.62095, 26.7279],
        [83.62117, 26.72786],
        [83.62137, 26.72775],
        [83.62156, 26.72765],
        [83.62176, 26.72754],
        [83.62195, 26.72744],
        [83.62214, 26.72733],
        [83.62233, 26.72721],
        [83.62252, 26.7271],
        [83.62271, 26.72698],
        [83.6229, 26.72686],
        [83.6231, 26.72661],
        [83.62303, 26.72629],
        [83.6229, 26.72615],
        [83.62275, 26.72598],
        [83.62258, 26.72582],
        [83.62241, 26.72568],
        [83.62222, 26.72556],
        [83.62201, 26.72532],
        [83.6219, 26.72504],
        [83.62188, 26.72473],
        [83.62195, 26.72444],
        [83.62212, 26.72415],
        [83.6223, 26.72384],
        [83.62246, 26.72352],
        [83.6226, 26.72319],
        [83.62272, 26.72285],
        [83.62271, 26.72262],
        [83.62266, 26.72239],
        [83.62255, 26.72217],
        [83.62241, 26.72198],
        [83.62219, 26.72176],
        [83.6221, 26.7215],
        [83.62213, 26.72131],
        [83.62229, 26.72098],
        [83.62232, 26.72079],
        [83.62233, 26.72061],
        [83.6223, 26.72042],
        [83.62224, 26.72015],
        [83.62227, 26.71988],
        [83.62243, 26.71955],
        [83.6226, 26.71939],
        [83.62278, 26.71925],
        [83.62297, 26.71912],
        [83.62316, 26.71899],
        [83.62337, 26.71887],
        [83.62353, 26.71869],
        [83.62361, 26.71846],
        [83.6236, 26.71822],
        [83.62349, 26.718],
        [83.62327, 26.71781],
        [83.62306, 26.71764],
        [83.62283, 26.71747],
        [83.6226, 26.7173],
        [83.6224, 26.71709],
        [83.62241, 26.71677],
        [83.62264, 26.71655],
        [83.62286, 26.71629],
        [83.62292, 26.71595],
        [83.62285, 26.71576],
        [83.62275, 26.71558],
        [83.62262, 26.71543],
        [83.62247, 26.7153],
        [83.62231, 26.71513],
        [83.62218, 26.71488],
        [83.6221, 26.71462],
        [83.62208, 26.71434],
        [83.62211, 26.71407],
        [83.62217, 26.71385],
        [83.62223, 26.71362],
        [83.6223, 26.71341],
        [83.62238, 26.71319],
        [83.62247, 26.71297],
        [83.62255, 26.71276],
        [83.62265, 26.71255],
        [83.62275, 26.71234],
        [83.62286, 26.71214],
        [83.62301, 26.71186],
        [83.62302, 26.71155],
        [83.62287, 26.71134],
        [83.62241, 26.71138],
        [83.6223, 26.71154],
        [83.62213, 26.71178],
        [83.62196, 26.71204],
        [83.62181, 26.71229],
        [83.62167, 26.71256],
        [83.62155, 26.71283],
        [83.62144, 26.71312],
        [83.62135, 26.7134],
        [83.62127, 26.71369],
        [83.62115, 26.71407],
        [83.62098, 26.71421],
        [83.62078, 26.71426],
        [83.62057, 26.71423],
        [83.62039, 26.71412],
        [83.62018, 26.71393],
        [83.62002, 26.7137],
        [83.6199, 26.71344],
        [83.61983, 26.71317],
        [83.61979, 26.7129],
        [83.62012, 26.71287],
        [83.62035, 26.71299],
        [83.62072, 26.7128],
        [83.62086, 26.71266],
        [83.62097, 26.7125],
        [83.62106, 26.71232],
        [83.62114, 26.71214],
        [83.62125, 26.71189],
        [83.62129, 26.71162],
        [83.62127, 26.71134],
        [83.62118, 26.71108],
        [83.62097, 26.71076],
        [83.62081, 26.71055],
        [83.62066, 26.71035],
        [83.6205, 26.71014],
        [83.62035, 26.70994],
        [83.62019, 26.70974],
        [83.62004, 26.70953],
        [83.61988, 26.70933],
        [83.61972, 26.70913],
        [83.6195, 26.7089],
        [83.61953, 26.70857],
        [83.61979, 26.70843],
        [83.62007, 26.70836],
        [83.62032, 26.70829],
        [83.6205, 26.70815],
        [83.62063, 26.70796],
        [83.62068, 26.70773],
        [83.62066, 26.70751],
        [83.62064, 26.70729],
        [83.62054, 26.7071],
        [83.62038, 26.70695],
        [83.62018, 26.70687],
        [83.61992, 26.70686],
        [83.61962, 26.70687],
        [83.61932, 26.70688],
        [83.61902, 26.7069],
        [83.61873, 26.70693],
        [83.61848, 26.70683],
        [83.61823, 26.70673],
        [83.61798, 26.70663],
        [83.61773, 26.70652],
        [83.6175, 26.70641],
        [83.61729, 26.70629],
        [83.61711, 26.70613],
        [83.61695, 26.70595],
        [83.61683, 26.70574],
        [83.61673, 26.70556],
        [83.61675, 26.70536],
        [83.61688, 26.7052],
        [83.61726, 26.70517],
        [83.61761, 26.70508],
        [83.61789, 26.70485],
        [83.61842, 26.70477],
        [83.61863, 26.70495],
        [83.61883, 26.70508],
        [83.61907, 26.70513],
        [83.61931, 26.70509],
        [83.61951, 26.70495],
        [83.61973, 26.70476],
        [83.61979, 26.70457],
        [83.61978, 26.70438],
        [83.61969, 26.70421],
        [83.61958, 26.704],
        [83.6195, 26.70379],
        [83.61944, 26.70357],
        [83.61941, 26.70334],
        [83.61938, 26.70308],
        [83.61906, 26.7029],
        [83.61882, 26.70304],
        [83.61864, 26.7032],
        [83.61847, 26.70337],
        [83.61831, 26.70356],
        [83.61817, 26.70375],
        [83.61801, 26.70398],
        [83.61779, 26.70413],
        [83.61752, 26.7042],
        [83.61725, 26.70417],
        [83.61695, 26.70403],
        [83.6166, 26.70385],
        [83.61625, 26.70368],
        [83.61589, 26.70351],
        [83.61554, 26.70335],
        [83.61536, 26.70311],
        [83.61539, 26.70281],
        [83.61551, 26.70263],
        [83.61564, 26.70239],
        [83.61573, 26.70212],
        [83.61576, 26.70185],
        [83.61574, 26.70157],
        [83.61598, 26.70134],
        [83.61639, 26.70138],
        [83.61665, 26.70151],
        [83.61687, 26.70168],
        [83.61707, 26.70189],
        [83.61722, 26.70213],
        [83.61741, 26.70237],
        [83.61774, 26.70247],
        [83.61802, 26.70235],
        [83.61819, 26.70223],
        [83.61851, 26.70225],
        [83.61873, 26.70222],
        [83.61894, 26.70213],
        [83.61912, 26.702],
        [83.61925, 26.70182],
        [83.61936, 26.70153],
        [83.61952, 26.70127],
        [83.61971, 26.70104],
        [83.61994, 26.70083],
        [83.62019, 26.70068],
        [83.62026, 26.70043],
        [83.62013, 26.70019],
        [83.62, 26.69993],
        [83.61983, 26.6997],
        [83.61974, 26.69953],
        [83.61968, 26.69935],
        [83.61965, 26.69916],
        [83.61965, 26.69898],
        [83.61968, 26.69879],
        [83.61974, 26.69861],
        [83.61983, 26.69844],
        [83.62007, 26.69815],
        [83.62018, 26.69792],
        [83.62025, 26.69768],
        [83.62027, 26.69743],
        [83.62024, 26.69717],
        [83.62019, 26.69693],
        [83.62022, 26.69669],
        [83.62034, 26.69648],
        [83.62052, 26.69633],
        [83.62075, 26.69625],
        [83.62113, 26.69615],
        [83.62146, 26.69595],
        [83.62172, 26.69566],
        [83.62182, 26.69549],
        [83.62189, 26.69532],
        [83.62194, 26.69513],
        [83.622, 26.69484],
        [83.62203, 26.69456],
        [83.62203, 26.69427],
        [83.622, 26.69398],
        [83.62197, 26.69372],
        [83.622, 26.69348],
        [83.62208, 26.69326],
        [83.62222, 26.69306],
        [83.62239, 26.6929],
        [83.62259, 26.69281],
        [83.62278, 26.69272],
        [83.62297, 26.69263],
        [83.62316, 26.69254],
        [83.62335, 26.69245],
        [83.62354, 26.69236],
        [83.62373, 26.69227],
        [83.62392, 26.69217],
        [83.6241, 26.69208],
        [83.62434, 26.69184],
        [83.62434, 26.69151],
        [83.62416, 26.69138],
        [83.62391, 26.69126],
        [83.62366, 26.69111],
        [83.62342, 26.69096],
        [83.62319, 26.69078],
        [83.62301, 26.69064],
        [83.62283, 26.6905],
        [83.62266, 26.69036],
        [83.62248, 26.69021],
        [83.62231, 26.69006],
        [83.62214, 26.68991],
        [83.62198, 26.68975],
        [83.62182, 26.68959],
        [83.62166, 26.68942],
        [83.62153, 26.68921],
        [83.62146, 26.68897],
        [83.62143, 26.68872],
        [83.62147, 26.68848],
        [83.62158, 26.68826],
        [83.62176, 26.6881],
        [83.62197, 26.68797],
        [83.6222, 26.68789],
        [83.62245, 26.68785],
        [83.62298, 26.68784],
        [83.62333, 26.68792],
        [83.62365, 26.68806],
        [83.62395, 26.68827],
        [83.62416, 26.68856],
        [83.6244, 26.68884],
        [83.62465, 26.6891],
        [83.62492, 26.68934],
        [83.62515, 26.68948],
        [83.62545, 26.68934],
        [83.62548, 26.689],
        [83.62536, 26.68883],
        [83.62524, 26.68866],
        [83.62512, 26.68849],
        [83.62501, 26.68832],
        [83.62489, 26.68814],
        [83.62478, 26.68797],
        [83.62467, 26.68779],
        [83.62456, 26.68761],
        [83.62445, 26.68744],
        [83.6243, 26.68724],
        [83.62425, 26.687],
        [83.62432, 26.68677],
        [83.62448, 26.68659],
        [83.62465, 26.68644],
        [83.62476, 26.68626],
        [83.62485, 26.68607],
        [83.62492, 26.68587],
        [83.62496, 26.68566],
        [83.62495, 26.68544],
        [83.625, 26.68524],
        [83.62511, 26.68505],
        [83.62525, 26.68489],
        [83.62545, 26.68479],
        [83.62563, 26.68463],
        [83.62571, 26.6844],
        [83.62567, 26.68417],
        [83.62553, 26.68398],
        [83.62536, 26.68378],
        [83.62513, 26.68365],
        [83.62487, 26.6836],
        [83.62461, 26.68363],
        [83.62437, 26.68369],
        [83.62417, 26.68361],
        [83.62405, 26.68339],
        [83.62417, 26.68308],
        [83.62449, 26.68298],
        [83.62472, 26.68294],
        [83.62494, 26.68286],
        [83.62514, 26.68273],
        [83.62532, 26.68258],
        [83.62547, 26.68237],
        [83.62554, 26.6821],
        [83.62549, 26.68182],
        [83.62533, 26.68159],
        [83.6251, 26.68144],
        [83.62503, 26.68126],
        [83.62505, 26.68107],
        [83.62516, 26.68091],
        [83.62553, 26.68078],
        [83.62572, 26.68068],
        [83.62585, 26.68051],
        [83.6259, 26.6803],
        [83.62586, 26.68008],
        [83.62581, 26.67983],
        [83.62568, 26.6796],
        [83.62548, 26.67943],
        [83.62524, 26.67932],
        [83.62493, 26.67924],
        [83.62495, 26.67897],
        [83.62503, 26.67871],
        [83.62507, 26.67842],
        [83.625, 26.67824],
        [83.62459, 26.67828],
        [83.62442, 26.67841],
        [83.6242, 26.67825],
        [83.62423, 26.67793],
        [83.62429, 26.67772],
        [83.62437, 26.67753],
        [83.62449, 26.67735],
        [83.62464, 26.6772],
        [83.62484, 26.67705],
        [83.62515, 26.67704],
        [83.62543, 26.67731],
        [83.62565, 26.67746],
        [83.6259, 26.67751],
        [83.62623, 26.67746],
        [83.62642, 26.67719],
        [83.62647, 26.67692],
        [83.62633, 26.67668],
        [83.62588, 26.67642],
        [83.6256, 26.67609],
        [83.62548, 26.67553],
        [83.6256, 26.67503],
        [83.62558, 26.67472],
        [83.62513, 26.67453],
        [83.62478, 26.67455],
        [83.62403, 26.67481],
        [83.62365, 26.67465],
        [83.62346, 26.67441],
        [83.62349, 26.67402],
        [83.62354, 26.67361],
        [83.62374, 26.67319],
        [83.62433, 26.67251],
        [83.62449, 26.67193],
        [83.62447, 26.67152],
        [83.62412, 26.67089],
        [83.62401, 26.67051],
        [83.62405, 26.67022],
        [83.62435, 26.66982],
        [83.62463, 26.6695],
        [83.62463, 26.6693],
        [83.62445, 26.66909],
        [83.62398, 26.66881],
        [83.62377, 26.66855],
        [83.62365, 26.66816],
        [83.62365, 26.66701],
        [83.62379, 26.6667],
        [83.62469, 26.6664],
        [83.62499, 26.66619],
        [83.62525, 26.66591],
        [83.62544, 26.6656],
        [83.62557, 26.66524],
        [83.62561, 26.66506],
        [83.62571, 26.66474],
        [83.6259, 26.66445],
        [83.62617, 26.66424],
        [83.62649, 26.66412],
        [83.6268, 26.66409],
        [83.62707, 26.66403],
        [83.62733, 26.66392],
        [83.62755, 26.66375],
        [83.62774, 26.66354],
        [83.62785, 26.66335],
        [83.62792, 26.66315],
        [83.62796, 26.66294],
        [83.62797, 26.66273],
        [83.62794, 26.66251],
        [83.62787, 26.66231],
        [83.62777, 26.66212],
        [83.62764, 26.66195],
        [83.62748, 26.6618],
        [83.62727, 26.66162],
        [83.62707, 26.66143],
        [83.62689, 26.66122],
        [83.62672, 26.66101],
        [83.62668, 26.66074],
        [83.62691, 26.66054],
        [83.62715, 26.66053],
        [83.62735, 26.66056],
        [83.62756, 26.66057],
        [83.62777, 26.66055],
        [83.62797, 26.66051],
        [83.6282, 26.66035],
        [83.6283, 26.66009],
        [83.62828, 26.65991],
        [83.62811, 26.65964],
        [83.62811, 26.65937],
        [83.62836, 26.65926],
        [83.62869, 26.65929],
        [83.62902, 26.65931],
        [83.62924, 26.65927],
        [83.62939, 26.6591],
        [83.62941, 26.6589],
        [83.62929, 26.65868],
        [83.62907, 26.65854],
        [83.62883, 26.65839],
        [83.62858, 26.65825],
        [83.62833, 26.65811],
        [83.62807, 26.65799],
        [83.62795, 26.65782],
        [83.62809, 26.65765],
        [83.6283, 26.65761],
        [83.62862, 26.65757],
        [83.62893, 26.65759],
        [83.62924, 26.65766],
        [83.62954, 26.65778],
        [83.62982, 26.6576],
        [83.62974, 26.65736],
        [83.62972, 26.65728],
        [83.62949, 26.65715],
        [83.62919, 26.65697],
        [83.62889, 26.6568],
        [83.62858, 26.65663],
        [83.62826, 26.65647],
        [83.62807, 26.65621],
        [83.62813, 26.656],
        [83.62842, 26.65576],
        [83.62876, 26.65573],
        [83.62898, 26.65563],
        [83.62901, 26.65539],
        [83.62885, 26.65509],
        [83.62869, 26.6548],
        [83.62855, 26.65451],
        [83.62874, 26.65441],
        [83.62904, 26.65444],
        [83.62928, 26.6546],
        [83.6294, 26.65476],
        [83.6297, 26.65494],
        [83.62998, 26.65472],
        [83.63004, 26.65448],
        [83.63002, 26.65418],
        [83.62989, 26.65391],
        [83.62966, 26.65396],
        [83.62934, 26.65417],
        [83.62911, 26.65413],
        [83.62889, 26.65402],
        [83.6287, 26.65387],
        [83.62856, 26.65368],
        [83.6284, 26.65349],
        [83.62817, 26.65336],
        [83.62791, 26.6533],
        [83.62765, 26.65331],
        [83.62739, 26.65338],
        [83.62715, 26.65329],
        [83.62693, 26.65314],
        [83.62675, 26.65296],
        [83.62659, 26.65275],
        [83.62652, 26.6525],
        [83.6265, 26.65223],
        [83.6265, 26.65196],
        [83.62652, 26.65169],
        [83.62656, 26.65143],
        [83.62662, 26.65113],
        [83.62674, 26.65084],
        [83.62691, 26.65058],
        [83.62712, 26.65036],
        [83.62736, 26.65018],
        [83.62749, 26.64991],
        [83.6274, 26.64964],
        [83.62719, 26.64943],
        [83.62701, 26.6492],
        [83.627, 26.649],
        [83.62702, 26.6488],
        [83.62708, 26.64861],
        [83.62718, 26.64843],
        [83.62734, 26.64825],
        [83.62757, 26.64806],
        [83.62782, 26.64789],
        [83.62808, 26.64775],
        [83.62835, 26.64762],
        [83.62872, 26.64753],
        [83.62919, 26.6475],
        [83.62939, 26.64754],
        [83.6296, 26.64757],
        [83.62981, 26.64759],
        [83.63002, 26.6476],
        [83.63022, 26.64761],
        [83.63043, 26.6476],
        [83.63064, 26.64759],
        [83.63085, 26.64757],
        [83.63105, 26.64753],
        [83.63129, 26.64751],
        [83.6315, 26.6474],
        [83.63166, 26.64723],
        [83.63176, 26.64701],
        [83.63182, 26.64677],
        [83.63186, 26.64652],
        [83.6318, 26.64626],
        [83.63166, 26.64605],
        [83.63145, 26.6459],
        [83.63129, 26.64567],
        [83.63121, 26.64549],
        [83.63117, 26.6453],
        [83.63116, 26.64511],
        [83.63106, 26.64488],
        [83.63085, 26.64473],
        [83.63059, 26.64472],
        [83.63037, 26.64484],
        [83.63003, 26.64508],
        [83.62966, 26.64515],
        [83.62931, 26.64511],
        [83.62901, 26.64506],
        [83.6287, 26.64501],
        [83.6284, 26.64496],
        [83.62809, 26.64491],
        [83.62787, 26.64471],
        [83.62777, 26.64442],
        [83.62778, 26.64424],
        [83.62783, 26.64403],
        [83.62791, 26.64383],
        [83.62803, 26.64365],
        [83.62818, 26.64349],
        [83.62836, 26.64337],
        [83.62854, 26.64325],
        [83.62872, 26.64312],
        [83.6289, 26.643],
        [83.62908, 26.64288],
        [83.62926, 26.64276],
        [83.62944, 26.64263],
        [83.62962, 26.64251],
        [83.6298, 26.64238],
        [83.62991, 26.64221],
        [83.62997, 26.64201],
        [83.62998, 26.64181],
        [83.62996, 26.64161],
        [83.6298, 26.64131],
        [83.62968, 26.64111],
        [83.62956, 26.6409],
        [83.62944, 26.6407],
        [83.62931, 26.6405],
        [83.62919, 26.6403],
        [83.62906, 26.6401],
        [83.62893, 26.6399],
        [83.62881, 26.6397],
        [83.62871, 26.63946],
        [83.62875, 26.6392],
        [83.62893, 26.63901],
        [83.62919, 26.63895],
        [83.62947, 26.63905],
        [83.62975, 26.63888],
        [83.62973, 26.63856],
        [83.62969, 26.63827],
        [83.62958, 26.638],
        [83.62966, 26.63774],
        [83.62999, 26.63759],
        [83.63029, 26.63765],
        [83.63054, 26.63766],
        [83.63078, 26.63766],
        [83.63103, 26.63763],
        [83.63127, 26.63759],
        [83.63141, 26.63732],
        [83.63145, 26.63703],
        [83.63138, 26.63673],
        [83.63122, 26.63648],
        [83.63104, 26.63625],
        [83.63096, 26.63594],
        [83.63096, 26.63563],
        [83.63106, 26.63533],
        [83.63123, 26.63508],
        [83.63143, 26.63496],
        [83.63161, 26.63482],
        [83.63178, 26.63467],
        [83.63193, 26.6345],
        [83.6321, 26.63425],
        [83.63223, 26.63392],
        [83.6323, 26.63355],
        [83.63228, 26.63319],
        [83.63217, 26.63284],
        [83.6321, 26.63264],
        [83.63206, 26.63244],
        [83.63205, 26.63223],
        [83.63207, 26.63202],
        [83.63213, 26.63181],
        [83.63222, 26.63162],
        [83.63233, 26.63145],
        [83.63248, 26.63129],
        [83.63265, 26.63116],
        [83.63285, 26.631],
        [83.63301, 26.63079],
        [83.63312, 26.63056],
        [83.63319, 26.63031],
        [83.63316, 26.63005],
        [83.63301, 26.6298],
        [83.63279, 26.62962],
        [83.63252, 26.62951],
        [83.63223, 26.62951],
        [83.63202, 26.62953],
        [83.63181, 26.62949],
        [83.63162, 26.62939],
        [83.63147, 26.62925],
        [83.63134, 26.62908],
        [83.63126, 26.62889],
        [83.63129, 26.62868],
        [83.63141, 26.62851],
        [83.6316, 26.62843],
        [83.63177, 26.62821],
        [83.63186, 26.62795],
        [83.63187, 26.62768],
        [83.6318, 26.62741],
        [83.63166, 26.62721],
        [83.63157, 26.627],
        [83.63155, 26.62678],
        [83.63162, 26.62656],
        [83.63176, 26.62638],
        [83.63196, 26.62616],
        [83.63215, 26.62592],
        [83.6323, 26.62566],
        [83.63242, 26.62539],
        [83.63248, 26.62514],
        [83.63252, 26.62494],
        [83.63266, 26.62472],
        [83.63283, 26.62457],
        [83.63299, 26.6244],
        [83.63313, 26.62423],
        [83.63326, 26.62404],
        [83.6334, 26.62375],
        [83.63322, 26.62348],
        [83.63294, 26.62328],
        [83.63262, 26.62339],
        [83.63243, 26.62364],
        [83.6323, 26.62345],
        [83.63232, 26.62322],
        [83.63232, 26.62294],
        [83.63229, 26.62273],
        [83.63218, 26.62255],
        [83.632, 26.62245],
        [83.63179, 26.62243],
        [83.63156, 26.62244],
        [83.63134, 26.62244],
        [83.63112, 26.62245],
        [83.63089, 26.62245],
        [83.63067, 26.62245],
        [83.63045, 26.62245],
        [83.63023, 26.62245],
        [83.63, 26.62245],
        [83.62978, 26.62245],
        [83.62955, 26.6224],
        [83.62935, 26.62226],
        [83.62922, 26.62206],
        [83.62918, 26.62182],
        [83.62916, 26.62151],
        [83.62916, 26.62132],
        [83.62917, 26.62114],
        [83.6292, 26.62095],
        [83.62926, 26.62076],
        [83.62933, 26.62059],
        [83.62941, 26.62042],
        [83.62964, 26.62012],
        [83.6297, 26.61993],
        [83.62966, 26.61975],
        [83.62943, 26.61958],
        [83.6291, 26.61963],
        [83.62883, 26.6197],
        [83.62857, 26.61979],
        [83.62831, 26.61989],
        [83.62805, 26.62001],
        [83.62788, 26.62015],
        [83.62771, 26.62027],
        [83.62752, 26.62039],
        [83.62733, 26.6205],
        [83.62714, 26.6206],
        [83.62694, 26.62069],
        [83.62674, 26.62077],
        [83.62654, 26.62084],
        [83.6262, 26.62092],
        [83.62594, 26.62088],
        [83.62575, 26.62071],
        [83.62566, 26.62046],
        [83.6257, 26.6202],
        [83.62581, 26.61956],
        [83.62563, 26.61928],
        [83.62509, 26.619],
        [83.62465, 26.61909],
        [83.62409, 26.61958],
        [83.62359, 26.61954],
        [83.62307, 26.61956],
        [83.62285, 26.6193],
        [83.62282, 26.6191],
        [83.6228, 26.61891],
        [83.62281, 26.61872],
        [83.62283, 26.61852],
        [83.62287, 26.61833],
        [83.62293, 26.61814],
        [83.623, 26.61796],
        [83.62309, 26.61779],
        [83.6232, 26.61762],
        [83.62326, 26.61738],
        [83.62326, 26.61712],
        [83.62322, 26.61687],
        [83.62311, 26.61663],
        [83.62294, 26.61624],
        [83.6228, 26.61598],
        [83.62261, 26.61575],
        [83.62238, 26.61556],
        [83.62212, 26.61541],
        [83.62183, 26.61531],
        [83.62154, 26.61526],
        [83.62124, 26.61527],
        [83.62095, 26.61533],
        [83.62062, 26.61539],
        [83.62031, 26.61552],
        [83.62002, 26.61569],
        [83.61977, 26.61591],
        [83.61955, 26.61617],
        [83.61939, 26.61645],
        [83.61927, 26.61677],
        [83.61921, 26.6171],
        [83.61919, 26.61755],
        [83.61909, 26.61777],
        [83.61891, 26.61792],
        [83.61868, 26.61798],
        [83.61845, 26.61794],
        [83.61823, 26.61783],
        [83.61801, 26.61772],
        [83.61778, 26.61761],
        [83.61755, 26.61751],
        [83.61732, 26.61741],
        [83.61709, 26.61731],
        [83.61686, 26.61722],
        [83.61663, 26.61713],
        [83.61639, 26.61704],
        [83.61618, 26.61686],
        [83.61628, 26.61668],
        [83.61653, 26.61655],
        [83.61676, 26.6164],
        [83.61693, 26.61628],
        [83.61712, 26.61618],
        [83.61731, 26.61608],
        [83.6175, 26.616],
        [83.61767, 26.61588],
        [83.61784, 26.61571],
        [83.61802, 26.61557],
        [83.61822, 26.61545],
        [83.61863, 26.61541],
        [83.61893, 26.61544],
        [83.61932, 26.61539],
        [83.6195, 26.61518],
        [83.61963, 26.61493],
        [83.6197, 26.61466],
        [83.61971, 26.61438],
        [83.61963, 26.61411],
        [83.61941, 26.61394],
        [83.6191, 26.61397],
        [83.61888, 26.61408],
        [83.61867, 26.61418],
        [83.61845, 26.61428],
        [83.61816, 26.61438],
        [83.61797, 26.61424],
        [83.61807, 26.61403],
        [83.61832, 26.61382],
        [83.61859, 26.61364],
        [83.6189, 26.61352],
        [83.61922, 26.61344],
        [83.61951, 26.61337],
        [83.61971, 26.61316],
        [83.61976, 26.61288],
        [83.61963, 26.61262],
        [83.61938, 26.61249],
        [83.61917, 26.61226],
        [83.6191, 26.61196],
        [83.61924, 26.61174],
        [83.61938, 26.61161],
        [83.61953, 26.61147],
        [83.61967, 26.61134],
        [83.61977, 26.61117],
        [83.61976, 26.61096],
        [83.61966, 26.61077],
        [83.61949, 26.61064],
        [83.61929, 26.61059],
        [83.61898, 26.61052],
        [83.61867, 26.61044],
        [83.61837, 26.61035],
        [83.61806, 26.61026],
        [83.61782, 26.61013],
        [83.61774, 26.60992],
        [83.6179, 26.60972],
        [83.61818, 26.60967],
        [83.61847, 26.60964],
        [83.6189, 26.60964],
        [83.61915, 26.60973],
        [83.61939, 26.60981],
        [83.61964, 26.60978],
        [83.61986, 26.60964],
        [83.61999, 26.60942],
        [83.62013, 26.60924],
        [83.62019, 26.60902],
        [83.62014, 26.6088],
        [83.62, 26.60862],
        [83.61985, 26.60842],
        [83.61974, 26.60816],
        [83.61965, 26.6079],
        [83.61958, 26.60763],
        [83.61952, 26.60736],
        [83.61953, 26.60709],
        [83.61951, 26.60682],
        [83.61947, 26.60655],
        [83.61942, 26.60628],
        [83.61933, 26.60607],
        [83.61923, 26.60588],
        [83.61917, 26.60568],
        [83.61915, 26.60547],
        [83.61915, 26.60527],
        [83.61917, 26.60507],
        [83.61917, 26.60486],
        [83.61914, 26.60467],
        [83.61908, 26.60447],
        [83.6189, 26.60426],
        [83.61863, 26.60398],
        [83.61851, 26.60383],
        [83.61842, 26.60364],
        [83.61839, 26.6034],
        [83.61843, 26.60316],
        [83.61854, 26.60295],
        [83.6187, 26.60277],
        [83.6189, 26.60269],
        [83.61911, 26.60264],
        [83.61943, 26.60262],
        [83.61964, 26.60265],
        [83.62005, 26.60267],
        [83.62029, 26.60281],
        [83.62046, 26.60302],
        [83.62055, 26.60328],
        [83.62067, 26.60419],
        [83.62088, 26.60448],
        [83.62116, 26.60448],
        [83.62144, 26.60422],
        [83.62147, 26.60399],
        [83.6214, 26.60328],
        [83.62142, 26.60262],
        [83.62169, 26.60188],
        [83.62176, 26.60135],
        [83.62223, 26.60046],
        [83.62345, 26.59921],
        [83.62421, 26.59842],
        [83.62435, 26.59822],
        [83.62453, 26.59811],
        [83.62495, 26.5981],
        [83.62512, 26.59829],
        [83.62535, 26.59862],
        [83.62568, 26.59893],
        [83.62584, 26.5991],
        [83.62636, 26.59915],
        [83.62657, 26.59893],
        [83.62659, 26.59865],
        [83.62638, 26.59823],
        [83.62598, 26.59769],
        [83.62594, 26.59722],
        [83.62622, 26.59671],
        [83.62659, 26.59629],
        [83.62678, 26.59605],
        [83.62682, 26.59577],
        [83.62699, 26.59565],
        [83.62725, 26.59567],
        [83.62753, 26.59581],
        [83.62785, 26.59581],
        [83.62816, 26.59555],
        [83.62849, 26.59481],
        [83.62893, 26.59401],
        [83.62962, 26.59228],
        [83.63041, 26.59173],
        [83.63067, 26.5914],
        [83.63057, 26.591],
        [83.62983, 26.59036],
        [83.62941, 26.59003],
        [83.62929, 26.58984],
        [83.62941, 26.58947],
        [83.6302, 26.58907],
        [83.631, 26.58881],
        [83.63142, 26.58879],
        [83.63172, 26.58863],
        [83.63185, 26.58844],
        [83.63182, 26.58815],
        [83.63165, 26.58788],
        [83.63104, 26.58755],
        [83.63088, 26.58735],
        [83.63079, 26.58683],
        [83.63082, 26.58626],
        [83.63072, 26.58596],
        [83.63039, 26.5858],
        [83.63, 26.58587],
        [83.62962, 26.58615],
        [83.62925, 26.58639],
        [83.62903, 26.58643],
        [83.62892, 26.58626],
        [83.62892, 26.58596],
        [83.62908, 26.58563],
        [83.62957, 26.58469],
        [83.62976, 26.58443],
        [83.63011, 26.58437],
        [83.63041, 26.58453],
        [83.63072, 26.58498],
        [83.63093, 26.58521],
        [83.63119, 26.58531],
        [83.63147, 26.58519],
        [83.63163, 26.58498],
        [83.63161, 26.58457],
        [83.6315, 26.58404],
        [83.63135, 26.58343],
        [83.63124, 26.58302],
        [83.63099, 26.58245],
        [83.63045, 26.58201],
        [83.6301, 26.5818],
        [83.62939, 26.5818],
        [83.62904, 26.58172],
        [83.6282, 26.58118],
        [83.62756, 26.58104],
        [83.62588, 26.58121],
        [83.62529, 26.58114],
        [83.62512, 26.58092],
        [83.62514, 26.58071],
        [83.62533, 26.58032],
        [83.62573, 26.57989],
        [83.62644, 26.57956],
        [83.62702, 26.57938],
        [83.6274, 26.57914],
        [83.62759, 26.57881],
        [83.62777, 26.57825],
        [83.62798, 26.57779],
        [83.62857, 26.57695],
        [83.6286, 26.57636],
        [83.6284, 26.57598],
        [83.62806, 26.57566],
        [83.62709, 26.57514],
        [83.62667, 26.57476],
        [83.62651, 26.57425],
        [83.62656, 26.57362],
        [83.62727, 26.57278],
        [83.62764, 26.57196],
        [83.62804, 26.57057],
        [83.628, 26.5698],
        [83.62764, 26.56959],
        [83.62729, 26.56959],
        [83.62705, 26.56975],
        [83.62687, 26.57015],
        [83.62685, 26.57097],
        [83.6267, 26.57121],
        [83.62635, 26.57118],
        [83.626, 26.5709],
        [83.62591, 26.5702],
        [83.62582, 26.56949],
        [83.62595, 26.56921],
        [83.6261, 26.56902],
        [83.62633, 26.56886],
        [83.62644, 26.56855],
        [83.6263, 26.56834],
        [83.62618, 26.56813],
        [83.626, 26.56799],
        [83.6257, 26.56787],
        [83.62547, 26.56782],
        [83.62523, 26.56778],
        [83.62502, 26.56787],
        [83.62492, 26.56813],
        [83.62492, 26.56841],
        [83.62513, 26.56876],
        [83.62528, 26.56907],
        [83.6252, 26.56933],
        [83.62509, 26.56952],
        [83.62485, 26.56959],
        [83.62445, 26.56917],
        [83.62433, 26.56877],
        [83.6244, 26.56842],
        [83.62448, 26.56808],
        [83.62392, 26.56766],
        [83.6235, 26.56761],
        [83.62324, 26.56761],
        [83.62308, 26.56787],
        [83.62336, 26.56832],
        [83.62345, 26.56855],
        [83.62345, 26.56876],
        [83.62335, 26.569],
        [83.62314, 26.56919],
        [83.62314, 26.56938],
        [83.62324, 26.56964],
        [83.6234, 26.57006],
        [83.6234, 26.57029],
        [83.6232, 26.57053],
        [83.62286, 26.57059],
        [83.62242, 26.5706],
        [83.62165, 26.57048],
        [83.6212, 26.57029],
        [83.62071, 26.57017],
        [83.62045, 26.57011],
        [83.62014, 26.57017],
        [83.6198, 26.57038],
        [83.61958, 26.5706],
        [83.61944, 26.5709],
        [83.61934, 26.57128],
        [83.6193, 26.57186],
        [83.61918, 26.57247],
        [83.61893, 26.57278],
        [83.61871, 26.57296],
        [83.61843, 26.57303],
        [83.61813, 26.57292],
        [83.61783, 26.57269],
        [83.61757, 26.57226],
        [83.61733, 26.57163],
        [83.61714, 26.571],
        [83.61691, 26.56981],
        [83.6168, 26.56943],
        [83.61649, 26.5691],
        [83.61576, 26.5688],
        [83.61468, 26.56817],
        [83.61421, 26.56768],
        [83.61379, 26.56713],
        [83.6132, 26.56653],
        [83.613, 26.56613],
        [83.613, 26.56568],
        [83.61314, 26.56524],
        [83.61379, 26.56489],
        [83.61428, 26.56473],
        [83.61435, 26.56439],
        [83.61433, 26.56414],
        [83.61422, 26.56395],
        [83.61394, 26.56388],
        [83.61363, 26.56392],
        [83.61311, 26.56404],
        [83.61271, 26.56402],
        [83.61245, 26.5639],
        [83.61234, 26.56357],
        [83.61241, 26.56327],
        [83.61279, 26.56296],
        [83.61405, 26.56189],
        [83.61452, 26.56109],
        [83.61482, 26.55987],
        [83.61489, 26.55804],
        [83.61468, 26.55725],
        [83.61429, 26.55683],
        [83.61286, 26.55616],
        [83.61232, 26.55582],
        [83.6122, 26.55565],
        [83.61225, 26.55533],
        [83.61252, 26.55507],
        [83.61299, 26.55491],
        [83.6137, 26.55491],
        [83.61459, 26.55498],
        [83.61546, 26.55517],
        [83.61586, 26.55508],
        [83.61613, 26.55475],
        [83.61618, 26.55447],
        [83.61578, 26.55418],
        [83.61522, 26.55385],
        [83.61503, 26.55355],
        [83.61449, 26.55251],
        [83.61419, 26.55226],
        [83.61351, 26.55226],
        [83.61337, 26.55277],
        [83.61327, 26.55319],
        [83.61302, 26.55341],
        [83.61274, 26.55346],
        [83.61243, 26.55319],
        [83.61225, 26.55279],
        [83.61215, 26.55224],
        [83.61197, 26.55192],
        [83.61136, 26.55157],
        [83.61063, 26.55143],
        [83.60965, 26.55149],
        [83.60922, 26.55152],
        [83.60878, 26.55133],
        [83.60849, 26.55114],
        [83.60843, 26.55077],
        [83.6085, 26.55051],
        [83.6088, 26.55025],
        [83.6092, 26.55006],
        [83.60983, 26.54988],
        [83.61046, 26.54983],
        [83.61081, 26.54973],
        [83.61105, 26.54952],
        [83.6111, 26.54931],
        [83.61096, 26.5491],
        [83.61059, 26.54893],
        [83.60944, 26.54878],
        [83.60887, 26.54855],
        [83.60834, 26.54817],
        [83.60766, 26.54758],
        [83.60648, 26.54653],
        [83.6062, 26.54591],
        [83.6062, 26.54553],
        [83.60651, 26.54524],
        [83.60695, 26.54506],
        [83.60829, 26.54485],
        [83.60866, 26.54456],
        [83.60876, 26.54424],
        [83.60861, 26.54393],
        [83.60803, 26.54367],
        [83.6074, 26.54341],
        [83.60723, 26.54311],
        [83.60716, 26.54287],
        [83.60723, 26.54266],
        [83.60749, 26.54252],
        [83.60796, 26.54255],
        [83.60829, 26.54231],
        [83.60824, 26.54205],
        [83.60791, 26.54168],
        [83.60784, 26.54147],
        [83.6083, 26.54141],
        [83.60883, 26.54155],
        [83.60899, 26.5411],
        [83.60881, 26.54063],
        [83.60839, 26.54033],
        [83.60757, 26.54016],
        [83.60696, 26.53995],
        [83.60646, 26.5396],
        [83.60637, 26.53941],
        [83.60573, 26.53904],
        [83.60557, 26.53882],
        [83.60559, 26.53854],
        [83.6059, 26.53821],
        [83.60656, 26.53796],
        [83.60726, 26.53772],
        [83.60776, 26.53734],
        [83.60797, 26.53695],
        [83.60801, 26.53653],
        [83.60766, 26.53634],
        [83.60735, 26.53638],
        [83.6071, 26.53655],
        [83.60684, 26.53693],
        [83.6064, 26.53728],
        [83.60592, 26.53744],
        [83.60564, 26.53727],
        [83.60559, 26.53704],
        [83.60578, 26.5367],
        [83.60634, 26.53628],
        [83.60649, 26.53591],
        [83.60648, 26.5356],
        [83.60621, 26.53523],
        [83.60566, 26.53476],
        [83.6054, 26.53437],
        [83.60475, 26.53372],
        [83.6037, 26.53315],
        [83.60307, 26.53283],
        [83.6029, 26.53242],
        [83.60284, 26.53187],
        [83.60291, 26.53127],
        [83.60297, 26.53054],
        [83.6029, 26.53007],
        [83.60251, 26.52876],
        [83.60242, 26.5285],
        [83.60228, 26.52827],
        [83.60208, 26.52807],
        [83.60185, 26.52793],
        [83.60163, 26.52783],
        [83.60146, 26.5277],
        [83.60133, 26.52752],
        [83.60126, 26.52732],
        [83.60125, 26.52711],
        [83.60116, 26.52685],
        [83.6012, 26.52658],
        [83.60135, 26.52635],
        [83.60158, 26.52621],
        [83.60188, 26.52618],
        [83.60219, 26.52618],
        [83.60251, 26.52616],
        [83.60282, 26.52613],
        [83.60313, 26.5261],
        [83.60333, 26.52598],
        [83.60349, 26.5258],
        [83.60358, 26.52558],
        [83.60359, 26.52534],
        [83.60345, 26.52509],
        [83.60322, 26.52479],
        [83.60305, 26.52447],
        [83.6029, 26.52413],
        [83.60261, 26.52391],
        [83.60239, 26.52379],
        [83.60222, 26.52361],
        [83.60211, 26.52338],
        [83.60208, 26.52313],
        [83.60216, 26.52285],
        [83.60233, 26.52255],
        [83.60254, 26.52229],
        [83.60281, 26.52208],
        [83.60311, 26.52193],
        [83.60324, 26.52177],
        [83.60327, 26.52157],
        [83.6032, 26.52138],
        [83.60305, 26.52125],
        [83.60283, 26.52121],
        [83.60257, 26.52118],
        [83.60232, 26.52113],
        [83.60208, 26.52107],
        [83.60184, 26.521],
        [83.60157, 26.52088],
        [83.60133, 26.52072],
        [83.60112, 26.52052],
        [83.60094, 26.52029],
        [83.60082, 26.52002],
        [83.60076, 26.51973],
        [83.60077, 26.51943],
        [83.60085, 26.51915],
        [83.601, 26.51889],
        [83.60116, 26.51871],
        [83.60123, 26.51848],
        [83.6012, 26.51824],
        [83.60107, 26.51804],
        [83.60087, 26.51795],
        [83.60064, 26.51795],
        [83.60042, 26.51796],
        [83.6002, 26.518],
        [83.59999, 26.51807],
        [83.59974, 26.51796],
        [83.59969, 26.5177],
        [83.60035, 26.51691],
        [83.60049, 26.51663],
        [83.60049, 26.51604],
        [83.60044, 26.5152],
        [83.5981, 26.51383],
        [83.59613, 26.51336],
        [83.59393, 26.51297],
        [83.59209, 26.51271],
        [83.59007, 26.51273],
        [83.58742, 26.51256],
        [83.58594, 26.51257],
        [83.58452, 26.51277],
        [83.58302, 26.5132],
        [83.58218, 26.5136],
        [83.57957, 26.5151],
        [83.57904, 26.51529],
        [83.57882, 26.51506],
        [83.5785, 26.51454],
        [83.57852, 26.51407],
        [83.57834, 26.51335],
        [83.57776, 26.51348],
        [83.57717, 26.51374],
        [83.57373, 26.51543],
        [83.5732, 26.51499],
        [83.57219, 26.51389],
        [83.5702, 26.51133],
        [83.56993, 26.51097],
        [83.56885, 26.50898],
        [83.5683, 26.50746],
        [83.56684, 26.50785],
        [83.56184, 26.50978],
        [83.55708, 26.51163],
        [83.55544, 26.51208],
        [83.5541, 26.51234],
        [83.55363, 26.51226],
        [83.55285, 26.51164],
        [83.55185, 26.51016],
        [83.55154, 26.51002],
        [83.55077, 26.50991],
        [83.55007, 26.50976],
        [83.54948, 26.5095],
        [83.54894, 26.5089],
        [83.54852, 26.50814],
        [83.54852, 26.50741],
        [83.54874, 26.50637],
        [83.54908, 26.50573],
        [83.54947, 26.50527],
        [83.55002, 26.50522],
        [83.5507, 26.50543],
        [83.55117, 26.50564],
        [83.55199, 26.5058],
        [83.55264, 26.50571],
        [83.55299, 26.50553],
        [83.55314, 26.50524],
        [83.55353, 26.50344],
        [83.55395, 26.50228],
        [83.55442, 26.50161],
        [83.55511, 26.50034],
        [83.55512, 26.50008],
        [83.55513, 26.49982],
        [83.55513, 26.49957],
        [83.55512, 26.49931],
        [83.5551, 26.49905],
        [83.55507, 26.4988],
        [83.55504, 26.49854],
        [83.555, 26.49829],
        [83.55495, 26.49804],
        [83.55478, 26.49745],
        [83.5546, 26.49686],
        [83.55438, 26.49629],
        [83.55414, 26.49573],
        [83.55387, 26.49517],
        [83.55358, 26.49463],
        [83.55326, 26.49411],
        [83.55292, 26.4936],
        [83.55256, 26.49311],
        [83.55238, 26.4927],
        [83.55216, 26.49232],
        [83.55191, 26.49195],
        [83.55163, 26.49161],
        [83.55133, 26.49129],
        [83.55099, 26.49101],
        [83.55063, 26.49075],
        [83.55025, 26.49053],
        [83.54985, 26.49034],
        [83.54962, 26.49021],
        [83.54937, 26.49009],
        [83.54913, 26.48999],
        [83.54887, 26.48991],
        [83.54861, 26.48984],
        [83.54834, 26.48979],
        [83.54807, 26.48976],
        [83.5478, 26.48975],
        [83.54753, 26.48976],
        [83.54728, 26.48973],
        [83.54705, 26.48965],
        [83.54682, 26.48955],
        [83.5466, 26.48942],
        [83.54643, 26.48925],
        [83.54623, 26.48915],
        [83.54596, 26.48919],
        [83.54576, 26.48923],
        [83.54555, 26.48924],
        [83.54535, 26.48922],
        [83.54515, 26.48915],
        [83.54495, 26.48914],
        [83.54474, 26.48917],
        [83.54455, 26.48923],
        [83.54437, 26.48933],
        [83.54421, 26.48945],
        [83.54407, 26.48961],
        [83.54397, 26.48979],
        [83.5439, 26.48998],
        [83.54386, 26.49018],
        [83.54389, 26.49038],
        [83.54392, 26.49057],
        [83.54396, 26.49077],
        [83.54401, 26.49096],
        [83.54407, 26.49115],
        [83.54412, 26.49134],
        [83.54419, 26.49153],
        [83.54427, 26.49171],
        [83.54435, 26.49189],
        [83.54436, 26.4921],
        [83.5443, 26.4923],
        [83.54419, 26.49248],
        [83.54402, 26.49262],
        [83.54381, 26.49274],
        [83.54362, 26.49294],
        [83.5435, 26.49318],
        [83.54347, 26.49345],
        [83.54351, 26.49372],
        [83.54351, 26.49402],
        [83.54353, 26.49431],
        [83.54355, 26.4946],
        [83.54358, 26.49489],
        [83.54361, 26.49518],
        [83.54366, 26.49547],
        [83.54371, 26.49576],
        [83.54377, 26.49604],
        [83.54383, 26.49633],
        [83.54382, 26.49672],
        [83.5438, 26.49711],
        [83.54375, 26.49751],
        [83.5437, 26.4979],
        [83.54364, 26.49829],
        [83.54356, 26.49867],
        [83.54347, 26.49906],
        [83.54337, 26.49943],
        [83.54322, 26.4999],
        [83.54312, 26.50008],
        [83.54298, 26.50022],
        [83.54276, 26.50038],
        [83.54251, 26.50056],
        [83.54219, 26.50078],
        [83.54189, 26.501],
        [83.54171, 26.5012],
        [83.54139, 26.50137],
        [83.5411, 26.50149],
        [83.54081, 26.50158],
        [83.54053, 26.50162],
        [83.54029, 26.50166],
        [83.54005, 26.50169],
        [83.53981, 26.50173],
        [83.53953, 26.50157],
        [83.53928, 26.50158],
        [83.53906, 26.50148],
        [83.53884, 26.50137],
        [83.53864, 26.50124],
        [83.53844, 26.50109],
        [83.53827, 26.50091],
        [83.53811, 26.50073],
        [83.53796, 26.50053],
        [83.53784, 26.50032],
        [83.53774, 26.5001],
        [83.53766, 26.49988],
        [83.53751, 26.4997],
        [83.53731, 26.49958],
        [83.53708, 26.49952],
        [83.53681, 26.49951],
        [83.53651, 26.49947],
        [83.53622, 26.49937],
        [83.53595, 26.49922],
        [83.53571, 26.49904],
        [83.53555, 26.49874],
        [83.53539, 26.49844],
        [83.53523, 26.49814],
        [83.53508, 26.49784],
        [83.53483, 26.49749],
        [83.53464, 26.4973],
        [83.53445, 26.49711],
        [83.53425, 26.49694],
        [83.53404, 26.49678],
        [83.53383, 26.49663],
        [83.5336, 26.49649],
        [83.53337, 26.49636],
        [83.53314, 26.49624],
        [83.53282, 26.49621],
        [83.5325, 26.4962],
        [83.53218, 26.49621],
        [83.53186, 26.49623],
        [83.53154, 26.49627],
        [83.53123, 26.49633],
        [83.53091, 26.4964],
        [83.53061, 26.49649],
        [83.53031, 26.49659],
        [83.53003, 26.49667],
        [83.52976, 26.49677],
        [83.5295, 26.49688],
        [83.52925, 26.49702],
        [83.52901, 26.49717],
        [83.52877, 26.49733],
        [83.52855, 26.49751],
        [83.52834, 26.4977],
        [83.52804, 26.49805],
        [83.52772, 26.49817],
        [83.52743, 26.49805],
        [83.52731, 26.4978],
        [83.52731, 26.49752],
        [83.52737, 26.49727],
        [83.52744, 26.49702],
        [83.52754, 26.49678],
        [83.52766, 26.49654],
        [83.52781, 26.4963],
        [83.52769, 26.49605],
        [83.52747, 26.49604],
        [83.52726, 26.49611],
        [83.52676, 26.49627],
        [83.52627, 26.49644],
        [83.52577, 26.4966],
        [83.52527, 26.49677],
        [83.52477, 26.49693],
        [83.52428, 26.49709],
        [83.52378, 26.49726],
        [83.52329, 26.49742],
        [83.52279, 26.49759],
        [83.52237, 26.49774],
        [83.52194, 26.4979],
        [83.52153, 26.49806],
        [83.52111, 26.49823],
        [83.52069, 26.4984],
        [83.52028, 26.49857],
        [83.51987, 26.49876],
        [83.51946, 26.49894],
        [83.51885, 26.49919],
        [83.51858, 26.4991],
        [83.51836, 26.49889],
        [83.51815, 26.49864],
        [83.51798, 26.49837],
        [83.51785, 26.49807],
        [83.51777, 26.49775],
        [83.51756, 26.49748],
        [83.51715, 26.49756],
        [83.51689, 26.4977],
        [83.51662, 26.49784],
        [83.51635, 26.49798],
        [83.51608, 26.49812],
        [83.51581, 26.49825],
        [83.51554, 26.49838],
        [83.51526, 26.4985],
        [83.51499, 26.49863],
        [83.51462, 26.49878],
        [83.51447, 26.4986],
        [83.51452, 26.49824],
        [83.51454, 26.49793],
        [83.51456, 26.49761],
        [83.51457, 26.4973],
        [83.51458, 26.49698],
        [83.51458, 26.49667],
        [83.51457, 26.49635],
        [83.51457, 26.49604],
        [83.51455, 26.49572],
        [83.51448, 26.49538],
        [83.51427, 26.4951],
        [83.51408, 26.49498],
        [83.51383, 26.49489],
        [83.51344, 26.49492],
        [83.5132, 26.49503],
        [83.51292, 26.4952],
        [83.51256, 26.49535],
        [83.51219, 26.49548],
        [83.51181, 26.49558],
        [83.51143, 26.49566],
        [83.51117, 26.4956],
        [83.51092, 26.49553],
        [83.51066, 26.49545],
        [83.51042, 26.49536],
        [83.51017, 26.49527],
        [83.50993, 26.49516],
        [83.50969, 26.49504],
        [83.50946, 26.49492],
        [83.50923, 26.49479],
        [83.5089, 26.49466],
        [83.50871, 26.49488],
        [83.50864, 26.49507],
        [83.50856, 26.49525],
        [83.50848, 26.49543],
        [83.5084, 26.49561],
        [83.50831, 26.49579],
        [83.50822, 26.49597],
        [83.50813, 26.49614],
        [83.50804, 26.49632],
        [83.5079, 26.49653],
        [83.50768, 26.49659],
        [83.50746, 26.49652],
        [83.50728, 26.49637],
        [83.50711, 26.49621],
        [83.50696, 26.49603],
        [83.50682, 26.49585],
        [83.50663, 26.49564],
        [83.50636, 26.49546],
        [83.50605, 26.49535],
        [83.50572, 26.49532],
        [83.5054, 26.49537],
        [83.50476, 26.49544],
        [83.50413, 26.49553],
        [83.5035, 26.49562],
        [83.50287, 26.49572],
        [83.50224, 26.49582],
        [83.50161, 26.49594],
        [83.50098, 26.49606],
        [83.50036, 26.49619],
        [83.50009, 26.49625],
        [83.50039, 26.50066],
        [83.50181, 26.5042],
        [83.50193, 26.50476],
        [83.50244, 26.50695],
        [83.50249, 26.50887],
        [83.50208, 26.5106],
        [83.50149, 26.51103],
        [83.5007, 26.51159],
        [83.49807, 26.51211],
        [83.49556, 26.51165],
        [83.495, 26.51142],
        [83.49397, 26.51098],
        [83.49314, 26.50992],
        [83.49271, 26.50652],
        [83.49267, 26.50446],
        [83.4926, 26.50353],
        [83.49248, 26.50191],
        [83.49184, 26.49995],
        [83.49105, 26.49859],
        [83.49081, 26.49835],
        [83.48994, 26.4975],
        [83.48919, 26.49719],
        [83.4882, 26.49678],
        [83.48693, 26.4969],
        [83.48634, 26.49693],
        [83.48536, 26.49698],
        [83.48443, 26.49731],
        [83.48428, 26.49746],
        [83.48336, 26.49842],
        [83.48324, 26.5003],
        [83.48343, 26.50176],
        [83.48378, 26.5034],
        [83.4848, 26.50641],
        [83.48495, 26.50709],
        [83.48571, 26.51038],
        [83.48687, 26.51584],
        [83.48733, 26.51914],
        [83.4886, 26.52319],
        [83.48968, 26.52641],
        [83.48974, 26.52685],
        [83.49018, 26.52992],
        [83.48999, 26.53107],
        [83.48997, 26.53119],
        [83.48964, 26.53323],
        [83.48816, 26.53465],
        [83.48664, 26.535],
        [83.48477, 26.53477],
        [83.48442, 26.53473],
        [83.48201, 26.5339],
        [83.4782, 26.53145],
        [83.47398, 26.52778],
        [83.47315, 26.52704],
        [83.47133, 26.52547],
        [83.4683, 26.52282],
        [83.4659, 26.521],
        [83.46571, 26.52086],
        [83.46401, 26.51991],
        [83.46174, 26.5196],
        [83.46132, 26.51955],
        [83.45982, 26.51988],
        [83.45956, 26.52017],
        [83.45868, 26.52116],
        [83.45838, 26.52256],
        [83.45857, 26.52375],
        [83.45858, 26.52385],
        [83.45914, 26.52591],
        [83.46214, 26.52889],
        [83.46355, 26.53028],
        [83.46694, 26.53278],
        [83.47044, 26.53537],
        [83.47061, 26.53549],
        [83.47184, 26.53639],
        [83.4788, 26.54175],
        [83.48186, 26.54537],
        [83.48269, 26.54635],
        [83.48379, 26.54882],
        [83.48383, 26.55027],
        [83.48388, 26.55171],
        [83.48339, 26.55274],
        [83.4829, 26.55341],
        [83.48067, 26.55333],
        [83.47792, 26.55283],
        [83.47692, 26.55263],
        [83.47088, 26.55146],
        [83.4666, 26.55058],
        [83.46504, 26.55024],
        [83.46305, 26.54979],
        [83.45976, 26.54903],
        [83.45584, 26.54837],
        [83.45523, 26.54833],
        [83.4545, 26.54829],
        [83.45278, 26.54818],
        [83.45056, 26.54791],
        [83.4487, 26.54804],
        [83.44735, 26.54824],
        [83.44697, 26.5484],
        [83.44599, 26.54881],
        [83.44466, 26.55066],
        [83.44199, 26.55438],
        [83.44135, 26.55749],
        [83.44131, 26.55771],
        [83.44118, 26.55834],
        [83.44136, 26.55983],
        [83.44188, 26.561],
        [83.44274, 26.56128],
        [83.44513, 26.56175],
        [83.4465, 26.56173],
        [83.4482, 26.56175],
        [83.44889, 26.56183],
        [83.44974, 26.56193],
        [83.45009, 26.56252],
        [83.45027, 26.56346],
        [83.45116, 26.56614],
        [83.45306, 26.56782],
        [83.45512, 26.56843],
        [83.45649, 26.5684],
        [83.45803, 26.56839],
        [83.46127, 26.56785],
        [83.46401, 26.56761],
        [83.46539, 26.56776],
        [83.46659, 26.56827],
        [83.46714, 26.5689],
        [83.46764, 26.56948],
        [83.46818, 26.57082],
        [83.46844, 26.57249],
        [83.46847, 26.57268],
        [83.46851, 26.57296],
        [83.46856, 26.57324],
        [83.47068, 26.57713],
        [83.47347, 26.58018],
        [83.47574, 26.58189],
        [83.47603, 26.58203],
        [83.47817, 26.58306],
        [83.4787, 26.58344],
        [83.48026, 26.58456],
        [83.48085, 26.58553],
        [83.48097, 26.58573],
        [83.48151, 26.58743],
        [83.48141, 26.59382],
        [83.48161, 26.59623],
        [83.48181, 26.59899],
        [83.48202, 26.6004],
        [83.48236, 26.60271],
        [83.4829, 26.60476],
        [83.48326, 26.6061],
        [83.4868, 26.61288],
        [83.48721, 26.61286],
        [83.49061, 26.61268],
        [83.49219, 26.61254],
        [83.49337, 26.61224],
        [83.49495, 26.61224],
        [83.4959, 26.61232],
        [83.49614, 26.61235],
        [83.49661, 26.61266],
        [83.49734, 26.61314],
        [83.4984, 26.6142],
        [83.49894, 26.6159],
        [83.4987, 26.61892],
        [83.4985, 26.6198],
        [83.4978, 26.62285],
        [83.49622, 26.62576],
        [83.49438, 26.62865],
        [83.49399, 26.63027],
        [83.49399, 26.6305],
        [83.49389, 26.63397],
        [83.49387, 26.63456],
        [83.49407, 26.63644],
        [83.49453, 26.64083],
        [83.4944, 26.64542],
        [83.49469, 26.64914],
        [83.49472, 26.64962],
        [83.49525, 26.65105],
        [83.49644, 26.65295],
        [83.4979, 26.65474],
        [83.49895, 26.65635],
        [83.49961, 26.65821],
        [83.5004, 26.66035],
        [83.5011, 26.66126],
        [83.502, 26.66187],
        [83.50319, 26.66196],
        [83.50452, 26.66178],
        [83.50647, 26.66139],
        [83.50853, 26.66097],
        [83.51, 26.66052],
        [83.51093, 26.65976],
        [83.51147, 26.65869],
        [83.51201, 26.65651],
        [83.51204, 26.65622],
        [83.51241, 26.65335],
        [83.51295, 26.65159],
        [83.51374, 26.64972],
        [83.51439, 26.64893],
        [83.51481, 26.64841],
        [83.51628, 26.64783],
        [83.51895, 26.64707],
        [83.52242, 26.64664],
        [83.5261, 26.64636],
        [83.52824, 26.64638],
        [83.53065, 26.64684],
        [83.53414, 26.64792],
        [83.53683, 26.64894],
        [83.53788, 26.64955],
        [83.53805, 26.65027],
        [83.53765, 26.65245],
        [83.53766, 26.65369],
        [83.53807, 26.65482],
        [83.53847, 26.65568],
        [83.53861, 26.65735],
        [83.53818, 26.6582],
        [83.53808, 26.65842],
        [83.53713, 26.65932],
        [83.53619, 26.66077],
        [83.53592, 26.66227],
        [83.53593, 26.66449],
        [83.53619, 26.66686],
        [83.53646, 26.66951],
        [83.53686, 26.6712],
        [83.53705, 26.67144],
        [83.53767, 26.67223],
        [83.53861, 26.67285],
        [83.53983, 26.67362],
        [83.54023, 26.6749],
        [83.54021, 26.67501],
        [83.54009, 26.67573],
        [83.53942, 26.67637],
        [83.53833, 26.67699],
        [83.53522, 26.6783],
        [83.53346, 26.67915],
        [83.53184, 26.68029],
        [83.5294, 26.6822],
        [83.525, 26.68621],
        [83.52121, 26.69012],
        [83.51916, 26.69333],
        [83.51685, 26.69666],
        [83.51653, 26.69696],
        [83.51522, 26.69822],
        [83.51401, 26.69898],
        [83.51253, 26.69916],
        [83.51106, 26.6992],
        [83.50928, 26.69868],
        [83.50852, 26.69847],
        [83.50227, 26.69594],
        [83.50018, 26.69489],
        [83.49935, 26.69448],
        [83.49662, 26.69387],
        [83.49502, 26.69375],
        [83.49382, 26.69395],
        [83.49262, 26.69428],
        [83.49202, 26.69467],
        [83.49115, 26.69523],
        [83.49047, 26.69567],
        [83.48805, 26.69802],
        [83.48628, 26.70098],
        [83.4849, 26.70425],
        [83.4846, 26.70662],
        [83.48444, 26.70872],
        [83.48459, 26.71603],
        [83.48474, 26.71899],
        [83.48489, 26.72195],
        [83.48574, 26.73031],
        [83.48611, 26.73167],
        [83.48612, 26.73222],
        [83.48645, 26.73431],
        [83.4867, 26.73591],
        [83.48715, 26.73722],
        [83.48768, 26.73873],
        [83.48918, 26.74307],
        [83.48944, 26.74418],
        [83.48959, 26.74606],
        [83.48964, 26.74833],
        [83.4896, 26.75021],
        [83.48918, 26.75206],
        [83.48867, 26.75429],
        [83.49225, 26.75336],
        [83.49555, 26.75307],
        [83.49892, 26.75328],
        [83.50061, 26.75359],
        [83.5023, 26.75369],
        [83.50362, 26.75348],
        [83.50457, 26.75315],
        [83.50724, 26.75204],
        [83.50678, 26.75132],
        [83.50661, 26.75072],
        [83.50658, 26.74925],
        [83.50758, 26.74913],
        [83.51055, 26.74806],
        [83.51205, 26.74745],
        [83.51326, 26.74739],
        [83.51433, 26.7476],
        [83.51474, 26.74825],
        [83.51517, 26.74891],
        [83.51633, 26.75151],
        [83.51694, 26.75219],
        [83.51749, 26.75282],
        [83.51858, 26.75334],
        [83.52046, 26.75373],
        [83.52248, 26.75372],
        [83.52424, 26.75355],
        [83.5256, 26.75321],
        [83.52651, 26.7528],
        [83.52669, 26.75272],
        [83.52738, 26.75192],
        [83.52794, 26.75084],
        [83.52866, 26.74892],
        [83.52992, 26.74662],
        [83.53089, 26.7457],
        [83.53184, 26.7452],
        [83.5332, 26.74515],
        [83.53456, 26.74509],
        [83.53672, 26.74551],
        [83.53807, 26.74629],
        [83.53839, 26.7466],
        [83.53887, 26.74704],
        [83.53924, 26.74902],
        [83.53933, 26.75154],
        [83.53957, 26.75309],
        [83.54008, 26.75479],
        [83.54072, 26.75678],
        [83.54111, 26.75778],
        [83.54205, 26.75853],
        [83.54328, 26.7586],
        [83.54514, 26.75788],
        [83.54737, 26.75607],
        [83.55001, 26.75443],
        [83.55181, 26.75371],
        [83.55306, 26.75309],
        [83.55329, 26.75291],
        [83.5539, 26.75245],
        [83.55474, 26.75139],
        [83.55517, 26.75016],
        [83.55538, 26.7498],
        [83.55603, 26.74869],
        [83.55715, 26.7471],
        [83.55869, 26.74594],
        [83.56008, 26.74534],
        [83.56174, 26.74502],
        [83.56285, 26.7444],
        [83.56326, 26.74392]
      ]
    ]
  }
}
