{
  "type": "Feature",
  "id": "UP-AC-329",
  "properties": {
    "stateName": "UTTAR PRADESH",
    "stateCode": "UP",
    "districtName": "KUSHINAGAR",
    "acNo": 329,
    "acName": "MUBARAKPUR",
    "seatType": null,
    "pcNo": null,
    "pcName": null,
    "quality": "unverified",
    "sources": [
      "TBD"
    ]
  },
  "geometry": {
    "type": "Polygon",
    "coordinates": [
      [
        [83.95824, 27.08394],
        [83.9588, 27.0839],
        [83.9598, 27.0839],
        [83.962, 27.084],
        [83.9632, 27.084],
        [83.9642, 27.0841],
        [83.96422, 27.08411],
        [83.9644, 27.0842],
        [83.9647, 27.0843],
        [83.965, 27.0846],
        [83.9653, 27.0852],
        [83.96545, 27.08542],
        [83.9657, 27.0858],
        [83.9662, 27.0864],
        [83.9665, 27.0868],
        [83.96661, 27.08689],
        [83.967, 27.0872],
        [83.9674, 27.0873],
        [83.96785, 27.08735],
        [83.9683, 27.0874],
        [83.9693, 27.0876],
        [83.9702, 27.0878],
        [83.9709, 27.088],
        [83.9719, 27.0882],
        [83.9745, 27.0888],
        [83.9753, 27.0891],
        [83.9759, 27.0894],
        [83.97622, 27.08954],
        [83.9766, 27.0897],
        [83.9772, 27.0901],
        [83.9779, 27.0905],
        [83.97824, 27.0907],
        [83.9784, 27.0908],
        [83.979, 27.0909],
        [83.9795, 27.0909],
        [83.9802, 27.0908],
        [83.98074, 27.09072],
        [83.9809, 27.0907],
        [83.98122, 27.0907],
        [83.9816, 27.0907],
        [83.9822, 27.0907],
        [83.98246, 27.09061],
        [83.9828, 27.0905],
        [83.9832, 27.0904],
        [83.9836, 27.0903],
        [83.9846, 27.0901],
        [83.9856, 27.0901],
        [83.9864, 27.0901],
        [83.9873, 27.0902],
        [83.9879, 27.0904],
        [83.9893, 27.0909],
        [83.98983, 27.09113],
        [83.9907, 27.0915],
        [83.992, 27.0923],
        [83.9926, 27.0928],
        [83.99283, 27.09306],
        [83.9933, 27.0936],
        [83.994, 27.0944],
        [83.99444, 27.0949],
        [83.9947, 27.0952],
        [83.99485, 27.09543],
        [83.9953, 27.0961],
        [83.996, 27.097],
        [83.9967, 27.0977],
        [83.9974, 27.0983],
        [83.9977, 27.0987],
        [83.9979, 27.099],
        [84.0006, 27.1007],
        [84.00142, 27.10105],
        [84.002, 27.1013],
        [84.0029, 27.1018],
        [84.00312, 27.10187],
        [84.00322, 27.10189],
        [84.00346, 27.10177],
        [84.0036, 27.1017],
        [84.0042, 27.1013],
        [84.0048, 27.1009],
        [84.0057, 27.1004],
        [84.0064, 27.1],
        [84.007, 27.0997],
        [84.00719, 27.09965],
        [84.0081, 27.0994],
        [84.00831, 27.09937],
        [84.0088, 27.0993],
        [84.0093, 27.0995],
        [84.0098, 27.0999],
        [84.0108, 27.1007],
        [84.0116, 27.1017],
        [84.01191, 27.10201],
        [84.0123, 27.1024],
        [84.01257, 27.10271],
        [84.013, 27.1032],
        [84.0136, 27.10375],
        [84.0142, 27.1043],
        [84.01486, 27.10483],
        [84.01525, 27.1051],
        [84.01547, 27.10518],
        [84.0159, 27.1053],
        [84.01614, 27.10538],
        [84.0165, 27.1055],
        [84.0175, 27.1053],
        [84.019, 27.105],
        [84.0197, 27.1047],
        [84.0205, 27.1045],
        [84.02069, 27.10445],
        [84.0213, 27.1043],
        [84.02157, 27.10427],
        [84.0221, 27.1042],
        [84.02233, 27.10397],
        [84.0224, 27.1039],
        [84.02299, 27.10315],
        [84.0231, 27.103],
        [84.0234, 27.1024],
        [84.0237, 27.1019],
        [84.0239, 27.1013],
        [84.0239, 27.1009],
        [84.0238, 27.1005],
        [84.024, 27.1001],
        [84.0247, 27.0998],
        [84.0254, 27.0996],
        [84.02601, 27.0996],
        [84.02616, 27.09959],
        [84.02644, 27.09957],
        [84.027, 27.0995],
        [84.02729, 27.0995],
        [84.0278, 27.0995],
        [84.02808, 27.09936],
        [84.0282, 27.0993],
        [84.02832, 27.09921],
        [84.0286, 27.099],
        [84.0293, 27.0985],
        [84.02931, 27.09849],
        [84.02933, 27.09848],
        [84.02936, 27.09845],
        [84.0304, 27.0977],
        [84.03057, 27.0973],
        [84.0307, 27.097],
        [84.0308, 27.0955],
        [84.0307, 27.09443],
        [84.03061, 27.09425],
        [84.0304, 27.0939],
        [84.0298, 27.0936],
        [84.02953, 27.09352],
        [84.0291, 27.0934],
        [84.0273, 27.0935],
        [84.0263, 27.0935],
        [84.0257, 27.0933],
        [84.0253, 27.0928],
        [84.025, 27.0925],
        [84.02492, 27.09185],
        [84.0249, 27.0917],
        [84.0249, 27.09165],
        [84.0249, 27.0909],
        [84.02513, 27.09044],
        [84.02517, 27.09034],
        [84.02519, 27.09032],
        [84.0252, 27.0903],
        [84.0256, 27.0899],
        [84.0263, 27.0893],
        [84.027, 27.0888],
        [84.0277, 27.0883],
        [84.0285, 27.0876],
        [84.02856, 27.08754],
        [84.0288, 27.08727],
        [84.0288, 27.08714],
        [84.0288, 27.0866],
        [84.0287, 27.0861],
        [84.0282, 27.0852],
        [84.0275, 27.0844],
        [84.0265, 27.0833],
        [84.0252, 27.0821],
        [84.0241, 27.081],
        [84.0233, 27.0804],
        [84.0228, 27.0802],
        [84.02263, 27.0802],
        [84.0223, 27.0802],
        [84.02201, 27.08008],
        [84.0218, 27.08],
        [84.021, 27.0798],
        [84.02077, 27.07966],
        [84.0205, 27.0795],
        [84.02, 27.0788],
        [84.0188, 27.0766],
        [84.0183, 27.0755],
        [84.0182, 27.07516],
        [84.018, 27.0745],
        [84.01723, 27.07322],
        [84.0171, 27.073],
        [84.0168, 27.0724],
        [84.01679, 27.07237],
        [84.0166, 27.07181],
        [84.01634, 27.07167],
        [84.0162, 27.0716],
        [84.0158, 27.0716],
        [84.0149, 27.0717],
        [84.014, 27.0716],
        [84.01382, 27.07142],
        [84.01371, 27.07134],
        [84.01347, 27.07121],
        [84.0132, 27.0711],
        [84.0122, 27.071],
        [84.01105, 27.071],
        [84.0099, 27.071],
        [84.0074, 27.0713],
        [84.0047, 27.0715],
        [84.00447, 27.07153],
        [84.0039, 27.0716],
        [84.00328, 27.07125],
        [84.0032, 27.0712],
        [84.0029, 27.071],
        [84.0023, 27.0706],
        [84.0014, 27.0703],
        [84.0005, 27.0699],
        [84.00037, 27.06986],
        [84.0002, 27.0698],
        [84, 27.0696],
        [84, 27.06952],
        [83.99843, 27.06941],
        [83.99839, 27.06987],
        [83.99842, 27.0703],
        [83.99861, 27.07081],
        [83.99898, 27.0711],
        [83.99956, 27.07117],
        [83.99516, 27.07126],
        [83.98737, 27.0697],
        [83.9871, 27.06961],
        [83.98649, 27.06724],
        [83.98604, 27.0659],
        [83.98549, 27.0646],
        [83.98475, 27.06226],
        [83.98355, 27.06077],
        [83.98216, 27.05959],
        [83.9815, 27.05862],
        [83.98124, 27.05794],
        [83.98086, 27.05697],
        [83.97986, 27.05482],
        [83.97899, 27.05347],
        [83.97827, 27.05224],
        [83.97802, 27.05172],
        [83.97729, 27.0507],
        [83.97644, 27.04976],
        [83.97558, 27.04931],
        [83.97475, 27.04925],
        [83.97392, 27.04947],
        [83.97335, 27.04993],
        [83.97272, 27.05061],
        [83.97192, 27.05143],
        [83.97118, 27.05225],
        [83.97055, 27.05272],
        [83.96977, 27.05314],
        [83.96904, 27.05335],
        [83.96832, 27.05342],
        [83.9671, 27.05341],
        [83.9651, 27.05328],
        [83.9641, 27.05304],
        [83.96304, 27.05294],
        [83.96248, 27.05307],
        [83.96231, 27.05322],
        [83.96136, 27.05168],
        [83.96092, 27.05124],
        [83.96065, 27.05038],
        [83.96048, 27.04836],
        [83.96057, 27.04685],
        [83.96109, 27.04527],
        [83.96046, 27.04541],
        [83.95966, 27.04552],
        [83.95902, 27.0456],
        [83.95679, 27.04567],
        [83.95496, 27.04549],
        [83.95324, 27.04524],
        [83.95267, 27.04508],
        [83.95164, 27.04449],
        [83.9511, 27.04459],
        [83.95095, 27.04462],
        [83.95036, 27.04481],
        [83.94972, 27.04506],
        [83.9493, 27.04527],
        [83.94889, 27.04547],
        [83.94749, 27.04586],
        [83.94714, 27.04596],
        [83.94662, 27.04594],
        [83.94632, 27.04587],
        [83.94547, 27.04715],
        [83.94457, 27.0481],
        [83.9442, 27.04861],
        [83.94311, 27.04794],
        [83.94212, 27.04802],
        [83.941, 27.04811],
        [83.93954, 27.04802],
        [83.93856, 27.04756],
        [83.93792, 27.047],
        [83.93725, 27.04598],
        [83.93686, 27.0452],
        [83.93636, 27.04422],
        [83.93598, 27.04338],
        [83.93511, 27.04454],
        [83.93354, 27.04568],
        [83.93097, 27.04703],
        [83.9294, 27.04816],
        [83.92878, 27.04865],
        [83.92813, 27.04913],
        [83.92589, 27.05064],
        [83.92559, 27.05088],
        [83.92241, 27.05341],
        [83.92197, 27.05247],
        [83.92129, 27.05105],
        [83.9209, 27.05028],
        [83.9204, 27.04925],
        [83.92008, 27.04807],
        [83.91983, 27.04669],
        [83.91952, 27.04538],
        [83.91917, 27.04327],
        [83.91869, 27.04165],
        [83.91803, 27.04002],
        [83.9182, 27.03994],
        [83.91895, 27.0393],
        [83.91931, 27.03865],
        [83.91939, 27.03779],
        [83.91938, 27.03752],
        [83.9193, 27.03528],
        [83.91894, 27.03278],
        [83.91889, 27.03161],
        [83.91885, 27.03121],
        [83.91874, 27.03014],
        [83.91873, 27.02997],
        [83.91825, 27.0287],
        [83.91793, 27.02823],
        [83.91738, 27.02742],
        [83.91532, 27.02594],
        [83.91363, 27.02484],
        [83.9127, 27.02391],
        [83.91223, 27.02343],
        [83.9133, 27.02313],
        [83.91378, 27.02296],
        [83.91439, 27.02264],
        [83.91519, 27.02186],
        [83.91611, 27.021],
        [83.91638, 27.01982],
        [83.91612, 27.01857],
        [83.91568, 27.0174],
        [83.91493, 27.01634],
        [83.91394, 27.01549],
        [83.91329, 27.01499],
        [83.91277, 27.01459],
        [83.91172, 27.01375],
        [83.91071, 27.01335],
        [83.90982, 27.01319],
        [83.90886, 27.01323],
        [83.90777, 27.01353],
        [83.90698, 27.0138],
        [83.90608, 27.01401],
        [83.90523, 27.01429],
        [83.90427, 27.01445],
        [83.90233, 27.01465],
        [83.90202, 27.01512],
        [83.90159, 27.0156],
        [83.90068, 27.01655],
        [83.8997, 27.01641],
        [83.89831, 27.0165],
        [83.89683, 27.01692],
        [83.89657, 27.01697],
        [83.89556, 27.01718],
        [83.89497, 27.01739],
        [83.89465, 27.01548],
        [83.89451, 27.01258],
        [83.89446, 27.01098],
        [83.89444, 27.01081],
        [83.89246, 27.01049],
        [83.89183, 27.01059],
        [83.89045, 27.01086],
        [83.88897, 27.0114],
        [83.88834, 27.0118],
        [83.88758, 27.01201],
        [83.88578, 27.01204],
        [83.88581, 27.01181],
        [83.88591, 27.01104],
        [83.88594, 27.0096],
        [83.88562, 27.00839],
        [83.88531, 27.00718],
        [83.8852, 27.00679],
        [83.88497, 27.00494],
        [83.88495, 27.00338],
        [83.8851, 27.00248],
        [83.88528, 27.00152],
        [83.88534, 27.00059],
        [83.88526, 27.00002],
        [83.88466, 26.99941],
        [83.88418, 26.99888],
        [83.88354, 26.99817],
        [83.88268, 26.99742],
        [83.88204, 26.99647],
        [83.88202, 26.99457],
        [83.88354, 26.99155],
        [83.88434, 26.98993],
        [83.88477, 26.98907],
        [83.88499, 26.98862],
        [83.88555, 26.9875],
        [83.88587, 26.98607],
        [83.88588, 26.98594],
        [83.88589, 26.98497],
        [83.88581, 26.98393],
        [83.88564, 26.98316],
        [83.88556, 26.98264],
        [83.88521, 26.98224],
        [83.88495, 26.98219],
        [83.88364, 26.98193],
        [83.88228, 26.98172],
        [83.8811, 26.98128],
        [83.87654, 26.98015],
        [83.87294, 26.97917],
        [83.87141, 26.97881],
        [83.87064, 26.97868],
        [83.8693, 26.97846],
        [83.86816, 26.97845],
        [83.86746, 26.97852],
        [83.86684, 26.97849],
        [83.86636, 26.97846],
        [83.86414, 26.97802],
        [83.86247, 26.97801],
        [83.86098, 26.97786],
        [83.85962, 26.97761],
        [83.85861, 26.97732],
        [83.85826, 26.97715],
        [83.85764, 26.97685],
        [83.85676, 26.97616],
        [83.8561, 26.97502],
        [83.85597, 26.97418],
        [83.85614, 26.97286],
        [83.85657, 26.97067],
        [83.85714, 26.96889],
        [83.85722, 26.96781],
        [83.85729, 26.96702],
        [83.85752, 26.9644],
        [83.85808, 26.96178],
        [83.85869, 26.96005],
        [83.86032, 26.95764],
        [83.86054, 26.95732],
        [83.86306, 26.95514],
        [83.86766, 26.95343],
        [83.86983, 26.95299],
        [83.87152, 26.95264],
        [83.87307, 26.95187],
        [83.87449, 26.95104],
        [83.87479, 26.9507],
        [83.87546, 26.94995],
        [83.87599, 26.9482],
        [83.87595, 26.94629],
        [83.87577, 26.94387],
        [83.87518, 26.94463],
        [83.87404, 26.94542],
        [83.87295, 26.94603],
        [83.87155, 26.94636],
        [83.87028, 26.94637],
        [83.869, 26.9459],
        [83.86632, 26.94449],
        [83.86073, 26.94246],
        [83.85945, 26.94156],
        [83.85803, 26.94097],
        [83.85643, 26.94059],
        [83.85554, 26.94086],
        [83.85498, 26.94165],
        [83.8541, 26.94325],
        [83.85202, 26.94539],
        [83.84931, 26.94714],
        [83.84712, 26.94855],
        [83.84438, 26.94989],
        [83.84193, 26.95057],
        [83.83991, 26.95112],
        [83.83592, 26.95192],
        [83.83377, 26.95236],
        [83.83005, 26.9538],
        [83.82456, 26.95491],
        [83.82313, 26.95509],
        [83.82298, 26.95511],
        [83.8217, 26.95528],
        [83.81806, 26.95572],
        [83.81467, 26.95576],
        [83.81327, 26.95534],
        [83.81231, 26.95499],
        [83.81129, 26.95462],
        [83.81036, 26.95411],
        [83.80943, 26.95365],
        [83.80856, 26.95359],
        [83.80713, 26.95379],
        [83.8057, 26.95408],
        [83.80397, 26.95434],
        [83.80214, 26.95395],
        [83.80187, 26.95389],
        [83.80055, 26.95307],
        [83.79946, 26.95207],
        [83.79869, 26.9509],
        [83.79753, 26.94852],
        [83.79655, 26.95006],
        [83.79562, 26.9509],
        [83.7946, 26.95162],
        [83.79279, 26.95261],
        [83.79145, 26.95332],
        [83.79062, 26.95424],
        [83.79043, 26.95534],
        [83.79059, 26.95704],
        [83.79064, 26.95758],
        [83.79213, 26.96548],
        [83.79226, 26.96619],
        [83.79264, 26.96757],
        [83.79349, 26.96906],
        [83.79423, 26.9697],
        [83.79471, 26.96982],
        [83.79662, 26.97013],
        [83.80001, 26.96992],
        [83.80213, 26.96974],
        [83.80402, 26.9695],
        [83.80436, 26.96965],
        [83.8049, 26.96989],
        [83.80556, 26.97092],
        [83.80584, 26.97297],
        [83.80586, 26.97315],
        [83.8059, 26.97455],
        [83.80568, 26.97511],
        [83.80476, 26.97582],
        [83.80289, 26.97614],
        [83.80157, 26.97672],
        [83.80012, 26.97817],
        [83.79955, 26.98001],
        [83.79937, 26.98198],
        [83.79902, 26.98333],
        [83.79842, 26.98393],
        [83.79749, 26.98425],
        [83.79737, 26.98426],
        [83.79617, 26.98437],
        [83.79384, 26.98457],
        [83.79105, 26.98467],
        [83.78497, 26.98545],
        [83.78394, 26.98594],
        [83.78372, 26.9863],
        [83.7835, 26.98666],
        [83.78376, 26.98838],
        [83.78434, 26.99076],
        [83.7856, 26.99424],
        [83.78565, 26.9956],
        [83.7861, 26.998],
        [83.78581, 26.99876],
        [83.78576, 26.99891],
        [83.7851, 26.99907],
        [83.78407, 26.99889],
        [83.78332, 26.99877],
        [83.78, 26.99922],
        [83.77744, 26.99971],
        [83.77502, 27.00079],
        [83.77327, 27.0021],
        [83.77206, 27.00336],
        [83.7705, 27.0046],
        [83.76834, 27.00528],
        [83.76732, 27.00524],
        [83.76639, 27.00464],
        [83.76628, 27.00457],
        [83.76546, 27.00283],
        [83.76435, 27.00047],
        [83.76434, 27.00109],
        [83.76447, 27.00133],
        [83.76469, 27.00174],
        [83.76487, 27.00258],
        [83.76439, 27.00239],
        [83.76422, 27.00228],
        [83.76348, 27.0021],
        [83.76323, 27.00255],
        [83.76315, 27.00309],
        [83.76288, 27.00312],
        [83.76238, 27.00298],
        [83.7621, 27.00288],
        [83.76191, 27.00273],
        [83.76166, 27.00269],
        [83.76146, 27.00278],
        [83.76124, 27.00309],
        [83.76118, 27.00329],
        [83.76108, 27.00348],
        [83.76083, 27.00389],
        [83.76044, 27.00417],
        [83.75965, 27.00427],
        [83.75929, 27.00439],
        [83.75902, 27.00455],
        [83.75854, 27.00484],
        [83.75809, 27.00487],
        [83.75786, 27.00463],
        [83.75766, 27.00456],
        [83.75741, 27.00449],
        [83.75711, 27.00449],
        [83.75629, 27.00407],
        [83.75618, 27.00385],
        [83.75607, 27.00336],
        [83.75584, 27.00316],
        [83.75553, 27.00318],
        [83.7553, 27.0032],
        [83.75502, 27.00322],
        [83.7548, 27.00342],
        [83.75412, 27.00407],
        [83.75361, 27.00452],
        [83.75325, 27.0045],
        [83.75254, 27.00439],
        [83.7523, 27.00445],
        [83.75237, 27.0048],
        [83.75235, 27.005],
        [83.7522, 27.00538],
        [83.75126, 27.00611],
        [83.7504, 27.0065],
        [83.75019, 27.00654],
        [83.74985, 27.00646],
        [83.74954, 27.00633],
        [83.74928, 27.00634],
        [83.74905, 27.00639],
        [83.7488, 27.00662],
        [83.74812, 27.00707],
        [83.74795, 27.00719],
        [83.74785, 27.0075],
        [83.74729, 27.00879],
        [83.74673, 27.01007],
        [83.74638, 27.01086],
        [83.74608, 27.01137],
        [83.74563, 27.01224],
        [83.74544, 27.01309],
        [83.74512, 27.01366],
        [83.74477, 27.01421],
        [83.74474, 27.01442],
        [83.74472, 27.01461],
        [83.74478, 27.01483],
        [83.74491, 27.01503],
        [83.74512, 27.01534],
        [83.74527, 27.01556],
        [83.74525, 27.01587],
        [83.7451, 27.01622],
        [83.74502, 27.0164],
        [83.74489, 27.01667],
        [83.74464, 27.01726],
        [83.74447, 27.01753],
        [83.74432, 27.01782],
        [83.74427, 27.0183],
        [83.7443, 27.01839],
        [83.74443, 27.01884],
        [83.74452, 27.01924],
        [83.74448, 27.01946],
        [83.74444, 27.0197],
        [83.74442, 27.0199],
        [83.7444, 27.02027],
        [83.74457, 27.02048],
        [83.74472, 27.02062],
        [83.74486, 27.02075],
        [83.74509, 27.02101],
        [83.74521, 27.02124],
        [83.74526, 27.02158],
        [83.74531, 27.02186],
        [83.74532, 27.02232],
        [83.74546, 27.02261],
        [83.74558, 27.02295],
        [83.74552, 27.02332],
        [83.74535, 27.02349],
        [83.7452, 27.02365],
        [83.74484, 27.024],
        [83.74483, 27.02484],
        [83.74483, 27.02507],
        [83.74495, 27.02577],
        [83.74502, 27.026],
        [83.74508, 27.02697],
        [83.7451, 27.02716],
        [83.74514, 27.02746],
        [83.74533, 27.02781],
        [83.74546, 27.02814],
        [83.74568, 27.02869],
        [83.74591, 27.02939],
        [83.74609, 27.02959],
        [83.74631, 27.02979],
        [83.7466, 27.02998],
        [83.74709, 27.02998],
        [83.74735, 27.02998],
        [83.74794, 27.03],
        [83.74808, 27.03034],
        [83.74832, 27.03094],
        [83.74852, 27.03153],
        [83.74874, 27.03176],
        [83.74904, 27.03168],
        [83.74942, 27.03159],
        [83.74995, 27.03148],
        [83.75044, 27.03144],
        [83.75156, 27.03167],
        [83.75213, 27.03191],
        [83.75309, 27.03232],
        [83.75457, 27.03296],
        [83.75521, 27.03349],
        [83.75538, 27.03365],
        [83.75546, 27.03402],
        [83.75559, 27.03464],
        [83.75547, 27.03514],
        [83.75541, 27.03537],
        [83.75438, 27.0363],
        [83.75322, 27.03681],
        [83.75286, 27.03698],
        [83.75233, 27.03711],
        [83.75183, 27.03717],
        [83.75125, 27.03717],
        [83.75039, 27.03704],
        [83.7494, 27.03674],
        [83.74896, 27.03646],
        [83.74743, 27.0349],
        [83.74534, 27.03431],
        [83.74513, 27.03427],
        [83.74413, 27.03406],
        [83.74308, 27.03435],
        [83.74122, 27.03481],
        [83.74102, 27.03486],
        [83.73967, 27.0353],
        [83.73918, 27.03566],
        [83.7388, 27.03595],
        [83.73845, 27.03628],
        [83.73827, 27.03644],
        [83.73811, 27.03657],
        [83.73778, 27.0367],
        [83.73722, 27.03686],
        [83.73683, 27.03699],
        [83.73666, 27.03711],
        [83.73667, 27.03742],
        [83.73668, 27.03765],
        [83.73676, 27.03784],
        [83.73686, 27.03831],
        [83.73678, 27.03851],
        [83.73686, 27.03881],
        [83.73657, 27.03912],
        [83.73639, 27.03931],
        [83.73616, 27.03956],
        [83.7359, 27.03982],
        [83.73577, 27.04014],
        [83.73565, 27.0404],
        [83.73556, 27.04057],
        [83.73562, 27.04081],
        [83.7358, 27.0413],
        [83.73599, 27.04186],
        [83.73647, 27.04285],
        [83.73653, 27.04324],
        [83.73651, 27.0435],
        [83.73641, 27.04378],
        [83.73627, 27.04405],
        [83.73575, 27.04502],
        [83.73553, 27.04533],
        [83.73523, 27.04639],
        [83.73503, 27.04715],
        [83.735, 27.04738],
        [83.73492, 27.04793],
        [83.73494, 27.04865],
        [83.73486, 27.04889],
        [83.73466, 27.0495],
        [83.73451, 27.05003],
        [83.73425, 27.05058],
        [83.73405, 27.05094],
        [83.73351, 27.05155],
        [83.73337, 27.05174],
        [83.7326, 27.05239],
        [83.73236, 27.05262],
        [83.73108, 27.05341],
        [83.73076, 27.05368],
        [83.73014, 27.05421],
        [83.72998, 27.0547],
        [83.73002, 27.05494],
        [83.73002, 27.05525],
        [83.7303, 27.05575],
        [83.73059, 27.05609],
        [83.73137, 27.05672],
        [83.73153, 27.05686],
        [83.73245, 27.05725],
        [83.73279, 27.05739],
        [83.73324, 27.0576],
        [83.73441, 27.05791],
        [83.73493, 27.05805],
        [83.73609, 27.05817],
        [83.73685, 27.05824],
        [83.73706, 27.05826],
        [83.73728, 27.05828],
        [83.73799, 27.05831],
        [83.7384, 27.05828],
        [83.74063, 27.05809],
        [83.74171, 27.05802],
        [83.74256, 27.05789],
        [83.7443, 27.05762],
        [83.7453, 27.05745],
        [83.74595, 27.05715],
        [83.74684, 27.05668],
        [83.74786, 27.05624],
        [83.74837, 27.0562],
        [83.74903, 27.05612],
        [83.74978, 27.05583],
        [83.75045, 27.05549],
        [83.75083, 27.05528],
        [83.75168, 27.05484],
        [83.75212, 27.05456],
        [83.75264, 27.05415],
        [83.75299, 27.0538],
        [83.75317, 27.05358],
        [83.75397, 27.05253],
        [83.75489, 27.05127],
        [83.75554, 27.05035],
        [83.75571, 27.05011],
        [83.75623, 27.04951],
        [83.75674, 27.04891],
        [83.75692, 27.04879],
        [83.7574, 27.04856],
        [83.75773, 27.04844],
        [83.75807, 27.04836],
        [83.75877, 27.04827],
        [83.75906, 27.04826],
        [83.75992, 27.04823],
        [83.76102, 27.04833],
        [83.76226, 27.04836],
        [83.76274, 27.04859],
        [83.76312, 27.04877],
        [83.76376, 27.04924],
        [83.76439, 27.04998],
        [83.76475, 27.0504],
        [83.76594, 27.05138],
        [83.76672, 27.05206],
        [83.767, 27.05231],
        [83.76731, 27.05264],
        [83.76802, 27.05347],
        [83.76824, 27.05372],
        [83.7683, 27.0541],
        [83.76837, 27.0545],
        [83.7684, 27.05489],
        [83.76844, 27.0554],
        [83.76814, 27.05638],
        [83.7676, 27.0573],
        [83.7675, 27.05781],
        [83.76742, 27.05816],
        [83.7674, 27.05873],
        [83.76733, 27.05916],
        [83.76723, 27.05946],
        [83.76703, 27.05989],
        [83.76672, 27.06062],
        [83.76657, 27.06097],
        [83.76664, 27.06123],
        [83.7667, 27.06143],
        [83.76702, 27.06184],
        [83.76713, 27.0624],
        [83.76728, 27.06318],
        [83.76741, 27.06381],
        [83.76761, 27.06552],
        [83.76776, 27.06682],
        [83.76781, 27.06731],
        [83.76794, 27.0678],
        [83.76806, 27.06841],
        [83.76816, 27.0687],
        [83.76827, 27.06957],
        [83.76837, 27.07028],
        [83.7684, 27.07094],
        [83.76838, 27.07117],
        [83.76832, 27.07172],
        [83.76811, 27.07255],
        [83.76783, 27.07358],
        [83.76773, 27.07386],
        [83.76757, 27.07412],
        [83.76687, 27.07429],
        [83.76643, 27.0744],
        [83.76532, 27.07464],
        [83.76434, 27.0748],
        [83.76329, 27.07488],
        [83.76238, 27.07489],
        [83.76206, 27.0749],
        [83.76167, 27.07476],
        [83.7614, 27.07456],
        [83.76087, 27.07427],
        [83.76044, 27.07404],
        [83.76023, 27.07393],
        [83.75981, 27.07387],
        [83.75942, 27.07382],
        [83.75882, 27.0738],
        [83.75802, 27.07342],
        [83.75748, 27.07317],
        [83.75694, 27.07293],
        [83.7567, 27.07291],
        [83.75631, 27.07288],
        [83.75538, 27.07298],
        [83.75458, 27.07305],
        [83.75341, 27.07324],
        [83.75238, 27.07342],
        [83.75118, 27.07374],
        [83.74991, 27.07412],
        [83.74929, 27.07412],
        [83.74878, 27.07412],
        [83.74788, 27.07319],
        [83.74688, 27.07378],
        [83.74618, 27.07435],
        [83.74566, 27.07535],
        [83.74569, 27.07629],
        [83.74575, 27.07689],
        [83.74583, 27.07729],
        [83.74609, 27.07763],
        [83.74695, 27.078],
        [83.74788, 27.0784],
        [83.74817, 27.07889],
        [83.74944, 27.07962],
        [83.74971, 27.07952],
        [83.75004, 27.0795],
        [83.75037, 27.07958],
        [83.75061, 27.07964],
        [83.75085, 27.07974],
        [83.75112, 27.07985],
        [83.75165, 27.08032],
        [83.7526, 27.08114],
        [83.75307, 27.08156],
        [83.7534, 27.08173],
        [83.75521, 27.08296],
        [83.75678, 27.08404],
        [83.75708, 27.08425],
        [83.75847, 27.08494],
        [83.75893, 27.08519],
        [83.76021, 27.08591],
        [83.76054, 27.08595],
        [83.76093, 27.086],
        [83.76115, 27.08602],
        [83.76147, 27.08609],
        [83.76226, 27.08605],
        [83.76321, 27.08618],
        [83.76351, 27.08622],
        [83.76397, 27.08634],
        [83.7644, 27.08645],
        [83.76515, 27.08682],
        [83.76556, 27.08704],
        [83.76685, 27.08758],
        [83.76737, 27.08756],
        [83.76777, 27.08755],
        [83.76803, 27.08757],
        [83.76826, 27.08764],
        [83.76888, 27.08781],
        [83.76966, 27.08804],
        [83.7704, 27.08844],
        [83.77092, 27.08862],
        [83.77115, 27.08869],
        [83.77193, 27.08878],
        [83.7724, 27.08883],
        [83.77275, 27.08905],
        [83.77287, 27.08949],
        [83.77308, 27.0901],
        [83.77329, 27.09054],
        [83.77359, 27.09118],
        [83.77379, 27.09161],
        [83.77405, 27.09201],
        [83.77437, 27.09243],
        [83.77455, 27.09284],
        [83.77465, 27.09307],
        [83.77475, 27.09345],
        [83.77488, 27.09362],
        [83.77506, 27.09388],
        [83.7752, 27.09411],
        [83.77531, 27.09448],
        [83.77529, 27.09466],
        [83.77517, 27.09556],
        [83.77515, 27.0962],
        [83.77513, 27.09649],
        [83.77518, 27.09851],
        [83.77526, 27.09963],
        [83.77519, 27.10029],
        [83.77516, 27.10051],
        [83.77511, 27.10115],
        [83.77533, 27.10205],
        [83.77552, 27.1028],
        [83.77562, 27.10301],
        [83.77581, 27.10362],
        [83.77606, 27.10414],
        [83.77641, 27.10491],
        [83.77636, 27.10515],
        [83.77633, 27.10534],
        [83.77627, 27.1057],
        [83.77637, 27.10604],
        [83.77654, 27.10635],
        [83.77679, 27.10655],
        [83.77709, 27.1066],
        [83.77757, 27.10668],
        [83.77793, 27.10674],
        [83.77831, 27.10673],
        [83.77851, 27.10671],
        [83.77954, 27.1066],
        [83.78091, 27.10676],
        [83.78193, 27.10672],
        [83.78277, 27.10674],
        [83.7831, 27.10675],
        [83.78365, 27.10681],
        [83.7841, 27.10687],
        [83.7849, 27.1069],
        [83.78545, 27.10683],
        [83.78641, 27.10679],
        [83.78903, 27.10659],
        [83.79097, 27.10642],
        [83.7912, 27.10643],
        [83.79293, 27.10651],
        [83.79412, 27.10659],
        [83.79444, 27.10665],
        [83.79598, 27.10722],
        [83.79671, 27.10749],
        [83.79786, 27.10804],
        [83.79876, 27.10852],
        [83.79985, 27.10909],
        [83.80017, 27.10928],
        [83.80061, 27.10954],
        [83.80109, 27.11008],
        [83.80193, 27.11103],
        [83.80235, 27.11157],
        [83.80306, 27.11243],
        [83.80411, 27.11392],
        [83.80451, 27.11448],
        [83.80485, 27.11503],
        [83.80513, 27.11564],
        [83.80524, 27.11589],
        [83.8054, 27.11654],
        [83.80541, 27.11721],
        [83.80541, 27.11774],
        [83.80532, 27.11913],
        [83.80532, 27.1194],
        [83.80529, 27.12004],
        [83.80528, 27.12042],
        [83.80539, 27.12134],
        [83.80567, 27.1223],
        [83.80574, 27.12252],
        [83.80591, 27.12328],
        [83.80588, 27.12369],
        [83.80593, 27.12426],
        [83.80581, 27.12551],
        [83.80579, 27.12606],
        [83.80567, 27.12727],
        [83.8055, 27.12914],
        [83.80544, 27.12971],
        [83.80545, 27.13016],
        [83.80541, 27.13157],
        [83.80538, 27.13249],
        [83.8054, 27.13268],
        [83.80549, 27.13414],
        [83.80557, 27.13541],
        [83.80564, 27.13643],
        [83.80571, 27.13684],
        [83.8059, 27.13915],
        [83.806, 27.1405],
        [83.80605, 27.14121],
        [83.8061, 27.14144],
        [83.80639, 27.1435],
        [83.80679, 27.14573],
        [83.80734, 27.14877],
        [83.80753, 27.14932],
        [83.80803, 27.15079],
        [83.80831, 27.15157],
        [83.80862, 27.1525],
        [83.80919, 27.15428],
        [83.8097, 27.15586],
        [83.80988, 27.15647],
        [83.81012, 27.15732],
        [83.81041, 27.15842],
        [83.81064, 27.1596],
        [83.81086, 27.16071],
        [83.8109, 27.16095],
        [83.81111, 27.16141],
        [83.8112, 27.16172],
        [83.81149, 27.16216],
        [83.81181, 27.16264],
        [83.81239, 27.16337],
        [83.81313, 27.16421],
        [83.81401, 27.16508],
        [83.81524, 27.16637],
        [83.81702, 27.16753],
        [83.81868, 27.16859],
        [83.82029, 27.16974],
        [83.82062, 27.16998],
        [83.82136, 27.17064],
        [83.82263, 27.17169],
        [83.82393, 27.17277],
        [83.82434, 27.17321],
        [83.82509, 27.17401],
        [83.82524, 27.17452],
        [83.82521, 27.17472],
        [83.82524, 27.17498],
        [83.82528, 27.17531],
        [83.82496, 27.17564],
        [83.8245, 27.1763],
        [83.82407, 27.17643],
        [83.82373, 27.17646],
        [83.82347, 27.17648],
        [83.82312, 27.17645],
        [83.82287, 27.17642],
        [83.82234, 27.17634],
        [83.82145, 27.1762],
        [83.82118, 27.17588],
        [83.82083, 27.17539],
        [83.82066, 27.17524],
        [83.82044, 27.17509],
        [83.82015, 27.17497],
        [83.81977, 27.17481],
        [83.81896, 27.17465],
        [83.8185, 27.17451],
        [83.8183, 27.17444],
        [83.81741, 27.17377],
        [83.81615, 27.17306],
        [83.81505, 27.17248],
        [83.81443, 27.17224],
        [83.81313, 27.17175],
        [83.81222, 27.17138],
        [83.81182, 27.17131],
        [83.81146, 27.17125],
        [83.81059, 27.17127],
        [83.8094, 27.17126],
        [83.80727, 27.17125],
        [83.80697, 27.17121],
        [83.80524, 27.17102],
        [83.80436, 27.17092],
        [83.80338, 27.17073],
        [83.80284, 27.17063],
        [83.8007, 27.17018],
        [83.80047, 27.17013],
        [83.79917, 27.16988],
        [83.79833, 27.16971],
        [83.79739, 27.1693],
        [83.79679, 27.16895],
        [83.79614, 27.16848],
        [83.79586, 27.16827],
        [83.7951, 27.16739],
        [83.79439, 27.16633],
        [83.79412, 27.16606],
        [83.79335, 27.16536],
        [83.79291, 27.16506],
        [83.79231, 27.16476],
        [83.79145, 27.16443],
        [83.79069, 27.16425],
        [83.78982, 27.16405],
        [83.78953, 27.16402],
        [83.7879, 27.16391],
        [83.7862, 27.16412],
        [83.78492, 27.16458],
        [83.78436, 27.1648],
        [83.78324, 27.1653],
        [83.78309, 27.16544],
        [83.78253, 27.16595],
        [83.78236, 27.16614],
        [83.78204, 27.1665],
        [83.78203, 27.16676],
        [83.78202, 27.16695],
        [83.78207, 27.16722],
        [83.78211, 27.16746],
        [83.78221, 27.16772],
        [83.7823, 27.16793],
        [83.78264, 27.16838],
        [83.78314, 27.16906],
        [83.78344, 27.16941],
        [83.78436, 27.17046],
        [83.78561, 27.17126],
        [83.78617, 27.17162],
        [83.78712, 27.17194],
        [83.78768, 27.17213],
        [83.78807, 27.17219],
        [83.78857, 27.17229],
        [83.78912, 27.17232],
        [83.78975, 27.17237],
        [83.79021, 27.17244],
        [83.79114, 27.17267],
        [83.79251, 27.17302],
        [83.79347, 27.17331],
        [83.79418, 27.17353],
        [83.79498, 27.17381],
        [83.79612, 27.1742],
        [83.79637, 27.17431],
        [83.79765, 27.17514],
        [83.79835, 27.1755],
        [83.79913, 27.17601],
        [83.80021, 27.17671],
        [83.80076, 27.17712],
        [83.80175, 27.17786],
        [83.80338, 27.17936],
        [83.80407, 27.17964],
        [83.80575, 27.18033],
        [83.80671, 27.1808],
        [83.80752, 27.1812],
        [83.80775, 27.18131],
        [83.80836, 27.18179],
        [83.80854, 27.18192],
        [83.80909, 27.18236],
        [83.80999, 27.18305],
        [83.81041, 27.18336],
        [83.8109, 27.18388],
        [83.81148, 27.18448],
        [83.8121, 27.1852],
        [83.81236, 27.18551],
        [83.81273, 27.18605],
        [83.81289, 27.18633],
        [83.81294, 27.18662],
        [83.81289, 27.18697],
        [83.81285, 27.18743],
        [83.81262, 27.18784],
        [83.81246, 27.18801],
        [83.81224, 27.18832],
        [83.81183, 27.18855],
        [83.81146, 27.18876],
        [83.81066, 27.18901],
        [83.80947, 27.18944],
        [83.80925, 27.18959],
        [83.80889, 27.18984],
        [83.80844, 27.19017],
        [83.8079, 27.19054],
        [83.80751, 27.19061],
        [83.80705, 27.19072],
        [83.80648, 27.1909],
        [83.80603, 27.19126],
        [83.80554, 27.1918],
        [83.80513, 27.19222],
        [83.80495, 27.19242],
        [83.80424, 27.19292],
        [83.80407, 27.19304],
        [83.80317, 27.19362],
        [83.80295, 27.19395],
        [83.80276, 27.19415],
        [83.80226, 27.19468],
        [83.80205, 27.19483],
        [83.80156, 27.19526],
        [83.8007, 27.19601],
        [83.80023, 27.1968],
        [83.79999, 27.19773],
        [83.79988, 27.19839],
        [83.79976, 27.19878],
        [83.79974, 27.19909],
        [83.79964, 27.20014],
        [83.79958, 27.20056],
        [83.79972, 27.2017],
        [83.79976, 27.20206],
        [83.79981, 27.20276],
        [83.79987, 27.20301],
        [83.79995, 27.20373],
        [83.79982, 27.20405],
        [83.79969, 27.20434],
        [83.79954, 27.20465],
        [83.79901, 27.20536],
        [83.79889, 27.20552],
        [83.79884, 27.20585],
        [83.7987, 27.20618],
        [83.79849, 27.20669],
        [83.7984, 27.20697],
        [83.79834, 27.20743],
        [83.79828, 27.20779],
        [83.79818, 27.20872],
        [83.7981, 27.20942],
        [83.79793, 27.21014],
        [83.79773, 27.21094],
        [83.79758, 27.21217],
        [83.79765, 27.21279],
        [83.79794, 27.21356],
        [83.79804, 27.21383],
        [83.79846, 27.21429],
        [83.79895, 27.21531],
        [83.79974, 27.21565],
        [83.80046, 27.21629],
        [83.80126, 27.21652],
        [83.80153, 27.21659],
        [83.80207, 27.21657],
        [83.80247, 27.21665],
        [83.80279, 27.21659],
        [83.804, 27.21638],
        [83.80459, 27.21616],
        [83.80537, 27.21601],
        [83.80614, 27.21568],
        [83.80663, 27.21546],
        [83.80682, 27.21529],
        [83.80731, 27.21484],
        [83.80774, 27.2144],
        [83.80795, 27.21417],
        [83.80856, 27.21353],
        [83.80873, 27.21325],
        [83.8088, 27.21286],
        [83.80892, 27.21257],
        [83.809, 27.21239],
        [83.80924, 27.21212],
        [83.80935, 27.21188],
        [83.80948, 27.21157],
        [83.80961, 27.21129],
        [83.80974, 27.21101],
        [83.80984, 27.21081],
        [83.80998, 27.2106],
        [83.81011, 27.21038],
        [83.81026, 27.21016],
        [83.81039, 27.20982],
        [83.81048, 27.20958],
        [83.81063, 27.20903],
        [83.81075, 27.20859],
        [83.81084, 27.20839],
        [83.81096, 27.20805],
        [83.81105, 27.2077],
        [83.81116, 27.2073],
        [83.81135, 27.20715],
        [83.81155, 27.20687],
        [83.81186, 27.20683],
        [83.81197, 27.20647],
        [83.81183, 27.20623],
        [83.81173, 27.20593],
        [83.81188, 27.20568],
        [83.81225, 27.20574],
        [83.81249, 27.20584],
        [83.81273, 27.20579],
        [83.81282, 27.20555],
        [83.81291, 27.20538],
        [83.81294, 27.20507],
        [83.81298, 27.20487],
        [83.8133, 27.20491],
        [83.81338, 27.20516],
        [83.81359, 27.20534],
        [83.81381, 27.20519],
        [83.81397, 27.20492],
        [83.8142, 27.2045],
        [83.8146, 27.20376],
        [83.81487, 27.20326],
        [83.81545, 27.20273],
        [83.81618, 27.20207],
        [83.81657, 27.2017],
        [83.81674, 27.20141],
        [83.81689, 27.20129],
        [83.81727, 27.20104],
        [83.8176, 27.20097],
        [83.81794, 27.20091],
        [83.81825, 27.20077],
        [83.81875, 27.2005],
        [83.81909, 27.20043],
        [83.81932, 27.20037],
        [83.81989, 27.20014],
        [83.82024, 27.20006],
        [83.82052, 27.19998],
        [83.82089, 27.19995],
        [83.82119, 27.19992],
        [83.8227, 27.20008],
        [83.82309, 27.20014],
        [83.82395, 27.20032],
        [83.82498, 27.20066],
        [83.82566, 27.20089],
        [83.82643, 27.20128],
        [83.82776, 27.20204],
        [83.82902, 27.20359],
        [83.82923, 27.20385],
        [83.8304, 27.20484],
        [83.83082, 27.20567],
        [83.83118, 27.20642],
        [83.83146, 27.20682],
        [83.83165, 27.20722],
        [83.83177, 27.20804],
        [83.83207, 27.20899],
        [83.83219, 27.20957],
        [83.83225, 27.21022],
        [83.83234, 27.21068],
        [83.83264, 27.21117],
        [83.83273, 27.21136],
        [83.83285, 27.2116],
        [83.83286, 27.21183],
        [83.83287, 27.21214],
        [83.83288, 27.21239],
        [83.83279, 27.21272],
        [83.83273, 27.21292],
        [83.83249, 27.21301],
        [83.83192, 27.21302],
        [83.83171, 27.21295],
        [83.83149, 27.21307],
        [83.83127, 27.21326],
        [83.83107, 27.21348],
        [83.83085, 27.21368],
        [83.83054, 27.21382],
        [83.8304, 27.21421],
        [83.83029, 27.2144],
        [83.83015, 27.21463],
        [83.83033, 27.21506],
        [83.83058, 27.21536],
        [83.83065, 27.21567],
        [83.83067, 27.21598],
        [83.83063, 27.21635],
        [83.83058, 27.21655],
        [83.8301, 27.21696],
        [83.82989, 27.21713],
        [83.82978, 27.21751],
        [83.82973, 27.21792],
        [83.82964, 27.21856],
        [83.8294, 27.21893],
        [83.82916, 27.21942],
        [83.82886, 27.21986],
        [83.82841, 27.22004],
        [83.82796, 27.22009],
        [83.82786, 27.22085],
        [83.82721, 27.2215],
        [83.8271, 27.22226],
        [83.8269, 27.22262],
        [83.82689, 27.22297],
        [83.82684, 27.22348],
        [83.82678, 27.22419],
        [83.82651, 27.22503],
        [83.82631, 27.22568],
        [83.82616, 27.22587],
        [83.82598, 27.22611],
        [83.82542, 27.22682],
        [83.82525, 27.22694],
        [83.82498, 27.22728],
        [83.82463, 27.22771],
        [83.8243, 27.22806],
        [83.82407, 27.22848],
        [83.82377, 27.22901],
        [83.82371, 27.2294],
        [83.82317, 27.23036],
        [83.82308, 27.23053],
        [83.82294, 27.23069],
        [83.82259, 27.23101],
        [83.82199, 27.23128],
        [83.82178, 27.23165],
        [83.82124, 27.23242],
        [83.82058, 27.23282],
        [83.82011, 27.23306],
        [83.81979, 27.23323],
        [83.81905, 27.23349],
        [83.81844, 27.2337],
        [83.81791, 27.23388],
        [83.81759, 27.23383],
        [83.81715, 27.23376],
        [83.81679, 27.23367],
        [83.81629, 27.23344],
        [83.81577, 27.23294],
        [83.81555, 27.23262],
        [83.81545, 27.23243],
        [83.81519, 27.23221],
        [83.81503, 27.23202],
        [83.81484, 27.23169],
        [83.81443, 27.23131],
        [83.8139, 27.23098],
        [83.8135, 27.23076],
        [83.81311, 27.23058],
        [83.81266, 27.23012],
        [83.8124, 27.23012],
        [83.81209, 27.22994],
        [83.81151, 27.22977],
        [83.81041, 27.22946],
        [83.80948, 27.22898],
        [83.80923, 27.22888],
        [83.80857, 27.2285],
        [83.80815, 27.22848],
        [83.80768, 27.22846],
        [83.8075, 27.22859],
        [83.8074, 27.22882],
        [83.80722, 27.22921],
        [83.80706, 27.22945],
        [83.80703, 27.22972],
        [83.80676, 27.23086],
        [83.80659, 27.23116],
        [83.80623, 27.2318],
        [83.80609, 27.23201],
        [83.80561, 27.2324],
        [83.80488, 27.23285],
        [83.80449, 27.23295],
        [83.80424, 27.23292],
        [83.80391, 27.23293],
        [83.80365, 27.23278],
        [83.80323, 27.23255],
        [83.80271, 27.23257],
        [83.80209, 27.23256],
        [83.80174, 27.23256],
        [83.80155, 27.23265],
        [83.80095, 27.23274],
        [83.80056, 27.2329],
        [83.8004, 27.23321],
        [83.80004, 27.23334],
        [83.7998, 27.23342],
        [83.79948, 27.23348],
        [83.79911, 27.23351],
        [83.79884, 27.23353],
        [83.79842, 27.23363],
        [83.79806, 27.23371],
        [83.79759, 27.23407],
        [83.79684, 27.23462],
        [83.79665, 27.2348],
        [83.7956, 27.23593],
        [83.79547, 27.23608],
        [83.79495, 27.23691],
        [83.79484, 27.2371],
        [83.79466, 27.23782],
        [83.79452, 27.23826],
        [83.79446, 27.23872],
        [83.79446, 27.23916],
        [83.79449, 27.23944],
        [83.79452, 27.23969],
        [83.79457, 27.24067],
        [83.79458, 27.24086],
        [83.7947, 27.24222],
        [83.79471, 27.24302],
        [83.79486, 27.24361],
        [83.79496, 27.24402],
        [83.79506, 27.24421],
        [83.79536, 27.24474],
        [83.79552, 27.24495],
        [83.79635, 27.24582],
        [83.79715, 27.24615],
        [83.79775, 27.2464],
        [83.79879, 27.24678],
        [83.79933, 27.24698],
        [83.79974, 27.2471],
        [83.80014, 27.24714],
        [83.80072, 27.24706],
        [83.80129, 27.24688],
        [83.80165, 27.24675],
        [83.80263, 27.24634],
        [83.8044, 27.24558],
        [83.80461, 27.24569],
        [83.80498, 27.24595],
        [83.80524, 27.24727],
        [83.8057, 27.24811],
        [83.80632, 27.24873],
        [83.80703, 27.24949],
        [83.80726, 27.24967],
        [83.80742, 27.2498],
        [83.80766, 27.24955],
        [83.808, 27.24942],
        [83.80865, 27.24865],
        [83.80908, 27.24828],
        [83.80998, 27.24756],
        [83.81103, 27.24662],
        [83.8116, 27.2461],
        [83.81289, 27.24453],
        [83.81316, 27.24425],
        [83.81542, 27.24196],
        [83.81681, 27.24105],
        [83.81698, 27.24116],
        [83.8172, 27.24132],
        [83.81733, 27.2439],
        [83.81735, 27.2474],
        [83.81757, 27.24755],
        [83.81778, 27.2477],
        [83.81976, 27.24862],
        [83.82034, 27.24888],
        [83.8209, 27.24901],
        [83.82178, 27.24913],
        [83.82281, 27.24921],
        [83.82406, 27.24927],
        [83.82469, 27.24926],
        [83.82539, 27.24923],
        [83.82598, 27.24919],
        [83.8272, 27.24916],
        [83.83011, 27.24908],
        [83.83063, 27.24907],
        [83.83268, 27.24896],
        [83.83564, 27.2488],
        [83.83634, 27.24871],
        [83.83767, 27.24855],
        [83.83791, 27.24858],
        [83.83845, 27.24864],
        [83.83894, 27.24874],
        [83.84002, 27.24915],
        [83.84102, 27.24959],
        [83.84246, 27.25023],
        [83.84245, 27.2506],
        [83.84501, 27.25162],
        [83.84597, 27.25199],
        [83.84708, 27.25233],
        [83.84791, 27.25261],
        [83.84912, 27.25302],
        [83.8493, 27.25329],
        [83.84923, 27.25357],
        [83.84892, 27.25402],
        [83.84881, 27.25421],
        [83.84834, 27.255],
        [83.84791, 27.2559],
        [83.84771, 27.25628],
        [83.84745, 27.25675],
        [83.8467, 27.25722],
        [83.84639, 27.25742],
        [83.84586, 27.25786],
        [83.84556, 27.25815],
        [83.84527, 27.25859],
        [83.84458, 27.2597],
        [83.8436, 27.26102],
        [83.84331, 27.26141],
        [83.84233, 27.26254],
        [83.84137, 27.26402],
        [83.84111, 27.26442],
        [83.84102, 27.26459],
        [83.84032, 27.26558],
        [83.83988, 27.26622],
        [83.83886, 27.26713],
        [83.83867, 27.26729],
        [83.83807, 27.26796],
        [83.83784, 27.26821],
        [83.83744, 27.26902],
        [83.83732, 27.26968],
        [83.83726, 27.27],
        [83.83721, 27.27024],
        [83.83729, 27.27114],
        [83.83708, 27.27273],
        [83.83711, 27.27341],
        [83.83707, 27.27361],
        [83.83686, 27.27462],
        [83.83679, 27.2749],
        [83.83658, 27.27599],
        [83.8366, 27.2778],
        [83.83682, 27.27835],
        [83.83693, 27.27861],
        [83.83722, 27.27921],
        [83.83757, 27.27961],
        [83.83862, 27.28139],
        [83.83936, 27.28249],
        [83.84013, 27.28315],
        [83.84048, 27.28346],
        [83.84237, 27.28512],
        [83.84282, 27.28549],
        [83.844, 27.28662],
        [83.84447, 27.28707],
        [83.84494, 27.28739],
        [83.84584, 27.28816],
        [83.8469, 27.28891],
        [83.84838, 27.28942],
        [83.84979, 27.28968],
        [83.85018, 27.28975],
        [83.85188, 27.29013],
        [83.85304, 27.29028],
        [83.85468, 27.29076],
        [83.85581, 27.29086],
        [83.8563, 27.29099],
        [83.85712, 27.29118],
        [83.85742, 27.29125],
        [83.85785, 27.29145],
        [83.85831, 27.29178],
        [83.85856, 27.29193],
        [83.85896, 27.29217],
        [83.85917, 27.2923],
        [83.85966, 27.29243],
        [83.86052, 27.29285],
        [83.86072, 27.29291],
        [83.8609, 27.29306],
        [83.86112, 27.29325],
        [83.86127, 27.29349],
        [83.86141, 27.29368],
        [83.86166, 27.29421],
        [83.86188, 27.29465],
        [83.86211, 27.29468],
        [83.8624, 27.29457],
        [83.86261, 27.2945],
        [83.86291, 27.2943],
        [83.86435, 27.29339],
        [83.86451, 27.29322],
        [83.86527, 27.29232],
        [83.86546, 27.29202],
        [83.86597, 27.29121],
        [83.86633, 27.29114],
        [83.86638, 27.29141],
        [83.86654, 27.29193],
        [83.86683, 27.29259],
        [83.86722, 27.29309],
        [83.86742, 27.29334],
        [83.86811, 27.29371],
        [83.86924, 27.29449],
        [83.86961, 27.29474],
        [83.87048, 27.29537],
        [83.87209, 27.29666],
        [83.8724, 27.29689],
        [83.87264, 27.29708],
        [83.87301, 27.29708],
        [83.87336, 27.29689],
        [83.8737, 27.29666],
        [83.87411, 27.29639],
        [83.87496, 27.29582],
        [83.87575, 27.29534],
        [83.8767, 27.29477],
        [83.87736, 27.29429],
        [83.87797, 27.29372],
        [83.87811, 27.29355],
        [83.87837, 27.29313],
        [83.87847, 27.2928],
        [83.87849, 27.29241],
        [83.87847, 27.29192],
        [83.87844, 27.29075],
        [83.87833, 27.28955],
        [83.87845, 27.28886],
        [83.87852, 27.28862],
        [83.8788, 27.28774],
        [83.87919, 27.28666],
        [83.87927, 27.28648],
        [83.87962, 27.28581],
        [83.88022, 27.28463],
        [83.88063, 27.28386],
        [83.88099, 27.28348],
        [83.88124, 27.28332],
        [83.88144, 27.28326],
        [83.8818, 27.28331],
        [83.88485, 27.28372],
        [83.88564, 27.28382],
        [83.88658, 27.28392],
        [83.89075, 27.28481],
        [83.89196, 27.28506],
        [83.89405, 27.28521],
        [83.89425, 27.2851],
        [83.89483, 27.28461],
        [83.89598, 27.28366],
        [83.8965, 27.28335],
        [83.89754, 27.28277],
        [83.89915, 27.28189],
        [83.89978, 27.28154],
        [83.90086, 27.28095],
        [83.90108, 27.28079],
        [83.90213, 27.27996],
        [83.90314, 27.27906],
        [83.90449, 27.27786],
        [83.90618, 27.27625],
        [83.90677, 27.27568],
        [83.90667, 27.2756],
        [83.90619, 27.27523],
        [83.9059, 27.275],
        [83.9051, 27.2735],
        [83.90483, 27.27276],
        [83.9047, 27.2724],
        [83.9047, 27.2705],
        [83.9047, 27.26996],
        [83.9047, 27.2685],
        [83.9052, 27.2665],
        [83.9053, 27.26587],
        [83.9055, 27.2646],
        [83.9054, 27.262],
        [83.9054, 27.26109],
        [83.90539, 27.26078],
        [83.90536, 27.2605],
        [83.9051, 27.2585],
        [83.9051, 27.2577],
        [83.9059, 27.2561],
        [83.9074, 27.2537],
        [83.90855, 27.25249],
        [83.9093, 27.2517],
        [83.9102, 27.2502],
        [83.91032, 27.2499],
        [83.9106, 27.2492],
        [83.9111, 27.2478],
        [83.91134, 27.24722],
        [83.9116, 27.2466],
        [83.91179, 27.24603],
        [83.9118, 27.246],
        [83.9118, 27.246],
        [83.91181, 27.24598],
        [83.91196, 27.2459],
        [83.9121, 27.2458],
        [83.91213, 27.2458],
        [83.9129, 27.2457],
        [83.914, 27.2455],
        [83.9149, 27.2453],
        [83.9159, 27.24513],
        [83.9161, 27.2451],
        [83.9172, 27.245],
        [83.9177, 27.245],
        [83.9185, 27.2448],
        [83.919, 27.24467],
        [83.91932, 27.24459],
        [83.91945, 27.24452],
        [83.9202, 27.2441],
        [83.92053, 27.24377],
        [83.9207, 27.2436],
        [83.922, 27.2427],
        [83.9225, 27.24237],
        [83.92293, 27.24206],
        [83.92305, 27.24198],
        [83.9233, 27.2418],
        [83.9242, 27.24164],
        [83.925, 27.2415],
        [83.9272, 27.2408],
        [83.9295, 27.2402],
        [83.9308, 27.24],
        [83.93172, 27.23966],
        [83.9324, 27.2394],
        [83.93241, 27.2394],
        [83.93244, 27.23939],
        [83.93311, 27.2394],
        [83.9345, 27.2394],
        [83.93499, 27.23943],
        [83.9359, 27.2395],
        [83.93613, 27.23942],
        [83.9362, 27.2394],
        [83.9367, 27.2392],
        [83.93795, 27.23866],
        [83.9381, 27.2386],
        [83.9391, 27.2382],
        [83.9397, 27.238],
        [83.9403, 27.238],
        [83.94162, 27.23828],
        [83.9417, 27.2383],
        [83.9433, 27.2383],
        [83.9449, 27.2381],
        [83.9467, 27.2379],
        [83.94754, 27.2379],
        [83.9482, 27.2379],
        [83.9498, 27.2376],
        [83.95074, 27.23724],
        [83.9511, 27.2371],
        [83.9538, 27.2361],
        [83.9557, 27.2353],
        [83.9573, 27.2342],
        [83.9585, 27.2334],
        [83.9598, 27.2324],
        [83.9608, 27.2315],
        [83.9621, 27.2301],
        [83.9631, 27.2289],
        [83.9632, 27.2288],
        [83.9634, 27.2286],
        [83.9634, 27.2284],
        [83.96338, 27.22838],
        [83.9633, 27.2283],
        [83.9629, 27.2279],
        [83.9626, 27.22755],
        [83.9623, 27.2272],
        [83.9623, 27.227],
        [83.9626, 27.2267],
        [83.96415, 27.22599],
        [83.965, 27.2256],
        [83.96622, 27.22521],
        [83.9672, 27.2249],
        [83.968, 27.22467],
        [83.9689, 27.2244],
        [83.9702, 27.224],
        [83.97034, 27.22391],
        [83.9705, 27.2238],
        [83.97117, 27.22256],
        [83.9712, 27.2225],
        [83.9724, 27.2198],
        [83.97259, 27.21946],
        [83.9729, 27.2189],
        [83.9728, 27.2182],
        [83.9722, 27.2172],
        [83.97162, 27.21667],
        [83.9709, 27.216],
        [83.9697, 27.2153],
        [83.96905, 27.21465],
        [83.9685, 27.2141],
        [83.9676, 27.2131],
        [83.9672, 27.2123],
        [83.9671, 27.2112],
        [83.9672, 27.2103],
        [83.96734, 27.20992],
        [83.9675, 27.2095],
        [83.96802, 27.20916],
        [83.96809, 27.2091],
        [83.96814, 27.20909],
        [83.9694, 27.2088],
        [83.96999, 27.2088],
        [83.9705, 27.2088],
        [83.97106, 27.20872],
        [83.9712, 27.2087],
        [83.97161, 27.20856],
        [83.97182, 27.20848],
        [83.97187, 27.20844],
        [83.9727, 27.2077],
        [83.9734, 27.2068],
        [83.974, 27.2059],
        [83.97417, 27.20573],
        [83.9746, 27.2053],
        [83.97506, 27.20504],
        [83.9753, 27.2049],
        [83.9762, 27.2047],
        [83.97674, 27.20462],
        [83.9775, 27.2045],
        [83.979, 27.2039],
        [83.97973, 27.20325],
        [83.9799, 27.2031],
        [83.9809, 27.202],
        [83.98157, 27.20139],
        [83.982, 27.201],
        [83.9833, 27.2],
        [83.98459, 27.19901],
        [83.9846, 27.199],
        [83.9863, 27.198],
        [83.98651, 27.19788],
        [83.987, 27.1976],
        [83.9874, 27.1971],
        [83.9877, 27.1962],
        [83.9878, 27.1944],
        [83.9879, 27.193],
        [83.988, 27.1913],
        [83.9883, 27.1898],
        [83.98854, 27.18929],
        [83.9889, 27.1885],
        [83.98928, 27.18768],
        [83.9895, 27.1872],
        [83.9904, 27.1853],
        [83.99077, 27.18481],
        [83.9914, 27.184],
        [83.9921, 27.18323],
        [83.9924, 27.1829],
        [83.9932, 27.1822],
        [83.9934, 27.1817],
        [83.99344, 27.18118],
        [83.9935, 27.1805],
        [83.99335, 27.1798],
        [83.9932, 27.1791],
        [83.99314, 27.17863],
        [83.9931, 27.1783],
        [83.9932, 27.1778],
        [83.9936, 27.1769],
        [83.9941, 27.1759],
        [83.99416, 27.17548],
        [83.9942, 27.1752],
        [83.9942, 27.1746],
        [83.99406, 27.17412],
        [83.994, 27.1739],
        [83.99331, 27.17321],
        [83.9933, 27.1732],
        [83.9919, 27.1728],
        [83.9907, 27.1725],
        [83.9892, 27.172],
        [83.9885, 27.1716],
        [83.98788, 27.17084],
        [83.9876, 27.1705],
        [83.98741, 27.17022],
        [83.9869, 27.1695],
        [83.9861, 27.169],
        [83.98559, 27.16878],
        [83.984, 27.1681],
        [83.98313, 27.16756],
        [83.9824, 27.1671],
        [83.9816, 27.1665],
        [83.9806, 27.166],
        [83.9796, 27.1656],
        [83.9793, 27.1654],
        [83.9788, 27.1649],
        [83.97873, 27.16452],
        [83.9786, 27.1638],
        [83.97851, 27.16307],
        [83.9784, 27.1622],
        [83.9777, 27.16],
        [83.977, 27.1587],
        [83.97664, 27.15808],
        [83.9762, 27.1573],
        [83.9754, 27.1559],
        [83.97442, 27.15473],
        [83.9744, 27.1547],
        [83.9735, 27.154],
        [83.97311, 27.15376],
        [83.9727, 27.1535],
        [83.9721, 27.153],
        [83.9718, 27.1525],
        [83.9715, 27.1518],
        [83.97132, 27.15153],
        [83.9707, 27.1506],
        [83.96993, 27.14956],
        [83.9693, 27.1487],
        [83.9679, 27.1467],
        [83.9664, 27.1448],
        [83.9652, 27.1432],
        [83.96453, 27.14258],
        [83.9638, 27.1419],
        [83.96351, 27.14155],
        [83.9633, 27.1413],
        [83.96304, 27.14101],
        [83.9626, 27.1405],
        [83.9616, 27.1396],
        [83.9608, 27.1389],
        [83.96051, 27.13867],
        [83.9603, 27.1385],
        [83.9596, 27.1377],
        [83.9591, 27.1369],
        [83.95907, 27.13684],
        [83.9588, 27.1363],
        [83.95874, 27.13606],
        [83.9587, 27.1359],
        [83.9589, 27.1355],
        [83.9594, 27.1349],
        [83.96, 27.1342],
        [83.96045, 27.13352],
        [83.96058, 27.13331],
        [83.96072, 27.13282],
        [83.9608, 27.1325],
        [83.96086, 27.13235],
        [83.961, 27.132],
        [83.96117, 27.13117],
        [83.9612, 27.131],
        [83.9614, 27.1302],
        [83.9617, 27.1295],
        [83.9619, 27.1292],
        [83.9623, 27.1288],
        [83.9624, 27.1287],
        [83.96251, 27.12858],
        [83.9626, 27.1285],
        [83.9628, 27.1282],
        [83.9629, 27.128],
        [83.9629, 27.1277],
        [83.96259, 27.12724],
        [83.9625, 27.1271],
        [83.962, 27.1265],
        [83.96189, 27.12633],
        [83.9616, 27.1259],
        [83.9611, 27.1253],
        [83.96069, 27.12475],
        [83.9605, 27.1245],
        [83.96042, 27.12427],
        [83.9603, 27.1239],
        [83.96, 27.1232],
        [83.9598, 27.1225],
        [83.9596, 27.1221],
        [83.95948, 27.12202],
        [83.9593, 27.1219],
        [83.9588, 27.1217],
        [83.9584, 27.1216],
        [83.9584, 27.1216],
        [83.958, 27.1213],
        [83.9576, 27.1208],
        [83.957, 27.1203],
        [83.95678, 27.12017],
        [83.9562, 27.1198],
        [83.95541, 27.1195],
        [83.9548, 27.1194],
        [83.9532, 27.1192],
        [83.953, 27.1192],
        [83.95252, 27.11884],
        [83.95223, 27.11865],
        [83.95199, 27.11844],
        [83.9514, 27.118],
        [83.95078, 27.11729],
        [83.95073, 27.11724],
        [83.95071, 27.11722],
        [83.9507, 27.1172],
        [83.95068, 27.11716],
        [83.9503, 27.1165],
        [83.9496, 27.1157],
        [83.9492, 27.1151],
        [83.94915, 27.1151],
        [83.9491, 27.1151],
        [83.949, 27.1149],
        [83.94896, 27.11482],
        [83.9486, 27.1141],
        [83.9481, 27.1133],
        [83.94784, 27.11279],
        [83.9477, 27.1125],
        [83.9474, 27.1118],
        [83.9474, 27.1113],
        [83.9473, 27.1105],
        [83.9472, 27.1092],
        [83.9472, 27.1079],
        [83.9472, 27.1068],
        [83.94712, 27.10634],
        [83.9471, 27.1062],
        [83.94711, 27.10618],
        [83.94717, 27.10601],
        [83.9472, 27.10583],
        [83.9472, 27.1058],
        [83.9472, 27.1056],
        [83.94718, 27.10551],
        [83.9471, 27.1051],
        [83.9469, 27.1045],
        [83.9468, 27.1038],
        [83.9466, 27.1032],
        [83.94653, 27.10294],
        [83.9464, 27.1025],
        [83.9465, 27.1018],
        [83.9466, 27.1012],
        [83.94676, 27.10098],
        [83.9471, 27.1005],
        [83.9473, 27.0998],
        [83.9474, 27.099],
        [83.9474, 27.0981],
        [83.94728, 27.09757],
        [83.9472, 27.0972],
        [83.9472, 27.0968],
        [83.94717, 27.09672],
        [83.94707, 27.09652],
        [83.94706, 27.09631],
        [83.947, 27.096],
        [83.947, 27.0946],
        [83.94712, 27.09424],
        [83.94716, 27.09401],
        [83.94725, 27.09378],
        [83.9473, 27.0936],
        [83.9474, 27.0932],
        [83.9474, 27.09291],
        [83.94729, 27.09269],
        [83.947, 27.0924],
        [83.9467, 27.0921],
        [83.9465, 27.0918],
        [83.94646, 27.09173],
        [83.9464, 27.0916],
        [83.9464, 27.0913],
        [83.9465, 27.0909],
        [83.9465, 27.09089],
        [83.94651, 27.09086],
        [83.94672, 27.09047],
        [83.9468, 27.0903],
        [83.94681, 27.09029],
        [83.94682, 27.09027],
        [83.94749, 27.0895],
        [83.94759, 27.08937],
        [83.948, 27.0888],
        [83.94879, 27.08781],
        [83.9488, 27.0878],
        [83.9491, 27.0874],
        [83.94933, 27.087],
        [83.9495, 27.0867],
        [83.94991, 27.08641],
        [83.9502, 27.0862],
        [83.9506, 27.086],
        [83.95097, 27.08582],
        [83.9512, 27.0857],
        [83.9519, 27.0853],
        [83.95233, 27.08517],
        [83.9529, 27.085],
        [83.95418, 27.08461],
        [83.9542, 27.0846],
        [83.9551, 27.0843],
        [83.9551, 27.0843],
        [83.9559, 27.0841],
        [83.9565, 27.084],
        [83.9573, 27.084],
        [83.95824, 27.08394]
      ]
    ]
  }
}
