{
  "type": "Feature",
  "id": "UP-AC-33",
  "properties": {
    "stateName": "UTTAR PRADESH",
    "stateCode": "UP",
    "districtName": "SAMBHAL",
    "acNo": 33,
    "acName": "SAMBHAL",
    "seatType": null,
    "pcNo": null,
    "pcName": null,
    "quality": "unverified",
    "sources": [
      "TBD"
    ]
  },
  "geometry": {
    "type": "Polygon",
    "coordinates": [
      [
        [78.65286, 28.82296],
        [78.65435, 28.82303],
        [78.65458, 28.82297],
        [78.65631, 28.82251],
        [78.65753, 28.82213],
        [78.65865, 28.82129],
        [78.65962, 28.81968],
        [78.66062, 28.81661],
        [78.66067, 28.81633],
        [78.6611, 28.81404],
        [78.66113, 28.81199],
        [78.6609, 28.8108],
        [78.6609, 28.80924],
        [78.66109, 28.80787],
        [78.66107, 28.80758],
        [78.66098, 28.80634],
        [78.66078, 28.80515],
        [78.66043, 28.80296],
        [78.66103, 28.80088],
        [78.66251, 28.79947],
        [78.66296, 28.79893],
        [78.66375, 28.79799],
        [78.66543, 28.79602],
        [78.66783, 28.7928],
        [78.66919, 28.79085],
        [78.6694, 28.79056],
        [78.67053, 28.78896],
        [78.67245, 28.7842],
        [78.67483, 28.77965],
        [78.67607, 28.77739],
        [78.67656, 28.77646],
        [78.6776, 28.77449],
        [78.6785, 28.77082],
        [78.67853, 28.76812],
        [78.67813, 28.76622],
        [78.67777, 28.76495],
        [78.6774, 28.76353],
        [78.67733, 28.76164],
        [78.67728, 28.76022],
        [78.67717, 28.7591],
        [78.67704, 28.7577],
        [78.67685, 28.7566],
        [78.67605, 28.75581],
        [78.67527, 28.75581],
        [78.6742, 28.75644],
        [78.67386, 28.75651],
        [78.67187, 28.75691],
        [78.6686, 28.75722],
        [78.66687, 28.75706],
        [78.66593, 28.7564],
        [78.66575, 28.75627],
        [78.6646, 28.75484],
        [78.6641, 28.75357],
        [78.66388, 28.75152],
        [78.66387, 28.7509],
        [78.6638, 28.74822],
        [78.66314, 28.74649],
        [78.66184, 28.74475],
        [78.6604, 28.74317],
        [78.65956, 28.74243],
        [78.65882, 28.74177],
        [78.65808, 28.74096],
        [78.65806, 28.7397],
        [78.65836, 28.73846],
        [78.65864, 28.73787],
        [78.65975, 28.73552],
        [78.65974, 28.73513],
        [78.65974, 28.73443],
        [78.65926, 28.73333],
        [78.65798, 28.73129],
        [78.65608, 28.72909],
        [78.6556, 28.72768],
        [78.6556, 28.72644],
        [78.65597, 28.72394],
        [78.65608, 28.7232],
        [78.65608, 28.72181],
        [78.65577, 28.72057],
        [78.65562, 28.71933],
        [78.65531, 28.71793],
        [78.65532, 28.71593],
        [78.65502, 28.71407],
        [78.65498, 28.71383],
        [78.65458, 28.71083],
        [78.65429, 28.70774],
        [78.65434, 28.70668],
        [78.65441, 28.70513],
        [78.65476, 28.70268],
        [78.65472, 28.70213],
        [78.65463, 28.70068],
        [78.65418, 28.69929],
        [78.65327, 28.69682],
        [78.65111, 28.69401],
        [78.65016, 28.69269],
        [78.64942, 28.69167],
        [78.64864, 28.69104],
        [78.64802, 28.69087],
        [78.64691, 28.69054],
        [78.64535, 28.68988],
        [78.64348, 28.68861],
        [78.64267, 28.68779],
        [78.64179, 28.68688],
        [78.64119, 28.68566],
        [78.64074, 28.68472],
        [78.63851, 28.6804],
        [78.63779, 28.6784],
        [78.6372, 28.67702],
        [78.63726, 28.67551],
        [78.63761, 28.67446],
        [78.63826, 28.67387],
        [78.63998, 28.67422],
        [78.64089, 28.6753],
        [78.64196, 28.67624],
        [78.64228, 28.67637],
        [78.6432, 28.67673],
        [78.64477, 28.67662],
        [78.64559, 28.67573],
        [78.64578, 28.67482],
        [78.64574, 28.67448],
        [78.64566, 28.67376],
        [78.6437, 28.67128],
        [78.64314, 28.6696],
        [78.64353, 28.66765],
        [78.64516, 28.66603],
        [78.64691, 28.66532],
        [78.65025, 28.66388],
        [78.65219, 28.66242],
        [78.65379, 28.66105],
        [78.65461, 28.66036],
        [78.65618, 28.65828],
        [78.65787, 28.655],
        [78.65826, 28.65434],
        [78.65908, 28.65297],
        [78.65955, 28.65218],
        [78.66136, 28.64981],
        [78.66208, 28.6493],
        [78.66425, 28.64776],
        [78.66678, 28.64675],
        [78.66929, 28.6462],
        [78.66977, 28.64617],
        [78.67178, 28.64608],
        [78.67442, 28.64612],
        [78.67688, 28.64661],
        [78.67873, 28.64678],
        [78.67995, 28.64665],
        [78.68157, 28.64577],
        [78.68318, 28.64378],
        [78.68336, 28.64355],
        [78.68428, 28.64027],
        [78.68477, 28.63654],
        [78.68474, 28.63536],
        [78.68472, 28.63415],
        [78.68468, 28.63287],
        [78.68466, 28.63248],
        [78.68466, 28.63236],
        [78.68435, 28.62923],
        [78.68359, 28.6261],
        [78.68293, 28.62401],
        [78.68121, 28.62147],
        [78.68062, 28.62044],
        [78.68043, 28.62012],
        [78.68049, 28.61908],
        [78.68072, 28.61775],
        [78.68172, 28.61658],
        [78.6832, 28.61498],
        [78.68431, 28.61454],
        [78.68664, 28.61428],
        [78.68819, 28.61415],
        [78.69053, 28.61374],
        [78.69138, 28.6132],
        [78.69213, 28.61272],
        [78.69409, 28.61082],
        [78.69541, 28.60951],
        [78.69556, 28.60945],
        [78.69745, 28.60879],
        [78.69855, 28.60851],
        [78.70029, 28.60779],
        [78.70191, 28.60648],
        [78.70264, 28.60458],
        [78.70292, 28.60267],
        [78.70283, 28.6019],
        [78.70281, 28.60168],
        [78.70272, 28.6009],
        [78.70226, 28.5962],
        [78.70168, 28.59422],
        [78.70132, 28.59296],
        [78.70073, 28.59175],
        [78.7001, 28.59045],
        [78.69974, 28.58898],
        [78.69995, 28.58825],
        [78.70031, 28.58752],
        [78.70095, 28.58709],
        [78.70128, 28.5868],
        [78.70139, 28.58677],
        [78.70207, 28.58652],
        [78.7024, 28.58623],
        [78.70289, 28.5858],
        [78.70278, 28.58522],
        [78.70224, 28.58418],
        [78.702, 28.58316],
        [78.70193, 28.58199],
        [78.70231, 28.58122],
        [78.70265, 28.58054],
        [78.7035, 28.57953],
        [78.70384, 28.57852],
        [78.70389, 28.57837],
        [78.70372, 28.57661],
        [78.70331, 28.57588],
        [78.7024, 28.57572],
        [78.701, 28.57584],
        [78.69973, 28.57626],
        [78.69672, 28.57943],
        [78.69638, 28.57976],
        [78.69523, 28.58087],
        [78.6943, 28.58168],
        [78.69391, 28.58202],
        [78.69296, 28.58244],
        [78.69189, 28.58228],
        [78.69098, 28.58212],
        [78.69069, 28.58195],
        [78.6895, 28.58122],
        [78.68807, 28.5802],
        [78.68793, 28.58001],
        [78.68721, 28.57884],
        [78.68703, 28.57818],
        [78.6866, 28.57664],
        [78.68649, 28.57621],
        [78.68591, 28.57395],
        [78.68589, 28.57385],
        [78.68415, 28.56997],
        [78.68279, 28.56761],
        [78.68288, 28.56645],
        [78.68297, 28.56528],
        [78.68298, 28.56514],
        [78.68336, 28.56427],
        [78.6838, 28.56371],
        [78.68404, 28.56341],
        [78.68457, 28.56255],
        [78.68464, 28.56167],
        [78.68428, 28.56035],
        [78.68412, 28.55994],
        [78.68338, 28.55801],
        [78.68186, 28.55579],
        [78.67936, 28.5539],
        [78.67909, 28.5537],
        [78.67682, 28.55254],
        [78.67643, 28.55233],
        [78.67506, 28.55201],
        [78.67338, 28.55183],
        [78.67139, 28.55164],
        [78.6705, 28.55119],
        [78.66947, 28.55058],
        [78.6691, 28.54994],
        [78.66879, 28.5494],
        [78.66829, 28.54793],
        [78.66788, 28.54531],
        [78.66798, 28.54399],
        [78.66791, 28.54333],
        [78.66805, 28.54254],
        [78.66849, 28.54189],
        [78.66909, 28.5411],
        [78.66958, 28.54075],
        [78.6709, 28.53988],
        [78.67231, 28.53917],
        [78.67286, 28.53864],
        [78.6731, 28.53831],
        [78.67312, 28.5371],
        [78.67288, 28.53568],
        [78.67266, 28.5348],
        [78.67212, 28.53438],
        [78.67144, 28.53403],
        [78.67025, 28.53373],
        [78.66719, 28.53359],
        [78.66591, 28.53356],
        [78.66485, 28.53529],
        [78.66343, 28.53688],
        [78.66246, 28.53726],
        [78.66139, 28.53707],
        [78.66076, 28.53695],
        [78.65967, 28.53625],
        [78.65916, 28.53542],
        [78.6579, 28.53512],
        [78.65673, 28.53536],
        [78.65552, 28.53614],
        [78.65457, 28.53721],
        [78.65347, 28.5384],
        [78.65267, 28.53947],
        [78.65161, 28.54012],
        [78.65029, 28.5405],
        [78.64974, 28.54043],
        [78.64886, 28.54033],
        [78.64805, 28.53976],
        [78.64633, 28.53795],
        [78.6447, 28.53492],
        [78.64405, 28.53409],
        [78.64335, 28.5338],
        [78.64233, 28.53405],
        [78.64033, 28.53576],
        [78.63661, 28.5392],
        [78.6357, 28.53972],
        [78.63484, 28.5397],
        [78.63387, 28.53927],
        [78.63229, 28.53746],
        [78.63124, 28.53621],
        [78.63043, 28.53564],
        [78.62917, 28.5352],
        [78.62832, 28.53504],
        [78.62719, 28.53487],
        [78.62636, 28.53444],
        [78.62583, 28.53388],
        [78.62502, 28.53318],
        [78.62436, 28.53248],
        [78.62303, 28.53122],
        [78.62266, 28.53107],
        [78.62191, 28.53078],
        [78.62069, 28.52993],
        [78.62039, 28.52961],
        [78.61963, 28.52881],
        [78.61911, 28.5281],
        [78.61873, 28.52756],
        [78.61721, 28.52507],
        [78.61659, 28.52383],
        [78.61595, 28.52108],
        [78.61582, 28.51918],
        [78.6158, 28.51768],
        [78.61605, 28.51633],
        [78.61374, 28.51777],
        [78.61318, 28.51825],
        [78.61273, 28.51884],
        [78.61094, 28.52168],
        [78.61064, 28.52189],
        [78.61035, 28.52194],
        [78.60848, 28.52221],
        [78.608, 28.52247],
        [78.60763, 28.52278],
        [78.60405, 28.52596],
        [78.60315, 28.52676],
        [78.60267, 28.52696],
        [78.60238, 28.52695],
        [78.60204, 28.52689],
        [78.59858, 28.52481],
        [78.59804, 28.52431],
        [78.59751, 28.52372],
        [78.59608, 28.52444],
        [78.59558, 28.52476],
        [78.59507, 28.5253],
        [78.59404, 28.52661],
        [78.59437, 28.52704],
        [78.59461, 28.52754],
        [78.5948, 28.52815],
        [78.59476, 28.52935],
        [78.59467, 28.53044],
        [78.59442, 28.53137],
        [78.59381, 28.53245],
        [78.59217, 28.5347],
        [78.59194, 28.53502],
        [78.59058, 28.53679],
        [78.59005, 28.53725],
        [78.58947, 28.53774],
        [78.58549, 28.5407],
        [78.5847, 28.54117],
        [78.58121, 28.5428],
        [78.58057, 28.54307],
        [78.57984, 28.5436],
        [78.57836, 28.54477],
        [78.57763, 28.54529],
        [78.57612, 28.54618],
        [78.57581, 28.54639],
        [78.57518, 28.54643],
        [78.57396, 28.54655],
        [78.57184, 28.54704],
        [78.57078, 28.54731],
        [78.57055, 28.5478],
        [78.5685, 28.55218],
        [78.56814, 28.55224],
        [78.5675, 28.55255],
        [78.56637, 28.55285],
        [78.56504, 28.553],
        [78.56364, 28.55316],
        [78.56218, 28.55332],
        [78.56153, 28.55363],
        [78.56108, 28.55407],
        [78.56082, 28.55479],
        [78.56067, 28.55591],
        [78.56062, 28.55632],
        [78.55789, 28.5567],
        [78.55754, 28.55675],
        [78.55683, 28.55677],
        [78.55604, 28.55666],
        [78.55548, 28.55648],
        [78.55363, 28.55537],
        [78.55324, 28.55524],
        [78.55284, 28.55527],
        [78.55215, 28.55571],
        [78.55148, 28.55581],
        [78.5509, 28.55584],
        [78.54964, 28.55559],
        [78.54871, 28.55519],
        [78.54788, 28.55449],
        [78.54724, 28.55359],
        [78.54563, 28.54987],
        [78.54388, 28.55095],
        [78.54359, 28.55131],
        [78.54349, 28.55174],
        [78.54372, 28.55212],
        [78.54407, 28.55268],
        [78.54432, 28.55361],
        [78.54473, 28.55633],
        [78.54496, 28.55745],
        [78.54594, 28.55981],
        [78.5461, 28.56024],
        [78.54601, 28.56067],
        [78.54577, 28.56122],
        [78.54563, 28.56144],
        [78.54548, 28.5617],
        [78.54543, 28.56225],
        [78.54579, 28.56521],
        [78.54582, 28.56565],
        [78.54573, 28.56601],
        [78.54489, 28.56685],
        [78.54455, 28.56715],
        [78.54439, 28.56757],
        [78.54448, 28.56806],
        [78.54445, 28.56837],
        [78.54431, 28.56861],
        [78.54158, 28.5705],
        [78.54091, 28.57053],
        [78.54068, 28.57053],
        [78.54023, 28.57052],
        [78.53993, 28.57027],
        [78.53964, 28.56977],
        [78.53957, 28.56897],
        [78.53942, 28.56835],
        [78.53811, 28.56524],
        [78.53746, 28.56454],
        [78.53691, 28.56404],
        [78.53368, 28.56155],
        [78.53343, 28.56148],
        [78.5329, 28.56165],
        [78.53229, 28.56206],
        [78.53183, 28.56224],
        [78.53125, 28.56216],
        [78.52648, 28.55957],
        [78.52578, 28.55943],
        [78.5254, 28.55942],
        [78.52488, 28.55981],
        [78.52324, 28.56476],
        [78.52196, 28.56858],
        [78.5216, 28.56906],
        [78.52111, 28.56949],
        [78.51946, 28.57064],
        [78.51596, 28.5739],
        [78.51564, 28.57441],
        [78.51535, 28.57513],
        [78.51497, 28.5758],
        [78.5146, 28.57635],
        [78.51341, 28.57756],
        [78.51281, 28.57859],
        [78.51255, 28.57946],
        [78.51229, 28.58031],
        [78.51223, 28.58112],
        [78.51231, 28.58267],
        [78.51264, 28.58361],
        [78.5133, 28.58437],
        [78.51435, 28.58514],
        [78.51471, 28.58559],
        [78.5148, 28.58609],
        [78.51477, 28.58646],
        [78.51415, 28.58786],
        [78.51397, 28.58848],
        [78.51405, 28.58923],
        [78.51508, 28.59198],
        [78.51521, 28.59286],
        [78.51487, 28.59396],
        [78.51448, 28.59488],
        [78.51398, 28.59549],
        [78.51261, 28.59648],
        [78.51308, 28.59679],
        [78.51325, 28.59697],
        [78.51336, 28.59727],
        [78.51339, 28.59756],
        [78.51232, 28.60305],
        [78.51204, 28.60357],
        [78.50982, 28.60423],
        [78.50941, 28.60435],
        [78.5056, 28.60467],
        [78.5049, 28.60497],
        [78.50433, 28.60541],
        [78.50318, 28.60543],
        [78.5025, 28.60541],
        [78.50198, 28.60514],
        [78.5016, 28.60474],
        [78.49963, 28.6039],
        [78.49903, 28.60382],
        [78.49848, 28.60393],
        [78.49783, 28.60449],
        [78.49741, 28.6048],
        [78.49533, 28.60544],
        [78.49473, 28.60542],
        [78.49366, 28.60526],
        [78.49325, 28.60525],
        [78.4927, 28.60536],
        [78.49077, 28.60732],
        [78.4911, 28.60794],
        [78.49105, 28.60858],
        [78.49074, 28.60915],
        [78.48741, 28.6134],
        [78.48714, 28.61346],
        [78.48606, 28.61365],
        [78.48723, 28.61454],
        [78.48763, 28.61503],
        [78.48779, 28.61572],
        [78.48872, 28.62115],
        [78.48913, 28.62358],
        [78.48936, 28.6244],
        [78.48983, 28.6249],
        [78.4917, 28.62682],
        [78.49195, 28.62722],
        [78.49228, 28.62774],
        [78.49438, 28.63098],
        [78.49794, 28.63558],
        [78.49974, 28.63791],
        [78.50149, 28.64077],
        [78.50239, 28.64225],
        [78.50274, 28.64273],
        [78.50314, 28.64307],
        [78.50465, 28.64415],
        [78.50799, 28.64204],
        [78.51103, 28.64597],
        [78.51163, 28.64726],
        [78.51237, 28.64863],
        [78.51379, 28.65024],
        [78.5148, 28.65102],
        [78.51555, 28.65128],
        [78.51647, 28.65139],
        [78.51819, 28.65101],
        [78.51946, 28.65047],
        [78.52018, 28.65005],
        [78.52356, 28.64709],
        [78.5237, 28.64729],
        [78.52408, 28.64738],
        [78.52485, 28.64741],
        [78.52561, 28.64751],
        [78.5259, 28.64775],
        [78.52625, 28.64821],
        [78.52763, 28.6525],
        [78.5283, 28.65386],
        [78.52865, 28.65462],
        [78.52942, 28.65629],
        [78.53007, 28.65903],
        [78.5304, 28.66172],
        [78.5305, 28.66344],
        [78.53061, 28.66405],
        [78.53072, 28.66464],
        [78.53295, 28.66999],
        [78.53326, 28.67073],
        [78.53372, 28.67076],
        [78.53598, 28.67102],
        [78.53943, 28.67139],
        [78.54223, 28.67156],
        [78.54306, 28.67171],
        [78.54364, 28.67197],
        [78.5473, 28.67518],
        [78.54773, 28.67578],
        [78.54839, 28.67667],
        [78.54861, 28.67686],
        [78.54911, 28.67969],
        [78.5492, 28.68062],
        [78.54909, 28.681],
        [78.54891, 28.6813],
        [78.54812, 28.68219],
        [78.54749, 28.68317],
        [78.54718, 28.68407],
        [78.54695, 28.68599],
        [78.54711, 28.68807],
        [78.54716, 28.68938],
        [78.54663, 28.68975],
        [78.54631, 28.68973],
        [78.54601, 28.68949],
        [78.54575, 28.68871],
        [78.5454, 28.68808],
        [78.54511, 28.68768],
        [78.54458, 28.68735],
        [78.54395, 28.68725],
        [78.54321, 28.68745],
        [78.54051, 28.68925],
        [78.5396, 28.68967],
        [78.53862, 28.69001],
        [78.53609, 28.69043],
        [78.53464, 28.6906],
        [78.53332, 28.69107],
        [78.52884, 28.69316],
        [78.528, 28.69365],
        [78.52745, 28.6938],
        [78.52892, 28.69637],
        [78.53066, 28.69929],
        [78.53132, 28.70001],
        [78.53208, 28.70051],
        [78.53559, 28.70237],
        [78.53729, 28.70314],
        [78.53782, 28.70355],
        [78.53825, 28.70411],
        [78.53958, 28.709],
        [78.5399, 28.70993],
        [78.54043, 28.71118],
        [78.54103, 28.71187],
        [78.54222, 28.71293],
        [78.54279, 28.7138],
        [78.54335, 28.71559],
        [78.54382, 28.71623],
        [78.54419, 28.71664],
        [78.54487, 28.71713],
        [78.54556, 28.71756],
        [78.54606, 28.71827],
        [78.54718, 28.72026],
        [78.54812, 28.72146],
        [78.54994, 28.72465],
        [78.55342, 28.72418],
        [78.55457, 28.72431],
        [78.55949, 28.72569],
        [78.56023, 28.72573],
        [78.56094, 28.72545],
        [78.56139, 28.72814],
        [78.56164, 28.72875],
        [78.565, 28.7353],
        [78.56544, 28.73659],
        [78.56543, 28.7371],
        [78.56648, 28.73697],
        [78.56738, 28.73669],
        [78.56803, 28.73605],
        [78.56872, 28.73575],
        [78.56953, 28.73581],
        [78.57057, 28.73663],
        [78.5711, 28.73735],
        [78.57197, 28.73769],
        [78.57324, 28.73771],
        [78.57441, 28.738],
        [78.57477, 28.7383],
        [78.57508, 28.73914],
        [78.57535, 28.7395],
        [78.5757, 28.73987],
        [78.57618, 28.74046],
        [78.57718, 28.74219],
        [78.57812, 28.74377],
        [78.57944, 28.74553],
        [78.57998, 28.74654],
        [78.58086, 28.74728],
        [78.58156, 28.74719],
        [78.58228, 28.7469],
        [78.58285, 28.74646],
        [78.58344, 28.7456],
        [78.58416, 28.74517],
        [78.58501, 28.74516],
        [78.58672, 28.745],
        [78.58736, 28.74581],
        [78.58817, 28.74656],
        [78.58868, 28.74702],
        [78.58915, 28.74831],
        [78.58941, 28.7493],
        [78.58966, 28.75043],
        [78.59039, 28.7514],
        [78.59112, 28.75236],
        [78.592, 28.75432],
        [78.59244, 28.75506],
        [78.59297, 28.75559],
        [78.59366, 28.756],
        [78.59442, 28.75662],
        [78.59519, 28.75738],
        [78.59595, 28.75822],
        [78.59648, 28.75904],
        [78.59701, 28.76008],
        [78.59829, 28.76434],
        [78.59843, 28.76492],
        [78.59845, 28.76499],
        [78.59925, 28.76613],
        [78.59989, 28.76684],
        [78.60038, 28.76717],
        [78.60119, 28.76738],
        [78.60225, 28.76762],
        [78.60347, 28.7678],
        [78.60445, 28.7681],
        [78.60519, 28.76845],
        [78.60585, 28.76894],
        [78.60659, 28.76929],
        [78.60708, 28.76941],
        [78.60765, 28.76945],
        [78.60917, 28.76886],
        [78.60958, 28.76882],
        [78.61015, 28.76887],
        [78.61039, 28.76889],
        [78.61097, 28.76915],
        [78.61163, 28.76972],
        [78.61223, 28.77042],
        [78.61327, 28.77182],
        [78.61367, 28.77227],
        [78.61414, 28.77278],
        [78.61491, 28.7735],
        [78.61593, 28.77425],
        [78.61763, 28.77511],
        [78.61627, 28.77766],
        [78.61545, 28.77871],
        [78.61343, 28.78061],
        [78.61254, 28.78112],
        [78.61199, 28.78167],
        [78.61187, 28.78233],
        [78.61191, 28.78286],
        [78.61334, 28.78571],
        [78.61431, 28.78605],
        [78.61522, 28.78652],
        [78.61701, 28.788],
        [78.61787, 28.78885],
        [78.61901, 28.79051],
        [78.61997, 28.79145],
        [78.61883, 28.79348],
        [78.61661, 28.79658],
        [78.6161, 28.7974],
        [78.61608, 28.79788],
        [78.61622, 28.79822],
        [78.61652, 28.79842],
        [78.61681, 28.79853],
        [78.61747, 28.79869],
        [78.61835, 28.79903],
        [78.61934, 28.79955],
        [78.62037, 28.80023],
        [78.62215, 28.80165],
        [78.62337, 28.80292],
        [78.62465, 28.80446],
        [78.62651, 28.80692],
        [78.63071, 28.81191],
        [78.63292, 28.81529],
        [78.63328, 28.81565],
        [78.63132, 28.8195],
        [78.63089, 28.82057],
        [78.63169, 28.82236],
        [78.63135, 28.82268],
        [78.63093, 28.8229],
        [78.63405, 28.8246],
        [78.63589, 28.82572],
        [78.63825, 28.82733],
        [78.64127, 28.82934],
        [78.64362, 28.83069],
        [78.64508, 28.8317],
        [78.64672, 28.83287],
        [78.65132, 28.83658],
        [78.64712, 28.83042],
        [78.64665, 28.82861],
        [78.64715, 28.82582],
        [78.64784, 28.8246],
        [78.6487, 28.824],
        [78.64977, 28.82321],
        [78.65027, 28.82303],
        [78.65091, 28.82282],
        [78.65105, 28.82277],
        [78.65286, 28.82296]
      ]
    ]
  }
}
