{
  "type": "Feature",
  "id": "UP-AC-338",
  "properties": {
    "stateName": "UTTAR PRADESH",
    "stateCode": "UP",
    "districtName": "DEORIA",
    "acNo": 338,
    "acName": "SHAHGANJ",
    "seatType": null,
    "pcNo": null,
    "pcName": null,
    "quality": "unverified",
    "sources": [
      "TBD"
    ]
  },
  "geometry": {
    "type": "Polygon",
    "coordinates": [
      [
        [83.95533, 26.5093],
        [83.9553, 26.5093],
        [83.9551, 26.5093],
        [83.95501, 26.5093],
        [83.95482, 26.50933],
        [83.95462, 26.5093],
        [83.9545, 26.5093],
        [83.95437, 26.50927],
        [83.95414, 26.50924],
        [83.95392, 26.5092],
        [83.9538, 26.5092],
        [83.95368, 26.50916],
        [83.95347, 26.50913],
        [83.95333, 26.5091],
        [83.9531, 26.5091],
        [83.9528, 26.509],
        [83.95266, 26.50896],
        [83.95254, 26.50893],
        [83.95235, 26.5089],
        [83.9522, 26.5089],
        [83.95208, 26.50886],
        [83.95192, 26.50884],
        [83.95175, 26.5088],
        [83.9516, 26.5088],
        [83.95134, 26.5088],
        [83.95108, 26.50892],
        [83.9509, 26.5091],
        [83.9507, 26.5094],
        [83.9506, 26.50945],
        [83.95051, 26.50953],
        [83.95037, 26.50963],
        [83.9503, 26.5097],
        [83.9501, 26.5098],
        [83.9498, 26.5099],
        [83.9496, 26.51],
        [83.94931, 26.5101],
        [83.9493, 26.5101],
        [83.9491, 26.5102],
        [83.9489, 26.5104],
        [83.94884, 26.51058],
        [83.9488, 26.5107],
        [83.9486, 26.5109],
        [83.94857, 26.51093],
        [83.9484, 26.5111],
        [83.9482, 26.5113],
        [83.948, 26.5115],
        [83.9479, 26.5118],
        [83.9478, 26.5121],
        [83.9478, 26.5124],
        [83.94784, 26.51251],
        [83.9479, 26.5127],
        [83.9479, 26.51285],
        [83.9479, 26.513],
        [83.948, 26.5133],
        [83.9481, 26.51349],
        [83.9481, 26.5135],
        [83.9482, 26.5138],
        [83.9482, 26.51394],
        [83.9482, 26.5141],
        [83.9482, 26.5143],
        [83.9483, 26.5146],
        [83.94838, 26.51468],
        [83.9484, 26.5147],
        [83.9486, 26.5149],
        [83.94866, 26.51496],
        [83.9488, 26.5151],
        [83.9491, 26.5153],
        [83.94911, 26.51531],
        [83.9492, 26.5154],
        [83.94926, 26.51551],
        [83.9493, 26.51558],
        [83.94937, 26.51567],
        [83.9494, 26.5157],
        [83.94951, 26.51581],
        [83.9496, 26.5159],
        [83.9498, 26.516],
        [83.95, 26.516],
        [83.9502, 26.516],
        [83.95028, 26.516],
        [83.9504, 26.516],
        [83.95045, 26.51602],
        [83.9506, 26.5161],
        [83.9509, 26.5161],
        [83.9511, 26.5161],
        [83.9515, 26.5161],
        [83.95166, 26.51615],
        [83.95183, 26.51617],
        [83.95196, 26.5162],
        [83.9521, 26.5162],
        [83.9524, 26.5163],
        [83.95243, 26.51633],
        [83.9526, 26.5165],
        [83.9527, 26.5167],
        [83.9528, 26.5169],
        [83.95284, 26.51698],
        [83.9529, 26.5171],
        [83.95285, 26.5172],
        [83.95284, 26.51729],
        [83.95262, 26.51758],
        [83.95261, 26.51758],
        [83.9526, 26.5176],
        [83.9523, 26.5177],
        [83.9523, 26.5177],
        [83.95227, 26.51771],
        [83.952, 26.51773],
        [83.95187, 26.51774],
        [83.9517, 26.5178],
        [83.9515, 26.5178],
        [83.95126, 26.51788],
        [83.95121, 26.5179],
        [83.95114, 26.51793],
        [83.951, 26.518],
        [83.95077, 26.51808],
        [83.95068, 26.51811],
        [83.95065, 26.51812],
        [83.9504, 26.5182],
        [83.95012, 26.5182],
        [83.94981, 26.51823],
        [83.94962, 26.51826],
        [83.9495, 26.5183],
        [83.9492, 26.5184],
        [83.9489, 26.5185],
        [83.94885, 26.51852],
        [83.94874, 26.51861],
        [83.94853, 26.51871],
        [83.94851, 26.5187],
        [83.9485, 26.5187],
        [83.9483, 26.5186],
        [83.94811, 26.51831],
        [83.94799, 26.51833],
        [83.9477, 26.5184],
        [83.9474, 26.5185],
        [83.94724, 26.51854],
        [83.94702, 26.51863],
        [83.94676, 26.51876],
        [83.9467, 26.5188],
        [83.9464, 26.519],
        [83.94629, 26.51904],
        [83.9461, 26.5191],
        [83.94602, 26.51925],
        [83.946, 26.5193],
        [83.94594, 26.51933],
        [83.94582, 26.51945],
        [83.94573, 26.51954],
        [83.9457, 26.5196],
        [83.9455, 26.5198],
        [83.9453, 26.5199],
        [83.945, 26.5201],
        [83.9448, 26.5202],
        [83.94469, 26.52024],
        [83.94451, 26.52033],
        [83.94439, 26.52041],
        [83.94431, 26.52049],
        [83.94425, 26.52059],
        [83.9442, 26.5207],
        [83.9442, 26.5211],
        [83.9442, 26.52145],
        [83.94424, 26.52185],
        [83.94424, 26.52193],
        [83.9443, 26.5221],
        [83.9442, 26.5223],
        [83.94406, 26.52244],
        [83.94403, 26.52248],
        [83.94384, 26.52261],
        [83.94364, 26.52268],
        [83.9436, 26.5227],
        [83.9434, 26.5228],
        [83.94299, 26.52288],
        [83.94293, 26.5229],
        [83.94287, 26.52292],
        [83.9427, 26.523],
        [83.94255, 26.523],
        [83.94247, 26.52302],
        [83.94235, 26.52305],
        [83.9422, 26.5231],
        [83.94214, 26.5231],
        [83.942, 26.52313],
        [83.94179, 26.52317],
        [83.9417, 26.5232],
        [83.94143, 26.52338],
        [83.9414, 26.5234],
        [83.9414, 26.5237],
        [83.9414, 26.5239],
        [83.9414, 26.5241],
        [83.9414, 26.5243],
        [83.9413, 26.5246],
        [83.9412, 26.5247],
        [83.941, 26.5249],
        [83.94092, 26.52498],
        [83.9409, 26.525],
        [83.94088, 26.52501],
        [83.94086, 26.52502],
        [83.94064, 26.52511],
        [83.94051, 26.52514],
        [83.9404, 26.5252],
        [83.93958, 26.52516],
        [83.9385, 26.5251],
        [83.93832, 26.52514],
        [83.9381, 26.5252],
        [83.9377, 26.5252],
        [83.9373, 26.5252],
        [83.9369, 26.5252],
        [83.9361, 26.5252],
        [83.93585, 26.52514],
        [83.9357, 26.5251],
        [83.9353, 26.5251],
        [83.93515, 26.5251],
        [83.9348, 26.5251],
        [83.93465, 26.52502],
        [83.9346, 26.52501],
        [83.93442, 26.52482],
        [83.9344, 26.5248],
        [83.93402, 26.52389],
        [83.9334, 26.5224],
        [83.93334, 26.52222],
        [83.9333, 26.5221],
        [83.933, 26.5221],
        [83.9327, 26.5221],
        [83.93263, 26.5221],
        [83.93247, 26.52212],
        [83.93238, 26.52198],
        [83.9323, 26.5219],
        [83.9322, 26.5216],
        [83.9322, 26.5213],
        [83.932, 26.5212],
        [83.93189, 26.5212],
        [83.9318, 26.5212],
        [83.9315, 26.5211],
        [83.93144, 26.52092],
        [83.93143, 26.5209],
        [83.93141, 26.52083],
        [83.93016, 26.52048],
        [83.93088, 26.52194],
        [83.93149, 26.52308],
        [83.93139, 26.52363],
        [83.93129, 26.52379],
        [83.93124, 26.52387],
        [83.93066, 26.5242],
        [83.9301, 26.52468],
        [83.92927, 26.5251],
        [83.92854, 26.52567],
        [83.92803, 26.52632],
        [83.92738, 26.52633],
        [83.92642, 26.52651],
        [83.92525, 26.52709],
        [83.92417, 26.52775],
        [83.92268, 26.52857],
        [83.92158, 26.52907],
        [83.9201, 26.52942],
        [83.9188, 26.52998],
        [83.91904, 26.53087],
        [83.91969, 26.53305],
        [83.92056, 26.53563],
        [83.92157, 26.5379],
        [83.92238, 26.54003],
        [83.92313, 26.54207],
        [83.92104, 26.54249],
        [83.91908, 26.5429],
        [83.91882, 26.54295],
        [83.91799, 26.54325],
        [83.91722, 26.54327],
        [83.91624, 26.54342],
        [83.91438, 26.54346],
        [83.91279, 26.5435],
        [83.91178, 26.54329],
        [83.91142, 26.54322],
        [83.91122, 26.54318],
        [83.91064, 26.54328],
        [83.91042, 26.54336],
        [83.90998, 26.54345],
        [83.90953, 26.5435],
        [83.90888, 26.54343],
        [83.90831, 26.54324],
        [83.90769, 26.54397],
        [83.90705, 26.54409],
        [83.90614, 26.54405],
        [83.90583, 26.54402],
        [83.90572, 26.544],
        [83.90499, 26.54396],
        [83.90471, 26.54359],
        [83.90432, 26.54333],
        [83.9038, 26.5435],
        [83.90371, 26.54377],
        [83.90381, 26.54457],
        [83.90393, 26.54563],
        [83.90388, 26.54622],
        [83.90367, 26.54697],
        [83.90304, 26.5472],
        [83.90244, 26.54715],
        [83.90174, 26.54684],
        [83.90128, 26.54648],
        [83.90064, 26.54593],
        [83.90058, 26.54622],
        [83.90047, 26.54675],
        [83.90053, 26.54729],
        [83.9007, 26.54819],
        [83.90089, 26.54884],
        [83.90107, 26.54937],
        [83.90103, 26.54948],
        [83.90068, 26.54959],
        [83.90025, 26.54949],
        [83.89943, 26.54918],
        [83.89889, 26.5487],
        [83.89836, 26.54823],
        [83.89777, 26.54786],
        [83.89735, 26.54781],
        [83.8972, 26.54808],
        [83.89731, 26.54845],
        [83.89757, 26.54872],
        [83.89784, 26.54946],
        [83.89804, 26.55011],
        [83.89791, 26.55054],
        [83.8974, 26.55087],
        [83.89695, 26.55109],
        [83.8963, 26.5512],
        [83.89564, 26.55126],
        [83.89492, 26.55127],
        [83.89323, 26.55144],
        [83.89376, 26.55278],
        [83.89498, 26.55705],
        [83.89419, 26.55705],
        [83.89326, 26.55711],
        [83.89207, 26.55722],
        [83.89096, 26.55757],
        [83.89033, 26.55787],
        [83.88952, 26.55847],
        [83.88919, 26.55891],
        [83.88907, 26.55936],
        [83.88912, 26.55952],
        [83.88934, 26.5603],
        [83.88979, 26.56194],
        [83.89143, 26.56542],
        [83.8935, 26.56978],
        [83.89503, 26.57326],
        [83.89485, 26.57326],
        [83.89433, 26.5737],
        [83.89321, 26.57457],
        [83.89138, 26.57596],
        [83.89015, 26.577],
        [83.89109, 26.57786],
        [83.89228, 26.57918],
        [83.8938, 26.58096],
        [83.89592, 26.58301],
        [83.89904, 26.58732],
        [83.89921, 26.58773],
        [83.89956, 26.58859],
        [83.89996, 26.59059],
        [83.90041, 26.59305],
        [83.90025, 26.59464],
        [83.89999, 26.59707],
        [83.89987, 26.59771],
        [83.89882, 26.59853],
        [83.89705, 26.59889],
        [83.89534, 26.59897],
        [83.89309, 26.59932],
        [83.89099, 26.5993],
        [83.88844, 26.59964],
        [83.88738, 26.60009],
        [83.88652, 26.60045],
        [83.88516, 26.60116],
        [83.88424, 26.60234],
        [83.88397, 26.60334],
        [83.88412, 26.60463],
        [83.88451, 26.60592],
        [83.88458, 26.60611],
        [83.88514, 26.60769],
        [83.88525, 26.60861],
        [83.88471, 26.60971],
        [83.88403, 26.61044],
        [83.8831, 26.61154],
        [83.88286, 26.61274],
        [83.88289, 26.61464],
        [83.88149, 26.61458],
        [83.88084, 26.61455],
        [83.87859, 26.61398],
        [83.87685, 26.61309],
        [83.87568, 26.61248],
        [83.87449, 26.61216],
        [83.87434, 26.61212],
        [83.87387, 26.61218],
        [83.8734, 26.61282],
        [83.87316, 26.61366],
        [83.87248, 26.61481],
        [83.87153, 26.61551],
        [83.87127, 26.61554],
        [83.87066, 26.61562],
        [83.8676, 26.61586],
        [83.86619, 26.61615],
        [83.86525, 26.61638],
        [83.86418, 26.61661],
        [83.8627, 26.6169],
        [83.86147, 26.61699],
        [83.86104, 26.61733],
        [83.85924, 26.61688],
        [83.85847, 26.61656],
        [83.85636, 26.61551],
        [83.85508, 26.61429],
        [83.85352, 26.61345],
        [83.85328, 26.61414],
        [83.85408, 26.61672],
        [83.85447, 26.61831],
        [83.85473, 26.6197],
        [83.85486, 26.62089],
        [83.85491, 26.62218],
        [83.85494, 26.62227],
        [83.85338, 26.62084],
        [83.85226, 26.62021],
        [83.85038, 26.61945],
        [83.84699, 26.61874],
        [83.84695, 26.6174],
        [83.84679, 26.61585],
        [83.84647, 26.61545],
        [83.84622, 26.61541],
        [83.84598, 26.61537],
        [83.84504, 26.61566],
        [83.84435, 26.6157],
        [83.84367, 26.61523],
        [83.84334, 26.6147],
        [83.84327, 26.61393],
        [83.84312, 26.61315],
        [83.84301, 26.61306],
        [83.84274, 26.61282],
        [83.84206, 26.61286],
        [83.84159, 26.61304],
        [83.84088, 26.61365],
        [83.84006, 26.61446],
        [83.8389, 26.61545],
        [83.83818, 26.61587],
        [83.8377, 26.61592],
        [83.83737, 26.61577],
        [83.83711, 26.61564],
        [83.83616, 26.61509],
        [83.83346, 26.61301],
        [83.83223, 26.61245],
        [83.8309, 26.61228],
        [83.82964, 26.61223],
        [83.82859, 26.61244],
        [83.82676, 26.6127],
        [83.82649, 26.61274],
        [83.82449, 26.61306],
        [83.82273, 26.61369],
        [83.82088, 26.61413],
        [83.81878, 26.61411],
        [83.81739, 26.61387],
        [83.8173, 26.61385],
        [83.81658, 26.61363],
        [83.8155, 26.61321],
        [83.81472, 26.61299],
        [83.81403, 26.61321],
        [83.8137, 26.61345],
        [83.81339, 26.61395],
        [83.81318, 26.61406],
        [83.81238, 26.61282],
        [83.81236, 26.61243],
        [83.81244, 26.61205],
        [83.8127, 26.61129],
        [83.81243, 26.6105],
        [83.81209, 26.61011],
        [83.81174, 26.6097],
        [83.81106, 26.609],
        [83.81067, 26.60793],
        [83.8102, 26.60724],
        [83.80967, 26.60722],
        [83.80872, 26.60718],
        [83.80778, 26.60733],
        [83.80672, 26.60729],
        [83.80609, 26.60736],
        [83.80514, 26.60741],
        [83.80376, 26.60735],
        [83.80312, 26.60713],
        [83.80305, 26.60707],
        [83.80233, 26.60633],
        [83.80078, 26.60522],
        [83.79953, 26.60363],
        [83.79922, 26.60331],
        [83.7983, 26.60234],
        [83.79717, 26.60106],
        [83.79625, 26.59968],
        [83.79525, 26.5985],
        [83.79438, 26.59799],
        [83.79382, 26.59769],
        [83.7934, 26.59747],
        [83.79222, 26.59695],
        [83.79042, 26.59658],
        [83.78849, 26.59641],
        [83.78757, 26.59454],
        [83.78666, 26.59325],
        [83.78607, 26.59219],
        [83.78553, 26.59057],
        [83.78553, 26.58892],
        [83.78662, 26.58607],
        [83.78683, 26.585],
        [83.78687, 26.58478],
        [83.7871, 26.58328],
        [83.7867, 26.58134],
        [83.78632, 26.57989],
        [83.78619, 26.57879],
        [83.78661, 26.57805],
        [83.78706, 26.57773],
        [83.78749, 26.57741],
        [83.78869, 26.57699],
        [83.79051, 26.57628],
        [83.79121, 26.57508],
        [83.79151, 26.57367],
        [83.79185, 26.57179],
        [83.79237, 26.5704],
        [83.79353, 26.56829],
        [83.79387, 26.56773],
        [83.79295, 26.56708],
        [83.7921, 26.56656],
        [83.79143, 26.56629],
        [83.79101, 26.56628],
        [83.79155, 26.56445],
        [83.79192, 26.56354],
        [83.79252, 26.5626],
        [83.79291, 26.56194],
        [83.79317, 26.56094],
        [83.79319, 26.56041],
        [83.79271, 26.55972],
        [83.79263, 26.55966],
        [83.79185, 26.55901],
        [83.79076, 26.55815],
        [83.78962, 26.5572],
        [83.78819, 26.55613],
        [83.78745, 26.55548],
        [83.78702, 26.55495],
        [83.78745, 26.55466],
        [83.7886, 26.55414],
        [83.78924, 26.55388],
        [83.78996, 26.55343],
        [83.79026, 26.55306],
        [83.79029, 26.55268],
        [83.79009, 26.55185],
        [83.7894, 26.55156],
        [83.78883, 26.55088],
        [83.78801, 26.54873],
        [83.78779, 26.54761],
        [83.78751, 26.54681],
        [83.78734, 26.54651],
        [83.78717, 26.5462],
        [83.78669, 26.54572],
        [83.78638, 26.54558],
        [83.78616, 26.54554],
        [83.78593, 26.5455],
        [83.78548, 26.54554],
        [83.78484, 26.54598],
        [83.78358, 26.54717],
        [83.78303, 26.54787],
        [83.78223, 26.54823],
        [83.78121, 26.54858],
        [83.78062, 26.54868],
        [83.7798, 26.54878],
        [83.7792, 26.54875],
        [83.77872, 26.54855],
        [83.77813, 26.54831],
        [83.7772, 26.54754],
        [83.7762, 26.54757],
        [83.7753, 26.54763],
        [83.77437, 26.54804],
        [83.77389, 26.54856],
        [83.7737, 26.5492],
        [83.77367, 26.54975],
        [83.7736, 26.5504],
        [83.77346, 26.55094],
        [83.7731, 26.55152],
        [83.77211, 26.55217],
        [83.7708, 26.55301],
        [83.77013, 26.55328],
        [83.76967, 26.55311],
        [83.76942, 26.55279],
        [83.7694, 26.55239],
        [83.76944, 26.55195],
        [83.76947, 26.5516],
        [83.76961, 26.55105],
        [83.76922, 26.55014],
        [83.76882, 26.55002],
        [83.76748, 26.5504],
        [83.76686, 26.55037],
        [83.76648, 26.54983],
        [83.76562, 26.55056],
        [83.76473, 26.55191],
        [83.76415, 26.55288],
        [83.76363, 26.55376],
        [83.76333, 26.55475],
        [83.76298, 26.55558],
        [83.76207, 26.55693],
        [83.76171, 26.55691],
        [83.76139, 26.5571],
        [83.76085, 26.5574],
        [83.76002, 26.5576],
        [83.7592, 26.5578],
        [83.75787, 26.55802],
        [83.75773, 26.55807],
        [83.75686, 26.55837],
        [83.75526, 26.5589],
        [83.75427, 26.55971],
        [83.75369, 26.56021],
        [83.75322, 26.56068],
        [83.75306, 26.56083],
        [83.75257, 26.56142],
        [83.75208, 26.56197],
        [83.75175, 26.56294],
        [83.75116, 26.56457],
        [83.75144, 26.5649],
        [83.75179, 26.56558],
        [83.75194, 26.56648],
        [83.75187, 26.56718],
        [83.75177, 26.56838],
        [83.75172, 26.56995],
        [83.752, 26.57134],
        [83.75231, 26.57248],
        [83.75239, 26.57258],
        [83.75171, 26.57353],
        [83.7512, 26.57424],
        [83.75008, 26.57586],
        [83.74887, 26.57741],
        [83.74868, 26.57765],
        [83.74743, 26.57922],
        [83.7464, 26.58098],
        [83.74597, 26.58172],
        [83.74583, 26.58243],
        [83.74529, 26.58355],
        [83.74476, 26.58489],
        [83.7443, 26.58616],
        [83.74363, 26.58858],
        [83.74352, 26.58974],
        [83.7435, 26.59002],
        [83.74329, 26.59175],
        [83.74325, 26.59342],
        [83.74359, 26.59453],
        [83.74401, 26.59552],
        [83.7468, 26.59537],
        [83.74812, 26.59486],
        [83.74911, 26.59432],
        [83.74993, 26.59373],
        [83.75098, 26.59344],
        [83.75197, 26.59325],
        [83.75375, 26.59336],
        [83.75493, 26.59378],
        [83.75604, 26.59468],
        [83.75557, 26.59677],
        [83.75561, 26.59847],
        [83.75578, 26.59955],
        [83.75613, 26.60017],
        [83.75619, 26.60023],
        [83.75487, 26.60117],
        [83.75354, 26.60232],
        [83.75299, 26.60359],
        [83.75283, 26.60442],
        [83.75272, 26.60497],
        [83.75266, 26.60655],
        [83.7527, 26.60822],
        [83.75245, 26.61049],
        [83.75203, 26.61278],
        [83.75232, 26.6135],
        [83.75267, 26.61431],
        [83.75281, 26.61465],
        [83.7533, 26.61547],
        [83.75396, 26.61626],
        [83.75485, 26.61685],
        [83.75569, 26.61748],
        [83.7564, 26.61806],
        [83.75647, 26.61855],
        [83.75631, 26.61918],
        [83.75616, 26.61928],
        [83.75572, 26.61957],
        [83.75313, 26.6209],
        [83.75201, 26.62132],
        [83.75101, 26.62152],
        [83.75025, 26.62196],
        [83.74978, 26.62252],
        [83.74943, 26.62352],
        [83.74914, 26.62495],
        [83.74899, 26.62554],
        [83.74881, 26.62625],
        [83.74828, 26.62708],
        [83.7478, 26.62749],
        [83.74739, 26.62767],
        [83.74655, 26.62773],
        [83.74578, 26.62768],
        [83.74536, 26.62782],
        [83.74522, 26.62822],
        [83.74506, 26.62866],
        [83.74458, 26.62945],
        [83.74398, 26.63017],
        [83.7429, 26.63125],
        [83.74253, 26.63182],
        [83.74204, 26.63261],
        [83.74131, 26.63344],
        [83.74101, 26.63362],
        [83.74041, 26.63399],
        [83.73968, 26.63449],
        [83.73913, 26.63506],
        [83.73857, 26.63563],
        [83.73795, 26.63664],
        [83.73743, 26.63794],
        [83.73721, 26.63943],
        [83.7365, 26.64306],
        [83.73632, 26.64356],
        [83.73518, 26.64663],
        [83.73512, 26.64679],
        [83.73467, 26.64798],
        [83.73371, 26.65114],
        [83.73273, 26.65264],
        [83.73207, 26.65311],
        [83.7316, 26.65353],
        [83.73135, 26.65418],
        [83.73084, 26.65709],
        [83.72941, 26.66163],
        [83.72933, 26.66217],
        [83.72906, 26.664],
        [83.72892, 26.666],
        [83.72876, 26.66794],
        [83.72906, 26.66937],
        [83.72925, 26.67056],
        [83.72947, 26.67205],
        [83.72976, 26.67277],
        [83.72985, 26.673],
        [83.73019, 26.67371],
        [83.73103, 26.67394],
        [83.73203, 26.67408],
        [83.73258, 26.67441],
        [83.73336, 26.6755],
        [83.73373, 26.67677],
        [83.73381, 26.67822],
        [83.73377, 26.67924],
        [83.73361, 26.67998],
        [83.73358, 26.68014],
        [83.73311, 26.68053],
        [83.73254, 26.68064],
        [83.73164, 26.68061],
        [83.73015, 26.68059],
        [83.72973, 26.68066],
        [83.72923, 26.68099],
        [83.72893, 26.68145],
        [83.72834, 26.68216],
        [83.72763, 26.68286],
        [83.72698, 26.68325],
        [83.72666, 26.68328],
        [83.72566, 26.68341],
        [83.72478, 26.68345],
        [83.72343, 26.68345],
        [83.72255, 26.68355],
        [83.72191, 26.68383],
        [83.72133, 26.68442],
        [83.72038, 26.6856],
        [83.7194, 26.68674],
        [83.72136, 26.68674],
        [83.71997, 26.69156],
        [83.721, 26.69531],
        [83.72339, 26.69626],
        [83.73114, 26.69603],
        [83.73737, 26.69492],
        [83.74292, 26.69184],
        [83.74732, 26.69174],
        [83.75219, 26.69383],
        [83.75663, 26.6985],
        [83.7591, 26.70231],
        [83.76532, 26.69793],
        [83.77157, 26.70146],
        [83.77527, 26.70219],
        [83.78025, 26.70778],
        [83.78967, 26.70746],
        [83.7921, 26.71338],
        [83.79939, 26.71421],
        [83.80217, 26.72141],
        [83.80471, 26.72393],
        [83.80559, 26.72611],
        [83.80554, 26.72771],
        [83.80543, 26.7309],
        [83.81032, 26.74697],
        [83.81356, 26.74667],
        [83.81583, 26.74647],
        [83.82276, 26.74514],
        [83.83006, 26.74375],
        [83.83406, 26.74299],
        [83.83689, 26.74503],
        [83.83764, 26.74934],
        [83.83755, 26.75117],
        [83.83739, 26.75468],
        [83.84085, 26.75735],
        [83.84887, 26.74814],
        [83.85333, 26.74647],
        [83.86009, 26.7464],
        [83.87252, 26.74784],
        [83.87787, 26.74191],
        [83.88461, 26.73779],
        [83.88798, 26.73393],
        [83.88976, 26.72856],
        [83.89491, 26.71969],
        [83.89549, 26.71517],
        [83.89365, 26.70878],
        [83.8955, 26.70551],
        [83.90297, 26.7021],
        [83.90239, 26.69642],
        [83.90489, 26.69139],
        [83.90917, 26.69064],
        [83.91198, 26.68873],
        [83.91385, 26.6866],
        [83.9155, 26.68564],
        [83.91923, 26.68468],
        [83.92118, 26.68169],
        [83.92351, 26.67973],
        [83.92517, 26.67856],
        [83.93054, 26.67649],
        [83.93508, 26.67748],
        [83.94657, 26.6748],
        [83.95232, 26.67557],
        [83.95532, 26.6732],
        [83.95896, 26.67164],
        [83.95802, 26.66448],
        [83.95984, 26.65949],
        [83.96113, 26.65594],
        [83.96572, 26.64893],
        [83.96662, 26.64155],
        [83.96437, 26.63195],
        [83.96484, 26.62743],
        [83.9678, 26.62377],
        [83.98056, 26.61627],
        [83.98592, 26.61089],
        [83.98795, 26.60393],
        [83.99293, 26.59314],
        [83.99753, 26.59284],
        [84.0002, 26.59314],
        [84.00553, 26.5873],
        [84.00553, 26.58398],
        [84.00898, 26.57663],
        [84.01641, 26.57524],
        [84.02922, 26.56949],
        [84.035, 26.56143],
        [84.0388, 26.55894],
        [84.04067, 26.55659],
        [84.04658, 26.55588],
        [84.04611, 26.55056],
        [84.05293, 26.54879],
        [84.05591, 26.54807],
        [84.0564, 26.5464],
        [84.0564, 26.546],
        [84.05645, 26.54521],
        [84.0565, 26.5444],
        [84.0565, 26.5441],
        [84.0563, 26.5439],
        [84.05609, 26.54374],
        [84.0559, 26.5436],
        [84.0548, 26.5426],
        [84.05439, 26.54195],
        [84.05432, 26.54185],
        [84.05408, 26.54151],
        [84.0536, 26.5409],
        [84.05345, 26.54061],
        [84.0533, 26.5403],
        [84.05278, 26.54001],
        [84.0526, 26.5399],
        [84.05226, 26.5396],
        [84.0518, 26.5392],
        [84.0508, 26.5385],
        [84.0497, 26.5378],
        [84.0487, 26.5368],
        [84.0483, 26.5364],
        [84.048, 26.5363],
        [84.04765, 26.53624],
        [84.0474, 26.5362],
        [84.04737, 26.53618],
        [84.0471, 26.536],
        [84.04641, 26.53595],
        [84.0457, 26.5359],
        [84.04476, 26.53576],
        [84.0444, 26.5357],
        [84.0435, 26.5355],
        [84.04331, 26.53539],
        [84.043, 26.5352],
        [84.04259, 26.53503],
        [84.0423, 26.5349],
        [84.0421, 26.5348],
        [84.04177, 26.53485],
        [84.0414, 26.5349],
        [84.04046, 26.5349],
        [84.0402, 26.5349],
        [84.0394, 26.5347],
        [84.03891, 26.53454],
        [84.0385, 26.5344],
        [84.03822, 26.53429],
        [84.038, 26.5342],
        [84.0372, 26.5341],
        [84.035, 26.5342],
        [84.035, 26.5342],
        [84.03492, 26.5342],
        [84.0323, 26.5341],
        [84.0315, 26.5339],
        [84.0301, 26.5336],
        [84.02932, 26.5334],
        [84.0278, 26.533],
        [84.0254, 26.5325],
        [84.02455, 26.53222],
        [84.02423, 26.53213],
        [84.02395, 26.53202],
        [84.0233, 26.5318],
        [84.0222, 26.5311],
        [84.02088, 26.53019],
        [84.02025, 26.52978],
        [84.01965, 26.52943],
        [84.0187, 26.5289],
        [84.01811, 26.52874],
        [84.0176, 26.5286],
        [84.0161, 26.5282],
        [84.01569, 26.52807],
        [84.0148, 26.5278],
        [84.01424, 26.52752],
        [84.01405, 26.52744],
        [84.01402, 26.52741],
        [84.014, 26.5274],
        [84.01372, 26.52712],
        [84.0137, 26.5271],
        [84.0134, 26.5268],
        [84.0129, 26.5259],
        [84.0127, 26.52545],
        [84.0125, 26.525],
        [84.0121, 26.5245],
        [84.0119, 26.5244],
        [84.011, 26.524],
        [84.01022, 26.52365],
        [84.0101, 26.5236],
        [84.00984, 26.52327],
        [84.00971, 26.52313],
        [84.00951, 26.52288],
        [84.009, 26.5223],
        [84.00894, 26.52219],
        [84.00887, 26.5221],
        [84.0087, 26.52203],
        [84.0086, 26.522],
        [84.00857, 26.52199],
        [84.0084, 26.5219],
        [84.008, 26.5219],
        [84.0071, 26.522],
        [84.00692, 26.52209],
        [84.0067, 26.5222],
        [84.0065, 26.5223],
        [84.00645, 26.52245],
        [84.0064, 26.5226],
        [84.0065, 26.5234],
        [84.0067, 26.5247],
        [84.0067, 26.52503],
        [84.0067, 26.5253],
        [84.00591, 26.52549],
        [84.005, 26.5257],
        [84.00355, 26.52611],
        [84.0022, 26.5265],
        [83.9996, 26.5271],
        [83.9988, 26.5273],
        [83.99868, 26.52736],
        [83.9982, 26.5276],
        [83.9978, 26.5282],
        [83.99768, 26.52838],
        [83.9976, 26.5285],
        [83.9974, 26.5287],
        [83.99729, 26.52881],
        [83.9971, 26.529],
        [83.9969, 26.5292],
        [83.9966, 26.5295],
        [83.9964, 26.5297],
        [83.9961, 26.5299],
        [83.9959, 26.5302],
        [83.99587, 26.53024],
        [83.9957, 26.5305],
        [83.99553, 26.53062],
        [83.99544, 26.53071],
        [83.99525, 26.53092],
        [83.9952, 26.531],
        [83.99512, 26.53108],
        [83.99499, 26.53124],
        [83.99492, 26.53132],
        [83.9948, 26.5315],
        [83.99466, 26.53164],
        [83.99461, 26.53171],
        [83.99444, 26.5319],
        [83.99435, 26.53199],
        [83.9943, 26.5321],
        [83.9941, 26.5323],
        [83.99391, 26.53239],
        [83.99388, 26.53242],
        [83.9937, 26.5326],
        [83.9935, 26.5327],
        [83.99341, 26.53273],
        [83.9932, 26.5328],
        [83.993, 26.5329],
        [83.99276, 26.53306],
        [83.9927, 26.5331],
        [83.9925, 26.5332],
        [83.99228, 26.5332],
        [83.9922, 26.5332],
        [83.9919, 26.5332],
        [83.9895, 26.5329],
        [83.98673, 26.5327],
        [83.9867, 26.5327],
        [83.98674, 26.53248],
        [83.98676, 26.5322],
        [83.9858, 26.5323],
        [83.98568, 26.5323],
        [83.9856, 26.5323],
        [83.9853, 26.5323],
        [83.98521, 26.53235],
        [83.9851, 26.5324],
        [83.9849, 26.5324],
        [83.9846, 26.5324],
        [83.9844, 26.5324],
        [83.9844, 26.53236],
        [83.9844, 26.5315],
        [83.98436, 26.5315],
        [83.9839, 26.5315],
        [83.9835, 26.5315],
        [83.9832, 26.5315],
        [83.9829, 26.5315],
        [83.98287, 26.5315],
        [83.9826, 26.5315],
        [83.9823, 26.5315],
        [83.9816, 26.5316],
        [83.9813, 26.5316],
        [83.981, 26.5317],
        [83.9809, 26.53173],
        [83.9807, 26.5318],
        [83.9804, 26.5319],
        [83.9801, 26.532],
        [83.97994, 26.532],
        [83.9798, 26.532],
        [83.9795, 26.5321],
        [83.9792, 26.5322],
        [83.9789, 26.5323],
        [83.9786, 26.5324],
        [83.9784, 26.5325],
        [83.97832, 26.53254],
        [83.9782, 26.5326],
        [83.978, 26.5327],
        [83.9778, 26.5328],
        [83.9776, 26.5329],
        [83.9774, 26.533],
        [83.9772, 26.5331],
        [83.97712, 26.53314],
        [83.97697, 26.53323],
        [83.9769, 26.53327],
        [83.9767, 26.5334],
        [83.97668, 26.53338],
        [83.97665, 26.5334],
        [83.97652, 26.53323],
        [83.97652, 26.53322],
        [83.9765, 26.5332],
        [83.9765, 26.533],
        [83.97657, 26.53264],
        [83.97661, 26.53256],
        [83.9767, 26.5323],
        [83.97678, 26.53214],
        [83.97678, 26.53195],
        [83.97677, 26.53187],
        [83.9767, 26.5318],
        [83.9767, 26.53166],
        [83.97667, 26.5316],
        [83.97662, 26.53144],
        [83.9766, 26.5314],
        [83.9766, 26.53137],
        [83.97656, 26.53122],
        [83.97655, 26.53109],
        [83.9765, 26.531],
        [83.97655, 26.53091],
        [83.97655, 26.53083],
        [83.97653, 26.53066],
        [83.9765, 26.5306],
        [83.9764, 26.5303],
        [83.97634, 26.52995],
        [83.9763, 26.5297],
        [83.9762, 26.5294],
        [83.9761, 26.5291],
        [83.9759, 26.5288],
        [83.9757, 26.5286],
        [83.97553, 26.52854],
        [83.9754, 26.5285],
        [83.9752, 26.5283],
        [83.9752, 26.52818],
        [83.97518, 26.52799],
        [83.97529, 26.52772],
        [83.9753, 26.5277],
        [83.9754, 26.5274],
        [83.9756, 26.5272],
        [83.9758, 26.527],
        [83.9759, 26.5269],
        [83.97599, 26.52681],
        [83.97607, 26.52669],
        [83.97618, 26.52652],
        [83.97621, 26.52648],
        [83.9763, 26.5263],
        [83.9764, 26.5262],
        [83.9765, 26.526],
        [83.97658, 26.52583],
        [83.97659, 26.52581],
        [83.97654, 26.52567],
        [83.9765, 26.5256],
        [83.97639, 26.52549],
        [83.97633, 26.52544],
        [83.97613, 26.52534],
        [83.97598, 26.5253],
        [83.9759, 26.5253],
        [83.9757, 26.5253],
        [83.97544, 26.52513],
        [83.97539, 26.5251],
        [83.97538, 26.52476],
        [83.9754, 26.52467],
        [83.9754, 26.5245],
        [83.9754, 26.5243],
        [83.9754, 26.52417],
        [83.97539, 26.52413],
        [83.9753, 26.5239],
        [83.9751, 26.5237],
        [83.97504, 26.52357],
        [83.97499, 26.52352],
        [83.97494, 26.52347],
        [83.9748, 26.5234],
        [83.97474, 26.52327],
        [83.9747, 26.5232],
        [83.9743, 26.5226],
        [83.974, 26.522],
        [83.9737, 26.5213],
        [83.97361, 26.52112],
        [83.9735, 26.52091],
        [83.97348, 26.52089],
        [83.9733, 26.5208],
        [83.97313, 26.52063],
        [83.97306, 26.52058],
        [83.9729, 26.5205],
        [83.97287, 26.52043],
        [83.9728, 26.5203],
        [83.9727, 26.5201],
        [83.9726, 26.52],
        [83.9725, 26.5198],
        [83.9724, 26.5196],
        [83.9724, 26.51942],
        [83.9724, 26.5194],
        [83.9724, 26.5192],
        [83.9724, 26.519],
        [83.9724, 26.5187],
        [83.9722, 26.5184],
        [83.97177, 26.51806],
        [83.9717, 26.518],
        [83.97167, 26.51797],
        [83.9714, 26.5177],
        [83.9715, 26.5174],
        [83.97188, 26.51686],
        [83.97219, 26.51639],
        [83.97223, 26.5163],
        [83.9723, 26.5161],
        [83.97239, 26.51575],
        [83.9724, 26.5157],
        [83.9724, 26.5155],
        [83.9723, 26.5153],
        [83.97224, 26.51524],
        [83.9722, 26.5152],
        [83.97214, 26.51508],
        [83.97207, 26.51499],
        [83.97193, 26.51484],
        [83.97192, 26.51482],
        [83.9719, 26.5148],
        [83.9718, 26.5146],
        [83.9718, 26.5143],
        [83.97189, 26.51403],
        [83.9719, 26.514],
        [83.97201, 26.51389],
        [83.97207, 26.51382],
        [83.97211, 26.51379],
        [83.9723, 26.5136],
        [83.9726, 26.5134],
        [83.97275, 26.5133],
        [83.97287, 26.51321],
        [83.97295, 26.51315],
        [83.9731, 26.513],
        [83.9734, 26.5128],
        [83.97351, 26.51274],
        [83.97359, 26.51268],
        [83.9736, 26.5125],
        [83.9733, 26.5121],
        [83.9732, 26.5119],
        [83.9729, 26.5116],
        [83.9728, 26.5115],
        [83.97277, 26.51144],
        [83.97265, 26.51132],
        [83.97255, 26.51122],
        [83.9725, 26.5112],
        [83.97248, 26.51116],
        [83.9724, 26.511],
        [83.9722, 26.5109],
        [83.97217, 26.51089],
        [83.972, 26.5108],
        [83.9719, 26.5106],
        [83.9719, 26.5104],
        [83.972, 26.5101],
        [83.97217, 26.51001],
        [83.9722, 26.51],
        [83.9724, 26.5099],
        [83.97245, 26.50974],
        [83.9725, 26.5096],
        [83.9727, 26.5094],
        [83.97279, 26.50936],
        [83.9729, 26.5093],
        [83.9731, 26.5091],
        [83.97316, 26.50904],
        [83.9733, 26.5089],
        [83.97349, 26.50881],
        [83.97353, 26.50877],
        [83.9737, 26.50858],
        [83.97375, 26.50851],
        [83.9738, 26.5084],
        [83.97389, 26.50812],
        [83.97386, 26.50805],
        [83.9738, 26.508],
        [83.973, 26.5079],
        [83.97287, 26.5079],
        [83.97274, 26.50791],
        [83.97247, 26.50792],
        [83.97221, 26.50791],
        [83.97212, 26.5079],
        [83.9719, 26.5079],
        [83.97176, 26.50783],
        [83.9717, 26.5078],
        [83.9714, 26.5077],
        [83.9712, 26.5076],
        [83.9709, 26.5075],
        [83.97077, 26.5075],
        [83.9706, 26.5075],
        [83.9703, 26.5074],
        [83.97011, 26.50735],
        [83.96991, 26.50732],
        [83.96973, 26.5073],
        [83.9695, 26.5073],
        [83.969, 26.5073],
        [83.9688, 26.5073],
        [83.96858, 26.5073],
        [83.9685, 26.5073],
        [83.9682, 26.5073],
        [83.96808, 26.50736],
        [83.968, 26.5074],
        [83.96776, 26.5074],
        [83.96751, 26.50743],
        [83.9674, 26.50745],
        [83.9673, 26.5075],
        [83.96708, 26.5075],
        [83.967, 26.5075],
        [83.9668, 26.5075],
        [83.9663, 26.5076],
        [83.96627, 26.50761],
        [83.9659, 26.5077],
        [83.9656, 26.5077],
        [83.96547, 26.50772],
        [83.96509, 26.50778],
        [83.965, 26.5078],
        [83.9646, 26.5079],
        [83.9644, 26.5079],
        [83.9642, 26.5079],
        [83.9638, 26.508],
        [83.9633, 26.5081],
        [83.9628, 26.5082],
        [83.96261, 26.50839],
        [83.9626, 26.5084],
        [83.96252, 26.50864],
        [83.9625, 26.5087],
        [83.9624, 26.5091],
        [83.9624, 26.5093],
        [83.9624, 26.5094],
        [83.9624, 26.5096],
        [83.9623, 26.5098],
        [83.96215, 26.50995],
        [83.96213, 26.50998],
        [83.96194, 26.51016],
        [83.9619, 26.5102],
        [83.9617, 26.5103],
        [83.9614, 26.5103],
        [83.96125, 26.51025],
        [83.9611, 26.5102],
        [83.9609, 26.5101],
        [83.9607, 26.51],
        [83.9604, 26.5099],
        [83.96026, 26.5099],
        [83.9602, 26.5099],
        [83.96011, 26.50987],
        [83.9599, 26.5098],
        [83.9595, 26.5098],
        [83.95933, 26.50989],
        [83.9593, 26.5099],
        [83.95927, 26.5099],
        [83.9591, 26.5099],
        [83.9589, 26.51],
        [83.9586, 26.5101],
        [83.9584, 26.5101],
        [83.9581, 26.5101],
        [83.9579, 26.51],
        [83.95786, 26.50998],
        [83.95768, 26.50979],
        [83.9575, 26.5097],
        [83.9573, 26.5096],
        [83.95717, 26.50953],
        [83.9571, 26.5095],
        [83.9568, 26.5095],
        [83.95644, 26.50959],
        [83.9564, 26.5096],
        [83.9561, 26.5096],
        [83.95595, 26.5095],
        [83.9558, 26.5094],
        [83.9556, 26.5093],
        [83.95533, 26.5093]
      ]
    ]
  }
}
