{
  "type": "Feature",
  "id": "UP-AC-396",
  "properties": {
    "stateName": "UTTAR PRADESH",
    "stateCode": "UP",
    "districtName": "MIRZAPUR",
    "acNo": 396,
    "acName": "TINDWARI RURAL",
    "seatType": null,
    "pcNo": null,
    "pcName": null,
    "quality": "unverified",
    "sources": [
      "TBD"
    ]
  },
  "geometry": {
    "type": "Polygon",
    "coordinates": [
      [
        [82.57947, 25.24352],
        [82.58057, 25.24232],
        [82.58113, 25.2414],
        [82.58146, 25.24084],
        [82.58169, 25.23726],
        [82.57978, 25.23392],
        [82.58061, 25.22942],
        [82.58149, 25.22733],
        [82.57806, 25.22693],
        [82.57685, 25.2268],
        [82.57388, 25.22645],
        [82.57408, 25.22301],
        [82.57375, 25.22014],
        [82.57302, 25.2179],
        [82.57248, 25.21659],
        [82.57229, 25.21552],
        [82.57213, 25.21464],
        [82.57216, 25.21425],
        [82.57246, 25.21371],
        [82.5731, 25.21336],
        [82.57423, 25.21291],
        [82.57551, 25.21271],
        [82.57525, 25.21161],
        [82.57536, 25.21019],
        [82.57555, 25.2093],
        [82.57607, 25.20803],
        [82.57628, 25.20754],
        [82.57619, 25.2071],
        [82.5759, 25.20681],
        [82.57562, 25.20657],
        [82.57527, 25.20632],
        [82.57499, 25.20608],
        [82.57489, 25.20565],
        [82.57492, 25.20525],
        [82.57507, 25.20471],
        [82.57521, 25.20427],
        [82.57536, 25.20378],
        [82.57538, 25.20334],
        [82.57524, 25.20271],
        [82.57508, 25.20217],
        [82.57452, 25.20149],
        [82.57336, 25.20067],
        [82.57249, 25.20014],
        [82.57041, 25.19928],
        [82.5698, 25.20004],
        [82.56919, 25.19951],
        [82.56845, 25.19902],
        [82.56739, 25.19807],
        [82.5661, 25.19663],
        [82.56427, 25.19465],
        [82.56325, 25.19383],
        [82.56257, 25.1933],
        [82.56204, 25.19306],
        [82.56159, 25.19298],
        [82.56109, 25.19294],
        [82.5606, 25.19286],
        [82.56026, 25.1927],
        [82.55996, 25.1925],
        [82.5594, 25.19163],
        [82.55917, 25.19109],
        [82.55875, 25.19056],
        [82.55769, 25.18949],
        [82.55665, 25.18809],
        [82.55573, 25.18663],
        [82.55584, 25.1866],
        [82.55773, 25.1861],
        [82.5596, 25.18575],
        [82.56078, 25.18558],
        [82.56037, 25.1842],
        [82.55957, 25.1826],
        [82.55847, 25.18067],
        [82.55843, 25.18059],
        [82.55681, 25.18085],
        [82.5549, 25.18123],
        [82.55323, 25.18153],
        [82.55048, 25.18212],
        [82.54883, 25.18268],
        [82.54809, 25.18302],
        [82.54749, 25.18328],
        [82.54713, 25.18361],
        [82.54637, 25.18407],
        [82.54566, 25.18453],
        [82.54535, 25.18462],
        [82.54506, 25.18471],
        [82.54452, 25.18471],
        [82.54399, 25.18459],
        [82.54301, 25.18431],
        [82.54248, 25.18418],
        [82.54251, 25.18281],
        [82.54222, 25.18153],
        [82.54163, 25.18033],
        [82.54084, 25.17943],
        [82.53974, 25.17821],
        [82.5399, 25.1781],
        [82.54011, 25.17769],
        [82.54064, 25.17665],
        [82.54109, 25.17636],
        [82.54148, 25.17627],
        [82.5419, 25.17582],
        [82.54181, 25.17526],
        [82.54179, 25.17473],
        [82.54095, 25.17473],
        [82.53998, 25.17449],
        [82.53941, 25.17412],
        [82.53923, 25.17383],
        [82.53904, 25.17363],
        [82.5389, 25.17354],
        [82.53861, 25.17346],
        [82.53832, 25.17347],
        [82.53754, 25.17347],
        [82.53554, 25.17351],
        [82.53549, 25.17308],
        [82.53537, 25.17315],
        [82.53508, 25.17324],
        [82.53488, 25.17324],
        [82.53459, 25.17328],
        [82.53425, 25.17341],
        [82.534, 25.17362],
        [82.53369, 25.17391],
        [82.53319, 25.17433],
        [82.53302, 25.17453],
        [82.53258, 25.17458],
        [82.5301, 25.1746],
        [82.52632, 25.17475],
        [82.5237, 25.17276],
        [82.51924, 25.17095],
        [82.51033, 25.17159],
        [82.50902, 25.17929],
        [82.50145, 25.17952],
        [82.50031, 25.17385],
        [82.50014, 25.16814],
        [82.5027, 25.16633],
        [82.50334, 25.16124],
        [82.50458, 25.15527],
        [82.50487, 25.14815],
        [82.50241, 25.14076],
        [82.50135, 25.13683],
        [82.50293, 25.13584],
        [82.50466, 25.13427],
        [82.50589, 25.13331],
        [82.50502, 25.12932],
        [82.50374, 25.12509],
        [82.50309, 25.1236],
        [82.50289, 25.12331],
        [82.50262, 25.12313],
        [82.50202, 25.12302],
        [82.50088, 25.12291],
        [82.4996, 25.12286],
        [82.49764, 25.12324],
        [82.49662, 25.1235],
        [82.4956, 25.1241],
        [82.49512, 25.12465],
        [82.49478, 25.12513],
        [82.49209, 25.12401],
        [82.4904, 25.12328],
        [82.48808, 25.12227],
        [82.48516, 25.12021],
        [82.48429, 25.11938],
        [82.47967, 25.12246],
        [82.47931, 25.12226],
        [82.47755, 25.12111],
        [82.47675, 25.1206],
        [82.47551, 25.11971],
        [82.47483, 25.11902],
        [82.47447, 25.1184],
        [82.47426, 25.1177],
        [82.47404, 25.11684],
        [82.47332, 25.11514],
        [82.47221, 25.11264],
        [82.47135, 25.11153],
        [82.47313, 25.11015],
        [82.47428, 25.1085],
        [82.47512, 25.10621],
        [82.47483, 25.10416],
        [82.47469, 25.10252],
        [82.4751, 25.10131],
        [82.4764, 25.09987],
        [82.47801, 25.09864],
        [82.47881, 25.09792],
        [82.47914, 25.09714],
        [82.47923, 25.09636],
        [82.47896, 25.09556],
        [82.47882, 25.09513],
        [82.4778, 25.09331],
        [82.47638, 25.09064],
        [82.47599, 25.08979],
        [82.4756, 25.08937],
        [82.4752, 25.08917],
        [82.47496, 25.08889],
        [82.47473, 25.08854],
        [82.47449, 25.08826],
        [82.47401, 25.08806],
        [82.47362, 25.08792],
        [82.47338, 25.0875],
        [82.47338, 25.087],
        [82.47363, 25.08622],
        [82.47371, 25.08488],
        [82.47333, 25.08262],
        [82.47324, 25.08234],
        [82.47223, 25.07883],
        [82.47199, 25.07848],
        [82.47159, 25.07813],
        [82.47096, 25.07786],
        [82.4704, 25.07759],
        [82.46969, 25.07725],
        [82.46929, 25.07676],
        [82.46889, 25.07592],
        [82.46858, 25.07515],
        [82.46858, 25.07423],
        [82.46858, 25.07282],
        [82.46885, 25.06933],
        [82.46877, 25.06939],
        [82.46802, 25.06994],
        [82.46667, 25.07049],
        [82.46532, 25.07092],
        [82.46216, 25.07157],
        [82.46014, 25.07194],
        [82.45864, 25.0721],
        [82.45849, 25.07214],
        [82.45787, 25.07227],
        [82.45698, 25.07247],
        [82.45548, 25.07276],
        [82.45436, 25.07305],
        [82.45293, 25.07361],
        [82.45173, 25.0743],
        [82.45053, 25.07472],
        [82.44888, 25.07528],
        [82.44678, 25.07592],
        [82.44528, 25.07641],
        [82.44411, 25.07692],
        [82.44385, 25.07704],
        [82.4428, 25.07759],
        [82.44205, 25.07827],
        [82.44144, 25.07928],
        [82.44054, 25.081],
        [82.44038, 25.08129],
        [82.4396, 25.08266],
        [82.43904, 25.08383],
        [82.438, 25.08607],
        [82.43725, 25.08797],
        [82.43696, 25.08921],
        [82.43658, 25.09004],
        [82.43611, 25.0908],
        [82.43507, 25.09213],
        [82.43281, 25.09589],
        [82.43206, 25.09681],
        [82.43121, 25.09832],
        [82.43092, 25.09874],
        [82.43063, 25.09965],
        [82.43079, 25.10121],
        [82.43084, 25.10173],
        [82.43102, 25.10253],
        [82.43127, 25.10299],
        [82.43158, 25.10356],
        [82.43176, 25.10424],
        [82.43188, 25.1047],
        [82.43206, 25.10568],
        [82.43211, 25.10626],
        [82.43209, 25.10718],
        [82.43214, 25.10793],
        [82.43219, 25.10868],
        [82.43225, 25.10919],
        [82.43223, 25.11012],
        [82.43208, 25.11093],
        [82.43195, 25.11122],
        [82.43162, 25.11157],
        [82.43129, 25.11175],
        [82.43039, 25.11195],
        [82.42924, 25.11168],
        [82.42766, 25.11079],
        [82.42721, 25.11063],
        [82.4267, 25.11052],
        [82.42613, 25.11054],
        [82.42549, 25.11061],
        [82.42418, 25.11064],
        [82.42393, 25.11064],
        [82.42334, 25.11058],
        [82.42257, 25.11036],
        [82.42147, 25.10985],
        [82.42113, 25.10962],
        [82.42071, 25.10932],
        [82.42029, 25.1091],
        [82.41962, 25.10857],
        [82.41937, 25.10819],
        [82.41921, 25.10789],
        [82.41922, 25.10719],
        [82.41968, 25.10556],
        [82.42003, 25.10463],
        [82.42039, 25.104],
        [82.42221, 25.1025],
        [82.42282, 25.10187],
        [82.42308, 25.10125],
        [82.42309, 25.10064],
        [82.42301, 25.1001],
        [82.42285, 25.09949],
        [82.42254, 25.09765],
        [82.42255, 25.09689],
        [82.42247, 25.09589],
        [82.42214, 25.0949],
        [82.42181, 25.09445],
        [82.42156, 25.09407],
        [82.42122, 25.09362],
        [82.42081, 25.09232],
        [82.4209, 25.09179],
        [82.42131, 25.0907],
        [82.42131, 25.09008],
        [82.42123, 25.0894],
        [82.42115, 25.08871],
        [82.42116, 25.08848],
        [82.42116, 25.08795],
        [82.42177, 25.08664],
        [82.42246, 25.08571],
        [82.42272, 25.08532],
        [82.42289, 25.08501],
        [82.42333, 25.08424],
        [82.4235, 25.08386],
        [82.4235, 25.0834],
        [82.42343, 25.08203],
        [82.42334, 25.08184],
        [82.42284, 25.08075],
        [82.4219, 25.08],
        [82.42104, 25.07972],
        [82.41976, 25.07974],
        [82.41874, 25.07991],
        [82.41797, 25.08008],
        [82.41762, 25.08024],
        [82.41694, 25.08063],
        [82.41668, 25.08094],
        [82.41642, 25.08125],
        [82.41617, 25.08156],
        [82.41591, 25.08195],
        [82.41539, 25.08257],
        [82.41514, 25.08287],
        [82.41496, 25.08303],
        [82.41402, 25.08343],
        [82.4136, 25.08359],
        [82.41274, 25.08376],
        [82.41215, 25.08377],
        [82.41164, 25.08363],
        [82.41078, 25.08349],
        [82.41027, 25.08358],
        [82.41011, 25.08372],
        [82.41002, 25.08396],
        [82.40993, 25.08435],
        [82.40992, 25.0848],
        [82.40992, 25.08519],
        [82.41, 25.08595],
        [82.41, 25.08663],
        [82.4099, 25.08801],
        [82.40989, 25.08901],
        [82.4098, 25.08977],
        [82.40937, 25.09054],
        [82.40911, 25.09101],
        [82.40825, 25.09172],
        [82.40679, 25.09266],
        [82.40568, 25.0933],
        [82.40269, 25.09505],
        [82.39995, 25.09665],
        [82.39867, 25.09761],
        [82.39755, 25.09871],
        [82.39703, 25.09942],
        [82.39642, 25.10029],
        [82.39599, 25.101],
        [82.39547, 25.10179],
        [82.39521, 25.10203],
        [82.39462, 25.10212],
        [82.39436, 25.10205],
        [82.39419, 25.10198],
        [82.39395, 25.10167],
        [82.39362, 25.10091],
        [82.39347, 25.09959],
        [82.39331, 25.09866],
        [82.39324, 25.0982],
        [82.39299, 25.09759],
        [82.39264, 25.09708],
        [82.39258, 25.09698],
        [82.39131, 25.09631],
        [82.38997, 25.09588],
        [82.38761, 25.09493],
        [82.38711, 25.09463],
        [82.38644, 25.09426],
        [82.38577, 25.09381],
        [82.38502, 25.09305],
        [82.38444, 25.09229],
        [82.38378, 25.09107],
        [82.38361, 25.09063],
        [82.38329, 25.08977],
        [82.38296, 25.08885],
        [82.38254, 25.08801],
        [82.38204, 25.08733],
        [82.38087, 25.08673],
        [82.37944, 25.08661],
        [82.37894, 25.08662],
        [82.37878, 25.08662],
        [82.3781, 25.08664],
        [82.37735, 25.0865],
        [82.37677, 25.08627],
        [82.37635, 25.08597],
        [82.37602, 25.08536],
        [82.37602, 25.08482],
        [82.37602, 25.08459],
        [82.37611, 25.08359],
        [82.37628, 25.08236],
        [82.37645, 25.08174],
        [82.3767, 25.08128],
        [82.37763, 25.08088],
        [82.37888, 25.08094],
        [82.37997, 25.08122],
        [82.3824, 25.08202],
        [82.38476, 25.08267],
        [82.38535, 25.08289],
        [82.38661, 25.08318],
        [82.38745, 25.08331],
        [82.38813, 25.08338],
        [82.38865, 25.0833],
        [82.38931, 25.0832],
        [82.39058, 25.08295],
        [82.39202, 25.0827],
        [82.39278, 25.08268],
        [82.39346, 25.08267],
        [82.39366, 25.08267],
        [82.39397, 25.08266],
        [82.39439, 25.08258],
        [82.39482, 25.08234],
        [82.39524, 25.08164],
        [82.39541, 25.08103],
        [82.39519, 25.07841],
        [82.39448, 25.07623],
        [82.39387, 25.07469],
        [82.39315, 25.07342],
        [82.39254, 25.0727],
        [82.39203, 25.07234],
        [82.39152, 25.07208],
        [82.39072, 25.07209],
        [82.39009, 25.0721],
        [82.38846, 25.07286],
        [82.38694, 25.07371],
        [82.3838, 25.07494],
        [82.38238, 25.07551],
        [82.38086, 25.07599],
        [82.37975, 25.07601],
        [82.37864, 25.07593],
        [82.37743, 25.07568],
        [82.37702, 25.0755],
        [82.37622, 25.07514],
        [82.37582, 25.07506],
        [82.37461, 25.07525],
        [82.3737, 25.07582],
        [82.37311, 25.07623],
        [82.3729, 25.07638],
        [82.3713, 25.07713],
        [82.3691, 25.07799],
        [82.3682, 25.07819],
        [82.36796, 25.08153],
        [82.36675, 25.09073],
        [82.368, 25.09686],
        [82.37104, 25.10621],
        [82.37586, 25.11684],
        [82.37996, 25.12441],
        [82.37979, 25.12913],
        [82.38026, 25.12906],
        [82.38072, 25.12899],
        [82.38107, 25.12916],
        [82.38127, 25.12943],
        [82.38131, 25.1296],
        [82.3814, 25.12995],
        [82.38148, 25.13037],
        [82.38172, 25.13074],
        [82.38216, 25.13119],
        [82.38261, 25.13145],
        [82.38321, 25.13185],
        [82.3835, 25.13231],
        [82.38385, 25.13243],
        [82.38431, 25.13255],
        [82.38492, 25.13271],
        [82.38532, 25.13293],
        [82.38551, 25.1333],
        [82.38569, 25.13386],
        [82.38578, 25.13415],
        [82.386, 25.13493],
        [82.38595, 25.13597],
        [82.3856, 25.13698],
        [82.38532, 25.13732],
        [82.38484, 25.13763],
        [82.38459, 25.13759],
        [82.38398, 25.13738],
        [82.38352, 25.13689],
        [82.38339, 25.13675],
        [82.38288, 25.13664],
        [82.38249, 25.1367],
        [82.38178, 25.13702],
        [82.3811, 25.13758],
        [82.38077, 25.13802],
        [82.38035, 25.13897],
        [82.38013, 25.14012],
        [82.3803, 25.14167],
        [82.38038, 25.14189],
        [82.3807, 25.14272],
        [82.38111, 25.1435],
        [82.38159, 25.14409],
        [82.38182, 25.1445],
        [82.38184, 25.14501],
        [82.38172, 25.14525],
        [82.3813, 25.14579],
        [82.38045, 25.14629],
        [82.37928, 25.14673],
        [82.3785, 25.14679],
        [82.37848, 25.15088],
        [82.37877, 25.15456],
        [82.37895, 25.15819],
        [82.37902, 25.15902],
        [82.37928, 25.15956],
        [82.37962, 25.15991],
        [82.37998, 25.16025],
        [82.37927, 25.16059],
        [82.37863, 25.16067],
        [82.37811, 25.16053],
        [82.37775, 25.16029],
        [82.37745, 25.15984],
        [82.37711, 25.15935],
        [82.37662, 25.1589],
        [82.37607, 25.15859],
        [82.37505, 25.15829],
        [82.37455, 25.15852],
        [82.37388, 25.15882],
        [82.37253, 25.15946],
        [82.37235, 25.15957],
        [82.37147, 25.1601],
        [82.36923, 25.1617],
        [82.36703, 25.16407],
        [82.36606, 25.16504],
        [82.36585, 25.16563],
        [82.36572, 25.16615],
        [82.3657, 25.16691],
        [82.36595, 25.1679],
        [82.36633, 25.16838],
        [82.36672, 25.16883],
        [82.36683, 25.16913],
        [82.36691, 25.16973],
        [82.36654, 25.17075],
        [82.366, 25.17192],
        [82.36572, 25.17225],
        [82.36563, 25.17247],
        [82.36306, 25.17274],
        [82.3576, 25.17347],
        [82.35339, 25.17433],
        [82.35431, 25.1747],
        [82.35575, 25.17546],
        [82.3568, 25.17613],
        [82.35695, 25.17622],
        [82.35767, 25.17665],
        [82.35827, 25.17698],
        [82.35902, 25.17725],
        [82.35981, 25.17752],
        [82.36055, 25.17793],
        [82.36116, 25.17865],
        [82.36153, 25.17926],
        [82.36183, 25.17962],
        [82.36215, 25.17985],
        [82.36267, 25.17995],
        [82.36243, 25.18012],
        [82.36138, 25.18072],
        [82.36107, 25.18086],
        [82.35961, 25.18152],
        [82.35855, 25.18224],
        [82.3577, 25.18308],
        [82.35694, 25.18434],
        [82.35661, 25.18388],
        [82.35519, 25.18438],
        [82.35404, 25.18469],
        [82.35225, 25.18515],
        [82.35094, 25.18537],
        [82.35011, 25.18561],
        [82.35089, 25.18661],
        [82.35142, 25.1878],
        [82.35197, 25.18923],
        [82.35228, 25.19028],
        [82.35249, 25.19125],
        [82.3528, 25.19226],
        [82.35299, 25.19274],
        [82.35317, 25.19326],
        [82.35319, 25.19375],
        [82.35302, 25.19439],
        [82.35275, 25.19438],
        [82.35225, 25.19433],
        [82.35193, 25.19415],
        [82.3515, 25.19394],
        [82.35068, 25.19293],
        [82.34959, 25.1914],
        [82.34951, 25.1921],
        [82.34962, 25.19297],
        [82.35007, 25.19445],
        [82.3503, 25.19521],
        [82.3504, 25.19613],
        [82.35028, 25.19711],
        [82.34979, 25.1982],
        [82.34815, 25.19851],
        [82.34697, 25.19888],
        [82.34535, 25.19942],
        [82.34499, 25.1996],
        [82.34503, 25.20044],
        [82.3454, 25.20214],
        [82.34596, 25.20439],
        [82.34619, 25.20552],
        [82.34663, 25.20696],
        [82.34681, 25.20695],
        [82.34754, 25.20688],
        [82.34827, 25.2068],
        [82.349, 25.20673],
        [82.35043, 25.20675],
        [82.35136, 25.207],
        [82.35569, 25.20812],
        [82.35887, 25.20943],
        [82.35912, 25.20956],
        [82.35937, 25.20971],
        [82.35961, 25.20987],
        [82.35983, 25.21004],
        [82.36006, 25.21022],
        [82.36027, 25.21041],
        [82.36048, 25.21061],
        [82.36067, 25.21082],
        [82.36085, 25.21104],
        [82.36124, 25.21136],
        [82.3616, 25.21172],
        [82.36193, 25.2121],
        [82.36223, 25.2125],
        [82.36251, 25.21292],
        [82.36275, 25.21336],
        [82.36296, 25.21382],
        [82.36314, 25.2143],
        [82.36329, 25.21478],
        [82.36368, 25.21561],
        [82.3638, 25.21603],
        [82.36397, 25.21744],
        [82.3641, 25.22016],
        [82.36449, 25.22576],
        [82.3651, 25.22852],
        [82.36594, 25.23141],
        [82.36668, 25.23414],
        [82.36764, 25.23768],
        [82.36913, 25.24237],
        [82.36933, 25.2428],
        [82.36953, 25.24324],
        [82.36974, 25.24367],
        [82.36995, 25.24409],
        [82.37018, 25.24452],
        [82.3704, 25.24494],
        [82.37063, 25.24537],
        [82.37086, 25.24578],
        [82.3711, 25.2462],
        [82.37247, 25.2489],
        [82.37353, 25.25041],
        [82.374, 25.25175],
        [82.37428, 25.25214],
        [82.37453, 25.25243],
        [82.37496, 25.25284],
        [82.37531, 25.2531],
        [82.37596, 25.25343],
        [82.37655, 25.25378],
        [82.37714, 25.25414],
        [82.37773, 25.2545],
        [82.37831, 25.25486],
        [82.37889, 25.25523],
        [82.37947, 25.2556],
        [82.38004, 25.25597],
        [82.38061, 25.25635],
        [82.38118, 25.25674],
        [82.38189, 25.25727],
        [82.38263, 25.25776],
        [82.38341, 25.25818],
        [82.38422, 25.25854],
        [82.38506, 25.25884],
        [82.38591, 25.25908],
        [82.38678, 25.25925],
        [82.38766, 25.25936],
        [82.38855, 25.25939],
        [82.38942, 25.25943],
        [82.39029, 25.25944],
        [82.39116, 25.25942],
        [82.39203, 25.25937],
        [82.3929, 25.25929],
        [82.39377, 25.25917],
        [82.39463, 25.25903],
        [82.39548, 25.25885],
        [82.39633, 25.25865],
        [82.39732, 25.25832],
        [82.39831, 25.25799],
        [82.3993, 25.25766],
        [82.40029, 25.25734],
        [82.40128, 25.25702],
        [82.40227, 25.2567],
        [82.40326, 25.25638],
        [82.40425, 25.25607],
        [82.40525, 25.25576],
        [82.40572, 25.25553],
        [82.40619, 25.2553],
        [82.40666, 25.25506],
        [82.40713, 25.25483],
        [82.4076, 25.25458],
        [82.40806, 25.25434],
        [82.40853, 25.25408],
        [82.40898, 25.25383],
        [82.40944, 25.25357],
        [82.40978, 25.2534],
        [82.41012, 25.25321],
        [82.41044, 25.253],
        [82.41053, 25.25293],
        [82.41075, 25.25277],
        [82.41104, 25.25253],
        [82.41133, 25.25228],
        [82.4116, 25.25201],
        [82.41186, 25.25173],
        [82.4121, 25.25143],
        [82.41398, 25.25042],
        [82.41646, 25.24887],
        [82.4226, 25.24551],
        [82.42481, 25.24413],
        [82.42639, 25.24301],
        [82.42666, 25.24278],
        [82.42694, 25.24257],
        [82.42723, 25.24237],
        [82.42753, 25.24219],
        [82.42784, 25.24203],
        [82.42816, 25.24188],
        [82.42849, 25.24176],
        [82.42883, 25.24165],
        [82.42917, 25.24157],
        [82.42964, 25.24138],
        [82.43012, 25.24119],
        [82.43059, 25.241],
        [82.43107, 25.24082],
        [82.43155, 25.24064],
        [82.43202, 25.24046],
        [82.4325, 25.24029],
        [82.43298, 25.24011],
        [82.43346, 25.23994],
        [82.43408, 25.23968],
        [82.43469, 25.23939],
        [82.43527, 25.23907],
        [82.43585, 25.23871],
        [82.4364, 25.23833],
        [82.43693, 25.23792],
        [82.43744, 25.23749],
        [82.43793, 25.23702],
        [82.43839, 25.23654],
        [82.43869, 25.2361],
        [82.43897, 25.23566],
        [82.43924, 25.2352],
        [82.4395, 25.23474],
        [82.43974, 25.23427],
        [82.43997, 25.23379],
        [82.44019, 25.23331],
        [82.44039, 25.23282],
        [82.44058, 25.23232],
        [82.44071, 25.2318],
        [82.44087, 25.23129],
        [82.44107, 25.23079],
        [82.4413, 25.2303],
        [82.44157, 25.22983],
        [82.44186, 25.22938],
        [82.44219, 25.22896],
        [82.44255, 25.22855],
        [82.44293, 25.22817],
        [82.44342, 25.2277],
        [82.44391, 25.22722],
        [82.4444, 25.22674],
        [82.44489, 25.22626],
        [82.44539, 25.22578],
        [82.44588, 25.22531],
        [82.44637, 25.22483],
        [82.44687, 25.22436],
        [82.44736, 25.22388],
        [82.44787, 25.22332],
        [82.44838, 25.22275],
        [82.44889, 25.2222],
        [82.44941, 25.22164],
        [82.44994, 25.2211],
        [82.45047, 25.22056],
        [82.451, 25.22002],
        [82.45155, 25.21949],
        [82.45209, 25.21896],
        [82.45242, 25.21892],
        [82.45291, 25.21891],
        [82.45324, 25.21895],
        [82.45356, 25.21902],
        [82.45447, 25.21917],
        [82.45539, 25.21933],
        [82.45631, 25.21948],
        [82.45723, 25.21964],
        [82.45815, 25.21979],
        [82.45906, 25.21994],
        [82.45998, 25.2201],
        [82.4609, 25.22024],
        [82.46182, 25.22039],
        [82.46228, 25.22038],
        [82.46274, 25.22036],
        [82.46321, 25.22034],
        [82.46367, 25.22032],
        [82.46413, 25.2203],
        [82.46459, 25.22028],
        [82.46506, 25.22025],
        [82.46552, 25.22023],
        [82.46598, 25.22021],
        [82.4664, 25.22018],
        [82.46666, 25.22031],
        [82.46682, 25.22054],
        [82.46687, 25.22082],
        [82.4685, 25.22576],
        [82.46984, 25.22829],
        [82.47056, 25.22987],
        [82.47071, 25.2302],
        [82.47085, 25.23053],
        [82.47098, 25.23086],
        [82.4711, 25.23119],
        [82.47121, 25.23153],
        [82.47131, 25.23187],
        [82.4714, 25.23222],
        [82.47148, 25.23256],
        [82.47183, 25.23343],
        [82.47248, 25.23512],
        [82.47428, 25.23999],
        [82.47448, 25.24011],
        [82.47481, 25.24015],
        [82.47491, 25.24032],
        [82.4751, 25.24096],
        [82.47487, 25.24115],
        [82.47461, 25.24124],
        [82.47453, 25.24152],
        [82.47457, 25.24184],
        [82.47465, 25.24213],
        [82.47471, 25.24241],
        [82.47477, 25.24268],
        [82.47484, 25.24296],
        [82.47492, 25.24323],
        [82.47521, 25.24331],
        [82.47754, 25.24288],
        [82.47974, 25.24262],
        [82.48339, 25.24205],
        [82.4836, 25.24204],
        [82.4838, 25.2421],
        [82.48397, 25.24222],
        [82.48411, 25.24238],
        [82.48432, 25.24257],
        [82.48465, 25.24239],
        [82.48485, 25.24228],
        [82.48505, 25.24217],
        [82.48525, 25.24207],
        [82.48546, 25.24198],
        [82.48567, 25.24189],
        [82.48588, 25.24181],
        [82.48609, 25.24173],
        [82.48631, 25.24166],
        [82.48656, 25.24151],
        [82.48683, 25.24139],
        [82.48711, 25.2413],
        [82.4874, 25.24123],
        [82.48769, 25.2412],
        [82.48798, 25.2412],
        [82.48828, 25.24122],
        [82.48857, 25.24128],
        [82.48898, 25.2415],
        [82.48914, 25.24173],
        [82.48923, 25.2419],
        [82.4893, 25.24208],
        [82.48958, 25.24225],
        [82.48988, 25.24214],
        [82.49036, 25.24196],
        [82.4908, 25.24185],
        [82.49123, 25.24174],
        [82.49166, 25.24163],
        [82.4921, 25.24153],
        [82.49253, 25.24143],
        [82.49297, 25.24134],
        [82.4934, 25.24125],
        [82.49384, 25.24117],
        [82.4971, 25.24065],
        [82.49814, 25.24035],
        [82.49869, 25.24055],
        [82.49894, 25.24061],
        [82.49976, 25.2406],
        [82.50002, 25.24059],
        [82.50027, 25.24063],
        [82.50051, 25.24073],
        [82.50072, 25.24088],
        [82.50087, 25.24104],
        [82.50115, 25.24127],
        [82.50145, 25.24147],
        [82.50171, 25.24155],
        [82.50198, 25.24161],
        [82.50225, 25.24162],
        [82.50253, 25.24161],
        [82.5029, 25.24159],
        [82.50314, 25.24158],
        [82.50337, 25.24159],
        [82.50361, 25.24159],
        [82.50385, 25.24161],
        [82.50408, 25.24162],
        [82.50432, 25.24164],
        [82.50455, 25.24166],
        [82.50482, 25.24169],
        [82.50487, 25.24137],
        [82.50484, 25.24112],
        [82.50481, 25.24088],
        [82.50478, 25.24064],
        [82.50474, 25.24039],
        [82.50471, 25.24015],
        [82.50467, 25.23991],
        [82.50463, 25.23966],
        [82.50459, 25.23942],
        [82.50453, 25.23915],
        [82.50448, 25.23887],
        [82.50443, 25.23859],
        [82.50438, 25.23831],
        [82.50434, 25.23803],
        [82.5043, 25.23776],
        [82.50426, 25.23748],
        [82.50423, 25.2372],
        [82.5042, 25.23692],
        [82.50401, 25.23516],
        [82.50427, 25.23498],
        [82.50486, 25.23491],
        [82.50545, 25.23485],
        [82.50603, 25.23478],
        [82.50662, 25.23471],
        [82.5072, 25.23464],
        [82.50779, 25.23456],
        [82.50838, 25.23449],
        [82.50896, 25.23441],
        [82.50955, 25.23433],
        [82.50992, 25.23424],
        [82.5103, 25.23415],
        [82.51067, 25.23406],
        [82.51104, 25.23396],
        [82.51145, 25.23385],
        [82.51168, 25.23379],
        [82.5119, 25.23374],
        [82.51213, 25.2337],
        [82.51235, 25.23365],
        [82.51258, 25.23362],
        [82.51281, 25.23359],
        [82.51304, 25.23356],
        [82.51327, 25.23354],
        [82.51367, 25.23346],
        [82.51406, 25.23339],
        [82.51446, 25.23331],
        [82.51486, 25.23324],
        [82.51525, 25.23316],
        [82.51565, 25.23309],
        [82.51605, 25.23302],
        [82.51644, 25.23294],
        [82.51684, 25.23287],
        [82.51816, 25.23277],
        [82.51831, 25.23301],
        [82.51845, 25.23326],
        [82.51858, 25.23351],
        [82.5187, 25.23377],
        [82.51882, 25.23403],
        [82.51892, 25.2343],
        [82.51901, 25.23456],
        [82.51908, 25.23484],
        [82.51915, 25.23512],
        [82.51921, 25.23538],
        [82.51926, 25.23564],
        [82.51932, 25.23591],
        [82.51939, 25.23617],
        [82.51945, 25.23643],
        [82.51951, 25.23669],
        [82.51957, 25.23695],
        [82.51964, 25.23721],
        [82.51971, 25.23747],
        [82.5198, 25.2377],
        [82.51989, 25.23792],
        [82.51997, 25.23814],
        [82.52004, 25.23837],
        [82.52011, 25.2386],
        [82.52018, 25.23883],
        [82.52024, 25.23906],
        [82.52029, 25.2393],
        [82.52043, 25.23967],
        [82.52085, 25.2397],
        [82.52121, 25.23968],
        [82.52143, 25.2396],
        [82.52168, 25.23947],
        [82.52193, 25.23933],
        [82.52218, 25.23918],
        [82.52241, 25.23902],
        [82.52362, 25.23825],
        [82.52396, 25.23812],
        [82.52433, 25.23803],
        [82.5247, 25.23798],
        [82.52525, 25.23799],
        [82.5255, 25.23801],
        [82.52575, 25.23804],
        [82.52599, 25.23808],
        [82.52624, 25.23813],
        [82.52647, 25.23819],
        [82.52671, 25.23827],
        [82.52694, 25.23836],
        [82.52717, 25.23846],
        [82.52739, 25.23857],
        [82.5276, 25.2386],
        [82.52781, 25.23863],
        [82.52802, 25.23865],
        [82.52824, 25.23866],
        [82.52845, 25.23867],
        [82.52866, 25.23867],
        [82.52887, 25.23866],
        [82.52908, 25.23864],
        [82.52929, 25.23862],
        [82.52958, 25.23857],
        [82.52986, 25.23851],
        [82.53015, 25.23847],
        [82.53044, 25.23842],
        [82.53072, 25.23838],
        [82.53101, 25.23835],
        [82.5313, 25.23832],
        [82.53158, 25.2383],
        [82.53187, 25.23828],
        [82.53209, 25.23826],
        [82.53232, 25.23824],
        [82.53254, 25.23822],
        [82.53276, 25.2382],
        [82.53298, 25.23817],
        [82.5332, 25.23814],
        [82.53341, 25.23811],
        [82.53363, 25.23808],
        [82.53385, 25.23804],
        [82.53408, 25.2381],
        [82.53426, 25.23837],
        [82.53459, 25.23832],
        [82.53488, 25.23828],
        [82.53517, 25.23823],
        [82.53546, 25.23818],
        [82.53573, 25.23813],
        [82.53599, 25.23811],
        [82.53625, 25.2381],
        [82.5365, 25.23811],
        [82.5368, 25.23813],
        [82.537, 25.23832],
        [82.53717, 25.23865],
        [82.53754, 25.23858],
        [82.53784, 25.23852],
        [82.53815, 25.23845],
        [82.53845, 25.23838],
        [82.53875, 25.2383],
        [82.53906, 25.23823],
        [82.53936, 25.23815],
        [82.53966, 25.23806],
        [82.53996, 25.23797],
        [82.541, 25.23778],
        [82.54132, 25.23801],
        [82.54153, 25.23798],
        [82.54175, 25.23798],
        [82.54197, 25.23803],
        [82.54218, 25.23812],
        [82.54236, 25.23825],
        [82.54263, 25.23842],
        [82.54289, 25.23859],
        [82.54316, 25.23876],
        [82.54343, 25.23892],
        [82.54371, 25.23909],
        [82.54398, 25.23925],
        [82.54425, 25.23942],
        [82.54452, 25.23958],
        [82.5448, 25.23974],
        [82.54504, 25.23983],
        [82.54529, 25.2399],
        [82.54555, 25.23996],
        [82.54581, 25.24],
        [82.54607, 25.24003],
        [82.54633, 25.24004],
        [82.5466, 25.24003],
        [82.54686, 25.24001],
        [82.54712, 25.23997],
        [82.54914, 25.23945],
        [82.5494, 25.23941],
        [82.54965, 25.2394],
        [82.54991, 25.23939],
        [82.55026, 25.23942],
        [82.55057, 25.23938],
        [82.55092, 25.23925],
        [82.55113, 25.23916],
        [82.55134, 25.23908],
        [82.55155, 25.23899],
        [82.55176, 25.23891],
        [82.55197, 25.23882],
        [82.55218, 25.23874],
        [82.55239, 25.23866],
        [82.5526, 25.23857],
        [82.55279, 25.2385],
        [82.553, 25.23855],
        [82.55339, 25.23917],
        [82.55359, 25.23922],
        [82.55381, 25.23916],
        [82.55403, 25.23911],
        [82.55424, 25.23905],
        [82.55446, 25.23898],
        [82.55467, 25.23892],
        [82.55489, 25.23885],
        [82.5551, 25.23878],
        [82.55531, 25.23871],
        [82.55552, 25.23864],
        [82.55924, 25.23761],
        [82.56035, 25.23984],
        [82.56066, 25.23978],
        [82.56093, 25.23974],
        [82.5612, 25.2397],
        [82.56146, 25.23966],
        [82.56173, 25.23963],
        [82.562, 25.23959],
        [82.56227, 25.23957],
        [82.56254, 25.23955],
        [82.5629, 25.23958],
        [82.56293, 25.23987],
        [82.56297, 25.24017],
        [82.56302, 25.24046],
        [82.56307, 25.24075],
        [82.56313, 25.24105],
        [82.56319, 25.24134],
        [82.56325, 25.24163],
        [82.56332, 25.24191],
        [82.56339, 25.2422],
        [82.56347, 25.24251],
        [82.56354, 25.24281],
        [82.56361, 25.24311],
        [82.56369, 25.24341],
        [82.56376, 25.24371],
        [82.56384, 25.24401],
        [82.56391, 25.24432],
        [82.56398, 25.24462],
        [82.56414, 25.24497],
        [82.56667, 25.24439],
        [82.56695, 25.24435],
        [82.56723, 25.2443],
        [82.56751, 25.24426],
        [82.56779, 25.2442],
        [82.56807, 25.24414],
        [82.56834, 25.24407],
        [82.56862, 25.244],
        [82.56889, 25.24393],
        [82.56917, 25.24384],
        [82.56947, 25.24376],
        [82.56978, 25.24367],
        [82.57009, 25.24358],
        [82.5704, 25.2435],
        [82.57071, 25.24342],
        [82.57103, 25.24334],
        [82.57134, 25.24327],
        [82.57165, 25.24319],
        [82.57196, 25.24312],
        [82.57224, 25.24307],
        [82.57252, 25.24304],
        [82.57279, 25.24301],
        [82.57307, 25.243],
        [82.57335, 25.24301],
        [82.57363, 25.24302],
        [82.57391, 25.24305],
        [82.57419, 25.24309],
        [82.57446, 25.24314],
        [82.57464, 25.24325],
        [82.57482, 25.24336],
        [82.57499, 25.24348],
        [82.57515, 25.24361],
        [82.5753, 25.24387],
        [82.57534, 25.24414],
        [82.57528, 25.2444],
        [82.57519, 25.24466],
        [82.57511, 25.24492],
        [82.57516, 25.24521],
        [82.57533, 25.24545],
        [82.57547, 25.24561],
        [82.57561, 25.24575],
        [82.57576, 25.24589],
        [82.57592, 25.24602],
        [82.57609, 25.24614],
        [82.57626, 25.24626],
        [82.57645, 25.24637],
        [82.57752, 25.2453],
        [82.57947, 25.24352]
      ]
    ]
  }
}
