{
  "type": "Feature",
  "id": "UP-AC-64",
  "properties": {
    "stateName": "UTTAR PRADESH",
    "stateCode": "UP",
    "districtName": "BULANDSHAHR",
    "acNo": 64,
    "acName": "SYANA",
    "seatType": null,
    "pcNo": null,
    "pcName": null,
    "quality": "unverified",
    "sources": [
      "TBD"
    ]
  },
  "geometry": {
    "type": "Polygon",
    "coordinates": [
      [
        [77.82089, 28.62824],
        [77.82131, 28.62862],
        [77.82155, 28.62868],
        [77.82447, 28.62834],
        [77.82472, 28.62832],
        [77.82497, 28.6283],
        [77.82522, 28.62829],
        [77.82547, 28.62829],
        [77.82572, 28.62829],
        [77.82597, 28.6283],
        [77.82622, 28.62831],
        [77.82646, 28.62833],
        [77.82671, 28.62835],
        [77.82712, 28.62838],
        [77.82738, 28.62844],
        [77.82763, 28.62854],
        [77.82787, 28.62867],
        [77.82822, 28.62896],
        [77.82952, 28.62449],
        [77.83151, 28.6221],
        [77.83274, 28.62108],
        [77.83364, 28.6206],
        [77.83434, 28.62052],
        [77.83607, 28.62081],
        [77.83814, 28.62148],
        [77.83797, 28.62066],
        [77.83766, 28.61995],
        [77.83716, 28.61937],
        [77.83662, 28.61896],
        [77.83613, 28.61867],
        [77.83587, 28.61853],
        [77.83578, 28.61843],
        [77.83574, 28.61829],
        [77.83575, 28.61815],
        [77.83585, 28.61801],
        [77.83642, 28.61765],
        [77.83658, 28.61743],
        [77.83651, 28.61723],
        [77.83631, 28.61701],
        [77.83596, 28.61675],
        [77.83572, 28.61651],
        [77.83548, 28.61614],
        [77.83496, 28.61466],
        [77.8346, 28.61297],
        [77.83427, 28.61196],
        [77.83364, 28.6109],
        [77.83271, 28.60956],
        [77.83274, 28.60939],
        [77.83266, 28.60907],
        [77.83262, 28.60876],
        [77.83266, 28.60859],
        [77.83278, 28.60834],
        [77.83323, 28.60806],
        [77.83466, 28.60777],
        [77.83569, 28.60765],
        [77.83603, 28.60755],
        [77.8369, 28.60703],
        [77.83765, 28.60673],
        [77.83816, 28.60663],
        [77.83856, 28.60662],
        [77.83944, 28.60475],
        [77.83993, 28.6041],
        [77.83884, 28.60355],
        [77.83822, 28.60307],
        [77.83765, 28.60218],
        [77.83714, 28.6012],
        [77.83646, 28.59939],
        [77.83595, 28.59842],
        [77.83544, 28.59786],
        [77.83519, 28.59735],
        [77.83511, 28.59662],
        [77.83478, 28.59583],
        [77.83374, 28.59454],
        [77.83323, 28.59353],
        [77.83312, 28.59257],
        [77.83322, 28.59166],
        [77.83402, 28.58993],
        [77.83246, 28.58932],
        [77.83118, 28.5887],
        [77.83066, 28.58819],
        [77.82958, 28.58679],
        [77.829, 28.58642],
        [77.82869, 28.58635],
        [77.82823, 28.58638],
        [77.82756, 28.58659],
        [77.82663, 28.58694],
        [77.82548, 28.58708],
        [77.82479, 28.587],
        [77.82354, 28.58649],
        [77.82239, 28.58583],
        [77.81907, 28.5842],
        [77.82046, 28.58294],
        [77.82223, 28.58093],
        [77.82274, 28.58011],
        [77.82376, 28.57846],
        [77.82627, 28.57352],
        [77.82635, 28.57334],
        [77.82854, 28.56838],
        [77.82929, 28.56604],
        [77.82933, 28.56586],
        [77.8298, 28.56385],
        [77.83082, 28.5594],
        [77.83095, 28.55896],
        [77.8313, 28.55778],
        [77.83252, 28.55514],
        [77.83303, 28.55384],
        [77.83333, 28.55308],
        [77.83364, 28.55171],
        [77.8338, 28.5505],
        [77.83379, 28.54939],
        [77.83378, 28.54775],
        [77.83377, 28.54635],
        [77.83339, 28.54457],
        [77.83329, 28.54339],
        [77.83323, 28.54256],
        [77.83307, 28.54038],
        [77.8327, 28.53841],
        [77.83241, 28.5374],
        [77.83226, 28.53687],
        [77.83204, 28.53636],
        [77.83148, 28.53505],
        [77.83136, 28.53468],
        [77.83133, 28.53431],
        [77.83137, 28.5339],
        [77.83162, 28.53334],
        [77.83197, 28.53288],
        [77.82957, 28.5312],
        [77.82661, 28.52881],
        [77.82425, 28.52722],
        [77.82249, 28.52627],
        [77.82147, 28.5265],
        [77.82144, 28.52633],
        [77.8214, 28.5262],
        [77.82021, 28.52545],
        [77.81872, 28.52367],
        [77.81687, 28.52052],
        [77.81617, 28.51893],
        [77.81579, 28.51669],
        [77.81563, 28.51474],
        [77.81573, 28.51431],
        [77.81585, 28.51413],
        [77.81457, 28.51173],
        [77.81382, 28.51062],
        [77.81249, 28.50903],
        [77.81274, 28.50883],
        [77.81554, 28.50601],
        [77.81719, 28.50457],
        [77.818, 28.50409],
        [77.81647, 28.50147],
        [77.81545, 28.49995],
        [77.81504, 28.49953],
        [77.81431, 28.49913],
        [77.81259, 28.49836],
        [77.81226, 28.49806],
        [77.81212, 28.49756],
        [77.81175, 28.49578],
        [77.81178, 28.49547],
        [77.8119, 28.49519],
        [77.81294, 28.49423],
        [77.81589, 28.49243],
        [77.81811, 28.49089],
        [77.82032, 28.48888],
        [77.82336, 28.48619],
        [77.82437, 28.48553],
        [77.82647, 28.48422],
        [77.82615, 28.48243],
        [77.82109, 28.48516],
        [77.82079, 28.48525],
        [77.82051, 28.48526],
        [77.82017, 28.48519],
        [77.81976, 28.48495],
        [77.81923, 28.48447],
        [77.81872, 28.48374],
        [77.81836, 28.48304],
        [77.81717, 28.4798],
        [77.81616, 28.4764],
        [77.81539, 28.47245],
        [77.81564, 28.47247],
        [77.81622, 28.47231],
        [77.81663, 28.47216],
        [77.81698, 28.47187],
        [77.81725, 28.47151],
        [77.81761, 28.47101],
        [77.81782, 28.47045],
        [77.81786, 28.47003],
        [77.81781, 28.46969],
        [77.81769, 28.46927],
        [77.81755, 28.469],
        [77.81733, 28.4688],
        [77.81695, 28.46868],
        [77.8167, 28.4686],
        [77.81631, 28.46848],
        [77.81545, 28.46829],
        [77.81435, 28.46805],
        [77.81382, 28.46765],
        [77.81352, 28.46744],
        [77.81315, 28.46711],
        [77.81269, 28.46601],
        [77.81248, 28.4656],
        [77.81183, 28.46478],
        [77.81176, 28.46468],
        [77.81147, 28.4643],
        [77.81101, 28.46324],
        [77.81061, 28.46221],
        [77.81037, 28.46131],
        [77.81024, 28.46096],
        [77.81012, 28.46048],
        [77.81008, 28.46006],
        [77.80994, 28.45881],
        [77.80997, 28.45846],
        [77.81, 28.45818],
        [77.81026, 28.45789],
        [77.81068, 28.45767],
        [77.8111, 28.45745],
        [77.81153, 28.45709],
        [77.812, 28.45623],
        [77.8122, 28.45581],
        [77.81224, 28.45532],
        [77.81227, 28.45497],
        [77.81222, 28.45465],
        [77.812, 28.45428],
        [77.81171, 28.45394],
        [77.81142, 28.4536],
        [77.81119, 28.45347],
        [77.81088, 28.45333],
        [77.81009, 28.45322],
        [77.80874, 28.45319],
        [77.80811, 28.453],
        [77.8075, 28.45267],
        [77.80713, 28.45233],
        [77.80658, 28.45221],
        [77.80594, 28.45223],
        [77.80535, 28.45225],
        [77.80514, 28.45225],
        [77.80443, 28.45214],
        [77.80413, 28.45194],
        [77.8039, 28.45174],
        [77.80368, 28.45153],
        [77.80331, 28.45119],
        [77.80271, 28.4508],
        [77.80131, 28.45018],
        [77.8007, 28.44978],
        [77.80033, 28.44951],
        [77.79981, 28.44897],
        [77.79931, 28.44836],
        [77.79918, 28.44801],
        [77.79905, 28.44759],
        [77.79908, 28.44727],
        [77.7991, 28.44703],
        [77.79938, 28.44646],
        [77.79999, 28.44588],
        [77.80108, 28.44515],
        [77.80168, 28.44464],
        [77.80188, 28.44421],
        [77.80209, 28.4435],
        [77.80215, 28.4428],
        [77.80203, 28.44125],
        [77.80196, 28.441],
        [77.80086, 28.43702],
        [77.79978, 28.43347],
        [77.79859, 28.43035],
        [77.79825, 28.42965],
        [77.79813, 28.42917],
        [77.79806, 28.42861],
        [77.79803, 28.42832],
        [77.79805, 28.4281],
        [77.7981, 28.42748],
        [77.79815, 28.42677],
        [77.79819, 28.42628],
        [77.79831, 28.42578],
        [77.79865, 28.42337],
        [77.79864, 28.42122],
        [77.79843, 28.41988],
        [77.79819, 28.41883],
        [77.79782, 28.41736],
        [77.79719, 28.41611],
        [77.79685, 28.41534],
        [77.79651, 28.41465],
        [77.79581, 28.41333],
        [77.79515, 28.41257],
        [77.79478, 28.41223],
        [77.79409, 28.41183],
        [77.79301, 28.41144],
        [77.79193, 28.41106],
        [77.79114, 28.41101],
        [77.78996, 28.41091],
        [77.78869, 28.41096],
        [77.78725, 28.41122],
        [77.78572, 28.41156],
        [77.78475, 28.41195],
        [77.78376, 28.41256],
        [77.78301, 28.41301],
        [77.78261, 28.4131],
        [77.78229, 28.41311],
        [77.78174, 28.41306],
        [77.78091, 28.41267],
        [77.77964, 28.41176],
        [77.77941, 28.4116],
        [77.77852, 28.41068],
        [77.77729, 28.40942],
        [77.77592, 28.40769],
        [77.77555, 28.40725],
        [77.77518, 28.40681],
        [77.77435, 28.40566],
        [77.77401, 28.40486],
        [77.77371, 28.4035],
        [77.77337, 28.40261],
        [77.77288, 28.40089],
        [77.77248, 28.39954],
        [77.77225, 28.39845],
        [77.7719, 28.39774],
        [77.77147, 28.39666],
        [77.77131, 28.39612],
        [77.77052, 28.39432],
        [77.77021, 28.39305],
        [77.76999, 28.39187],
        [77.77006, 28.39076],
        [77.77008, 28.39045],
        [77.7701, 28.39009],
        [77.77016, 28.3892],
        [77.77055, 28.38771],
        [77.77089, 28.38714],
        [77.77189, 28.38553],
        [77.77255, 28.38467],
        [77.77308, 28.38418],
        [77.77393, 28.38341],
        [77.77468, 28.38252],
        [77.77555, 28.3815],
        [77.77793, 28.37845],
        [77.77968, 28.37607],
        [77.78111, 28.37388],
        [77.7823, 28.37245],
        [77.78284, 28.37178],
        [77.78348, 28.37111],
        [77.78422, 28.37044],
        [77.78516, 28.36985],
        [77.78534, 28.36979],
        [77.78578, 28.36964],
        [77.78649, 28.36962],
        [77.7875, 28.36968],
        [77.78799, 28.36985],
        [77.78868, 28.3702],
        [77.78936, 28.37073],
        [77.79023, 28.37154],
        [77.7911, 28.37225],
        [77.79263, 28.37378],
        [77.79292, 28.37394],
        [77.7943, 28.37474],
        [77.7962, 28.37524],
        [77.79905, 28.37516],
        [77.80109, 28.37501],
        [77.80238, 28.37469],
        [77.80275, 28.3746],
        [77.80421, 28.37401],
        [77.80526, 28.37334],
        [77.80624, 28.3723],
        [77.807, 28.37155],
        [77.80787, 28.37061],
        [77.80862, 28.36985],
        [77.80927, 28.36928],
        [77.81023, 28.36862],
        [77.81148, 28.36804],
        [77.81236, 28.36796],
        [77.81292, 28.36791],
        [77.81361, 28.36797],
        [77.81476, 28.36806],
        [77.81606, 28.3685],
        [77.81756, 28.36911],
        [77.82145, 28.36989],
        [77.8227, 28.36967],
        [77.82441, 28.36914],
        [77.82533, 28.36862],
        [77.82652, 28.3674],
        [77.82751, 28.36568],
        [77.82802, 28.36467],
        [77.82845, 28.36306],
        [77.82848, 28.36255],
        [77.82854, 28.36145],
        [77.8286, 28.36024],
        [77.82814, 28.35854],
        [77.82724, 28.35634],
        [77.82684, 28.35554],
        [77.82677, 28.35473],
        [77.82678, 28.35461],
        [77.82683, 28.35362],
        [77.8273, 28.35322],
        [77.82787, 28.35301],
        [77.82921, 28.35309],
        [77.82966, 28.35319],
        [77.83034, 28.35308],
        [77.8308, 28.35288],
        [77.83115, 28.35267],
        [77.83191, 28.35105],
        [77.83199, 28.35066],
        [77.83205, 28.35035],
        [77.83225, 28.34883],
        [77.8323, 28.34782],
        [77.83244, 28.34732],
        [77.8327, 28.34661],
        [77.83307, 28.346],
        [77.83414, 28.34488],
        [77.83218, 28.34354],
        [77.83137, 28.34296],
        [77.83029, 28.34247],
        [77.82939, 28.34198],
        [77.82886, 28.34148],
        [77.82807, 28.34049],
        [77.82754, 28.34],
        [77.82711, 28.33942],
        [77.82658, 28.33892],
        [77.82614, 28.33851],
        [77.82553, 28.33752],
        [77.82513, 28.33627],
        [77.82498, 28.33553],
        [77.82484, 28.33453],
        [77.82488, 28.33353],
        [77.82509, 28.33111],
        [77.8251, 28.33068],
        [77.82512, 28.33036],
        [77.82505, 28.32986],
        [77.82498, 28.32919],
        [77.82474, 28.32844],
        [77.82422, 28.32752],
        [77.82351, 28.32694],
        [77.82261, 28.32628],
        [77.82127, 28.32511],
        [77.82047, 28.32437],
        [77.82007, 28.3238],
        [77.81995, 28.32361],
        [77.81943, 28.32261],
        [77.81883, 28.32144],
        [77.81832, 28.32036],
        [77.81754, 28.31911],
        [77.81676, 28.31821],
        [77.81542, 28.31635],
        [77.81481, 28.31551],
        [77.81401, 28.31468],
        [77.81187, 28.31242],
        [77.81011, 28.31064],
        [77.80843, 28.30933],
        [77.806, 28.30777],
        [77.80511, 28.30739],
        [77.80444, 28.30702],
        [77.80362, 28.3067],
        [77.80348, 28.30666],
        [77.8028, 28.30646],
        [77.80171, 28.30589],
        [77.8009, 28.30552],
        [77.80053, 28.30535],
        [77.79981, 28.30502],
        [77.79879, 28.30446],
        [77.79791, 28.30396],
        [77.79678, 28.30371],
        [77.79572, 28.30371],
        [77.79482, 28.30377],
        [77.79406, 28.3039],
        [77.79344, 28.30402],
        [77.79225, 28.30453],
        [77.79017, 28.30528],
        [77.78927, 28.3056],
        [77.78755, 28.30604],
        [77.78514, 28.30648],
        [77.78321, 28.3068],
        [77.78171, 28.30699],
        [77.78068, 28.30719],
        [77.77937, 28.30751],
        [77.77869, 28.30751],
        [77.77801, 28.30738],
        [77.77772, 28.3072],
        [77.77741, 28.30701],
        [77.77667, 28.30644],
        [77.77635, 28.30594],
        [77.77615, 28.30556],
        [77.7761, 28.305],
        [77.77611, 28.30437],
        [77.77626, 28.30381],
        [77.77682, 28.30331],
        [77.77745, 28.30274],
        [77.77814, 28.30217],
        [77.77961, 28.30098],
        [77.77989, 28.30048],
        [77.77991, 28.29973],
        [77.77979, 28.2993],
        [77.77966, 28.29892],
        [77.77934, 28.29837],
        [77.77888, 28.29775],
        [77.77822, 28.29669],
        [77.77791, 28.29576],
        [77.77779, 28.29514],
        [77.77788, 28.2944],
        [77.7781, 28.29365],
        [77.77875, 28.29244],
        [77.77875, 28.29222],
        [77.77889, 28.29166],
        [77.7789, 28.291],
        [77.77891, 28.29072],
        [77.7788, 28.28979],
        [77.77858, 28.28892],
        [77.77834, 28.28836],
        [77.77805, 28.28786],
        [77.77775, 28.28748],
        [77.77733, 28.28693],
        [77.77679, 28.28649],
        [77.77612, 28.286],
        [77.77515, 28.28562],
        [77.7726, 28.28447],
        [77.77174, 28.28381],
        [77.77089, 28.28288],
        [77.77059, 28.28255],
        [77.77016, 28.28194],
        [77.76985, 28.28139],
        [77.76942, 28.28057],
        [77.76892, 28.27941],
        [77.76811, 28.27798],
        [77.76703, 28.2765],
        [77.76659, 28.27617],
        [77.76609, 28.27595],
        [77.76583, 28.27578],
        [77.76527, 28.27573],
        [77.76452, 28.27595],
        [77.76255, 28.2771],
        [77.76083, 28.27815],
        [77.75971, 28.2787],
        [77.75779, 28.27946],
        [77.75635, 28.27972],
        [77.75456, 28.27976],
        [77.75282, 28.27973],
        [77.75159, 28.27969],
        [77.75075, 28.27972],
        [77.75, 28.28003],
        [77.74944, 28.2804],
        [77.74886, 28.28077],
        [77.74825, 28.28113],
        [77.74769, 28.2815],
        [77.74737, 28.28166],
        [77.7466, 28.28186],
        [77.74581, 28.28184],
        [77.74371, 28.28142],
        [77.74105, 28.28082],
        [77.73596, 28.28009],
        [77.73362, 28.27988],
        [77.73224, 28.27964],
        [77.73148, 28.27949],
        [77.72956, 28.27902],
        [77.72782, 28.27831],
        [77.72628, 28.27753],
        [77.72496, 28.27707],
        [77.724, 28.27659],
        [77.72274, 28.27631],
        [77.72235, 28.27625],
        [77.722, 28.2762],
        [77.7205, 28.27626],
        [77.71967, 28.27645],
        [77.71866, 28.27684],
        [77.71769, 28.27712],
        [77.71638, 28.27699],
        [77.71586, 28.277],
        [77.71541, 28.27725],
        [77.71522, 28.27751],
        [77.72246, 28.28441],
        [77.72078, 28.2965],
        [77.73034, 28.30673],
        [77.73479, 28.31909],
        [77.73323, 28.32494],
        [77.71537, 28.34277],
        [77.71197, 28.35887],
        [77.70381, 28.3682],
        [77.69047, 28.37131],
        [77.68136, 28.37568],
        [77.67743, 28.39186],
        [77.68547, 28.41144],
        [77.68726, 28.42697],
        [77.68049, 28.43348],
        [77.6702, 28.42856],
        [77.66769, 28.41852],
        [77.66552, 28.39619],
        [77.658, 28.39314],
        [77.64687, 28.39995],
        [77.64192, 28.40905],
        [77.64386, 28.42211],
        [77.64261, 28.42751],
        [77.63686, 28.4354],
        [77.6392, 28.45062],
        [77.64093, 28.4618],
        [77.63835, 28.47565],
        [77.63786, 28.47831],
        [77.64291, 28.48083],
        [77.64584, 28.48351],
        [77.65119, 28.48461],
        [77.65143, 28.4847],
        [77.65704, 28.48672],
        [77.66339, 28.489],
        [77.66776, 28.49057],
        [77.67333, 28.49223],
        [77.66818, 28.50108],
        [77.66795, 28.50198],
        [77.66799, 28.50282],
        [77.66828, 28.50335],
        [77.66852, 28.50353],
        [77.66954, 28.5043],
        [77.67015, 28.50487],
        [77.67342, 28.50793],
        [77.67397, 28.50806],
        [77.67464, 28.50771],
        [77.67489, 28.50784],
        [77.67534, 28.50792],
        [77.67556, 28.50809],
        [77.67633, 28.50774],
        [77.67687, 28.5096],
        [77.67716, 28.51015],
        [77.67766, 28.51027],
        [77.67826, 28.51061],
        [77.67847, 28.51073],
        [77.67881, 28.51054],
        [77.67953, 28.51012],
        [77.67987, 28.51019],
        [77.68024, 28.51028],
        [77.68066, 28.51037],
        [77.68126, 28.5105],
        [77.68167, 28.51059],
        [77.68203, 28.51079],
        [77.68279, 28.51089],
        [77.68313, 28.51093],
        [77.68384, 28.51125],
        [77.68525, 28.51189],
        [77.68659, 28.51256],
        [77.68573, 28.51321],
        [77.68544, 28.51388],
        [77.68525, 28.51488],
        [77.68458, 28.51565],
        [77.68382, 28.51693],
        [77.6841, 28.51774],
        [77.68423, 28.51954],
        [77.68436, 28.52179],
        [77.68509, 28.52404],
        [77.68602, 28.52581],
        [77.68643, 28.52657],
        [77.68646, 28.52724],
        [77.68631, 28.52794],
        [77.68571, 28.52842],
        [77.6856, 28.52877],
        [77.68656, 28.52993],
        [77.68766, 28.53064],
        [77.68858, 28.53124],
        [77.68986, 28.53223],
        [77.69129, 28.53309],
        [77.69161, 28.53329],
        [77.69189, 28.53346],
        [77.69237, 28.53389],
        [77.69195, 28.53451],
        [77.692, 28.53472],
        [77.69183, 28.53498],
        [77.69164, 28.5352],
        [77.69139, 28.53548],
        [77.69108, 28.53576],
        [77.69055, 28.53592],
        [77.69039, 28.53661],
        [77.68985, 28.53742],
        [77.68921, 28.53806],
        [77.68867, 28.53864],
        [77.68819, 28.53875],
        [77.68798, 28.53897],
        [77.68787, 28.53939],
        [77.68777, 28.54052],
        [77.68755, 28.54094],
        [77.6875, 28.54143],
        [77.68779, 28.54291],
        [77.68794, 28.54307],
        [77.68862, 28.54335],
        [77.68865, 28.54398],
        [77.68867, 28.54458],
        [77.68862, 28.5454],
        [77.68867, 28.54578],
        [77.68889, 28.54616],
        [77.68905, 28.54648],
        [77.68915, 28.54733],
        [77.68907, 28.5478],
        [77.68905, 28.54792],
        [77.68931, 28.54803],
        [77.68894, 28.54856],
        [77.68857, 28.55075],
        [77.68846, 28.55177],
        [77.68819, 28.55195],
        [77.68762, 28.55244],
        [77.68738, 28.55264],
        [77.68686, 28.55457],
        [77.68621, 28.55552],
        [77.68614, 28.55598],
        [77.687, 28.55646],
        [77.68734, 28.5565],
        [77.68768, 28.55661],
        [77.68796, 28.5566],
        [77.68867, 28.55657],
        [77.68916, 28.55643],
        [77.68979, 28.55641],
        [77.6903, 28.5564],
        [77.69062, 28.55694],
        [77.69097, 28.55713],
        [77.6914, 28.55719],
        [77.69188, 28.55716],
        [77.69245, 28.55706],
        [77.69285, 28.55701],
        [77.69374, 28.5569],
        [77.69444, 28.5568],
        [77.69515, 28.55671],
        [77.69536, 28.55668],
        [77.69584, 28.5573],
        [77.69643, 28.55767],
        [77.69755, 28.55719],
        [77.69813, 28.5567],
        [77.69888, 28.55649],
        [77.69961, 28.55618],
        [77.70025, 28.55591],
        [77.70064, 28.55579],
        [77.70097, 28.55581],
        [77.70175, 28.55585],
        [77.70271, 28.55601],
        [77.70359, 28.55582],
        [77.70429, 28.55589],
        [77.70483, 28.55593],
        [77.70506, 28.55601],
        [77.70611, 28.55636],
        [77.70661, 28.55652],
        [77.70964, 28.55708],
        [77.71082, 28.55692],
        [77.71128, 28.55685],
        [77.71246, 28.5566],
        [77.71327, 28.55649],
        [77.71356, 28.55633],
        [77.71394, 28.55612],
        [77.71466, 28.55565],
        [77.71489, 28.55536],
        [77.71566, 28.55443],
        [77.71697, 28.55335],
        [77.71734, 28.55316],
        [77.71814, 28.55276],
        [77.71868, 28.55179],
        [77.71949, 28.55078],
        [77.71995, 28.55011],
        [77.72077, 28.55112],
        [77.72283, 28.5523],
        [77.72311, 28.55246],
        [77.72484, 28.55369],
        [77.72601, 28.55437],
        [77.72769, 28.55535],
        [77.72809, 28.55559],
        [77.72929, 28.55711],
        [77.72965, 28.55757],
        [77.73007, 28.55778],
        [77.73066, 28.55885],
        [77.73119, 28.55922],
        [77.73146, 28.5596],
        [77.7322, 28.56009],
        [77.73265, 28.56038],
        [77.73307, 28.56066],
        [77.73337, 28.56078],
        [77.73378, 28.56095],
        [77.73458, 28.56115],
        [77.73552, 28.56123],
        [77.73643, 28.5613],
        [77.73775, 28.56141],
        [77.73851, 28.5612],
        [77.73927, 28.56099],
        [77.74019, 28.56074],
        [77.74101, 28.56051],
        [77.74216, 28.56018],
        [77.74344, 28.55935],
        [77.74493, 28.55954],
        [77.74523, 28.55958],
        [77.74569, 28.55952],
        [77.74593, 28.55949],
        [77.74643, 28.55937],
        [77.74724, 28.55916],
        [77.74773, 28.55912],
        [77.74739, 28.55967],
        [77.74805, 28.56051],
        [77.74824, 28.56126],
        [77.74839, 28.56147],
        [77.74862, 28.56175],
        [77.74917, 28.56236],
        [77.74824, 28.56293],
        [77.7487, 28.56346],
        [77.74885, 28.56362],
        [77.75094, 28.56522],
        [77.7513, 28.56537],
        [77.75186, 28.56571],
        [77.75201, 28.56593],
        [77.75214, 28.56615],
        [77.75226, 28.56638],
        [77.75235, 28.56662],
        [77.75239, 28.56686],
        [77.75219, 28.56701],
        [77.75197, 28.56715],
        [77.75175, 28.56728],
        [77.75153, 28.56741],
        [77.75124, 28.56759],
        [77.75127, 28.56784],
        [77.75145, 28.56801],
        [77.75138, 28.56821],
        [77.75117, 28.56828],
        [77.75111, 28.56854],
        [77.75125, 28.56881],
        [77.75143, 28.56905],
        [77.75164, 28.56928],
        [77.75188, 28.56948],
        [77.75209, 28.56972],
        [77.75199, 28.56991],
        [77.75177, 28.57],
        [77.75157, 28.57012],
        [77.75137, 28.57024],
        [77.75119, 28.57038],
        [77.75097, 28.57053],
        [77.75091, 28.57079],
        [77.75123, 28.57114],
        [77.7527, 28.57326],
        [77.75299, 28.57315],
        [77.75443, 28.57429],
        [77.75312, 28.57508],
        [77.75302, 28.57532],
        [77.75377, 28.5762],
        [77.7538, 28.57648],
        [77.75348, 28.57703],
        [77.75328, 28.57727],
        [77.75307, 28.5775],
        [77.75291, 28.5777],
        [77.75281, 28.57794],
        [77.75276, 28.57819],
        [77.75277, 28.57844],
        [77.75293, 28.57879],
        [77.75321, 28.57902],
        [77.75344, 28.57929],
        [77.75334, 28.57947],
        [77.75324, 28.57966],
        [77.75313, 28.57984],
        [77.75302, 28.58003],
        [77.7529, 28.5802],
        [77.75278, 28.58038],
        [77.75266, 28.58056],
        [77.75253, 28.58073],
        [77.7524, 28.5809],
        [77.75365, 28.58217],
        [77.75506, 28.58365],
        [77.75701, 28.58286],
        [77.75737, 28.58295],
        [77.75832, 28.58435],
        [77.76132, 28.58334],
        [77.76268, 28.58491],
        [77.76268, 28.5851],
        [77.7625, 28.58524],
        [77.76227, 28.58537],
        [77.76222, 28.58561],
        [77.76256, 28.58605],
        [77.76289, 28.5865],
        [77.76322, 28.58695],
        [77.76354, 28.5874],
        [77.76385, 28.58785],
        [77.76416, 28.58831],
        [77.76446, 28.58877],
        [77.76476, 28.58924],
        [77.76506, 28.58973],
        [77.7653, 28.58986],
        [77.76553, 28.58979],
        [77.76574, 28.58969],
        [77.76593, 28.58957],
        [77.76611, 28.58943],
        [77.76626, 28.58927],
        [77.76639, 28.58909],
        [77.76653, 28.58891],
        [77.76669, 28.58874],
        [77.76686, 28.58858],
        [77.76704, 28.58843],
        [77.76733, 28.58842],
        [77.76747, 28.58863],
        [77.76763, 28.58882],
        [77.76781, 28.58899],
        [77.76802, 28.58914],
        [77.76833, 28.58931],
        [77.7687, 28.58908],
        [77.76891, 28.58892],
        [77.76911, 28.58876],
        [77.76931, 28.58861],
        [77.76952, 28.58845],
        [77.76972, 28.5883],
        [77.76993, 28.58815],
        [77.77014, 28.588],
        [77.77035, 28.58785],
        [77.7706, 28.58772],
        [77.77087, 28.58761],
        [77.77114, 28.58754],
        [77.77143, 28.58749],
        [77.77319, 28.58748],
        [77.77452, 28.5875],
        [77.77485, 28.58748],
        [77.77518, 28.58744],
        [77.77551, 28.58738],
        [77.77584, 28.5873],
        [77.77615, 28.5872],
        [77.77646, 28.58707],
        [77.77675, 28.58693],
        [77.77703, 28.58677],
        [77.7774, 28.58693],
        [77.77756, 28.58708],
        [77.77771, 28.58722],
        [77.77786, 28.58737],
        [77.77801, 28.58752],
        [77.77815, 28.58767],
        [77.77829, 28.58783],
        [77.77843, 28.58799],
        [77.77855, 28.58816],
        [77.77889, 28.58848],
        [77.77922, 28.58879],
        [77.77956, 28.58911],
        [77.7799, 28.58943],
        [77.78024, 28.58974],
        [77.78057, 28.59006],
        [77.78091, 28.59038],
        [77.78125, 28.59069],
        [77.78171, 28.59119],
        [77.7815, 28.59139],
        [77.78126, 28.59148],
        [77.78104, 28.59159],
        [77.78103, 28.59187],
        [77.78119, 28.59199],
        [77.78135, 28.59212],
        [77.78152, 28.59225],
        [77.78168, 28.59238],
        [77.78183, 28.59251],
        [77.78199, 28.59265],
        [77.78214, 28.59279],
        [77.78229, 28.59292],
        [77.7826, 28.59313],
        [77.78286, 28.59301],
        [77.78309, 28.59283],
        [77.78332, 28.59267],
        [77.78354, 28.59271],
        [77.78371, 28.59286],
        [77.78387, 28.59301],
        [77.78403, 28.59316],
        [77.78418, 28.59332],
        [77.78438, 28.59352],
        [77.78423, 28.5938],
        [77.784, 28.59401],
        [77.78393, 28.59422],
        [77.78402, 28.59442],
        [77.78417, 28.59476],
        [77.78434, 28.5951],
        [77.78453, 28.59542],
        [77.78473, 28.59574],
        [77.78496, 28.59605],
        [77.7852, 28.59635],
        [77.78546, 28.59664],
        [77.78574, 28.59691],
        [77.78603, 28.59717],
        [77.78617, 28.59732],
        [77.78631, 28.59747],
        [77.78644, 28.59762],
        [77.78658, 28.59777],
        [77.78672, 28.59792],
        [77.78686, 28.59807],
        [77.787, 28.59822],
        [77.78714, 28.59837],
        [77.7873, 28.59854],
        [77.78729, 28.59875],
        [77.78706, 28.59891],
        [77.78686, 28.59913],
        [77.78689, 28.59946],
        [77.78701, 28.59977],
        [77.78722, 28.60003],
        [77.7875, 28.60024],
        [77.78769, 28.60036],
        [77.78781, 28.60052],
        [77.78797, 28.60065],
        [77.78802, 28.60084],
        [77.78771, 28.60103],
        [77.78741, 28.60123],
        [77.78719, 28.60135],
        [77.78725, 28.60155],
        [77.78776, 28.60192],
        [77.78823, 28.60258],
        [77.7884, 28.60302],
        [77.78851, 28.60334],
        [77.78866, 28.60366],
        [77.78881, 28.60399],
        [77.78895, 28.60433],
        [77.78909, 28.60466],
        [77.78923, 28.60499],
        [77.78937, 28.60533],
        [77.7895, 28.60566],
        [77.78964, 28.606],
        [77.78988, 28.60646],
        [77.79012, 28.6064],
        [77.79041, 28.60634],
        [77.79223, 28.60876],
        [77.79201, 28.60893],
        [77.79186, 28.60908],
        [77.79197, 28.60925],
        [77.79228, 28.6095],
        [77.79469, 28.61202],
        [77.79446, 28.61217],
        [77.79427, 28.61232],
        [77.79426, 28.61252],
        [77.79442, 28.61274],
        [77.79461, 28.61301],
        [77.79479, 28.61328],
        [77.79497, 28.61355],
        [77.79515, 28.61382],
        [77.7953, 28.614],
        [77.79543, 28.61419],
        [77.79555, 28.61439],
        [77.79564, 28.6146],
        [77.79571, 28.61481],
        [77.79577, 28.61503],
        [77.7958, 28.61525],
        [77.79581, 28.61547],
        [77.7958, 28.6157],
        [77.79583, 28.61597],
        [77.79583, 28.61624],
        [77.79581, 28.6165],
        [77.79577, 28.61677],
        [77.79584, 28.6171],
        [77.79604, 28.61699],
        [77.79626, 28.61687],
        [77.79649, 28.61675],
        [77.79671, 28.61663],
        [77.79693, 28.61651],
        [77.79716, 28.6164],
        [77.79739, 28.61628],
        [77.79761, 28.61617],
        [77.798, 28.61616],
        [77.79813, 28.61648],
        [77.79827, 28.6168],
        [77.79842, 28.61711],
        [77.79859, 28.61741],
        [77.79878, 28.61771],
        [77.79898, 28.618],
        [77.79919, 28.61828],
        [77.79942, 28.61856],
        [77.79966, 28.61882],
        [77.79996, 28.61916],
        [77.80026, 28.61949],
        [77.80055, 28.61983],
        [77.80085, 28.62017],
        [77.80114, 28.62051],
        [77.80143, 28.62085],
        [77.80172, 28.62119],
        [77.80201, 28.62153],
        [77.80229, 28.62188],
        [77.80247, 28.6221],
        [77.80265, 28.62231],
        [77.80283, 28.62253],
        [77.80301, 28.62275],
        [77.80319, 28.62297],
        [77.80336, 28.62319],
        [77.80354, 28.62341],
        [77.80372, 28.62363],
        [77.80394, 28.6239],
        [77.80414, 28.62405],
        [77.80436, 28.62418],
        [77.80461, 28.62428],
        [77.80487, 28.62437],
        [77.80513, 28.62446],
        [77.80539, 28.62455],
        [77.80565, 28.62464],
        [77.80592, 28.62471],
        [77.80618, 28.62479],
        [77.80645, 28.62486],
        [77.80672, 28.62493],
        [77.80709, 28.62504],
        [77.80747, 28.62515],
        [77.80785, 28.62525],
        [77.80823, 28.62536],
        [77.80861, 28.62546],
        [77.80899, 28.62557],
        [77.80938, 28.62567],
        [77.80976, 28.62577],
        [77.81014, 28.62587],
        [77.81044, 28.62593],
        [77.81074, 28.62601],
        [77.81103, 28.62611],
        [77.81132, 28.62621],
        [77.8116, 28.62633],
        [77.81187, 28.62646],
        [77.81214, 28.6266],
        [77.81239, 28.62675],
        [77.81264, 28.62691],
        [77.81279, 28.62706],
        [77.81295, 28.62721],
        [77.81311, 28.62736],
        [77.81326, 28.6275],
        [77.81343, 28.62765],
        [77.81359, 28.62779],
        [77.81375, 28.62793],
        [77.81392, 28.62807],
        [77.81409, 28.62821],
        [77.81433, 28.6284],
        [77.81464, 28.62849],
        [77.81502, 28.62846],
        [77.81528, 28.62829],
        [77.81536, 28.62808],
        [77.81536, 28.62787],
        [77.81536, 28.62766],
        [77.81535, 28.62742],
        [77.81565, 28.62702],
        [77.81592, 28.62681],
        [77.81632, 28.62657],
        [77.8168, 28.62625],
        [77.81707, 28.62633],
        [77.81732, 28.62645],
        [77.81758, 28.62655],
        [77.81786, 28.62663],
        [77.81814, 28.62668],
        [77.81853, 28.6268],
        [77.81891, 28.62695],
        [77.81927, 28.62712],
        [77.81963, 28.62731],
        [77.81997, 28.62751],
        [77.82029, 28.62774],
        [77.8206, 28.62798],
        [77.82089, 28.62824]
      ]
    ]
  }
}
