{
  "type": "Feature",
  "id": "UP-AC-84",
  "properties": {
    "stateName": "UTTAR PRADESH",
    "stateCode": "UP",
    "districtName": "MATHURA",
    "acNo": 84,
    "acName": "BALDEO (SC)",
    "seatType": null,
    "pcNo": null,
    "pcName": null,
    "quality": "unverified",
    "sources": [
      "TBD"
    ]
  },
  "geometry": {
    "type": "Polygon",
    "coordinates": [
      [
        [77.7096, 27.53411],
        [77.70498, 27.52718],
        [77.70442, 27.5264],
        [77.70264, 27.5239],
        [77.70026, 27.51784],
        [77.69969, 27.5137],
        [77.69941, 27.51233],
        [77.69953, 27.5108],
        [77.69966, 27.50915],
        [77.70067, 27.50649],
        [77.70128, 27.50585],
        [77.70259, 27.50754],
        [77.70307, 27.50802],
        [77.70333, 27.50813],
        [77.70368, 27.50811],
        [77.70395, 27.50805],
        [77.70422, 27.5079],
        [77.70455, 27.50767],
        [77.7052, 27.50724],
        [77.70618, 27.5065],
        [77.70674, 27.50603],
        [77.70749, 27.50538],
        [77.70848, 27.50459],
        [77.70949, 27.50397],
        [77.70987, 27.50373],
        [77.71226, 27.50221],
        [77.71418, 27.50131],
        [77.71562, 27.50075],
        [77.71639, 27.50048],
        [77.71697, 27.50031],
        [77.71742, 27.50024],
        [77.71781, 27.50022],
        [77.71807, 27.50024],
        [77.71833, 27.50031],
        [77.71854, 27.50047],
        [77.71878, 27.50071],
        [77.71909, 27.5012],
        [77.71964, 27.50193],
        [77.72021, 27.50245],
        [77.72074, 27.50284],
        [77.72136, 27.50328],
        [77.72187, 27.50345],
        [77.72268, 27.5037],
        [77.72324, 27.50388],
        [77.724, 27.50413],
        [77.72549, 27.50459],
        [77.72669, 27.50498],
        [77.7272, 27.50507],
        [77.72759, 27.50509],
        [77.72804, 27.50497],
        [77.72845, 27.50478],
        [77.729, 27.50444],
        [77.72942, 27.50411],
        [77.72984, 27.50383],
        [77.73016, 27.50364],
        [77.7308, 27.50325],
        [77.73113, 27.50306],
        [77.7315, 27.50278],
        [77.73211, 27.50239],
        [77.7331, 27.5016],
        [77.73495, 27.5003],
        [77.7342, 27.50001],
        [77.73335, 27.49945],
        [77.73254, 27.4989],
        [77.73184, 27.49834],
        [77.73122, 27.49778],
        [77.73064, 27.49705],
        [77.73038, 27.4966],
        [77.73018, 27.49606],
        [77.72996, 27.49526],
        [77.72981, 27.49446],
        [77.7297, 27.49323],
        [77.72954, 27.48836],
        [77.73451, 27.48674],
        [77.73318, 27.48008],
        [77.73298, 27.47955],
        [77.73268, 27.47848],
        [77.73248, 27.47717],
        [77.73231, 27.47633],
        [77.7324, 27.47531],
        [77.73262, 27.47367],
        [77.73312, 27.47161],
        [77.73345, 27.4705],
        [77.73349, 27.47011],
        [77.73344, 27.46973],
        [77.73308, 27.46936],
        [77.73255, 27.46901],
        [77.73182, 27.46837],
        [77.73139, 27.46778],
        [77.73129, 27.46716],
        [77.73099, 27.46638],
        [77.72873, 27.46422],
        [77.7282, 27.46301],
        [77.72748, 27.46128],
        [77.72721, 27.46083],
        [77.72651, 27.45965],
        [77.72582, 27.45853],
        [77.72471, 27.45761],
        [77.7223, 27.45701],
        [77.71975, 27.45712],
        [77.71911, 27.45717],
        [77.71841, 27.45707],
        [77.71829, 27.45653],
        [77.71797, 27.45571],
        [77.71785, 27.45525],
        [77.71757, 27.45489],
        [77.71693, 27.45454],
        [77.71681, 27.45448],
        [77.71259, 27.45371],
        [77.71141, 27.45356],
        [77.71026, 27.45303],
        [77.70985, 27.45229],
        [77.7094, 27.45108],
        [77.70907, 27.44941],
        [77.70852, 27.44541],
        [77.70849, 27.44521],
        [77.70814, 27.44384],
        [77.70788, 27.44317],
        [77.70745, 27.44266],
        [77.70687, 27.44201],
        [77.70562, 27.4418],
        [77.70305, 27.44199],
        [77.70254, 27.44229],
        [77.70218, 27.44283],
        [77.70219, 27.4436],
        [77.70236, 27.44444],
        [77.70254, 27.44512],
        [77.70239, 27.44582],
        [77.7021, 27.44738],
        [77.70181, 27.44864],
        [77.70157, 27.44966],
        [77.70159, 27.4522],
        [77.70132, 27.4543],
        [77.7012, 27.45663],
        [77.70118, 27.45771],
        [77.7014, 27.45877],
        [77.70182, 27.45944],
        [77.70241, 27.46001],
        [77.70313, 27.46173],
        [77.70309, 27.4622],
        [77.70307, 27.46243],
        [77.70266, 27.46254],
        [77.70211, 27.4625],
        [77.70166, 27.46223],
        [77.70091, 27.46166],
        [77.69991, 27.46135],
        [77.69919, 27.4614],
        [77.69845, 27.4616],
        [77.69793, 27.4621],
        [77.69756, 27.46267],
        [77.69742, 27.46338],
        [77.69742, 27.4643],
        [77.69727, 27.46601],
        [77.69751, 27.46692],
        [77.69775, 27.46782],
        [77.69775, 27.46867],
        [77.69762, 27.4693],
        [77.69749, 27.46985],
        [77.6965, 27.4703],
        [77.69557, 27.47091],
        [77.69492, 27.47103],
        [77.69445, 27.4709],
        [77.69407, 27.47078],
        [77.69361, 27.4705],
        [77.69341, 27.47013],
        [77.69313, 27.46968],
        [77.69246, 27.46819],
        [77.69207, 27.46722],
        [77.69183, 27.46631],
        [77.69177, 27.46516],
        [77.69163, 27.46409],
        [77.69141, 27.46295],
        [77.69093, 27.46198],
        [77.69055, 27.46093],
        [77.69039, 27.46002],
        [77.69035, 27.45956],
        [77.69049, 27.45885],
        [77.69196, 27.45752],
        [77.69225, 27.45704],
        [77.69228, 27.45665],
        [77.6922, 27.45581],
        [77.69203, 27.45497],
        [77.69183, 27.4536],
        [77.69137, 27.45163],
        [77.6909, 27.44975],
        [77.69033, 27.44717],
        [77.68856, 27.44738],
        [77.68609, 27.44748],
        [77.68723, 27.45162],
        [77.68835, 27.45516],
        [77.68877, 27.45759],
        [77.68879, 27.45921],
        [77.68857, 27.45991],
        [77.68795, 27.46057],
        [77.68745, 27.46092],
        [77.68603, 27.46155],
        [77.68382, 27.46232],
        [77.68315, 27.46268],
        [77.68263, 27.4631],
        [77.68228, 27.4635],
        [77.68182, 27.46423],
        [77.68138, 27.46464],
        [77.68079, 27.46499],
        [77.68013, 27.46534],
        [77.67872, 27.46598],
        [77.67802, 27.46652],
        [77.67786, 27.46665],
        [77.67742, 27.46706],
        [77.67714, 27.46762],
        [77.67709, 27.46816],
        [77.67688, 27.46871],
        [77.67697, 27.46955],
        [77.67673, 27.47133],
        [77.67649, 27.47227],
        [77.67633, 27.47321],
        [77.67593, 27.47415],
        [77.67558, 27.47541],
        [77.67469, 27.47839],
        [77.67385, 27.48096],
        [77.67353, 27.48261],
        [77.6728, 27.48483],
        [77.6726, 27.48542],
        [77.67182, 27.4885],
        [77.67153, 27.48913],
        [77.6713, 27.48982],
        [77.6713, 27.49049],
        [77.67132, 27.49162],
        [77.67165, 27.49401],
        [77.67177, 27.49602],
        [77.67155, 27.498],
        [77.67143, 27.49912],
        [77.67131, 27.50027],
        [77.67116, 27.50208],
        [77.67115, 27.50365],
        [77.67125, 27.50454],
        [77.67153, 27.5061],
        [77.67173, 27.50727],
        [77.67189, 27.50889],
        [77.67236, 27.51021],
        [77.67318, 27.51157],
        [77.67356, 27.51267],
        [77.67379, 27.51339],
        [77.67433, 27.51538],
        [77.67453, 27.51644],
        [77.6747, 27.51728],
        [77.67486, 27.51822],
        [77.67515, 27.51888],
        [77.67605, 27.5208],
        [77.67697, 27.52161],
        [77.6779, 27.52303],
        [77.67828, 27.52347],
        [77.67935, 27.5248],
        [77.67937, 27.52498],
        [77.67939, 27.5252],
        [77.67927, 27.52545],
        [77.67469, 27.53092],
        [77.67465, 27.53138],
        [77.67421, 27.53185],
        [77.67399, 27.53243],
        [77.67403, 27.53265],
        [77.67425, 27.53287],
        [77.67461, 27.53347],
        [77.67872, 27.53536],
        [77.67896, 27.53567],
        [77.67913, 27.53605],
        [77.67924, 27.53637],
        [77.67947, 27.53688],
        [77.67963, 27.53745],
        [77.67979, 27.53796],
        [77.68003, 27.53834],
        [77.68047, 27.53864],
        [77.68123, 27.53917],
        [77.68165, 27.53822],
        [77.68178, 27.53815],
        [77.68197, 27.53814],
        [77.68222, 27.53825],
        [77.68251, 27.53854],
        [77.6841, 27.5403],
        [77.68595, 27.54186],
        [77.68633, 27.54264],
        [77.68661, 27.54318],
        [77.68702, 27.54371],
        [77.68723, 27.54432],
        [77.68777, 27.54465],
        [77.68853, 27.54461],
        [77.68919, 27.54432],
        [77.69064, 27.54355],
        [77.69168, 27.54311],
        [77.69251, 27.54312],
        [77.69339, 27.54313],
        [77.69384, 27.54304],
        [77.69418, 27.54284],
        [77.69451, 27.54257],
        [77.69512, 27.5421],
        [77.69591, 27.54168],
        [77.69616, 27.54164],
        [77.69777, 27.54138],
        [77.6995, 27.54108],
        [77.7009, 27.541],
        [77.70212, 27.54067],
        [77.70371, 27.5397],
        [77.70464, 27.53922],
        [77.70537, 27.53867],
        [77.70596, 27.53845],
        [77.70692, 27.53833],
        [77.70786, 27.53845],
        [77.70869, 27.53834],
        [77.70927, 27.53818],
        [77.71005, 27.53795],
        [77.71057, 27.53766],
        [77.7114, 27.53711],
        [77.71114, 27.53643],
        [77.7096, 27.53411]
      ]
    ]
  }
}
