{
  "type": "Feature",
  "id": "UP-AC-89",
  "properties": {
    "stateName": "UTTAR PRADESH",
    "stateCode": "UP",
    "districtName": "AGRA",
    "acNo": 89,
    "acName": "AGRA RURAL (SC)",
    "seatType": null,
    "pcNo": null,
    "pcName": null,
    "quality": "unverified",
    "sources": [
      "TBD"
    ]
  },
  "geometry": {
    "type": "Polygon",
    "coordinates": [
      [
        [77.97972, 27.24347],
        [77.98053, 27.24388],
        [77.98092, 27.24442],
        [77.98116, 27.24506],
        [77.98591, 27.2459],
        [77.9861, 27.24292],
        [77.98637, 27.24008],
        [77.98725, 27.23948],
        [77.98779, 27.2361],
        [77.98845, 27.23419],
        [77.98866, 27.23304],
        [77.99078, 27.23155],
        [77.99187, 27.2298],
        [77.99342, 27.22999],
        [77.99593, 27.2296],
        [77.99751, 27.22902],
        [77.99754, 27.22802],
        [77.99783, 27.22687],
        [77.99725, 27.22608],
        [77.99685, 27.22514],
        [77.99835, 27.22402],
        [77.99764, 27.22223],
        [77.99796, 27.22023],
        [77.99693, 27.22005],
        [77.99567, 27.21887],
        [77.99633, 27.21726],
        [77.99648, 27.21518],
        [77.99745, 27.21459],
        [77.99908, 27.21471],
        [78.00125, 27.2143],
        [78.00192, 27.21493],
        [78.00215, 27.2161],
        [78.00297, 27.2172],
        [78.00433, 27.21785],
        [78.00691, 27.21822],
        [78.00809, 27.21902],
        [78.00829, 27.22111],
        [78.00822, 27.22327],
        [78.00916, 27.22615],
        [78.01046, 27.22865],
        [78.01202, 27.23116],
        [78.01293, 27.2325],
        [78.01421, 27.23299],
        [78.0149, 27.23415],
        [78.01684, 27.23376],
        [78.01757, 27.23355],
        [78.01797, 27.23335],
        [78.0183, 27.23314],
        [78.01854, 27.23311],
        [78.01866, 27.23307],
        [78.01882, 27.23307],
        [78.01913, 27.23316],
        [78.01929, 27.23325],
        [78.01952, 27.23341],
        [78.01971, 27.2335],
        [78.01994, 27.2336],
        [78.0203, 27.23365],
        [78.02061, 27.23368],
        [78.02105, 27.23367],
        [78.02706, 27.23333],
        [78.02737, 27.2323],
        [78.02803, 27.23012],
        [78.02996, 27.22471],
        [78.03197, 27.21803],
        [78.03186, 27.21494],
        [78.03187, 27.2123],
        [78.0315, 27.20923],
        [78.02987, 27.20463],
        [78.02869, 27.20216],
        [78.02332, 27.20462],
        [78.02151, 27.20475],
        [78.02082, 27.20409],
        [78.01982, 27.20291],
        [78.01954, 27.20158],
        [78.01905, 27.20064],
        [78.018, 27.20125],
        [78.01702, 27.20163],
        [78.0161, 27.20201],
        [78.01542, 27.20118],
        [78.0145, 27.20156],
        [78.01364, 27.20224],
        [78.01196, 27.20219],
        [78.01218, 27.20139],
        [78.01328, 27.20113],
        [78.01414, 27.20057],
        [78.01416, 27.19994],
        [78.0138, 27.19918],
        [78.01268, 27.19782],
        [78.01245, 27.19683],
        [78.01324, 27.19627],
        [78.01244, 27.19509],
        [78.01116, 27.19483],
        [78.00904, 27.1942],
        [78.00668, 27.19345],
        [78.00633, 27.19211],
        [78.00585, 27.19088],
        [78.00415, 27.19153],
        [78.00213, 27.19188],
        [78.0006, 27.19138],
        [77.99923, 27.19175],
        [77.99889, 27.19232],
        [77.99731, 27.19304],
        [77.99547, 27.19403],
        [77.99282, 27.19396],
        [77.99219, 27.19366],
        [77.99197, 27.19249],
        [77.99036, 27.19228],
        [77.9892, 27.19202],
        [77.98755, 27.19117],
        [77.98633, 27.19079],
        [77.98578, 27.18991],
        [77.98185, 27.18946],
        [77.98112, 27.188],
        [77.98044, 27.18705],
        [77.97935, 27.18674],
        [77.9783, 27.18706],
        [77.97526, 27.18727],
        [77.97339, 27.18716],
        [77.97229, 27.18714],
        [77.97129, 27.18792],
        [77.97045, 27.1879],
        [77.96729, 27.1877],
        [77.9664, 27.18727],
        [77.9663, 27.18646],
        [77.96633, 27.18542],
        [77.96265, 27.18527],
        [77.96058, 27.18551],
        [77.95942, 27.1853],
        [77.9564, 27.1847],
        [77.95293, 27.18421],
        [77.95191, 27.18176],
        [77.95117, 27.18052],
        [77.94978, 27.18153],
        [77.9486, 27.18208],
        [77.94686, 27.18174],
        [77.94487, 27.18129],
        [77.94319, 27.18011],
        [77.94227, 27.1806],
        [77.94104, 27.18136],
        [77.93978, 27.1824],
        [77.93637, 27.18511],
        [77.93715, 27.18848],
        [77.93733, 27.19294],
        [77.93717, 27.19431],
        [77.93692, 27.19486],
        [77.93658, 27.19529],
        [77.93616, 27.19568],
        [77.93543, 27.1962],
        [77.93441, 27.19711],
        [77.9331, 27.19855],
        [77.93188, 27.20009],
        [77.93162, 27.20064],
        [77.93157, 27.2011],
        [77.93151, 27.20156],
        [77.9316, 27.20201],
        [77.93184, 27.20242],
        [77.93221, 27.20298],
        [77.9324, 27.20339],
        [77.93243, 27.20391],
        [77.93228, 27.20437],
        [77.93196, 27.20467],
        [77.93175, 27.20476],
        [77.9314, 27.20495],
        [77.93118, 27.20516],
        [77.93114, 27.2055],
        [77.93115, 27.20587],
        [77.93127, 27.20607],
        [77.93124, 27.20632],
        [77.93122, 27.20649],
        [77.93103, 27.20683],
        [77.93086, 27.20704],
        [77.93078, 27.20738],
        [77.93075, 27.20763],
        [77.93086, 27.20788],
        [77.93096, 27.2082],
        [77.93094, 27.20845],
        [77.93091, 27.20866],
        [77.93067, 27.20909],
        [77.93002, 27.2097],
        [77.92981, 27.20987],
        [77.92943, 27.21022],
        [77.92906, 27.21053],
        [77.92879, 27.21079],
        [77.92861, 27.21105],
        [77.92842, 27.21147],
        [77.92832, 27.21189],
        [77.92824, 27.21252],
        [77.92826, 27.21318],
        [77.92846, 27.21465],
        [77.92904, 27.21692],
        [77.92933, 27.21882],
        [77.92949, 27.22027],
        [77.92959, 27.22097],
        [77.92984, 27.22129],
        [77.93037, 27.22168],
        [77.93089, 27.22178],
        [77.93191, 27.22193],
        [77.94153, 27.2211],
        [77.94243, 27.22096],
        [77.9429, 27.22073],
        [77.94334, 27.22033],
        [77.9438, 27.21965],
        [77.94527, 27.21597],
        [77.9454, 27.21567],
        [77.94551, 27.21554],
        [77.94579, 27.21528],
        [77.94599, 27.21519],
        [77.94692, 27.21522],
        [77.94799, 27.21532],
        [77.9489, 27.21552],
        [77.94922, 27.21578],
        [77.94993, 27.2166],
        [77.95395, 27.22237],
        [77.95432, 27.22332],
        [77.95452, 27.22399],
        [77.95463, 27.22455],
        [77.95463, 27.22516],
        [77.95465, 27.22559],
        [77.95472, 27.22603],
        [77.9548, 27.22639],
        [77.95506, 27.22689],
        [77.95538, 27.22743],
        [77.95683, 27.22932],
        [77.95718, 27.22981],
        [77.9578, 27.23066],
        [77.95869, 27.23177],
        [77.96021, 27.23329],
        [77.96206, 27.23539],
        [77.96389, 27.23796],
        [77.96511, 27.23971],
        [77.96792, 27.24547],
        [77.97423, 27.2435],
        [77.97575, 27.24324],
        [77.97726, 27.24321],
        [77.97864, 27.24317],
        [77.97972, 27.24347]
      ]
    ]
  }
}
