{
  "type": "Feature",
  "id": "MP-AC-106",
  "properties": {
    "stateName": "MADHYA PRADESH",
    "stateCode": "MP",
    "districtName": null,
    "acNo": 106,
    "acName": "Niwas",
    "seatType": null,
    "pcNo": null,
    "pcName": null,
    "quality": "unverified",
    "sources": [
      "TBD"
    ]
  },
  "geometry": {
    "type": "Polygon",
    "coordinates": [
      [
        [80.46273, 23.13169],
        [80.45782, 23.12477],
        [80.47093, 23.12197],
        [80.47883, 23.126],
        [80.47855, 23.11818],
        [80.48774, 23.11659],
        [80.49074, 23.10718],
        [80.51183, 23.10696],
        [80.51227, 23.09125],
        [80.50525, 23.08385],
        [80.50722, 23.07977],
        [80.52735, 23.07767],
        [80.52855, 23.08393],
        [80.54526, 23.07152],
        [80.5394, 23.05429],
        [80.55824, 23.0645],
        [80.56269, 23.04837],
        [80.55936, 23.03134],
        [80.57231, 23.0131],
        [80.56439, 22.99314],
        [80.58041, 22.97979],
        [80.56646, 22.97948],
        [80.55087, 22.97133],
        [80.54689, 22.97889],
        [80.53902, 22.97807],
        [80.53586, 22.98253],
        [80.52547, 22.9773],
        [80.52652, 22.96298],
        [80.55097, 22.96481],
        [80.54451, 22.95268],
        [80.52161, 22.95536],
        [80.52353, 22.94761],
        [80.54183, 22.93877],
        [80.54853, 22.92665],
        [80.54618, 22.89866],
        [80.53432, 22.88273],
        [80.56041, 22.88056],
        [80.56794, 22.87633],
        [80.56805, 22.87016],
        [80.58902, 22.8603],
        [80.58841, 22.85655],
        [80.63174, 22.8548],
        [80.64821, 22.84864],
        [80.6509, 22.83937],
        [80.66233, 22.84295],
        [80.67023, 22.83608],
        [80.68157, 22.83894],
        [80.68398, 22.85135],
        [80.68867, 22.84339],
        [80.69259, 22.85646],
        [80.70631, 22.85045],
        [80.71729, 22.86245],
        [80.73483, 22.85698],
        [80.74269, 22.8411],
        [80.72618, 22.83273],
        [80.73194, 22.83254],
        [80.72991, 22.81196],
        [80.71583, 22.80073],
        [80.70207, 22.8081],
        [80.697, 22.80593],
        [80.69598, 22.78649],
        [80.71214, 22.77675],
        [80.71073, 22.76943],
        [80.70447, 22.76064],
        [80.69156, 22.76551],
        [80.68101, 22.75375],
        [80.68372, 22.71036],
        [80.67548, 22.70895],
        [80.67055, 22.69463],
        [80.65782, 22.6932],
        [80.65206, 22.68094],
        [80.63084, 22.67744],
        [80.63092, 22.67061],
        [80.62078, 22.68035],
        [80.62119, 22.69426],
        [80.60207, 22.69898],
        [80.60771, 22.6722],
        [80.59345, 22.66734],
        [80.58123, 22.67213],
        [80.58067, 22.65622],
        [80.57704, 22.65469],
        [80.56632, 22.6554],
        [80.56832, 22.67366],
        [80.55218, 22.68287],
        [80.5304, 22.67941],
        [80.55415, 22.66654],
        [80.55489, 22.64169],
        [80.57283, 22.62399],
        [80.56494, 22.61257],
        [80.53069, 22.61768],
        [80.51007, 22.61412],
        [80.50478, 22.61608],
        [80.49657, 22.60945],
        [80.48142, 22.63221],
        [80.46364, 22.64128],
        [80.46333, 22.64897],
        [80.45556, 22.65402],
        [80.44721, 22.65584],
        [80.43702, 22.64122],
        [80.38721, 22.64742],
        [80.37962, 22.64035],
        [80.37125, 22.64941],
        [80.36024, 22.6527],
        [80.35437, 22.65012],
        [80.35135, 22.65806],
        [80.3417, 22.65883],
        [80.33833, 22.66588],
        [80.34316, 22.68837],
        [80.33744, 22.69884],
        [80.3507, 22.7161],
        [80.33681, 22.71478],
        [80.31814, 22.70005],
        [80.31189, 22.71454],
        [80.2888, 22.72628],
        [80.27867, 22.7646],
        [80.28051, 22.78519],
        [80.27001, 22.7928],
        [80.2167, 22.80039],
        [80.20384, 22.79334],
        [80.20542, 22.77796],
        [80.19127, 22.77504],
        [80.17905, 22.76347],
        [80.10033, 22.76912],
        [80.06419, 22.75895],
        [80.04224, 22.78156],
        [80.01732, 22.79458],
        [80.00538, 22.82296],
        [79.97713, 22.83394],
        [79.96376, 22.85207],
        [79.96658, 22.86618],
        [79.96217, 22.87099],
        [79.97543, 22.88547],
        [79.96893, 22.8895],
        [79.96816, 22.90847],
        [79.96909, 22.91554],
        [79.9743, 22.91734],
        [79.95443, 22.93668],
        [79.95118, 22.94618],
        [79.99897, 22.9793],
        [80.00546, 22.97922],
        [79.9916, 22.99675],
        [80.00602, 23.00577],
        [79.99922, 23.0162],
        [79.99076, 23.01377],
        [79.9933, 23.02534],
        [79.99438, 23.03006],
        [80.0373, 23.03854],
        [80.05741, 23.05867],
        [80.07129, 23.06633],
        [80.07987, 23.06606],
        [80.08171, 23.0769],
        [80.09814, 23.07924],
        [80.10872, 23.07576],
        [80.10837, 23.05284],
        [80.12184, 23.05342],
        [80.1352, 23.0598],
        [80.14218, 23.05616],
        [80.14178, 23.04467],
        [80.14441, 23.04965],
        [80.1496, 23.04574],
        [80.16337, 23.04848],
        [80.17635, 23.024],
        [80.18659, 23.02225],
        [80.19218, 23.03332],
        [80.18564, 23.05251],
        [80.18069, 23.05535],
        [80.18218, 23.0624],
        [80.19304, 23.0686],
        [80.20426, 23.06774],
        [80.20435, 23.07151],
        [80.20264, 23.0865],
        [80.18902, 23.09197],
        [80.19012, 23.10525],
        [80.18164, 23.11086],
        [80.17974, 23.12191],
        [80.18421, 23.12649],
        [80.21669, 23.13165],
        [80.22639, 23.14257],
        [80.23927, 23.14077],
        [80.24845, 23.15126],
        [80.27594, 23.14604],
        [80.27874, 23.14116],
        [80.27208, 23.13692],
        [80.2715, 23.13051],
        [80.2815, 23.12218],
        [80.28459, 23.11172],
        [80.29928, 23.10668],
        [80.30528, 23.09705],
        [80.32927, 23.097],
        [80.33677, 23.11662],
        [80.35111, 23.12146],
        [80.35962, 23.13934],
        [80.39203, 23.14185],
        [80.3911, 23.17123],
        [80.41125, 23.17201],
        [80.42278, 23.15326],
        [80.42406, 23.14222],
        [80.46205, 23.14206],
        [80.46273, 23.13169]
      ]
    ]
  }
}
