{
  "type": "Feature",
  "id": "MP-AC-110",
  "properties": {
    "stateName": "MADHYA PRADESH",
    "stateCode": "MP",
    "districtName": null,
    "acNo": 110,
    "acName": "Paraswada",
    "seatType": null,
    "pcNo": null,
    "pcName": null,
    "quality": "unverified",
    "sources": [
      "TBD"
    ]
  },
  "geometry": {
    "type": "Polygon",
    "coordinates": [
      [
        [80.2252, 21.6207],
        [80.2231, 21.6207],
        [80.22183, 21.62106],
        [80.2217, 21.6211],
        [80.22161, 21.62112],
        [80.2209, 21.6213],
        [80.2202, 21.6217],
        [80.2195, 21.6225],
        [80.2185, 21.6238],
        [80.2172, 21.6254],
        [80.2169, 21.6261],
        [80.21683, 21.62632],
        [80.21681, 21.62636],
        [80.2168, 21.62639],
        [80.21681, 21.62641],
        [80.217, 21.6266],
        [80.2174, 21.6269],
        [80.2182, 21.6277],
        [80.2187, 21.6282],
        [80.219, 21.6286],
        [80.2191, 21.6289],
        [80.2192, 21.6292],
        [80.2192, 21.6299],
        [80.2191, 21.6302],
        [80.2189, 21.631],
        [80.2187, 21.6314],
        [80.2186, 21.6318],
        [80.2177, 21.633],
        [80.2175, 21.6328],
        [80.21748, 21.63277],
        [80.2168, 21.6317],
        [80.2161, 21.6307],
        [80.2155, 21.6303],
        [80.2146, 21.6301],
        [80.21423, 21.63019],
        [80.21422, 21.63019],
        [80.2142, 21.63021],
        [80.2141, 21.6304],
        [80.2133, 21.6316],
        [80.2125, 21.6328],
        [80.2118, 21.6336],
        [80.2101, 21.6347],
        [80.2087, 21.6353],
        [80.2063, 21.6357],
        [80.2032, 21.636],
        [80.2011, 21.636],
        [80.19888, 21.63572],
        [80.1972, 21.6355],
        [80.1949, 21.6354],
        [80.19348, 21.6354],
        [80.1928, 21.6354],
        [80.19271, 21.63535],
        [80.19263, 21.63535],
        [80.19251, 21.63521],
        [80.1924, 21.6351],
        [80.19239, 21.63507],
        [80.1918, 21.6337],
        [80.1911, 21.6323],
        [80.1899, 21.6303],
        [80.1885, 21.629],
        [80.1871, 21.6281],
        [80.1859, 21.6275],
        [80.1853, 21.6272],
        [80.18134, 21.62614],
        [80.1859, 21.62754],
        [80.1497, 21.67285],
        [80.15007, 21.69807],
        [80.13561, 21.71833],
        [80.14367, 21.73601],
        [80.13298, 21.76686],
        [80.13499, 21.77551],
        [80.1491, 21.77671],
        [80.15048, 21.78398],
        [80.18114, 21.79408],
        [80.19458, 21.78833],
        [80.19437, 21.79943],
        [80.18907, 21.80682],
        [80.20948, 21.82709],
        [80.21394, 21.82228],
        [80.22237, 21.82478],
        [80.22241, 21.83923],
        [80.23503, 21.85101],
        [80.21125, 21.87061],
        [80.20647, 21.88162],
        [80.19222, 21.88688],
        [80.18331, 21.88095],
        [80.16457, 21.88575],
        [80.16545, 21.89597],
        [80.14071, 21.90392],
        [80.12319, 21.92242],
        [80.10886, 21.9508],
        [80.08254, 21.96755],
        [80.0797, 21.98873],
        [80.09389, 22.01289],
        [80.08607, 22.0399],
        [80.07043, 22.04957],
        [80.06541, 22.0764],
        [80.06183, 22.10994],
        [80.05936, 22.11591],
        [80.04626, 22.12223],
        [80.04279, 22.16097],
        [80.03356, 22.18264],
        [80.05999, 22.21248],
        [80.08663, 22.22247],
        [80.08855, 22.22593],
        [80.08293, 22.23174],
        [80.09878, 22.24583],
        [80.09589, 22.26526],
        [80.08609, 22.27153],
        [80.09405, 22.279],
        [80.08111, 22.29666],
        [80.09118, 22.30982],
        [80.09045, 22.32075],
        [80.10061, 22.32795],
        [80.09805, 22.33853],
        [80.10604, 22.3439],
        [80.12941, 22.34622],
        [80.14363, 22.33906],
        [80.14968, 22.34636],
        [80.16045, 22.34612],
        [80.17229, 22.34014],
        [80.16803, 22.32552],
        [80.21292, 22.3145],
        [80.21651, 22.30982],
        [80.22848, 22.31386],
        [80.2358, 22.30159],
        [80.2582, 22.30896],
        [80.27322, 22.30858],
        [80.27879, 22.32314],
        [80.28826, 22.32501],
        [80.3004, 22.33753],
        [80.32126, 22.3469],
        [80.34434, 22.32733],
        [80.33464, 22.30021],
        [80.36816, 22.3009],
        [80.38315, 22.30877],
        [80.39681, 22.30556],
        [80.40112, 22.29426],
        [80.41855, 22.27901],
        [80.41501, 22.24403],
        [80.44558, 22.24538],
        [80.4496, 22.2638],
        [80.46391, 22.26505],
        [80.46311, 22.28031],
        [80.48191, 22.27815],
        [80.48751, 22.27],
        [80.50799, 22.27572],
        [80.51429, 22.26464],
        [80.504, 22.25015],
        [80.51412, 22.23805],
        [80.52815, 22.2396],
        [80.57113, 22.21629],
        [80.56278, 22.20001],
        [80.56856, 22.19834],
        [80.55501, 22.18416],
        [80.55616, 22.1782],
        [80.57459, 22.16758],
        [80.57388, 22.16029],
        [80.5659, 22.15971],
        [80.56408, 22.15524],
        [80.57463, 22.13861],
        [80.54986, 22.12163],
        [80.53843, 22.1186],
        [80.50631, 22.12006],
        [80.48655, 22.13106],
        [80.47125, 22.11525],
        [80.44522, 22.10874],
        [80.43547, 22.06853],
        [80.4144, 22.06302],
        [80.3979, 22.05199],
        [80.3674, 22.04916],
        [80.36603, 22.04439],
        [80.38433, 22.0337],
        [80.36273, 22.02474],
        [80.3636, 22.01376],
        [80.36825, 22.00993],
        [80.36863, 21.99906],
        [80.37765, 22.00188],
        [80.38226, 21.99668],
        [80.36428, 21.99158],
        [80.35948, 21.9997],
        [80.3423, 22.00259],
        [80.3313, 21.98093],
        [80.31709, 21.96469],
        [80.30456, 21.95796],
        [80.31238, 21.93755],
        [80.3105, 21.91614],
        [80.32598, 21.88682],
        [80.32685, 21.86609],
        [80.31899, 21.84954],
        [80.32005, 21.84019],
        [80.33573, 21.82271],
        [80.33883, 21.80915],
        [80.35923, 21.79463],
        [80.31019, 21.7696],
        [80.32047, 21.75306],
        [80.31816, 21.7452],
        [80.29838, 21.72464],
        [80.29821, 21.71343],
        [80.2909, 21.70599],
        [80.30161, 21.70126],
        [80.30233, 21.6885],
        [80.29426, 21.68745],
        [80.28626, 21.67889],
        [80.30465, 21.68179],
        [80.30675, 21.66912],
        [80.29909, 21.65881],
        [80.30858, 21.64986],
        [80.31213, 21.63893],
        [80.30753, 21.62908],
        [80.31151, 21.6181],
        [80.28913, 21.61177],
        [80.27262, 21.61266],
        [80.2726, 21.6127],
        [80.272, 21.6137],
        [80.2714, 21.6145],
        [80.2707, 21.6154],
        [80.27, 21.6162],
        [80.2693, 21.6168],
        [80.2685, 21.6174],
        [80.2677, 21.6179],
        [80.2668, 21.6185],
        [80.2659, 21.619],
        [80.265, 21.6195],
        [80.2641, 21.6199],
        [80.2631, 21.6201],
        [80.2622, 21.6203],
        [80.2614, 21.6205],
        [80.2607, 21.6208],
        [80.2599, 21.6212],
        [80.2591, 21.6217],
        [80.2582, 21.6222],
        [80.2573, 21.6228],
        [80.2563, 21.6233],
        [80.2553, 21.6239],
        [80.2542, 21.6245],
        [80.2533, 21.6249],
        [80.2524, 21.6251],
        [80.2517, 21.6251],
        [80.251, 21.6248],
        [80.2502, 21.6244],
        [80.2493, 21.6239],
        [80.2483, 21.6233],
        [80.24828, 21.62326],
        [80.2476, 21.6219],
        [80.2466, 21.621],
        [80.246, 21.6206],
        [80.2455, 21.6205],
        [80.2444, 21.6205],
        [80.243, 21.6207],
        [80.2422, 21.6209],
        [80.2417, 21.6211],
        [80.2412, 21.6214],
        [80.2407, 21.6215],
        [80.24, 21.6215],
        [80.2385, 21.6214],
        [80.2374, 21.6215],
        [80.2368, 21.6217],
        [80.23589, 21.62223],
        [80.2356, 21.6224],
        [80.235, 21.6226],
        [80.2347, 21.6226],
        [80.2341, 21.6226],
        [80.2325, 21.6222],
        [80.2313, 21.6219],
        [80.23099, 21.62182],
        [80.2297, 21.6215],
        [80.2283, 21.6213],
        [80.2264, 21.6208],
        [80.2252, 21.6207]
      ]
    ]
  }
}
