{
  "type": "Feature",
  "id": "MP-AC-114",
  "properties": {
    "stateName": "MADHYA PRADESH",
    "stateCode": "MP",
    "districtName": null,
    "acNo": 114,
    "acName": "Barghat",
    "seatType": null,
    "pcNo": null,
    "pcName": null,
    "quality": "unverified",
    "sources": [
      "TBD"
    ]
  },
  "geometry": {
    "type": "Polygon",
    "coordinates": [
      [
        [79.3928, 21.674],
        [79.3922, 21.674],
        [79.3917, 21.674],
        [79.3913, 21.6741],
        [79.39112, 21.67418],
        [79.3906, 21.6744],
        [79.39, 21.6748],
        [79.3897, 21.675],
        [79.3891, 21.6753],
        [79.3888, 21.6756],
        [79.3884, 21.6759],
        [79.3872, 21.6761],
        [79.3868, 21.6762],
        [79.3862, 21.6761],
        [79.3859, 21.676],
        [79.3854, 21.676],
        [79.3849, 21.6757],
        [79.3838, 21.6755],
        [79.3827, 21.6758],
        [79.3824, 21.6759],
        [79.3821, 21.676],
        [79.3817, 21.6761],
        [79.3808, 21.6765],
        [79.3802, 21.6768],
        [79.38, 21.677],
        [79.379, 21.6774],
        [79.3772, 21.6779],
        [79.3766, 21.6781],
        [79.3764, 21.6782],
        [79.3759, 21.6782],
        [79.3755, 21.6783],
        [79.3741, 21.6783],
        [79.3706, 21.6785],
        [79.37, 21.6785],
        [79.3697, 21.6785],
        [79.3677, 21.6784],
        [79.3668, 21.6784],
        [79.3662, 21.6784],
        [79.3658, 21.6783],
        [79.3652, 21.6782],
        [79.3648, 21.6782],
        [79.3643, 21.6782],
        [79.364, 21.6781],
        [79.3633, 21.6781],
        [79.3629, 21.6782],
        [79.3619, 21.6784],
        [79.3612, 21.6786],
        [79.3607, 21.6787],
        [79.3601, 21.679],
        [79.3584, 21.6792],
        [79.358, 21.6791],
        [79.3573, 21.6791],
        [79.3567, 21.6791],
        [79.3563, 21.679],
        [79.3561, 21.6789],
        [79.3551, 21.6789],
        [79.3548, 21.6789],
        [79.3543, 21.6789],
        [79.354, 21.6788],
        [79.3535, 21.6788],
        [79.3531, 21.6787],
        [79.3529, 21.6785],
        [79.3527, 21.6783],
        [79.3522, 21.678],
        [79.3522, 21.6783],
        [79.3524, 21.6787],
        [79.3525, 21.6791],
        [79.35269, 21.67954],
        [79.3528, 21.6798],
        [79.3531, 21.6804],
        [79.3534, 21.681],
        [79.3536, 21.6816],
        [79.3538, 21.6822],
        [79.3538, 21.6826],
        [79.354, 21.6829],
        [79.3543, 21.6848],
        [79.35424, 21.68476],
        [79.354, 21.6846],
        [79.3533, 21.6845],
        [79.3526, 21.6845],
        [79.3522, 21.6844],
        [79.3513, 21.6842],
        [79.3494, 21.6841],
        [79.3462, 21.6837],
        [79.3449, 21.6837],
        [79.3438, 21.6837],
        [79.3427, 21.6839],
        [79.3422, 21.684],
        [79.3417, 21.684],
        [79.3394, 21.6843],
        [79.3388, 21.6845],
        [79.3383, 21.6848],
        [79.3377, 21.6849],
        [79.33734, 21.68494],
        [79.3369, 21.685],
        [79.3364, 21.6852],
        [79.3358, 21.6851],
        [79.3348, 21.6853],
        [79.3334, 21.6855],
        [79.3327, 21.6859],
        [79.3316, 21.6862],
        [79.3311, 21.6865],
        [79.3302, 21.6866],
        [79.3298, 21.6866],
        [79.3286, 21.6866],
        [79.3268, 21.6868],
        [79.3262, 21.6871],
        [79.3251, 21.6876],
        [79.3247, 21.6876],
        [79.3245, 21.6876],
        [79.3243, 21.6875],
        [79.3239, 21.6874],
        [79.3235, 21.6872],
        [79.3232, 21.687],
        [79.3231, 21.6867],
        [79.3231, 21.6863],
        [79.323, 21.686],
        [79.3229, 21.6856],
        [79.3227, 21.6853],
        [79.3225, 21.6852],
        [79.32223, 21.68511],
        [79.32222, 21.68511],
        [79.32216, 21.68512],
        [79.3217, 21.6854],
        [79.3215, 21.6858],
        [79.3214, 21.686],
        [79.3213, 21.6863],
        [79.3211, 21.6865],
        [79.321, 21.6868],
        [79.3208, 21.6871],
        [79.3206, 21.6873],
        [79.3201, 21.6876],
        [79.3199, 21.6877],
        [79.3197, 21.6878],
        [79.3194, 21.6879],
        [79.3191, 21.6882],
        [79.3186, 21.6881],
        [79.3182, 21.6883],
        [79.3179, 21.6884],
        [79.3177, 21.6884],
        [79.3174, 21.6882],
        [79.317, 21.6881],
        [79.3167, 21.688],
        [79.3163, 21.6878],
        [79.3157, 21.6877],
        [79.3154, 21.6878],
        [79.3149, 21.6879],
        [79.3141, 21.6878],
        [79.3137, 21.6878],
        [79.313, 21.6879],
        [79.3128, 21.6879],
        [79.3125, 21.6879],
        [79.3118, 21.6881],
        [79.3113, 21.6883],
        [79.3105, 21.6886],
        [79.3094, 21.689],
        [79.3085, 21.6889],
        [79.3081, 21.6892],
        [79.3076, 21.6893],
        [79.307, 21.6895],
        [79.3061, 21.6898],
        [79.3043, 21.6903],
        [79.3041, 21.6904],
        [79.3036, 21.6907],
        [79.3032, 21.6908],
        [79.3025, 21.6911],
        [79.3016, 21.6913],
        [79.3008, 21.6916],
        [79.3002, 21.6919],
        [79.2991, 21.6923],
        [79.2985, 21.6925],
        [79.2971, 21.6933],
        [79.2967, 21.6933],
        [79.2963, 21.6932],
        [79.2961, 21.6931],
        [79.2957, 21.6928],
        [79.2952, 21.6926],
        [79.2944, 21.6924],
        [79.2939, 21.6924],
        [79.2936, 21.6924],
        [79.2921, 21.6925],
        [79.2903, 21.6926],
        [79.2901, 21.6934],
        [79.2899, 21.6938],
        [79.2894, 21.6944],
        [79.289, 21.6948],
        [79.2886, 21.6951],
        [79.2879, 21.6953],
        [79.28757, 21.69535],
        [79.2873, 21.6954],
        [79.2867, 21.6954],
        [79.2859, 21.6955],
        [79.2848, 21.6968],
        [79.2846, 21.6972],
        [79.2845, 21.6975],
        [79.284, 21.6979],
        [79.2838, 21.6983],
        [79.2836, 21.6987],
        [79.2833, 21.6991],
        [79.2827, 21.6996],
        [79.2823, 21.6999],
        [79.2818, 21.7004],
        [79.2817, 21.7006],
        [79.2812, 21.701],
        [79.2808, 21.7015],
        [79.2805, 21.7018],
        [79.2801, 21.7022],
        [79.2799, 21.7027],
        [79.2791, 21.7037],
        [79.2791, 21.7041],
        [79.2791, 21.7041],
        [79.2791, 21.7044],
        [79.2792, 21.7049],
        [79.2792, 21.7053],
        [79.2792, 21.706],
        [79.2791, 21.7062],
        [79.279, 21.7069],
        [79.2789, 21.7075],
        [79.2788, 21.7079],
        [79.2786, 21.7084],
        [79.2784, 21.7088],
        [79.2779, 21.7092],
        [79.2778, 21.7094],
        [79.2772, 21.7099],
        [79.2764, 21.7102],
        [79.2751, 21.711],
        [79.2724, 21.7122],
        [79.2723, 21.7125],
        [79.2721, 21.7128],
        [79.2715, 21.7135],
        [79.2708, 21.714],
        [79.2702, 21.7144],
        [79.2686, 21.7152],
        [79.2682, 21.7154],
        [79.26799, 21.71544],
        [79.2676, 21.7155],
        [79.2672, 21.7156],
        [79.2668, 21.7156],
        [79.2662, 21.7157],
        [79.2655, 21.7158],
        [79.2647, 21.716],
        [79.2641, 21.7161],
        [79.2635, 21.7165],
        [79.2632, 21.7166],
        [79.2626, 21.7169],
        [79.2623, 21.717],
        [79.26182, 21.71706],
        [79.2615, 21.7171],
        [79.2612, 21.7172],
        [79.2605, 21.7174],
        [79.2601, 21.7175],
        [79.2596, 21.7176],
        [79.2584, 21.7176],
        [79.2577, 21.7177],
        [79.2572, 21.7179],
        [79.2568, 21.718],
        [79.2565, 21.7181],
        [79.256, 21.7183],
        [79.2555, 21.7185],
        [79.2548, 21.7187],
        [79.2542, 21.7189],
        [79.2538, 21.7191],
        [79.2535, 21.71925],
        [79.2534, 21.7193],
        [79.25316, 21.71934],
        [79.25265, 21.71947],
        [79.2524, 21.7196],
        [79.2522, 21.7198],
        [79.2518, 21.7198],
        [79.2515, 21.7199],
        [79.2511, 21.7199],
        [79.25103, 21.7199],
        [79.2506, 21.7199],
        [79.2501, 21.7199],
        [79.2486, 21.7198],
        [79.2483, 21.7198],
        [79.2481, 21.7198],
        [79.2478, 21.7202],
        [79.2476, 21.7204],
        [79.2474, 21.7205],
        [79.247, 21.7206],
        [79.2464, 21.7208],
        [79.2459, 21.7209],
        [79.2457, 21.7211],
        [79.2453, 21.7213],
        [79.2449, 21.7215],
        [79.2446, 21.7215],
        [79.2442, 21.7214],
        [79.244, 21.7213],
        [79.2437, 21.7212],
        [79.2433, 21.7208],
        [79.2429, 21.7205],
        [79.2425, 21.7204],
        [79.2422, 21.7203],
        [79.2419, 21.7204],
        [79.2413, 21.7205],
        [79.2408, 21.7207],
        [79.2401, 21.7209],
        [79.2391, 21.7209],
        [79.2383, 21.721],
        [79.2366, 21.7216],
        [79.2356, 21.722],
        [79.2351, 21.722],
        [79.2344, 21.7221],
        [79.2339, 21.7222],
        [79.2322, 21.7222],
        [79.232, 21.7222],
        [79.2306, 21.7224],
        [79.2307, 21.7222],
        [79.2308, 21.722],
        [79.231, 21.7216],
        [79.2311, 21.7214],
        [79.2312, 21.7212],
        [79.2312, 21.721],
        [79.2312, 21.7206],
        [79.231, 21.7195],
        [79.2309, 21.71881],
        [79.22406, 21.7184],
        [79.22234, 21.72212],
        [79.23071, 21.75852],
        [79.24496, 21.76368],
        [79.25485, 21.77819],
        [79.2733, 21.77444],
        [79.28488, 21.77974],
        [79.28411, 21.79253],
        [79.29281, 21.81326],
        [79.2746, 21.83514],
        [79.29548, 21.86058],
        [79.30319, 21.88408],
        [79.3233, 21.90831],
        [79.32484, 21.9191],
        [79.34708, 21.92711],
        [79.34813, 21.94397],
        [79.33937, 21.95413],
        [79.3516, 21.96684],
        [79.36202, 21.96754],
        [79.36379, 21.97258],
        [79.37248, 21.97463],
        [79.3733, 21.99368],
        [79.39619, 21.99594],
        [79.41107, 21.98821],
        [79.43049, 21.99498],
        [79.45588, 21.98852],
        [79.46543, 21.99249],
        [79.47067, 21.98128],
        [79.48494, 21.9883],
        [79.49442, 21.97878],
        [79.48869, 21.96406],
        [79.51412, 21.95961],
        [79.53884, 21.96283],
        [79.54864, 21.96888],
        [79.55452, 21.96522],
        [79.56348, 21.97401],
        [79.58556, 21.97641],
        [79.57953, 21.99357],
        [79.59048, 22.0031],
        [79.58622, 22.01297],
        [79.59771, 22.02737],
        [79.58852, 22.03322],
        [79.59446, 22.05669],
        [79.57634, 22.05814],
        [79.5805, 22.07178],
        [79.5966, 22.08392],
        [79.60658, 22.08164],
        [79.61481, 22.08486],
        [79.6153, 22.09944],
        [79.63715, 22.10554],
        [79.66982, 22.12434],
        [79.68488, 22.12417],
        [79.73083, 22.11747],
        [79.73832, 22.11941],
        [79.74425, 22.12825],
        [79.7543, 22.12488],
        [79.77126, 22.12979],
        [79.77325, 22.14143],
        [79.76949, 22.14364],
        [79.77927, 22.15834],
        [79.79411, 22.16046],
        [79.78785, 22.1802],
        [79.79998, 22.19039],
        [79.81794, 22.19138],
        [79.82224, 22.18807],
        [79.80826, 22.15937],
        [79.84897, 22.15234],
        [79.84639, 22.14236],
        [79.85229, 22.13853],
        [79.87671, 22.13906],
        [79.88505, 22.14452],
        [79.89068, 22.12623],
        [79.91292, 22.12722],
        [79.92918, 22.12195],
        [79.9298, 22.07005],
        [79.93315, 22.06752],
        [79.92007, 22.05373],
        [79.92194, 22.04201],
        [79.91705, 22.03489],
        [79.92632, 22.0322],
        [79.9206, 22.00685],
        [79.92339, 21.97376],
        [79.86178, 21.96647],
        [79.86376, 21.95826],
        [79.84593, 21.95409],
        [79.84042, 21.93765],
        [79.87748, 21.92821],
        [79.88221, 21.93222],
        [79.89176, 21.93047],
        [79.87724, 21.90787],
        [79.86468, 21.90762],
        [79.8659, 21.90223],
        [79.84192, 21.9055],
        [79.83921, 21.88533],
        [79.81491, 21.86752],
        [79.79772, 21.86024],
        [79.77706, 21.85993],
        [79.7768, 21.85502],
        [79.79417, 21.84525],
        [79.79093, 21.84453],
        [79.79265, 21.83696],
        [79.78794, 21.83914],
        [79.76989, 21.80906],
        [79.75244, 21.80214],
        [79.71423, 21.80483],
        [79.69084, 21.80039],
        [79.68362, 21.7884],
        [79.68966, 21.76948],
        [79.68129, 21.7553],
        [79.68216, 21.74664],
        [79.6641, 21.74608],
        [79.65646, 21.73831],
        [79.65995, 21.72443],
        [79.67021, 21.71222],
        [79.67339, 21.69628],
        [79.65725, 21.69286],
        [79.63892, 21.69654],
        [79.62753, 21.70863],
        [79.59968, 21.70976],
        [79.60876, 21.67991],
        [79.59541, 21.66863],
        [79.5941, 21.66125],
        [79.58851, 21.66004],
        [79.5928, 21.64647],
        [79.58672, 21.64659],
        [79.58594, 21.65092],
        [79.57787, 21.64753],
        [79.56967, 21.63534],
        [79.54025, 21.6309],
        [79.53781, 21.62597],
        [79.5468, 21.6156],
        [79.54274, 21.60614],
        [79.52323, 21.59425],
        [79.51, 21.59598],
        [79.51, 21.596],
        [79.51, 21.59637],
        [79.51006, 21.59709],
        [79.5101, 21.5974],
        [79.5102, 21.5978],
        [79.5105, 21.599],
        [79.5106, 21.5996],
        [79.5106, 21.6001],
        [79.511, 21.6035],
        [79.511, 21.6043],
        [79.5109, 21.6045],
        [79.5108, 21.6051],
        [79.51071, 21.60548],
        [79.51071, 21.60554],
        [79.51068, 21.60559],
        [79.5106, 21.6059],
        [79.5101, 21.6064],
        [79.5098, 21.6068],
        [79.5095, 21.607],
        [79.5089, 21.6074],
        [79.5083, 21.6077],
        [79.5076, 21.6082],
        [79.5069, 21.6087],
        [79.5066, 21.609],
        [79.5057, 21.6097],
        [79.5053, 21.6101],
        [79.5049, 21.6105],
        [79.5044, 21.611],
        [79.5035, 21.6128],
        [79.5035, 21.614],
        [79.5036, 21.6147],
        [79.5038, 21.6156],
        [79.5039, 21.6165],
        [79.5039, 21.61651],
        [79.50392, 21.61656],
        [79.5044, 21.6177],
        [79.5048, 21.6187],
        [79.505, 21.6193],
        [79.5054, 21.6198],
        [79.506, 21.6204],
        [79.5063, 21.6208],
        [79.5064, 21.621],
        [79.5069, 21.6213],
        [79.5074, 21.6214],
        [79.5078, 21.6216],
        [79.5082, 21.6217],
        [79.5087, 21.6217],
        [79.5098, 21.6215],
        [79.51164, 21.62104],
        [79.5122, 21.6209],
        [79.5143, 21.6206],
        [79.5156, 21.6205],
        [79.5164, 21.6208],
        [79.5167, 21.6211],
        [79.5168, 21.6215],
        [79.517, 21.6221],
        [79.5172, 21.6244],
        [79.5172, 21.6251],
        [79.5171, 21.6255],
        [79.517, 21.6258],
        [79.5169, 21.6261],
        [79.5168, 21.6265],
        [79.5167, 21.6267],
        [79.5167, 21.6273],
        [79.5166, 21.6278],
        [79.5164, 21.6281],
        [79.5163, 21.6288],
        [79.5162, 21.6298],
        [79.5162, 21.6302],
        [79.5158, 21.6312],
        [79.5156, 21.6312],
        [79.5142, 21.6314],
        [79.514, 21.6316],
        [79.5136, 21.632],
        [79.5135, 21.6321],
        [79.5133, 21.6323],
        [79.513, 21.6325],
        [79.5127, 21.6326],
        [79.5123, 21.6327],
        [79.5119, 21.6327],
        [79.5117, 21.6327],
        [79.5111, 21.6328],
        [79.51079, 21.63288],
        [79.5107, 21.6329],
        [79.5101, 21.6331],
        [79.5097, 21.6333],
        [79.5092, 21.6334],
        [79.5089, 21.6335],
        [79.5085, 21.6338],
        [79.5083, 21.6341],
        [79.5081, 21.6341],
        [79.5077, 21.6343],
        [79.5075, 21.6346],
        [79.5074, 21.6351],
        [79.5074, 21.6353],
        [79.5073, 21.6358],
        [79.5072, 21.6364],
        [79.5072, 21.637],
        [79.5071, 21.6372],
        [79.5066, 21.6382],
        [79.5066, 21.6385],
        [79.5064, 21.6389],
        [79.5061, 21.6393],
        [79.5059, 21.6395],
        [79.5054, 21.6399],
        [79.5045, 21.6404],
        [79.5044, 21.6406],
        [79.5043, 21.6408],
        [79.5043, 21.64082],
        [79.5043, 21.64085],
        [79.5043, 21.6413],
        [79.5041, 21.6415],
        [79.5043, 21.6423],
        [79.5054, 21.6441],
        [79.5064, 21.6455],
        [79.50637, 21.64561],
        [79.5063, 21.6459],
        [79.50618, 21.64598],
        [79.506, 21.6461],
        [79.5059, 21.6466],
        [79.5058, 21.6469],
        [79.5053, 21.6473],
        [79.5053, 21.6475],
        [79.5048, 21.6479],
        [79.5046, 21.6484],
        [79.5045, 21.6486],
        [79.5043, 21.6488],
        [79.5039, 21.6491],
        [79.5031, 21.6497],
        [79.5029, 21.65],
        [79.5026, 21.6502],
        [79.5023, 21.6505],
        [79.5022, 21.6506],
        [79.5014, 21.6513],
        [79.5012, 21.6517],
        [79.5012, 21.6522],
        [79.5012, 21.6529],
        [79.5011, 21.6534],
        [79.5011, 21.6537],
        [79.5012, 21.6542],
        [79.5012, 21.6546],
        [79.5013, 21.6555],
        [79.5014, 21.6563],
        [79.5016, 21.657],
        [79.5017, 21.6575],
        [79.5017, 21.6583],
        [79.5015, 21.659],
        [79.5015, 21.6593],
        [79.5012, 21.6602],
        [79.5007, 21.6607],
        [79.5005, 21.6608],
        [79.4995, 21.6618],
        [79.4983, 21.6627],
        [79.4981, 21.6629],
        [79.4978, 21.6632],
        [79.4969, 21.6636],
        [79.49671, 21.66412],
        [79.4965, 21.6647],
        [79.49631, 21.66489],
        [79.4962, 21.665],
        [79.4962, 21.6654],
        [79.4961, 21.6658],
        [79.4959, 21.6662],
        [79.4958, 21.6668],
        [79.4957, 21.6672],
        [79.4955, 21.6678],
        [79.4953, 21.6684],
        [79.4953, 21.6689],
        [79.4953, 21.6695],
        [79.4953, 21.6704],
        [79.4955, 21.671],
        [79.4957, 21.6719],
        [79.4962, 21.6744],
        [79.4957, 21.6746],
        [79.4952, 21.6747],
        [79.4946, 21.6748],
        [79.4924, 21.6753],
        [79.4921, 21.6754],
        [79.4916, 21.6754],
        [79.4911, 21.6754],
        [79.4907, 21.6755],
        [79.4901, 21.6757],
        [79.4893, 21.6756],
        [79.4884, 21.676],
        [79.4878, 21.6762],
        [79.487, 21.6764],
        [79.4864, 21.6766],
        [79.4855, 21.6769],
        [79.485, 21.6769],
        [79.4844, 21.6771],
        [79.4839, 21.6771],
        [79.48, 21.6783],
        [79.4797, 21.6784],
        [79.4792, 21.6786],
        [79.4786, 21.6788],
        [79.4781, 21.679],
        [79.477, 21.6798],
        [79.4752, 21.6808],
        [79.474, 21.6812],
        [79.4738, 21.6813],
        [79.4737, 21.6816],
        [79.4732, 21.6819],
        [79.473, 21.6819],
        [79.4727, 21.6821],
        [79.472, 21.6825],
        [79.4717, 21.6828],
        [79.471, 21.6831],
        [79.4705, 21.6834],
        [79.4701, 21.6835],
        [79.4693, 21.6837],
        [79.468, 21.6839],
        [79.4677, 21.684],
        [79.4674, 21.6842],
        [79.4671, 21.6844],
        [79.4666, 21.6846],
        [79.4661, 21.6848],
        [79.4658, 21.6849],
        [79.4653, 21.6852],
        [79.465, 21.6854],
        [79.4643, 21.6856],
        [79.4639, 21.6859],
        [79.4636, 21.6861],
        [79.4632, 21.6863],
        [79.4627, 21.6866],
        [79.4624, 21.6867],
        [79.462, 21.687],
        [79.4616, 21.6872],
        [79.46083, 21.68777],
        [79.4608, 21.6878],
        [79.46075, 21.68774],
        [79.4598, 21.6867],
        [79.4571, 21.6848],
        [79.4558, 21.6844],
        [79.4554, 21.6842],
        [79.4547, 21.6839],
        [79.4542, 21.6838],
        [79.4535, 21.6835],
        [79.4527, 21.6833],
        [79.45242, 21.6833],
        [79.4521, 21.6833],
        [79.4514, 21.6831],
        [79.4505, 21.6825],
        [79.4502, 21.6821],
        [79.4495, 21.682],
        [79.449, 21.682],
        [79.448, 21.6822],
        [79.4475, 21.6822],
        [79.4465, 21.6821],
        [79.445, 21.6822],
        [79.4446, 21.6822],
        [79.4435, 21.6822],
        [79.44341, 21.68239],
        [79.4433, 21.6826],
        [79.4425, 21.6826],
        [79.4417, 21.6826],
        [79.4412, 21.6827],
        [79.4408, 21.6828],
        [79.4403, 21.6829],
        [79.4397, 21.6829],
        [79.4391, 21.6828],
        [79.4375, 21.6829],
        [79.4367, 21.6827],
        [79.4361, 21.6827],
        [79.43606, 21.68271],
        [79.4354, 21.6829],
        [79.4343, 21.6835],
        [79.4338, 21.6837],
        [79.4334, 21.6841],
        [79.433, 21.6846],
        [79.4326, 21.685],
        [79.43258, 21.68503],
        [79.4321, 21.6856],
        [79.4317, 21.6859],
        [79.4309, 21.6865],
        [79.4307, 21.6868],
        [79.43, 21.6874],
        [79.4295, 21.6881],
        [79.429, 21.6887],
        [79.4283, 21.6896],
        [79.4264, 21.6905],
        [79.4254, 21.6907],
        [79.4245, 21.6909],
        [79.4231, 21.6915],
        [79.4224, 21.6918],
        [79.4221, 21.6914],
        [79.42163, 21.69131],
        [79.4211, 21.6912],
        [79.4194, 21.6905],
        [79.4187, 21.6907],
        [79.4184, 21.6907],
        [79.4179, 21.6909],
        [79.4167, 21.6911],
        [79.4162, 21.6911],
        [79.4159, 21.6909],
        [79.4152, 21.6907],
        [79.4149, 21.6904],
        [79.4138, 21.689],
        [79.4126, 21.6867],
        [79.4124, 21.6865],
        [79.4121, 21.6863],
        [79.4111, 21.6852],
        [79.41021, 21.68447],
        [79.40983, 21.68424],
        [79.4097, 21.6842],
        [79.409, 21.6838],
        [79.4078, 21.6834],
        [79.4071, 21.6833],
        [79.4064, 21.6832],
        [79.4058, 21.6832],
        [79.4049, 21.6831],
        [79.4043, 21.683],
        [79.404, 21.6829],
        [79.4037, 21.6827],
        [79.4028, 21.682],
        [79.4021, 21.6807],
        [79.4015, 21.6793],
        [79.40149, 21.67925],
        [79.4013, 21.6779],
        [79.4007, 21.6767],
        [79.3995, 21.6761],
        [79.3992, 21.6761],
        [79.3985, 21.6762],
        [79.3974, 21.6763],
        [79.3968, 21.6764],
        [79.39673, 21.6764],
        [79.3963, 21.6764],
        [79.3958, 21.6762],
        [79.3955, 21.6759],
        [79.3947, 21.675],
        [79.3942, 21.6748],
        [79.3939, 21.6745],
        [79.3934, 21.6742],
        [79.3931, 21.6742],
        [79.3928, 21.674]
      ]
    ]
  }
}
