{
  "type": "Feature",
  "id": "MP-AC-126",
  "properties": {
    "stateName": "MADHYA PRADESH",
    "stateCode": "MP",
    "districtName": null,
    "acNo": 126,
    "acName": "Chhindwara",
    "seatType": null,
    "pcNo": null,
    "pcName": null,
    "quality": "unverified",
    "sources": [
      "TBD"
    ]
  },
  "geometry": {
    "type": "Polygon",
    "coordinates": [
      [
        [78.96491, 22.17294],
        [78.98298, 22.16817],
        [78.99418, 22.17022],
        [79.00909, 22.16168],
        [79.0442, 22.16974],
        [79.04817, 22.16166],
        [79.05381, 22.16117],
        [79.07863, 22.16859],
        [79.09249, 22.15318],
        [79.10106, 22.15114],
        [79.11825, 22.1562],
        [79.13038, 22.17044],
        [79.1385, 22.16491],
        [79.144, 22.14706],
        [79.13812, 22.14241],
        [79.13568, 22.13104],
        [79.13809, 22.12607],
        [79.14535, 22.12516],
        [79.15065, 22.10822],
        [79.13448, 22.08152],
        [79.1238, 22.08116],
        [79.12354, 22.06556],
        [79.11298, 22.0629],
        [79.10434, 22.05435],
        [79.11108, 22.04668],
        [79.09558, 22.03496],
        [79.09043, 22.01887],
        [79.10846, 22.01567],
        [79.10569, 22.00463],
        [79.11603, 21.99971],
        [79.11111, 21.98914],
        [79.12999, 21.98154],
        [79.12505, 21.96958],
        [79.13207, 21.96062],
        [79.13032, 21.9473],
        [79.11, 21.94282],
        [79.09995, 21.9244],
        [79.09165, 21.92029],
        [79.07761, 21.92094],
        [79.07701, 21.92702],
        [79.05591, 21.93406],
        [79.0507, 21.91979],
        [79.05532, 21.91127],
        [79.04572, 21.91147],
        [79.0449, 21.90577],
        [79.05496, 21.89797],
        [79.06861, 21.8976],
        [79.04962, 21.89537],
        [79.03781, 21.88831],
        [79.03725, 21.86427],
        [79.03128, 21.85637],
        [79.01017, 21.86338],
        [79.00644, 21.87357],
        [78.99544, 21.87797],
        [78.99625, 21.88951],
        [79.00434, 21.88512],
        [79.00477, 21.91416],
        [78.98957, 21.93375],
        [79.00618, 21.95109],
        [78.98814, 21.9562],
        [78.9839, 21.962],
        [78.98676, 21.97504],
        [78.99352, 21.97626],
        [78.99281, 21.98712],
        [78.99957, 22.0002],
        [78.99641, 22.00555],
        [78.9889, 22.00834],
        [78.95755, 21.99625],
        [78.94917, 21.99863],
        [78.93153, 21.98764],
        [78.92136, 21.99978],
        [78.91098, 22.00274],
        [78.9145, 22.0079],
        [78.89419, 22.01063],
        [78.88356, 22.02944],
        [78.86758, 22.01071],
        [78.85348, 22.01996],
        [78.85979, 22.03077],
        [78.8871, 22.03587],
        [78.88836, 22.05999],
        [78.8771, 22.06422],
        [78.86619, 22.0581],
        [78.8403, 22.06586],
        [78.83966, 22.07111],
        [78.84445, 22.07778],
        [78.87231, 22.08002],
        [78.90084, 22.10325],
        [78.91143, 22.10322],
        [78.91438, 22.09754],
        [78.9198, 22.0979],
        [78.92298, 22.11626],
        [78.92827, 22.1171],
        [78.93429, 22.13346],
        [78.91469, 22.13806],
        [78.92648, 22.15108],
        [78.92195, 22.16051],
        [78.93951, 22.17391],
        [78.9461, 22.16974],
        [78.95441, 22.16748],
        [78.96491, 22.17294]
      ]
    ]
  }
}
