{
  "type": "Feature",
  "id": "MP-AC-133",
  "properties": {
    "stateName": "MADHYA PRADESH",
    "stateCode": "MP",
    "districtName": null,
    "acNo": 133,
    "acName": "Bhainsdehi",
    "seatType": null,
    "pcNo": null,
    "pcName": null,
    "quality": "unverified",
    "sources": [
      "TBD"
    ]
  },
  "geometry": {
    "type": "Polygon",
    "coordinates": [
      [
        [77.4427, 21.4696],
        [77.4425, 21.4697],
        [77.4424, 21.4699],
        [77.4423, 21.4701],
        [77.4422, 21.4703],
        [77.4422, 21.47044],
        [77.4422, 21.4705],
        [77.4422, 21.4707],
        [77.4419, 21.474],
        [77.4419, 21.4742],
        [77.4418, 21.4745],
        [77.4418, 21.4747],
        [77.4417, 21.4749],
        [77.4416, 21.4751],
        [77.4415, 21.4753],
        [77.4414, 21.4756],
        [77.4413, 21.4758],
        [77.4412, 21.4759],
        [77.4409, 21.4762],
        [77.4407, 21.4765],
        [77.4405, 21.4768],
        [77.4403, 21.4771],
        [77.4401, 21.4773],
        [77.4398, 21.4776],
        [77.4396, 21.4779],
        [77.4394, 21.4781],
        [77.4391, 21.4785],
        [77.43906, 21.47857],
        [77.43903, 21.47866],
        [77.43907, 21.47873],
        [77.4392, 21.4788],
        [77.4399, 21.4795],
        [77.441, 21.48],
        [77.4412, 21.4801],
        [77.4414, 21.4802],
        [77.4418, 21.4804],
        [77.4421, 21.4805],
        [77.4424, 21.4807],
        [77.4425, 21.4808],
        [77.4426, 21.481],
        [77.4427, 21.4812],
        [77.4427, 21.4814],
        [77.4427, 21.4815],
        [77.4427, 21.4817],
        [77.4426, 21.482],
        [77.4425, 21.4822],
        [77.4424, 21.4824],
        [77.4424, 21.4826],
        [77.4423, 21.4829],
        [77.4423, 21.4832],
        [77.4424, 21.4835],
        [77.4424, 21.4838],
        [77.4425, 21.4842],
        [77.4426, 21.4844],
        [77.4426, 21.4846],
        [77.4427, 21.4849],
        [77.4427, 21.4851],
        [77.4428, 21.4853],
        [77.4429, 21.4855],
        [77.443, 21.4857],
        [77.4432, 21.4859],
        [77.4434, 21.4862],
        [77.4435, 21.4865],
        [77.4436, 21.4868],
        [77.4435, 21.4871],
        [77.4434, 21.48739],
        [77.4434, 21.4874],
        [77.4421, 21.489],
        [77.442, 21.4892],
        [77.4419, 21.4893],
        [77.4417, 21.4895],
        [77.4416, 21.4897],
        [77.4415, 21.4899],
        [77.4414, 21.4901],
        [77.4413, 21.4903],
        [77.4412, 21.4905],
        [77.44112, 21.49065],
        [77.4411, 21.4907],
        [77.4409, 21.4911],
        [77.4406, 21.4914],
        [77.4404, 21.4918],
        [77.4401, 21.4922],
        [77.4395, 21.4929],
        [77.4392, 21.4932],
        [77.4389, 21.4935],
        [77.4386, 21.4938],
        [77.4385, 21.494],
        [77.4384, 21.4942],
        [77.4383, 21.4943],
        [77.4381, 21.4945],
        [77.438, 21.4946],
        [77.4379, 21.4948],
        [77.4378, 21.495],
        [77.4377, 21.4951],
        [77.4376, 21.4953],
        [77.43728, 21.49604],
        [77.437, 21.4967],
        [77.436, 21.4988],
        [77.4352, 21.4999],
        [77.4344, 21.5006],
        [77.4314, 21.5025],
        [77.4311, 21.5027],
        [77.4308, 21.5029],
        [77.4306, 21.5031],
        [77.4301, 21.5036],
        [77.4299, 21.5038],
        [77.4297, 21.5041],
        [77.4295, 21.5044],
        [77.4294, 21.5047],
        [77.4283, 21.5065],
        [77.4267, 21.5102],
        [77.4266, 21.5104],
        [77.4265, 21.5107],
        [77.4264, 21.5109],
        [77.4263, 21.5111],
        [77.4261, 21.5113],
        [77.426, 21.5115],
        [77.4259, 21.5117],
        [77.4258, 21.5119],
        [77.4257, 21.5122],
        [77.4257, 21.51229],
        [77.4257, 21.5124],
        [77.4256, 21.5126],
        [77.4255, 21.5129],
        [77.4254, 21.5131],
        [77.4253, 21.5133],
        [77.4252, 21.5135],
        [77.425, 21.5137],
        [77.4249, 21.5138],
        [77.4246, 21.5141],
        [77.4243, 21.5143],
        [77.4242, 21.5144],
        [77.4241, 21.5145],
        [77.4238, 21.5147],
        [77.4236, 21.5149],
        [77.4233, 21.5152],
        [77.4231, 21.5155],
        [77.4229, 21.5158],
        [77.4227, 21.5162],
        [77.4225, 21.5165],
        [77.4224, 21.5169],
        [77.4223, 21.5173],
        [77.4223, 21.5177],
        [77.4223, 21.5181],
        [77.4223, 21.5187],
        [77.422, 21.5221],
        [77.422, 21.5275],
        [77.4224, 21.531],
        [77.4224, 21.5313],
        [77.4224, 21.5316],
        [77.4225, 21.5319],
        [77.4225, 21.5322],
        [77.4226, 21.5325],
        [77.4227, 21.5328],
        [77.4228, 21.5331],
        [77.423, 21.5334],
        [77.4231, 21.5336],
        [77.4233, 21.5338],
        [77.4235, 21.5341],
        [77.4237, 21.5343],
        [77.4238, 21.5345],
        [77.424, 21.5347],
        [77.4241, 21.535],
        [77.4243, 21.5352],
        [77.4244, 21.5355],
        [77.4245, 21.5357],
        [77.4252, 21.5369],
        [77.4254, 21.5372],
        [77.42567, 21.53747],
        [77.4257, 21.5375],
        [77.426, 21.5378],
        [77.4263, 21.5381],
        [77.4266, 21.5383],
        [77.4269, 21.5386],
        [77.4272, 21.5388],
        [77.4275, 21.539],
        [77.4279, 21.5392],
        [77.4309, 21.5406],
        [77.4323, 21.5414],
        [77.4354, 21.5429],
        [77.4357, 21.543],
        [77.4359, 21.5432],
        [77.4362, 21.5434],
        [77.4365, 21.5435],
        [77.4368, 21.5436],
        [77.437, 21.5437],
        [77.4373, 21.5438],
        [77.4376, 21.5439],
        [77.4379, 21.5439],
        [77.4398, 21.5444],
        [77.44, 21.5445],
        [77.4402, 21.5445],
        [77.4405, 21.5445],
        [77.4407, 21.5444],
        [77.44126, 21.54406],
        [77.4433, 21.5428],
        [77.4434, 21.5426],
        [77.4436, 21.5425],
        [77.4438, 21.5424],
        [77.444, 21.5423],
        [77.4442, 21.5423],
        [77.4444, 21.5423],
        [77.4446, 21.5424],
        [77.4448, 21.5425],
        [77.4449, 21.5426],
        [77.4452, 21.5428],
        [77.4452, 21.5428],
        [77.4456, 21.5429],
        [77.446, 21.5429],
        [77.4463, 21.5428],
        [77.44688, 21.54227],
        [77.4476, 21.5416],
        [77.4479, 21.5415],
        [77.4481, 21.5414],
        [77.4484, 21.5413],
        [77.4487, 21.5412],
        [77.449, 21.5411],
        [77.4493, 21.5411],
        [77.4496, 21.5411],
        [77.4499, 21.5411],
        [77.4502, 21.5412],
        [77.4511, 21.5419],
        [77.4517, 21.5424],
        [77.4533, 21.5436],
        [77.4561, 21.5453],
        [77.4563, 21.5454],
        [77.4564, 21.5456],
        [77.45648, 21.54576],
        [77.45652, 21.54579],
        [77.45651, 21.54583],
        [77.4566, 21.546],
        [77.4566, 21.5462],
        [77.4566, 21.5465],
        [77.4565, 21.5467],
        [77.4564, 21.5469],
        [77.4563, 21.547],
        [77.4563, 21.547],
        [77.4548, 21.5485],
        [77.4546, 21.5487],
        [77.4544, 21.549],
        [77.4543, 21.5494],
        [77.4542, 21.5496],
        [77.4542, 21.5499],
        [77.4549, 21.5535],
        [77.4551, 21.5536],
        [77.4565, 21.5535],
        [77.457, 21.5535],
        [77.4579, 21.5535],
        [77.4584, 21.5534],
        [77.4589, 21.5534],
        [77.4594, 21.5534],
        [77.4598, 21.5533],
        [77.4603, 21.5533],
        [77.4608, 21.5532],
        [77.4633, 21.5532],
        [77.4638, 21.5532],
        [77.4644, 21.5532],
        [77.4649, 21.5532],
        [77.4655, 21.5531],
        [77.466, 21.5531],
        [77.4666, 21.553],
        [77.4671, 21.5528],
        [77.4676, 21.5527],
        [77.4681, 21.5525],
        [77.4707, 21.5518],
        [77.471, 21.5517],
        [77.4712, 21.5516],
        [77.4714, 21.5514],
        [77.4716, 21.5512],
        [77.4722, 21.5495],
        [77.4723, 21.5494],
        [77.4726, 21.5493],
        [77.47267, 21.5493],
        [77.4728, 21.5493],
        [77.4756, 21.5492],
        [77.4759, 21.5493],
        [77.4762, 21.5494],
        [77.4766, 21.5494],
        [77.4769, 21.5494],
        [77.4773, 21.5495],
        [77.4776, 21.5494],
        [77.4779, 21.5494],
        [77.4782, 21.5493],
        [77.4786, 21.5493],
        [77.4791, 21.5493],
        [77.4795, 21.5492],
        [77.48, 21.5493],
        [77.4805, 21.5493],
        [77.481, 21.5493],
        [77.4814, 21.5493],
        [77.4819, 21.5494],
        [77.4824, 21.5495],
        [77.4829, 21.5495],
        [77.4859, 21.5502],
        [77.4861, 21.5503],
        [77.4864, 21.5503],
        [77.4866, 21.5504],
        [77.4869, 21.5504],
        [77.4871, 21.5504],
        [77.4874, 21.5504],
        [77.4876, 21.5504],
        [77.4879, 21.5504],
        [77.4881, 21.5503],
        [77.4896, 21.5501],
        [77.4924, 21.5498],
        [77.4927, 21.5498],
        [77.4932, 21.5498],
        [77.4935, 21.55],
        [77.4938, 21.5501],
        [77.4941, 21.5503],
        [77.4945, 21.5505],
        [77.4948, 21.5507],
        [77.4951, 21.5509],
        [77.4955, 21.551],
        [77.4959, 21.5511],
        [77.4962, 21.5511],
        [77.4966, 21.5512],
        [77.497, 21.5512],
        [77.4988, 21.5514],
        [77.4996, 21.5514],
        [77.5019, 21.5519],
        [77.50245, 21.55217],
        [77.5027, 21.5523],
        [77.503, 21.5523],
        [77.5032, 21.5523],
        [77.5035, 21.5522],
        [77.504, 21.552],
        [77.5053, 21.5516],
        [77.5076, 21.5511],
        [77.508, 21.5509],
        [77.5086, 21.5507],
        [77.509, 21.5502],
        [77.5103, 21.5486],
        [77.5111, 21.5478],
        [77.5113, 21.5477],
        [77.5114, 21.5477],
        [77.5116, 21.5476],
        [77.5121, 21.5476],
        [77.5128, 21.5472],
        [77.5144, 21.5465],
        [77.5145, 21.5464],
        [77.5148, 21.5458],
        [77.5148, 21.5456],
        [77.5151, 21.545],
        [77.5161, 21.5437],
        [77.517, 21.543],
        [77.5185, 21.5422],
        [77.5196, 21.5418],
        [77.5206, 21.5413],
        [77.52067, 21.54129],
        [77.5221, 21.541],
        [77.5233, 21.5406],
        [77.5249, 21.5401],
        [77.52498, 21.5401],
        [77.5251, 21.5401],
        [77.5252, 21.5401],
        [77.5256, 21.5401],
        [77.526, 21.5401],
        [77.5276, 21.54],
        [77.5296, 21.5397],
        [77.53, 21.5397],
        [77.5306, 21.5392],
        [77.5319, 21.5385],
        [77.5334, 21.5381],
        [77.5349, 21.5376],
        [77.5363, 21.537],
        [77.537, 21.5366],
        [77.5373, 21.5365],
        [77.5375, 21.5364],
        [77.5377, 21.5364],
        [77.5379, 21.5364],
        [77.541, 21.5366],
        [77.5419, 21.5367],
        [77.5438, 21.5367],
        [77.5461, 21.5366],
        [77.5466, 21.5366],
        [77.5471, 21.5366],
        [77.5478, 21.5364],
        [77.5496, 21.5357],
        [77.5531, 21.5345],
        [77.5562, 21.5334],
        [77.5584, 21.5326],
        [77.5613, 21.5311],
        [77.5631, 21.5301],
        [77.5649, 21.5294],
        [77.5668, 21.5287],
        [77.56856, 21.52811],
        [77.5689, 21.528],
        [77.5699, 21.5276],
        [77.5718, 21.5271],
        [77.5744, 21.5265],
        [77.5751, 21.5263],
        [77.5753, 21.5263],
        [77.57545, 21.52634],
        [77.5757, 21.5264],
        [77.5761, 21.5264],
        [77.5766, 21.5265],
        [77.5773, 21.5267],
        [77.5782, 21.5269],
        [77.5789, 21.5271],
        [77.5799, 21.5272],
        [77.581, 21.5274],
        [77.5821, 21.5273],
        [77.5852, 21.5274],
        [77.5862, 21.5274],
        [77.5868, 21.5273],
        [77.5871, 21.5273],
        [77.5874, 21.5273],
        [77.5876, 21.5273],
        [77.5879, 21.5274],
        [77.5882, 21.5275],
        [77.5884, 21.5276],
        [77.5886, 21.5277],
        [77.5889, 21.5278],
        [77.5891, 21.5278],
        [77.5892, 21.5278],
        [77.5894, 21.5278],
        [77.5896, 21.5276],
        [77.5898, 21.5275],
        [77.5903, 21.5273],
        [77.59131, 21.52707],
        [77.5916, 21.527],
        [77.5936, 21.5267],
        [77.5948, 21.5265],
        [77.5951, 21.5265],
        [77.5953, 21.5266],
        [77.5954, 21.5266],
        [77.5957, 21.5268],
        [77.596, 21.5269],
        [77.5963, 21.5269],
        [77.5966, 21.527],
        [77.5969, 21.5272],
        [77.5975, 21.52735],
        [77.59772, 21.52736],
        [77.59782, 21.52744],
        [77.598, 21.5275],
        [77.5983, 21.5277],
        [77.5985, 21.5279],
        [77.59858, 21.52805],
        [77.5987, 21.5283],
        [77.5989, 21.5285],
        [77.5992, 21.529],
        [77.5994, 21.5293],
        [77.6, 21.53],
        [77.6008, 21.5308],
        [77.6014, 21.5315],
        [77.6018, 21.5317],
        [77.602, 21.5317],
        [77.6023, 21.5317],
        [77.6029, 21.5316],
        [77.60296, 21.5316],
        [77.6031, 21.5316],
        [77.6032, 21.5317],
        [77.6033, 21.5319],
        [77.6036, 21.5323],
        [77.6057, 21.5346],
        [77.6069, 21.536],
        [77.6078, 21.537],
        [77.608, 21.5371],
        [77.6082, 21.5372],
        [77.6087, 21.5373],
        [77.6109, 21.5381],
        [77.61122, 21.53829],
        [77.6114, 21.5384],
        [77.6116, 21.5385],
        [77.61168, 21.53867],
        [77.6117, 21.53868],
        [77.6117, 21.53869],
        [77.6117, 21.5387],
        [77.6117, 21.5389],
        [77.6117, 21.5392],
        [77.6116, 21.5396],
        [77.6114, 21.5402],
        [77.6112, 21.5406],
        [77.6107, 21.5414],
        [77.6106, 21.5419],
        [77.6103, 21.5424],
        [77.6098, 21.5435],
        [77.6093, 21.545],
        [77.6088, 21.5473],
        [77.6085, 21.5482],
        [77.60841, 21.54826],
        [77.608, 21.5486],
        [77.608, 21.5486],
        [77.608, 21.5486],
        [77.6074, 21.5489],
        [77.6061, 21.5498],
        [77.6046, 21.5508],
        [77.6029, 21.5522],
        [77.6015, 21.5536],
        [77.5997, 21.5552],
        [77.59806, 21.55684],
        [77.5972, 21.5577],
        [77.5966, 21.5583],
        [77.5956, 21.559],
        [77.59523, 21.55918],
        [77.5952, 21.55921],
        [77.59516, 21.5592],
        [77.5951, 21.5592],
        [77.59504, 21.55917],
        [77.5945, 21.5589],
        [77.5939, 21.5584],
        [77.5925, 21.5575],
        [77.5923, 21.5574],
        [77.5908, 21.5569],
        [77.5876, 21.5558],
        [77.5857, 21.555],
        [77.5838, 21.554],
        [77.5826, 21.5536],
        [77.5819, 21.5534],
        [77.5813, 21.5534],
        [77.5811, 21.5534],
        [77.5808, 21.5534],
        [77.5805, 21.5534],
        [77.5802, 21.5535],
        [77.5799, 21.5536],
        [77.5787, 21.554],
        [77.5782, 21.5542],
        [77.5772, 21.5546],
        [77.5771, 21.5547],
        [77.57708, 21.55474],
        [77.57704, 21.55481],
        [77.577, 21.5549],
        [77.577, 21.5553],
        [77.577, 21.55543],
        [77.577, 21.5561],
        [77.577, 21.5573],
        [77.577, 21.5577],
        [77.57681, 21.55808],
        [77.5768, 21.5581],
        [77.5767, 21.5582],
        [77.5766, 21.5584],
        [77.5762, 21.559],
        [77.5758, 21.5596],
        [77.5753, 21.5603],
        [77.575, 21.561],
        [77.5748, 21.562],
        [77.5743, 21.5634],
        [77.5741, 21.5641],
        [77.5741, 21.5646],
        [77.5742, 21.5649],
        [77.5742, 21.5651],
        [77.5743, 21.5653],
        [77.5744, 21.5656],
        [77.5745, 21.5659],
        [77.5746, 21.5662],
        [77.5749, 21.5668],
        [77.575, 21.5671],
        [77.575, 21.5673],
        [77.5748, 21.5691],
        [77.5747, 21.5699],
        [77.5747, 21.5701],
        [77.5748, 21.5715],
        [77.57562, 21.5748],
        [77.5759, 21.5759],
        [77.5763, 21.5771],
        [77.577, 21.5771],
        [77.5769, 21.5773],
        [77.5766, 21.578],
        [77.5761, 21.5791],
        [77.5759, 21.5799],
        [77.5758, 21.5804],
        [77.5757, 21.581],
        [77.5756, 21.5823],
        [77.5755, 21.5833],
        [77.5755, 21.5851],
        [77.5755, 21.5866],
        [77.5753, 21.5883],
        [77.5752, 21.5899],
        [77.5748, 21.5909],
        [77.5748, 21.5911],
        [77.5749, 21.5919],
        [77.5748, 21.5931],
        [77.5747, 21.5955],
        [77.5745, 21.5973],
        [77.5743, 21.598],
        [77.5741, 21.6005],
        [77.5739, 21.6018],
        [77.5736, 21.6038],
        [77.57354, 21.60411],
        [77.5733, 21.6054],
        [77.5733, 21.6072],
        [77.5731, 21.6113],
        [77.5729, 21.6142],
        [77.5727, 21.6159],
        [77.5726, 21.6168],
        [77.57274, 21.61694],
        [77.5728, 21.617],
        [77.5731, 21.6173],
        [77.5733, 21.6176],
        [77.5735, 21.6179],
        [77.5741, 21.6187],
        [77.5756, 21.6206],
        [77.5756, 21.6209],
        [77.5756, 21.6209],
        [77.57561, 21.62092],
        [77.57552, 21.62109],
        [77.5749, 21.6226],
        [77.5738, 21.6256],
        [77.5732, 21.627],
        [77.5726, 21.6287],
        [77.5724, 21.6292],
        [77.572, 21.6297],
        [77.5709, 21.6312],
        [77.5701, 21.6323],
        [77.5697, 21.6329],
        [77.5694, 21.6332],
        [77.5691, 21.6336],
        [77.56895, 21.63375],
        [77.5688, 21.6339],
        [77.5682, 21.6352],
        [77.5673, 21.6368],
        [77.566, 21.6391],
        [77.5653, 21.6402],
        [77.5646, 21.6416],
        [77.5639, 21.6434],
        [77.5636, 21.6439],
        [77.5636, 21.64406],
        [77.5636, 21.6441],
        [77.5637, 21.6443],
        [77.5639, 21.6445],
        [77.564, 21.6445],
        [77.5641, 21.6447],
        [77.5641, 21.6449],
        [77.5641, 21.6451],
        [77.5641, 21.6452],
        [77.5639, 21.6455],
        [77.5634, 21.6472],
        [77.5628, 21.6495],
        [77.5624, 21.6509],
        [77.5621, 21.6528],
        [77.5621, 21.6543],
        [77.5621, 21.6567],
        [77.5618, 21.6592],
        [77.5617, 21.6607],
        [77.56168, 21.66122],
        [77.5616, 21.6633],
        [77.5616, 21.6649],
        [77.5617, 21.6657],
        [77.5617, 21.6659],
        [77.5615, 21.6663],
        [77.5613, 21.6667],
        [77.561, 21.6675],
        [77.56098, 21.66753],
        [77.5602, 21.6687],
        [77.5593, 21.6697],
        [77.5586, 21.6708],
        [77.5573, 21.6735],
        [77.556, 21.6757],
        [77.5551, 21.6774],
        [77.5542, 21.6788],
        [77.5541, 21.6791],
        [77.5519, 21.6804],
        [77.5514, 21.6806],
        [77.5513, 21.6808],
        [77.551, 21.6813],
        [77.5502, 21.6829],
        [77.5497, 21.6846],
        [77.5492, 21.6865],
        [77.5489, 21.6893],
        [77.5486, 21.6911],
        [77.5485, 21.6921],
        [77.5484, 21.6926],
        [77.54746, 21.69494],
        [77.5474, 21.6951],
        [77.546, 21.6982],
        [77.5452, 21.7],
        [77.5443, 21.7022],
        [77.5439, 21.7031],
        [77.5437, 21.7035],
        [77.5435, 21.7038],
        [77.543, 21.7042],
        [77.5428, 21.7046],
        [77.5425, 21.705],
        [77.5423, 21.7053],
        [77.5421, 21.7058],
        [77.542, 21.706],
        [77.5418, 21.7062],
        [77.5416, 21.7064],
        [77.5413, 21.7065],
        [77.5409, 21.7067],
        [77.5403, 21.7071],
        [77.5396, 21.7077],
        [77.5391, 21.7082],
        [77.5389, 21.7083],
        [77.5386, 21.7084],
        [77.538, 21.7085],
        [77.5371, 21.7089],
        [77.5364, 21.7089],
        [77.5361, 21.7089],
        [77.5359, 21.709],
        [77.5356, 21.7095],
        [77.5355, 21.7097],
        [77.5355, 21.7099],
        [77.5354, 21.7101],
        [77.5352, 21.7103],
        [77.5346, 21.7108],
        [77.5336, 21.7115],
        [77.5332, 21.7118],
        [77.5329, 21.7118],
        [77.5327, 21.7119],
        [77.5315, 21.7116],
        [77.5313, 21.7116],
        [77.531, 21.7118],
        [77.5304, 21.7121],
        [77.52835, 21.71136],
        [77.5279, 21.7112],
        [77.5271, 21.7111],
        [77.5263, 21.7113],
        [77.5258, 21.7116],
        [77.5257, 21.7117],
        [77.525, 21.7127],
        [77.5246, 21.7135],
        [77.5242, 21.7143],
        [77.5241, 21.7147],
        [77.5242, 21.7151],
        [77.5242, 21.7154],
        [77.5245, 21.7165],
        [77.5245, 21.7169],
        [77.5245, 21.7171],
        [77.5245, 21.7174],
        [77.5244, 21.7176],
        [77.5242, 21.7179],
        [77.5236, 21.7185],
        [77.5231, 21.7195],
        [77.5231, 21.7197],
        [77.5231, 21.7199],
        [77.5232, 21.7201],
        [77.524, 21.7222],
        [77.5243, 21.7229],
        [77.5246, 21.7232],
        [77.52537, 21.72435],
        [77.5254, 21.7244],
        [77.5253, 21.7245],
        [77.52523, 21.7245],
        [77.5251, 21.7245],
        [77.5249, 21.7245],
        [77.5247, 21.7245],
        [77.5245, 21.7244],
        [77.5244, 21.7243],
        [77.5235, 21.7239],
        [77.5231, 21.7239],
        [77.5229, 21.724],
        [77.5227, 21.724],
        [77.5226, 21.7241],
        [77.5222, 21.7243],
        [77.5211, 21.725],
        [77.5199, 21.7258],
        [77.5193, 21.7264],
        [77.5184, 21.7273],
        [77.5173, 21.7283],
        [77.5167, 21.7288],
        [77.5159, 21.7293],
        [77.5154, 21.7297],
        [77.5146, 21.7303],
        [77.5138, 21.7312],
        [77.5136, 21.7313],
        [77.5128, 21.7318],
        [77.5119, 21.7323],
        [77.51177, 21.73243],
        [77.51177, 21.73243],
        [77.5115, 21.7328],
        [77.5115, 21.7328],
        [77.5105, 21.7349],
        [77.5095, 21.7368],
        [77.5089, 21.7377],
        [77.5078, 21.7389],
        [77.5076, 21.739],
        [77.5074, 21.7391],
        [77.50706, 21.73898],
        [77.506, 21.7386],
        [77.5058, 21.7387],
        [77.5055, 21.7391],
        [77.505, 21.7396],
        [77.5034, 21.7413],
        [77.5024, 21.743],
        [77.502, 21.7437],
        [77.502, 21.7438],
        [77.5021, 21.744],
        [77.5023, 21.7442],
        [77.5024, 21.7445],
        [77.5025, 21.7449],
        [77.5025, 21.7451],
        [77.5024, 21.7454],
        [77.5024, 21.74544],
        [77.5024, 21.7456],
        [77.5022, 21.7459],
        [77.5021, 21.746],
        [77.502, 21.7461],
        [77.5019, 21.7462],
        [77.5018, 21.7462],
        [77.5017, 21.7463],
        [77.5011, 21.7466],
        [77.4988, 21.7465],
        [77.498, 21.7465],
        [77.4974, 21.7466],
        [77.4967, 21.747],
        [77.4958, 21.7475],
        [77.4952, 21.7477],
        [77.4948, 21.7476],
        [77.4943, 21.7474],
        [77.493, 21.7467],
        [77.49297, 21.7467],
        [77.4918, 21.7465],
        [77.4904, 21.7468],
        [77.486, 21.7507],
        [77.4858, 21.7509],
        [77.4856, 21.751],
        [77.4854, 21.7511],
        [77.4841, 21.7517],
        [77.4818, 21.7527],
        [77.4812, 21.7531],
        [77.4796, 21.754],
        [77.47958, 21.75402],
        [77.4794, 21.7542],
        [77.4793, 21.7545],
        [77.4794, 21.7548],
        [77.4795, 21.755],
        [77.4796, 21.7553],
        [77.4797, 21.7555],
        [77.4798, 21.7557],
        [77.4798, 21.756],
        [77.4799, 21.7562],
        [77.4799, 21.7565],
        [77.4798, 21.7576],
        [77.4798, 21.759],
        [77.4797, 21.7593],
        [77.4797, 21.7595],
        [77.4795, 21.7598],
        [77.4794, 21.7601],
        [77.4784, 21.7613],
        [77.4782, 21.7616],
        [77.47815, 21.76169],
        [77.4781, 21.7618],
        [77.478, 21.7621],
        [77.478, 21.7623],
        [77.478, 21.76252],
        [77.478, 21.76258],
        [77.478, 21.7626],
        [77.4781, 21.7628],
        [77.4783, 21.7631],
        [77.4786, 21.7633],
        [77.4789, 21.7634],
        [77.4791, 21.7635],
        [77.4794, 21.7636],
        [77.4798, 21.7636],
        [77.4801, 21.7636],
        [77.4804, 21.7635],
        [77.4806, 21.7635],
        [77.4809, 21.7634],
        [77.4813, 21.7635],
        [77.4816, 21.7635],
        [77.4819, 21.7636],
        [77.4822, 21.7638],
        [77.4824, 21.7639],
        [77.4826, 21.7641],
        [77.4829, 21.7643],
        [77.483, 21.7646],
        [77.4832, 21.7648],
        [77.4833, 21.7651],
        [77.4833, 21.7654],
        [77.4834, 21.7656],
        [77.4834, 21.7659],
        [77.4834, 21.7662],
        [77.4833, 21.7664],
        [77.4832, 21.7667],
        [77.4831, 21.767],
        [77.4828, 21.7673],
        [77.4826, 21.7676],
        [77.48232, 21.76779],
        [77.48234, 21.76782],
        [77.48218, 21.76792],
        [77.4821, 21.768],
        [77.4801, 21.7691],
        [77.4799, 21.7692],
        [77.4797, 21.7693],
        [77.47941, 21.76966],
        [77.4793, 21.7698],
        [77.4791, 21.77],
        [77.4789, 21.7701],
        [77.4787, 21.7701],
        [77.4781, 21.7699],
        [77.4767, 21.7694],
        [77.4749, 21.7687],
        [77.4727, 21.7675],
        [77.4724, 21.7673],
        [77.4721, 21.7672],
        [77.4718, 21.767],
        [77.4715, 21.7669],
        [77.4711, 21.7667],
        [77.4708, 21.7666],
        [77.4705, 21.7664],
        [77.4702, 21.7663],
        [77.4699, 21.7662],
        [77.4683, 21.7656],
        [77.4681, 21.7655],
        [77.4678, 21.7655],
        [77.4676, 21.7654],
        [77.4674, 21.7653],
        [77.4671, 21.7653],
        [77.4669, 21.7652],
        [77.4666, 21.7652],
        [77.4664, 21.7651],
        [77.4661, 21.7651],
        [77.4653, 21.7649],
        [77.4651, 21.7648],
        [77.4649, 21.7647],
        [77.4647, 21.7646],
        [77.4645, 21.7646],
        [77.4643, 21.7645],
        [77.4641, 21.7644],
        [77.4639, 21.7643],
        [77.4637, 21.7642],
        [77.4635, 21.7642],
        [77.4632, 21.7641],
        [77.4629, 21.764],
        [77.4626, 21.7639],
        [77.4623, 21.7639],
        [77.462, 21.7639],
        [77.4618, 21.7639],
        [77.4616, 21.7638],
        [77.4614, 21.7638],
        [77.4612, 21.7637],
        [77.461, 21.7636],
        [77.4608, 21.7635],
        [77.4606, 21.7634],
        [77.4604, 21.7633],
        [77.46, 21.7629],
        [77.458, 21.761],
        [77.4578, 21.7609],
        [77.4577, 21.7607],
        [77.4575, 21.7606],
        [77.4573, 21.7604],
        [77.4571, 21.7603],
        [77.4569, 21.7602],
        [77.4564, 21.7601],
        [77.4562, 21.7601],
        [77.45583, 21.76007],
        [77.455, 21.76],
        [77.4531, 21.7599],
        [77.4473, 21.7595],
        [77.4456, 21.7596],
        [77.4436, 21.7597],
        [77.4433, 21.7597],
        [77.443, 21.7596],
        [77.4427, 21.7596],
        [77.4424, 21.7595],
        [77.441, 21.7591],
        [77.4387, 21.7585],
        [77.4366, 21.7583],
        [77.4363, 21.7582],
        [77.4361, 21.7582],
        [77.4359, 21.7581],
        [77.4356, 21.7581],
        [77.4354, 21.7581],
        [77.4352, 21.7581],
        [77.4349, 21.7581],
        [77.4347, 21.7581],
        [77.4345, 21.7582],
        [77.4335, 21.7582],
        [77.4322, 21.7581],
        [77.4315, 21.7581],
        [77.4311, 21.758],
        [77.4306, 21.758],
        [77.4302, 21.7579],
        [77.4298, 21.7578],
        [77.4294, 21.7577],
        [77.429, 21.7577],
        [77.4285, 21.7575],
        [77.4281, 21.7575],
        [77.4277, 21.7573],
        [77.4267, 21.757],
        [77.4251, 21.7563],
        [77.4232, 21.7557],
        [77.422, 21.7553],
        [77.4195, 21.7545],
        [77.4179, 21.7539],
        [77.4167, 21.7535],
        [77.4165, 21.7535],
        [77.4162, 21.7535],
        [77.4159, 21.7534],
        [77.4157, 21.7532],
        [77.4155, 21.7532],
        [77.4153, 21.7531],
        [77.4151, 21.7531],
        [77.4149, 21.7532],
        [77.4144, 21.7533],
        [77.4135, 21.7534],
        [77.4119, 21.7534],
        [77.4104, 21.7533],
        [77.409, 21.7531],
        [77.4078, 21.753],
        [77.40598, 21.75271],
        [77.4059, 21.7527],
        [77.4048, 21.7525],
        [77.4028, 21.7525],
        [77.4008, 21.7525],
        [77.3997, 21.7525],
        [77.398, 21.7526],
        [77.3966, 21.7527],
        [77.3958, 21.7526],
        [77.3946, 21.7525],
        [77.3936, 21.7526],
        [77.3921, 21.7529],
        [77.3912, 21.7532],
        [77.3896, 21.7534],
        [77.3883, 21.7535],
        [77.3867, 21.7535],
        [77.3858, 21.7534],
        [77.3847, 21.7533],
        [77.3836, 21.7533],
        [77.3812, 21.7532],
        [77.3805, 21.7532],
        [77.3799, 21.7534],
        [77.3789, 21.7538],
        [77.3783, 21.7541],
        [77.3772, 21.7547],
        [77.377, 21.7548],
        [77.3768, 21.7549],
        [77.3766, 21.755],
        [77.3764, 21.755],
        [77.3762, 21.7551],
        [77.3759, 21.755],
        [77.3757, 21.755],
        [77.3755, 21.7549],
        [77.3753, 21.7548],
        [77.3748, 21.7545],
        [77.374, 21.7541],
        [77.3737, 21.754],
        [77.3734, 21.7539],
        [77.3732, 21.7538],
        [77.3728, 21.7538],
        [77.3713, 21.7538],
        [77.37, 21.754],
        [77.3692, 21.754],
        [77.3677, 21.754],
        [77.3629, 21.7543],
        [77.3612, 21.7542],
        [77.3597, 21.7542],
        [77.357, 21.7546],
        [77.355, 21.755],
        [77.3528, 21.7555],
        [77.3478, 21.7573],
        [77.3476, 21.7574],
        [77.3474, 21.7575],
        [77.3473, 21.7576],
        [77.3471, 21.7577],
        [77.3469, 21.7578],
        [77.3467, 21.7578],
        [77.3464, 21.7579],
        [77.3462, 21.7579],
        [77.346, 21.7579],
        [77.3458, 21.7579],
        [77.3455, 21.7579],
        [77.3453, 21.7578],
        [77.3451, 21.7578],
        [77.3448, 21.7577],
        [77.3446, 21.7577],
        [77.3444, 21.7576],
        [77.3442, 21.7575],
        [77.34402, 21.75741],
        [77.344, 21.7574],
        [77.3411, 21.7566],
        [77.3395, 21.7563],
        [77.3388, 21.7561],
        [77.3371, 21.7556],
        [77.3355, 21.7552],
        [77.3339, 21.7548],
        [77.33081, 21.75422],
        [77.3291, 21.7539],
        [77.3272, 21.7536],
        [77.3255, 21.7531],
        [77.3245, 21.7527],
        [77.32449, 21.7527],
        [77.3241, 21.7529],
        [77.3209, 21.7543],
        [77.3173, 21.7561],
        [77.317, 21.7563],
        [77.3166, 21.7564],
        [77.3163, 21.7565],
        [77.316, 21.7566],
        [77.3156, 21.7567],
        [77.3153, 21.7568],
        [77.3149, 21.7568],
        [77.3146, 21.7568],
        [77.3142, 21.7568],
        [77.3125, 21.7569],
        [77.3113, 21.7567],
        [77.3095, 21.7564],
        [77.30849, 21.75626],
        [77.3074, 21.7561],
        [77.3044, 21.7557],
        [77.3023, 21.7557],
        [77.3018, 21.7557],
        [77.3014, 21.7557],
        [77.3009, 21.7557],
        [77.3005, 21.7557],
        [77.3, 21.7558],
        [77.2996, 21.7559],
        [77.2991, 21.756],
        [77.2987, 21.7561],
        [77.2983, 21.7563],
        [77.2968, 21.7572],
        [77.2949, 21.7583],
        [77.292, 21.7597],
        [77.29, 21.7603],
        [77.28979, 21.7603],
        [77.2894, 21.7603],
        [77.28796, 21.75994],
        [77.2866, 21.7596],
        [77.28528, 21.75941],
        [77.2838, 21.7592],
        [77.2801, 21.7584],
        [77.2801, 21.75839],
        [77.28005, 21.75838],
        [77.28005, 21.758],
        [77.2796, 21.7548],
        [77.2795, 21.7506],
        [77.2797, 21.7501],
        [77.2799, 21.7494],
        [77.2799, 21.7492],
        [77.27993, 21.74917],
        [77.27993, 21.74916],
        [77.27996, 21.74914],
        [77.2802, 21.7489],
        [77.2804, 21.7487],
        [77.2806, 21.7486],
        [77.2808, 21.7485],
        [77.281, 21.7484],
        [77.2812, 21.7483],
        [77.28121, 21.74829],
        [77.2814, 21.7482],
        [77.2817, 21.7482],
        [77.2819, 21.7481],
        [77.2822, 21.748],
        [77.2825, 21.748],
        [77.2828, 21.7479],
        [77.2831, 21.7477],
        [77.2833, 21.7476],
        [77.2836, 21.7475],
        [77.2839, 21.7473],
        [77.2841, 21.7471],
        [77.2844, 21.7469],
        [77.2861, 21.7458],
        [77.2864, 21.7456],
        [77.2866, 21.7454],
        [77.2868, 21.7452],
        [77.287, 21.7449],
        [77.2871, 21.7445],
        [77.2872, 21.7443],
        [77.2872, 21.744],
        [77.2872, 21.7437],
        [77.2872, 21.7435],
        [77.2872, 21.7432],
        [77.2871, 21.7429],
        [77.2871, 21.7426],
        [77.287, 21.7424],
        [77.2868, 21.7422],
        [77.2866, 21.742],
        [77.2865, 21.7417],
        [77.2863, 21.7415],
        [77.286, 21.7412],
        [77.2858, 21.7409],
        [77.2856, 21.7406],
        [77.2855, 21.7402],
        [77.2853, 21.7399],
        [77.2852, 21.7396],
        [77.285, 21.7393],
        [77.2849, 21.739],
        [77.2848, 21.7386],
        [77.2848, 21.7384],
        [77.2847, 21.7382],
        [77.2846, 21.7381],
        [77.2845, 21.7379],
        [77.2844, 21.7377],
        [77.2844, 21.7375],
        [77.2843, 21.7373],
        [77.2842, 21.7371],
        [77.2842, 21.7369],
        [77.2841, 21.7367],
        [77.2843, 21.7365],
        [77.2846, 21.7363],
        [77.2848, 21.7361],
        [77.2851, 21.7359],
        [77.2853, 21.7358],
        [77.2855, 21.7356],
        [77.286, 21.7352],
        [77.2863, 21.735],
        [77.2866, 21.7349],
        [77.287, 21.7346],
        [77.2886, 21.7336],
        [77.2888, 21.7334],
        [77.289, 21.7333],
        [77.2892, 21.7332],
        [77.2894, 21.7331],
        [77.2897, 21.733],
        [77.2899, 21.733],
        [77.2901, 21.7329],
        [77.2904, 21.7329],
        [77.2907, 21.7329],
        [77.291, 21.7328],
        [77.291, 21.7324],
        [77.291, 21.7322],
        [77.291, 21.732],
        [77.2909, 21.7318],
        [77.2909, 21.7316],
        [77.2909, 21.7314],
        [77.2908, 21.7311],
        [77.2908, 21.7309],
        [77.2907, 21.7307],
        [77.2907, 21.7305],
        [77.2906, 21.7302],
        [77.2905, 21.7299],
        [77.2905, 21.7296],
        [77.2904, 21.7293],
        [77.2903, 21.729],
        [77.2902, 21.7288],
        [77.2901, 21.7285],
        [77.29, 21.7282],
        [77.2891, 21.7259],
        [77.2881, 21.7236],
        [77.28741, 21.72222],
        [77.28735, 21.7221],
        [77.2873, 21.722],
        [77.2872, 21.7219],
        [77.2869, 21.7218],
        [77.2866, 21.7218],
        [77.2863, 21.7219],
        [77.2838, 21.7228],
        [77.2796, 21.7238],
        [77.2791, 21.724],
        [77.2787, 21.7242],
        [77.2783, 21.7244],
        [77.2779, 21.7246],
        [77.2775, 21.7248],
        [77.2771, 21.7251],
        [77.2768, 21.7253],
        [77.2764, 21.7256],
        [77.276, 21.7259],
        [77.2727, 21.7281],
        [77.2724, 21.7281],
        [77.2722, 21.7281],
        [77.2719, 21.7281],
        [77.27165, 21.7281],
        [77.2716, 21.72812],
        [77.27159, 21.7281],
        [77.2713, 21.7281],
        [77.2711, 21.728],
        [77.2708, 21.728],
        [77.2705, 21.7279],
        [77.2703, 21.7277],
        [77.2684, 21.7261],
        [77.2682, 21.7259],
        [77.268, 21.7256],
        [77.2679, 21.7254],
        [77.2677, 21.7251],
        [77.2675, 21.7249],
        [77.2674, 21.7246],
        [77.2673, 21.7244],
        [77.2671, 21.7241],
        [77.267, 21.7238],
        [77.2658, 21.7215],
        [77.2653, 21.7206],
        [77.2648, 21.7194],
        [77.2646, 21.7192],
        [77.2645, 21.7189],
        [77.2643, 21.7187],
        [77.2642, 21.7185],
        [77.2641, 21.7182],
        [77.264, 21.7179],
        [77.2639, 21.7176],
        [77.2639, 21.7174],
        [77.2638, 21.7171],
        [77.2637, 21.7167],
        [77.2635, 21.7163],
        [77.2633, 21.7159],
        [77.2632, 21.7155],
        [77.263, 21.7151],
        [77.2628, 21.7147],
        [77.2623, 21.714],
        [77.2621, 21.7136],
        [77.2619, 21.7129],
        [77.2617, 21.7128],
        [77.2615, 21.7128],
        [77.2615, 21.7128],
        [77.2613, 21.7128],
        [77.2576, 21.7126],
        [77.2557, 21.7127],
        [77.2551, 21.7128],
        [77.2545, 21.7128],
        [77.254, 21.7129],
        [77.2534, 21.713],
        [77.2528, 21.7131],
        [77.2522, 21.7131],
        [77.2517, 21.7133],
        [77.2511, 21.7134],
        [77.2505, 21.7135],
        [77.2488, 21.7144],
        [77.2475, 21.7152],
        [77.2443, 21.7166],
        [77.2439, 21.7163],
        [77.2426, 21.71491],
        [77.2425, 21.7148],
        [77.2422, 21.715],
        [77.2412, 21.7154],
        [77.2399, 21.7155],
        [77.2381, 21.7158],
        [77.2367, 21.7161],
        [77.2353, 21.7163],
        [77.2345, 21.7161],
        [77.2341, 21.71587],
        [77.2331, 21.7153],
        [77.2329, 21.715],
        [77.2319, 21.7153],
        [77.23116, 21.71621],
        [77.231, 21.7164],
        [77.2305, 21.7166],
        [77.23, 21.7165],
        [77.2286, 21.7165],
        [77.227, 21.7167],
        [77.227, 21.71668],
        [77.22698, 21.71668],
        [77.22698, 21.71661],
        [77.2268, 21.7157],
        [77.2269, 21.715],
        [77.2271, 21.7142],
        [77.2276, 21.7126],
        [77.2278, 21.7108],
        [77.2278, 21.7088],
        [77.2277, 21.7075],
        [77.2276, 21.7066],
        [77.22745, 21.70593],
        [77.2274, 21.7057],
        [77.2271, 21.7043],
        [77.227, 21.7031],
        [77.2272, 21.7015],
        [77.2273, 21.7001],
        [77.2277, 21.6995],
        [77.2277, 21.6995],
        [77.2275, 21.6991],
        [77.2265, 21.6984],
        [77.2249, 21.6974],
        [77.2234, 21.697],
        [77.2213, 21.6968],
        [77.2207, 21.6965],
        [77.2206, 21.6963],
        [77.2191, 21.6941],
        [77.21904, 21.6941],
        [77.2166, 21.6941],
        [77.2145, 21.6942],
        [77.2129, 21.6952],
        [77.21287, 21.69516],
        [77.21287, 21.69516],
        [77.21286, 21.69514],
        [77.2121, 21.694],
        [77.2112, 21.6918],
        [77.2102, 21.6898],
        [77.2102, 21.6898],
        [77.2094, 21.6901],
        [77.209, 21.6903],
        [77.2064, 21.6911],
        [77.2035, 21.6925],
        [77.2019, 21.6939],
        [77.20144, 21.69454],
        [77.2006, 21.6957],
        [77.1992, 21.6975],
        [77.1978, 21.6984],
        [77.1948, 21.6994],
        [77.1926, 21.6997],
        [77.1917, 21.6999],
        [77.1912, 21.7001],
        [77.18955, 21.70096],
        [77.1884, 21.70159],
        [77.1882, 21.7017],
        [77.1882, 21.70188],
        [77.1882, 21.7026],
        [77.18848, 21.70351],
        [77.1886, 21.7039],
        [77.1894, 21.7063],
        [77.1903, 21.7093],
        [77.1909, 21.7114],
        [77.1915, 21.7139],
        [77.1915, 21.7155],
        [77.1915, 21.7208],
        [77.19145, 21.72082],
        [77.19146, 21.72085],
        [77.19108, 21.72097],
        [77.19, 21.7214],
        [77.1893, 21.7217],
        [77.1867, 21.7229],
        [77.1852, 21.723],
        [77.18464, 21.72296],
        [77.1837, 21.7229],
        [77.1814, 21.7231],
        [77.1801, 21.7239],
        [77.1776, 21.7253],
        [77.1757, 21.7258],
        [77.1741, 21.7257],
        [77.1729, 21.7253],
        [77.1715, 21.7245],
        [77.1704, 21.7233],
        [77.1695, 21.7219],
        [77.1691, 21.7206],
        [77.169, 21.7194],
        [77.1691, 21.7186],
        [77.1696, 21.718],
        [77.16971, 21.71751],
        [77.1698, 21.7171],
        [77.1699, 21.7156],
        [77.1697, 21.7142],
        [77.1695, 21.7138],
        [77.1689, 21.713],
        [77.168, 21.712],
        [77.1664, 21.711],
        [77.1648, 21.7106],
        [77.1625, 21.7109],
        [77.16218, 21.71091],
        [77.1587, 21.711],
        [77.1566, 21.7114],
        [77.1547, 21.7115],
        [77.1502, 21.7121],
        [77.1483, 21.7123],
        [77.1466, 21.7131],
        [77.1452, 21.714],
        [77.1443, 21.7151],
        [77.1431, 21.7171],
        [77.1422, 21.7175],
        [77.1411, 21.7182],
        [77.1404, 21.7189],
        [77.1394, 21.7198],
        [77.1382, 21.72],
        [77.1364, 21.7201],
        [77.1349, 21.7207],
        [77.1325, 21.7217],
        [77.13002, 21.72218],
        [77.1299, 21.72224],
        [77.12961, 21.72219],
        [77.1276, 21.7221],
        [77.1238, 21.722],
        [77.1197, 21.7217],
        [77.1174, 21.7214],
        [77.115, 21.7208],
        [77.1121, 21.7198],
        [77.1095, 21.7187],
        [77.10627, 21.718],
        [77.10627, 21.718],
        [77.10551, 21.71786],
        [77.1033, 21.7176],
        [77.1006, 21.7172],
        [77.0973, 21.7167],
        [77.0959, 21.7165],
        [77.0938, 21.7163],
        [77.0914, 21.7153],
        [77.0899, 21.715],
        [77.0881, 21.7146],
        [77.08683, 21.71452],
        [77.0866, 21.7145],
        [77.08651, 21.71451],
        [77.0858, 21.7146],
        [77.08483, 21.71546],
        [77.0841, 21.7161],
        [77.0826, 21.7175],
        [77.0813, 21.7188],
        [77.0796, 21.72],
        [77.0782, 21.7203],
        [77.0765, 21.7202],
        [77.0747, 21.7198],
        [77.0732, 21.7194],
        [77.072, 21.7186],
        [77.0701, 21.7174],
        [77.069, 21.7163],
        [77.0681, 21.7154],
        [77.067, 21.714],
        [77.06587, 21.71249],
        [77.06587, 21.71249],
        [77.0658, 21.71244],
        [77.06046, 21.73483],
        [77.06827, 21.73494],
        [77.06857, 21.72657],
        [77.0773, 21.72905],
        [77.07846, 21.73634],
        [77.07089, 21.75084],
        [77.0761, 21.75512],
        [77.07948, 21.77036],
        [77.10521, 21.77297],
        [77.10948, 21.77741],
        [77.10768, 21.78287],
        [77.10035, 21.78529],
        [77.11264, 21.78522],
        [77.12159, 21.77536],
        [77.14294, 21.78561],
        [77.15163, 21.77611],
        [77.15023, 21.77261],
        [77.1651, 21.78401],
        [77.17233, 21.78205],
        [77.20168, 21.78997],
        [77.1858, 21.79493],
        [77.19119, 21.807],
        [77.17596, 21.80704],
        [77.1697, 21.81253],
        [77.16233, 21.85816],
        [77.17208, 21.87156],
        [77.17861, 21.87249],
        [77.19054, 21.86394],
        [77.2121, 21.86888],
        [77.201, 21.87515],
        [77.21095, 21.88401],
        [77.20797, 21.89205],
        [77.21843, 21.9059],
        [77.24669, 21.91371],
        [77.25037, 21.92582],
        [77.25915, 21.9349],
        [77.25865, 21.94184],
        [77.26688, 21.94711],
        [77.27645, 21.96458],
        [77.32419, 21.96951],
        [77.35434, 21.98416],
        [77.35896, 21.99183],
        [77.38099, 21.99168],
        [77.39578, 21.9993],
        [77.39656, 22.01941],
        [77.4068, 22.02496],
        [77.4415, 22.01877],
        [77.46719, 22.01927],
        [77.5053, 22.0299],
        [77.50639, 22.05153],
        [77.5268, 22.0487],
        [77.54077, 22.0348],
        [77.54401, 22.02418],
        [77.58486, 22.01924],
        [77.58911, 22.01287],
        [77.5879, 22.00053],
        [77.56802, 21.99084],
        [77.56711, 21.97494],
        [77.57985, 21.96627],
        [77.58396, 21.94788],
        [77.6317, 21.91704],
        [77.6513, 21.89376],
        [77.65513, 21.87161],
        [77.70868, 21.86204],
        [77.71645, 21.85002],
        [77.73201, 21.84482],
        [77.74901, 21.84581],
        [77.75764, 21.85364],
        [77.77292, 21.85559],
        [77.77415, 21.84617],
        [77.75849, 21.83291],
        [77.75896, 21.81975],
        [77.76746, 21.8056],
        [77.78825, 21.8024],
        [77.78925, 21.79491],
        [77.78186, 21.78445],
        [77.78423, 21.7719],
        [77.80692, 21.76215],
        [77.80784, 21.75844],
        [77.79783, 21.74982],
        [77.79967, 21.74241],
        [77.81281, 21.74455],
        [77.81673, 21.73998],
        [77.81599, 21.73484],
        [77.80922, 21.73284],
        [77.80405, 21.71235],
        [77.81168, 21.71527],
        [77.82332, 21.709],
        [77.85023, 21.71178],
        [77.8546, 21.67595],
        [77.86509, 21.66308],
        [77.86693, 21.64663],
        [77.847, 21.64431],
        [77.83888, 21.61833],
        [77.81392, 21.62023],
        [77.79731, 21.60689],
        [77.79816, 21.60056],
        [77.83316, 21.59247],
        [77.84158, 21.59272],
        [77.84442, 21.60027],
        [77.86398, 21.59782],
        [77.86964, 21.59306],
        [77.8641, 21.57883],
        [77.87542, 21.57143],
        [77.86778, 21.55258],
        [77.8935, 21.54211],
        [77.91106, 21.55296],
        [77.90691, 21.5651],
        [77.91225, 21.57281],
        [77.90835, 21.58322],
        [77.91287, 21.59916],
        [77.92105, 21.59972],
        [77.94941, 21.58017],
        [77.94735, 21.56916],
        [77.95202, 21.55725],
        [77.94506, 21.54843],
        [77.94562, 21.5401],
        [77.97666, 21.53627],
        [77.9648, 21.51762],
        [77.96513, 21.50592],
        [77.954, 21.50406],
        [77.9458, 21.4849],
        [77.96445, 21.48049],
        [77.98011, 21.48203],
        [77.97148, 21.46113],
        [77.97692, 21.44807],
        [77.9867, 21.44079],
        [77.97752, 21.42967],
        [77.98394, 21.42522],
        [78.00504, 21.4297],
        [78.01679, 21.4188],
        [78.0165, 21.4187],
        [78.016, 21.4187],
        [78.0156, 21.4187],
        [78.0152, 21.4187],
        [78.0148, 21.4186],
        [78.0144, 21.4185],
        [78.014, 21.4185],
        [78.0137, 21.4184],
        [78.013, 21.4181],
        [78.0126, 21.418],
        [78.0123, 21.4179],
        [78.0121, 21.4178],
        [78.0118, 21.4177],
        [78.0113, 21.4175],
        [78.01115, 21.41735],
        [78.0111, 21.4173],
        [78.0109, 21.4171],
        [78.0106, 21.4168],
        [78.0103, 21.4166],
        [78.0101, 21.4163],
        [78.0098, 21.416],
        [78.0094, 21.4157],
        [78.0091, 21.4155],
        [78.0088, 21.4153],
        [78.0086, 21.4152],
        [78.0081, 21.415],
        [78.0077, 21.415],
        [78.0071, 21.415],
        [78.0048, 21.4148],
        [78.0037, 21.4148],
        [78.0029, 21.4148],
        [78.002, 21.415],
        [78.00128, 21.41491],
        [78.0012, 21.4149],
        [78.0012, 21.41487],
        [78.0012, 21.4146],
        [78.0009, 21.4144],
        [78.0008, 21.4142],
        [78.0007, 21.4136],
        [78.0001, 21.4134],
        [77.9999, 21.4134],
        [77.9996, 21.4134],
        [77.9988, 21.4126],
        [77.998, 21.4117],
        [77.9946, 21.4091],
        [77.992, 21.4073],
        [77.9905, 21.4061],
        [77.9885, 21.4047],
        [77.9865, 21.4038],
        [77.9842, 21.4029],
        [77.98287, 21.40273],
        [77.9826, 21.4027],
        [77.9804, 21.4025],
        [77.9786, 21.4025],
        [77.9761, 21.4028],
        [77.9736, 21.403],
        [77.9699, 21.4028],
        [77.9689, 21.4028],
        [77.9658, 21.4026],
        [77.9623, 21.4017],
        [77.9543, 21.3996],
        [77.9461, 21.3975],
        [77.9441, 21.397],
        [77.943, 21.3967],
        [77.9428, 21.3966],
        [77.9425, 21.3964],
        [77.9423, 21.3962],
        [77.9421, 21.3959],
        [77.9419, 21.3955],
        [77.9419, 21.3952],
        [77.9409, 21.3925],
        [77.9406, 21.3914],
        [77.9405, 21.39],
        [77.9406, 21.3891],
        [77.9409, 21.3873],
        [77.94101, 21.38655],
        [77.9411, 21.3859],
        [77.9409, 21.3857],
        [77.94068, 21.38573],
        [77.9402, 21.3858],
        [77.9361, 21.3856],
        [77.9342, 21.3856],
        [77.9324, 21.3859],
        [77.93, 21.3862],
        [77.9285, 21.3861],
        [77.92696, 21.38583],
        [77.9268, 21.3858],
        [77.9257, 21.3853],
        [77.9231, 21.384],
        [77.9216, 21.3835],
        [77.9207, 21.3835],
        [77.92005, 21.38338],
        [77.9186, 21.3831],
        [77.9169, 21.3827],
        [77.9156, 21.3823],
        [77.9142, 21.3818],
        [77.9124, 21.3813],
        [77.9112, 21.3807],
        [77.91, 21.3797],
        [77.9086, 21.3789],
        [77.9074, 21.3781],
        [77.9058, 21.3776],
        [77.90371, 21.3774],
        [77.9037, 21.3774],
        [77.9025, 21.3775],
        [77.9004, 21.3774],
        [77.8979, 21.3775],
        [77.8968, 21.3776],
        [77.8935, 21.3776],
        [77.8901, 21.3781],
        [77.8891, 21.3781],
        [77.8878, 21.3781],
        [77.887, 21.3779],
        [77.8862, 21.3775],
        [77.8851, 21.3768],
        [77.8832, 21.3761],
        [77.88296, 21.37618],
        [77.8829, 21.3762],
        [77.8828, 21.3763],
        [77.8828, 21.3772],
        [77.8829, 21.3774],
        [77.883, 21.3775],
        [77.8832, 21.3777],
        [77.8833, 21.3779],
        [77.8833, 21.3781],
        [77.8834, 21.3783],
        [77.8833, 21.3791],
        [77.8834, 21.3794],
        [77.8835, 21.3796],
        [77.8836, 21.3798],
        [77.8838, 21.3803],
        [77.8839, 21.3805],
        [77.884, 21.3807],
        [77.8841, 21.3809],
        [77.884, 21.3817],
        [77.8841, 21.3821],
        [77.8845, 21.3829],
        [77.8845, 21.3831],
        [77.8839, 21.384],
        [77.8837, 21.3841],
        [77.88344, 21.38419],
        [77.88344, 21.38424],
        [77.88327, 21.38427],
        [77.8832, 21.3843],
        [77.8829, 21.3844],
        [77.8808, 21.3849],
        [77.8797, 21.385],
        [77.8789, 21.385],
        [77.8781, 21.3851],
        [77.8767, 21.3856],
        [77.8751, 21.386],
        [77.8724, 21.3867],
        [77.8688, 21.3876],
        [77.8664, 21.3877],
        [77.8644, 21.3876],
        [77.8593, 21.3881],
        [77.8568, 21.3884],
        [77.8566, 21.3885],
        [77.8566, 21.3894],
        [77.8565, 21.3897],
        [77.8562, 21.39],
        [77.8559, 21.3902],
        [77.8556, 21.3904],
        [77.8532, 21.3906],
        [77.8519, 21.3909],
        [77.8508, 21.3913],
        [77.8501, 21.3917],
        [77.8491, 21.3919],
        [77.848, 21.3922],
        [77.8472, 21.3925],
        [77.8462, 21.3929],
        [77.8454, 21.3937],
        [77.8446, 21.395],
        [77.8435, 21.396],
        [77.8422, 21.3968],
        [77.8402, 21.3975],
        [77.8391, 21.3982],
        [77.8384, 21.3987],
        [77.8372, 21.3999],
        [77.8371, 21.4001],
        [77.8369, 21.4002],
        [77.8366, 21.4004],
        [77.8363, 21.4007],
        [77.836, 21.4009],
        [77.8358, 21.401],
        [77.8352, 21.4013],
        [77.8343, 21.4016],
        [77.8334, 21.4018],
        [77.832, 21.4022],
        [77.8309, 21.4023],
        [77.8283, 21.4025],
        [77.8279, 21.4026],
        [77.8276, 21.4028],
        [77.8273, 21.4031],
        [77.827, 21.4037],
        [77.8269, 21.4039],
        [77.8267, 21.404],
        [77.8265, 21.4042],
        [77.8263, 21.4043],
        [77.8249, 21.4051],
        [77.8243, 21.4054],
        [77.8241, 21.4055],
        [77.8239, 21.4057],
        [77.8237, 21.4058],
        [77.8236, 21.406],
        [77.8229, 21.407],
        [77.8228, 21.4071],
        [77.8226, 21.4073],
        [77.8224, 21.4073],
        [77.8222, 21.4073],
        [77.8201, 21.4075],
        [77.8182, 21.4078],
        [77.8179, 21.4077],
        [77.8178, 21.4076],
        [77.8175, 21.4075],
        [77.8173, 21.4075],
        [77.8167, 21.4076],
        [77.816, 21.4077],
        [77.8158, 21.4076],
        [77.8157, 21.4074],
        [77.8154, 21.4074],
        [77.8149, 21.4076],
        [77.8142, 21.4079],
        [77.8137, 21.4086],
        [77.8135, 21.4088],
        [77.8133, 21.409],
        [77.8131, 21.4091],
        [77.8127, 21.4092],
        [77.8124, 21.4092],
        [77.812, 21.4092],
        [77.8117, 21.4092],
        [77.8112, 21.4091],
        [77.8106, 21.4088],
        [77.8096, 21.4083],
        [77.8091, 21.4081],
        [77.8088, 21.408],
        [77.8083, 21.408],
        [77.8076, 21.408],
        [77.8069, 21.4082],
        [77.80687, 21.40821],
        [77.8066, 21.4083],
        [77.8064, 21.4085],
        [77.8062, 21.4086],
        [77.806, 21.4089],
        [77.8058, 21.409],
        [77.8055, 21.4091],
        [77.8041, 21.4092],
        [77.8027, 21.4094],
        [77.8015, 21.4094],
        [77.8013, 21.4093],
        [77.8006, 21.4083],
        [77.8003, 21.4076],
        [77.7999, 21.4071],
        [77.79989, 21.40709],
        [77.79988, 21.40709],
        [77.79988, 21.40707],
        [77.7994, 21.4064],
        [77.7988, 21.4058],
        [77.7983, 21.4045],
        [77.7981, 21.404],
        [77.7978, 21.4026],
        [77.7978, 21.4022],
        [77.7976, 21.4008],
        [77.7976, 21.4005],
        [77.7975, 21.4001],
        [77.7972, 21.3959],
        [77.7972, 21.3945],
        [77.797, 21.3895],
        [77.7969, 21.3893],
        [77.7968, 21.3891],
        [77.79675, 21.38908],
        [77.79651, 21.389],
        [77.7965, 21.389],
        [77.7956, 21.3887],
        [77.7945, 21.3884],
        [77.79359, 21.38831],
        [77.7925, 21.3882],
        [77.7912, 21.388],
        [77.79, 21.3876],
        [77.789, 21.3874],
        [77.7881, 21.3874],
        [77.7872, 21.3872],
        [77.7835, 21.3864],
        [77.7818, 21.3862],
        [77.7787, 21.3855],
        [77.7764, 21.385],
        [77.7744, 21.3846],
        [77.7717, 21.384],
        [77.7705, 21.3836],
        [77.7675, 21.3826],
        [77.765, 21.3816],
        [77.76481, 21.3815],
        [77.7648, 21.3815],
        [77.7646, 21.3815],
        [77.7645, 21.3816],
        [77.7639, 21.3824],
        [77.76323, 21.3833],
        [77.7627, 21.384],
        [77.762, 21.385],
        [77.7618, 21.3851],
        [77.76157, 21.38518],
        [77.76154, 21.38521],
        [77.76131, 21.38516],
        [77.7604, 21.385],
        [77.7589, 21.3847],
        [77.75889, 21.3847],
        [77.7577, 21.3844],
        [77.7548, 21.384],
        [77.7535, 21.3837],
        [77.7515, 21.3833],
        [77.75127, 21.38322],
        [77.75115, 21.3832],
        [77.75114, 21.38319],
        [77.7508, 21.3831],
        [77.7505, 21.3829],
        [77.7502, 21.3827],
        [77.7495, 21.3821],
        [77.7487, 21.3817],
        [77.7483, 21.3816],
        [77.7481, 21.3812],
        [77.7478, 21.3805],
        [77.7469, 21.3802],
        [77.7465, 21.3793],
        [77.7452, 21.377],
        [77.745, 21.3766],
        [77.7447, 21.3756],
        [77.7442, 21.3739],
        [77.7439, 21.3731],
        [77.74225, 21.36981],
        [77.7417, 21.3687],
        [77.7415, 21.368],
        [77.7412, 21.3671],
        [77.7408, 21.3662],
        [77.7407, 21.3656],
        [77.7402, 21.365],
        [77.7401, 21.3647],
        [77.73896, 21.36485],
        [77.7386, 21.3649],
        [77.7382, 21.3646],
        [77.7374, 21.3626],
        [77.7372, 21.3622],
        [77.7368, 21.362],
        [77.7361, 21.362],
        [77.736, 21.362],
        [77.7348, 21.362],
        [77.7341, 21.362],
        [77.7331, 21.3622],
        [77.7325, 21.3623],
        [77.7316, 21.3623],
        [77.7306, 21.3621],
        [77.7296, 21.362],
        [77.7288, 21.3618],
        [77.7273, 21.362],
        [77.7264, 21.362],
        [77.7257, 21.362],
        [77.724, 21.3616],
        [77.7237, 21.3616],
        [77.7231, 21.3615],
        [77.7224, 21.3615],
        [77.7221, 21.3615],
        [77.722, 21.3611],
        [77.7197, 21.3607],
        [77.7188, 21.3602],
        [77.7167, 21.3592],
        [77.7152, 21.3589],
        [77.7141, 21.3585],
        [77.7132, 21.3582],
        [77.7124, 21.3579],
        [77.7115, 21.3577],
        [77.711, 21.3576],
        [77.7102, 21.3574],
        [77.70985, 21.35722],
        [77.7098, 21.3572],
        [77.7094, 21.3579],
        [77.7093, 21.3583],
        [77.7092, 21.3589],
        [77.7091, 21.3596],
        [77.7091, 21.3606],
        [77.7091, 21.361],
        [77.709, 21.3615],
        [77.7087, 21.3623],
        [77.7085, 21.3631],
        [77.7082, 21.3638],
        [77.7082, 21.3644],
        [77.7081, 21.3652],
        [77.708, 21.3657],
        [77.7076, 21.3666],
        [77.7072, 21.3672],
        [77.7071, 21.3676],
        [77.7069, 21.3683],
        [77.7069, 21.3687],
        [77.707, 21.3694],
        [77.7071, 21.3701],
        [77.707, 21.3706],
        [77.7069, 21.371],
        [77.7065, 21.3715],
        [77.7068, 21.3719],
        [77.7071, 21.3726],
        [77.7073, 21.3736],
        [77.7074, 21.3748],
        [77.7075, 21.3753],
        [77.7064, 21.376],
        [77.7055, 21.3766],
        [77.7049, 21.377],
        [77.7043, 21.3768],
        [77.7034, 21.3766],
        [77.7027, 21.376],
        [77.7021, 21.3752],
        [77.70152, 21.37454],
        [77.7013, 21.3743],
        [77.7007, 21.3739],
        [77.7003, 21.3738],
        [77.6994, 21.3738],
        [77.6985, 21.374],
        [77.69776, 21.37409],
        [77.69773, 21.3741],
        [77.6977, 21.3741],
        [77.6971, 21.3746],
        [77.697, 21.375],
        [77.6968, 21.3753],
        [77.6968, 21.37562],
        [77.6968, 21.376],
        [77.6962, 21.377],
        [77.6958, 21.3774],
        [77.69559, 21.37761],
        [77.6955, 21.3777],
        [77.6955, 21.3783],
        [77.6955, 21.3791],
        [77.6955, 21.3795],
        [77.696, 21.381],
        [77.69595, 21.38152],
        [77.6959, 21.3821],
        [77.6958, 21.3829],
        [77.6956, 21.3836],
        [77.6956, 21.3842],
        [77.6963, 21.385],
        [77.6963, 21.3855],
        [77.6963, 21.3857],
        [77.6963, 21.3861],
        [77.6964, 21.3864],
        [77.6964, 21.3873],
        [77.6965, 21.3878],
        [77.6965, 21.3883],
        [77.6969, 21.39],
        [77.69693, 21.39031],
        [77.697, 21.391],
        [77.6971, 21.3923],
        [77.6971, 21.39234],
        [77.6971, 21.3925],
        [77.6967, 21.3933],
        [77.6962, 21.3947],
        [77.6958, 21.3954],
        [77.6956, 21.3959],
        [77.6954, 21.3961],
        [77.6949, 21.3966],
        [77.6943, 21.3967],
        [77.6935, 21.3971],
        [77.69282, 21.39739],
        [77.69278, 21.39744],
        [77.69275, 21.3974],
        [77.6922, 21.3974],
        [77.6919, 21.397],
        [77.6916, 21.3963],
        [77.6912, 21.3956],
        [77.6906, 21.3951],
        [77.6883, 21.3921],
        [77.688, 21.3917],
        [77.6878, 21.3915],
        [77.6876, 21.3907],
        [77.6872, 21.3899],
        [77.6867, 21.3892],
        [77.6864, 21.3886],
        [77.6837, 21.3843],
        [77.6834, 21.3837],
        [77.6833, 21.3834],
        [77.6827, 21.3828],
        [77.6822, 21.3824],
        [77.6815, 21.3814],
        [77.6807, 21.3808],
        [77.68, 21.3796],
        [77.6789, 21.3768],
        [77.6785, 21.3763],
        [77.6781, 21.3759],
        [77.6768, 21.3746],
        [77.6761, 21.374],
        [77.6753, 21.3735],
        [77.674, 21.3724],
        [77.6732, 21.3718],
        [77.6724, 21.3711],
        [77.6712, 21.3703],
        [77.6705, 21.3697],
        [77.6701, 21.3692],
        [77.66969, 21.36887],
        [77.6696, 21.3688],
        [77.6693, 21.3689],
        [77.6693, 21.36913],
        [77.6693, 21.3692],
        [77.6686, 21.3693],
        [77.6683, 21.3699],
        [77.6681, 21.3704],
        [77.66804, 21.37069],
        [77.668, 21.3709],
        [77.6679, 21.3715],
        [77.6673, 21.3722],
        [77.6671, 21.3726],
        [77.667, 21.3728],
        [77.6661, 21.3731],
        [77.6658, 21.3732],
        [77.665, 21.3739],
        [77.665, 21.3742],
        [77.66451, 21.37508],
        [77.66454, 21.37521],
        [77.6647, 21.3756],
        [77.665, 21.376],
        [77.6654, 21.3763],
        [77.6657, 21.3775],
        [77.666, 21.3778],
        [77.666, 21.378],
        [77.6659, 21.3782],
        [77.6658, 21.3788],
        [77.6659, 21.3792],
        [77.666, 21.3795],
        [77.6662, 21.3801],
        [77.6666, 21.3812],
        [77.6667, 21.3818],
        [77.6668, 21.3823],
        [77.6668, 21.383],
        [77.6669, 21.3834],
        [77.6667, 21.3836],
        [77.6667, 21.38403],
        [77.66671, 21.38407],
        [77.6667, 21.38407],
        [77.6667, 21.3841],
        [77.6661, 21.3848],
        [77.6657, 21.3849],
        [77.6654, 21.3849],
        [77.6644, 21.3852],
        [77.6639, 21.3852],
        [77.6634, 21.3853],
        [77.6625, 21.3854],
        [77.6619, 21.3855],
        [77.6603, 21.3861],
        [77.6592, 21.3863],
        [77.6584, 21.3865],
        [77.6582, 21.3865],
        [77.6573, 21.386],
        [77.65663, 21.386],
        [77.65632, 21.38606],
        [77.6562, 21.3861],
        [77.65612, 21.38616],
        [77.6558, 21.3864],
        [77.6553, 21.3867],
        [77.655, 21.3872],
        [77.6546, 21.3875],
        [77.6542, 21.388],
        [77.6541, 21.3883],
        [77.654, 21.3887],
        [77.654, 21.3893],
        [77.6542, 21.3904],
        [77.6542, 21.3908],
        [77.6542, 21.391],
        [77.653, 21.3916],
        [77.6527, 21.3917],
        [77.6521, 21.3918],
        [77.6518, 21.3919],
        [77.6511, 21.392],
        [77.6505, 21.392],
        [77.6499, 21.392],
        [77.6493, 21.392],
        [77.6489, 21.3918],
        [77.6488, 21.3914],
        [77.6478, 21.3901],
        [77.6473, 21.3897],
        [77.6469, 21.3895],
        [77.6465, 21.3892],
        [77.6456, 21.3887],
        [77.6453, 21.3883],
        [77.6451, 21.3879],
        [77.6447, 21.3876],
        [77.64412, 21.38702],
        [77.64389, 21.3869],
        [77.6438, 21.3869],
        [77.6428, 21.3869],
        [77.6426, 21.3869],
        [77.6417, 21.3871],
        [77.6413, 21.3873],
        [77.6405, 21.3878],
        [77.6404, 21.3881],
        [77.6394, 21.3887],
        [77.6391, 21.3887],
        [77.638, 21.3883],
        [77.6367, 21.3882],
        [77.6362, 21.3883],
        [77.6354, 21.3885],
        [77.6347, 21.3886],
        [77.634, 21.3886],
        [77.6328, 21.3888],
        [77.6321, 21.3887],
        [77.6312, 21.3887],
        [77.6298, 21.3886],
        [77.6295, 21.3884],
        [77.6255, 21.3874],
        [77.6246, 21.3871],
        [77.6233, 21.3868],
        [77.6222, 21.3868],
        [77.6215, 21.3868],
        [77.6206, 21.3868],
        [77.6196, 21.3867],
        [77.6188, 21.3868],
        [77.6175, 21.3869],
        [77.6172, 21.3869],
        [77.617, 21.3874],
        [77.6165, 21.388],
        [77.6163, 21.3884],
        [77.6158, 21.389],
        [77.6156, 21.3895],
        [77.6153, 21.3901],
        [77.6144, 21.3915],
        [77.6133, 21.3922],
        [77.61207, 21.39239],
        [77.612, 21.3924],
        [77.6112, 21.3921],
        [77.6103, 21.3917],
        [77.6097, 21.3914],
        [77.6089, 21.3912],
        [77.6081, 21.3908],
        [77.60672, 21.3907],
        [77.6067, 21.3907],
        [77.6063, 21.3906],
        [77.6053, 21.3904],
        [77.6046, 21.3902],
        [77.6035, 21.39],
        [77.6034, 21.38961],
        [77.6034, 21.3896],
        [77.6035, 21.3891],
        [77.6039, 21.3887],
        [77.6044, 21.3876],
        [77.6045, 21.3868],
        [77.605, 21.3847],
        [77.605, 21.3832],
        [77.605, 21.3814],
        [77.6053, 21.3801],
        [77.6056, 21.3776],
        [77.6056, 21.376],
        [77.6056, 21.3755],
        [77.6059, 21.3744],
        [77.6061, 21.3732],
        [77.6065, 21.3722],
        [77.6071, 21.3716],
        [77.608, 21.3708],
        [77.6083, 21.3702],
        [77.60835, 21.37006],
        [77.6084, 21.3699],
        [77.6082, 21.3689],
        [77.6082, 21.3678],
        [77.6081, 21.3669],
        [77.6078, 21.3646],
        [77.6073, 21.3641],
        [77.6067, 21.3635],
        [77.6061, 21.3631],
        [77.60585, 21.36268],
        [77.6058, 21.3626],
        [77.6051, 21.3624],
        [77.6046, 21.3623],
        [77.604, 21.3623],
        [77.6032, 21.3623],
        [77.6025, 21.3622],
        [77.6011, 21.3624],
        [77.6008, 21.3624],
        [77.5973, 21.3628],
        [77.5968, 21.3628],
        [77.5959, 21.3628],
        [77.5954, 21.3627],
        [77.5947, 21.3631],
        [77.5945, 21.3633],
        [77.5937, 21.3641],
        [77.5929, 21.3644],
        [77.5925, 21.3647],
        [77.5918, 21.3649],
        [77.5915, 21.3649],
        [77.5911, 21.3646],
        [77.5908, 21.3642],
        [77.5904, 21.3639],
        [77.5897, 21.3637],
        [77.5894, 21.3635],
        [77.5888, 21.3634],
        [77.5881, 21.3631],
        [77.5877, 21.3628],
        [77.58742, 21.36252],
        [77.58738, 21.36252],
        [77.5872, 21.3627],
        [77.5871, 21.3631],
        [77.587, 21.3636],
        [77.5867, 21.3641],
        [77.5866, 21.3644],
        [77.5864, 21.3649],
        [77.5861, 21.3655],
        [77.5858, 21.366],
        [77.5855, 21.3663],
        [77.5851, 21.3667],
        [77.5849, 21.367],
        [77.5845, 21.3672],
        [77.5844, 21.3668],
        [77.5841, 21.3666],
        [77.5837, 21.3665],
        [77.5832, 21.3666],
        [77.5819, 21.3672],
        [77.5816, 21.3673],
        [77.5812, 21.3674],
        [77.581, 21.3675],
        [77.5806, 21.3677],
        [77.5799, 21.3679],
        [77.5796, 21.3681],
        [77.5789, 21.3684],
        [77.5784, 21.3684],
        [77.5778, 21.3686],
        [77.5772, 21.3688],
        [77.5765, 21.369],
        [77.5757, 21.3693],
        [77.5751, 21.3696],
        [77.5746, 21.3699],
        [77.57453, 21.36997],
        [77.5742, 21.3703],
        [77.5737, 21.3705],
        [77.5733, 21.3707],
        [77.5729, 21.3707],
        [77.5724, 21.3706],
        [77.57237, 21.37059],
        [77.572, 21.3704],
        [77.5717, 21.37],
        [77.5716, 21.3697],
        [77.5714, 21.369],
        [77.5711, 21.3687],
        [77.5708, 21.3685],
        [77.5704, 21.3685],
        [77.5696, 21.3684],
        [77.569, 21.3683],
        [77.5685, 21.3682],
        [77.568, 21.3683],
        [77.5677, 21.3685],
        [77.567, 21.3689],
        [77.5668, 21.3689],
        [77.566, 21.3689],
        [77.5656, 21.3689],
        [77.5649, 21.369],
        [77.5644, 21.3691],
        [77.5638, 21.3691],
        [77.5635, 21.3694],
        [77.56333, 21.36957],
        [77.5633, 21.3696],
        [77.5632, 21.3699],
        [77.5632, 21.3704],
        [77.5631, 21.3712],
        [77.563, 21.3716],
        [77.5629, 21.3722],
        [77.5629, 21.3725],
        [77.5627, 21.3731],
        [77.5627, 21.3733],
        [77.5628, 21.3746],
        [77.5627, 21.375],
        [77.5621, 21.3762],
        [77.562, 21.3766],
        [77.5608, 21.3775],
        [77.5603, 21.3782],
        [77.5599, 21.3788],
        [77.5598, 21.3791],
        [77.5593, 21.3796],
        [77.5591, 21.3804],
        [77.5585, 21.381],
        [77.5572, 21.3827],
        [77.557, 21.3829],
        [77.5567, 21.3834],
        [77.5567, 21.3839],
        [77.5574, 21.3858],
        [77.5578, 21.3864],
        [77.5583, 21.3872],
        [77.5585, 21.3878],
        [77.5589, 21.3886],
        [77.5591, 21.3892],
        [77.5598, 21.3904],
        [77.5625, 21.3902],
        [77.5625, 21.3904],
        [77.5626, 21.3906],
        [77.5627, 21.391],
        [77.5629, 21.3913],
        [77.5633, 21.393],
        [77.5632, 21.3934],
        [77.563, 21.3943],
        [77.56261, 21.39508],
        [77.56264, 21.39515],
        [77.56245, 21.39528],
        [77.56245, 21.39528],
        [77.5621, 21.3957],
        [77.5614, 21.3966],
        [77.5605, 21.3975],
        [77.5601, 21.398],
        [77.5596, 21.3989],
        [77.559, 21.3995],
        [77.5585, 21.4],
        [77.5577, 21.4007],
        [77.5573, 21.4009],
        [77.5551, 21.4026],
        [77.5546, 21.403],
        [77.554, 21.4032],
        [77.5535, 21.4035],
        [77.5527, 21.4039],
        [77.5518, 21.4043],
        [77.5515, 21.4044],
        [77.55, 21.4049],
        [77.5494, 21.4051],
        [77.5487, 21.4054],
        [77.5479, 21.4054],
        [77.54791, 21.40543],
        [77.5481, 21.4062],
        [77.5482, 21.4068],
        [77.5482, 21.4077],
        [77.5483, 21.4093],
        [77.5483, 21.40951],
        [77.5483, 21.41],
        [77.5484, 21.41099],
        [77.5484, 21.411],
        [77.5477, 21.4115],
        [77.5464, 21.4114],
        [77.5454, 21.4113],
        [77.5439, 21.4112],
        [77.5433, 21.4111],
        [77.5427, 21.4114],
        [77.5426, 21.4117],
        [77.5419, 21.412],
        [77.541, 21.4131],
        [77.5407, 21.4133],
        [77.5401, 21.4139],
        [77.5397, 21.4144],
        [77.5381, 21.4159],
        [77.5377, 21.4165],
        [77.5366, 21.4171],
        [77.53648, 21.41718],
        [77.5357, 21.4177],
        [77.5354, 21.4181],
        [77.5346, 21.4186],
        [77.5334, 21.419],
        [77.5329, 21.4191],
        [77.532, 21.419],
        [77.5317, 21.4189],
        [77.5312, 21.418],
        [77.5307, 21.4174],
        [77.5304, 21.4165],
        [77.5298, 21.4157],
        [77.5294, 21.4149],
        [77.5295, 21.4128],
        [77.5294, 21.4121],
        [77.5292, 21.4115],
        [77.5288, 21.4104],
        [77.5285, 21.4098],
        [77.5283, 21.4088],
        [77.5283, 21.4079],
        [77.5283, 21.4062],
        [77.5272, 21.4047],
        [77.5269, 21.4043],
        [77.5263, 21.404],
        [77.5255, 21.4035],
        [77.525, 21.4033],
        [77.5248, 21.4028],
        [77.5248, 21.402],
        [77.5248, 21.4012],
        [77.5251, 21.4004],
        [77.5257, 21.3971],
        [77.5256, 21.3966],
        [77.5256, 21.3958],
        [77.52533, 21.39479],
        [77.52528, 21.39464],
        [77.525, 21.3939],
        [77.5245, 21.393],
        [77.5242, 21.3924],
        [77.5236, 21.3897],
        [77.5236, 21.3894],
        [77.5235, 21.3889],
        [77.5233, 21.3884],
        [77.5228, 21.3879],
        [77.5224, 21.3877],
        [77.5219, 21.3875],
        [77.521, 21.387],
        [77.5206, 21.3868],
        [77.5203, 21.3863],
        [77.5199, 21.3855],
        [77.5186, 21.3841],
        [77.5183, 21.3841],
        [77.5177, 21.3842],
        [77.5173, 21.3842],
        [77.517, 21.3841],
        [77.5167, 21.3833],
        [77.5164, 21.3822],
        [77.5162, 21.3808],
        [77.5156, 21.3783],
        [77.5152, 21.3771],
        [77.5149, 21.3762],
        [77.5146, 21.3761],
        [77.5143, 21.376],
        [77.5139, 21.3759],
        [77.5135, 21.3758],
        [77.5131, 21.3758],
        [77.5121, 21.3759],
        [77.51139, 21.37599],
        [77.5113, 21.376],
        [77.5106, 21.3759],
        [77.5102, 21.3759],
        [77.51014, 21.3759],
        [77.5094, 21.3759],
        [77.5085, 21.376],
        [77.5078, 21.3761],
        [77.5066, 21.376],
        [77.5058, 21.3761],
        [77.5054, 21.3763],
        [77.5048, 21.3766],
        [77.5043, 21.3767],
        [77.504, 21.3768],
        [77.5036, 21.3768],
        [77.5031, 21.3769],
        [77.5028, 21.3769],
        [77.5025, 21.3769],
        [77.502, 21.3769],
        [77.5016, 21.3769],
        [77.5013, 21.3769],
        [77.501, 21.3768],
        [77.5006, 21.3768],
        [77.4999, 21.3765],
        [77.4987, 21.3756],
        [77.4985, 21.3754],
        [77.4973, 21.3752],
        [77.4967, 21.3751],
        [77.4962, 21.375],
        [77.4957, 21.3749],
        [77.4946, 21.3747],
        [77.4941, 21.3746],
        [77.4935, 21.3745],
        [77.493, 21.3744],
        [77.4925, 21.3742],
        [77.492, 21.3742],
        [77.4916, 21.3742],
        [77.4911, 21.3742],
        [77.4907, 21.3743],
        [77.4902, 21.3743],
        [77.4898, 21.3743],
        [77.4893, 21.3743],
        [77.4889, 21.3743],
        [77.4884, 21.3743],
        [77.4882, 21.3743],
        [77.488, 21.3745],
        [77.4881, 21.3748],
        [77.48815, 21.37487],
        [77.4892, 21.3765],
        [77.4893, 21.3768],
        [77.4897, 21.3774],
        [77.4898, 21.3776],
        [77.4899, 21.3779],
        [77.4898, 21.3781],
        [77.4897, 21.3785],
        [77.4894, 21.3791],
        [77.4882, 21.3813],
        [77.488, 21.38175],
        [77.4873, 21.3833],
        [77.487, 21.3846],
        [77.487, 21.3857],
        [77.4871, 21.3871],
        [77.4872, 21.3882],
        [77.4875, 21.3909],
        [77.4876, 21.3919],
        [77.4876, 21.3963],
        [77.4877, 21.3973],
        [77.48765, 21.39776],
        [77.4873, 21.4007],
        [77.4875, 21.4051],
        [77.4875, 21.406],
        [77.4875, 21.4062],
        [77.48746, 21.40624],
        [77.4873, 21.4064],
        [77.4867, 21.4071],
        [77.4853, 21.4095],
        [77.4847, 21.4108],
        [77.4838, 21.4126],
        [77.4832, 21.4138],
        [77.4831, 21.414],
        [77.483, 21.4143],
        [77.4828, 21.4147],
        [77.4827, 21.4149],
        [77.4826, 21.4151],
        [77.4824, 21.4153],
        [77.4823, 21.4155],
        [77.4821, 21.4158],
        [77.4819, 21.416],
        [77.4817, 21.4162],
        [77.4816, 21.4164],
        [77.4806, 21.4182],
        [77.4802, 21.419],
        [77.4796, 21.4204],
        [77.4795, 21.4213],
        [77.4789, 21.4231],
        [77.4789, 21.4233],
        [77.4788, 21.4235],
        [77.4788, 21.4237],
        [77.4787, 21.4239],
        [77.4787, 21.4241],
        [77.4786, 21.4243],
        [77.4786, 21.4245],
        [77.4786, 21.4247],
        [77.4785, 21.4249],
        [77.4785, 21.4256],
        [77.4784, 21.4263],
        [77.478, 21.4275],
        [77.4778, 21.4278],
        [77.4777, 21.428],
        [77.4775, 21.4283],
        [77.4773, 21.4285],
        [77.4771, 21.4287],
        [77.4769, 21.429],
        [77.4768, 21.4293],
        [77.4767, 21.4296],
        [77.4767, 21.43],
        [77.4766, 21.4314],
        [77.4766, 21.4316],
        [77.4765, 21.4318],
        [77.4764, 21.432],
        [77.4763, 21.4322],
        [77.4749, 21.4332],
        [77.4739, 21.4342],
        [77.4721, 21.4359],
        [77.472, 21.4361],
        [77.4719, 21.4363],
        [77.4719, 21.4365],
        [77.4735, 21.4424],
        [77.4736, 21.4428],
        [77.4737, 21.4432],
        [77.4738, 21.4436],
        [77.4739, 21.444],
        [77.474, 21.4445],
        [77.4741, 21.4449],
        [77.4742, 21.4453],
        [77.4743, 21.4457],
        [77.4744, 21.4462],
        [77.4744, 21.4464],
        [77.4744, 21.4466],
        [77.4743, 21.4468],
        [77.4741, 21.447],
        [77.4739, 21.4471],
        [77.4736, 21.4473],
        [77.4734, 21.4475],
        [77.4732, 21.4477],
        [77.47301, 21.44789],
        [77.473, 21.4479],
        [77.4728, 21.4481],
        [77.4726, 21.4483],
        [77.4724, 21.4485],
        [77.4722, 21.4488],
        [77.4722, 21.4491],
        [77.4721, 21.4494],
        [77.4721, 21.4497],
        [77.4721, 21.4501],
        [77.4721, 21.4504],
        [77.4722, 21.4508],
        [77.4724, 21.4511],
        [77.4727, 21.4513],
        [77.473, 21.4515],
        [77.4732, 21.4516],
        [77.4733, 21.4518],
        [77.4734, 21.452],
        [77.4734, 21.4522],
        [77.4734, 21.45238],
        [77.4734, 21.4525],
        [77.4734, 21.4528],
        [77.4734, 21.4531],
        [77.47349, 21.45336],
        [77.4735, 21.4534],
        [77.4736, 21.4537],
        [77.4737, 21.454],
        [77.4737, 21.4542],
        [77.4737, 21.4544],
        [77.4736, 21.4546],
        [77.4734, 21.4549],
        [77.4731, 21.4551],
        [77.4728, 21.4554],
        [77.4721, 21.456],
        [77.4714, 21.4567],
        [77.471, 21.457],
        [77.4707, 21.4572],
        [77.4703, 21.4575],
        [77.4699, 21.4578],
        [77.4696, 21.458],
        [77.4693, 21.4582],
        [77.4689, 21.4584],
        [77.4686, 21.4586],
        [77.4682, 21.4588],
        [77.4679, 21.459],
        [77.4675, 21.4591],
        [77.4671, 21.4592],
        [77.4666, 21.4594],
        [77.4664, 21.4595],
        [77.4661, 21.4597],
        [77.4659, 21.4598],
        [77.4657, 21.46],
        [77.4647, 21.4611],
        [77.462, 21.4645],
        [77.4602, 21.4664],
        [77.4601, 21.4665],
        [77.4599, 21.4665],
        [77.45986, 21.4665],
        [77.4595, 21.4665],
        [77.4593, 21.4665],
        [77.4591, 21.4666],
        [77.4589, 21.4666],
        [77.4587, 21.4667],
        [77.45861, 21.46674],
        [77.4585, 21.4668],
        [77.45832, 21.4668],
        [77.4582, 21.4668],
        [77.4579, 21.4668],
        [77.4576, 21.4667],
        [77.4574, 21.4666],
        [77.4571, 21.4664],
        [77.4568, 21.4663],
        [77.4564, 21.4663],
        [77.4561, 21.4663],
        [77.4558, 21.4664],
        [77.4553, 21.4668],
        [77.455, 21.467],
        [77.4547, 21.4671],
        [77.4544, 21.4671],
        [77.4541, 21.467],
        [77.4538, 21.467],
        [77.4536, 21.467],
        [77.4534, 21.467],
        [77.4531, 21.467],
        [77.4529, 21.4671],
        [77.4526, 21.4672],
        [77.4524, 21.4672],
        [77.451, 21.4673],
        [77.4508, 21.4674],
        [77.4506, 21.4676],
        [77.4504, 21.4677],
        [77.4502, 21.4678],
        [77.4499, 21.4679],
        [77.4497, 21.468],
        [77.4495, 21.468],
        [77.4492, 21.4683],
        [77.4489, 21.4684],
        [77.4485, 21.4686],
        [77.4482, 21.4687],
        [77.4478, 21.4687],
        [77.4475, 21.4688],
        [77.4471, 21.4688],
        [77.4468, 21.4689],
        [77.4464, 21.469],
        [77.4461, 21.4691],
        [77.4458, 21.4692],
        [77.4454, 21.4693],
        [77.4451, 21.4694],
        [77.44498, 21.4694],
        [77.4447, 21.4694],
        [77.4443, 21.4694],
        [77.444, 21.4695],
        [77.4436, 21.4695],
        [77.4433, 21.4694],
        [77.4431, 21.4695],
        [77.4429, 21.4695],
        [77.4427, 21.4696]
      ]
    ]
  }
}
