{
  "type": "Feature",
  "id": "MP-AC-144",
  "properties": {
    "stateName": "MADHYA PRADESH",
    "stateCode": "MP",
    "districtName": null,
    "acNo": 144,
    "acName": "Vidisha",
    "seatType": null,
    "pcNo": null,
    "pcName": null,
    "quality": "unverified",
    "sources": [
      "TBD"
    ]
  },
  "geometry": {
    "type": "Polygon",
    "coordinates": [
      [
        [77.85874, 23.72364],
        [77.90038, 23.71941],
        [77.92156, 23.70816],
        [77.93291, 23.7129],
        [77.95074, 23.71204],
        [77.96805, 23.69513],
        [78.00261, 23.69539],
        [78.00876, 23.68482],
        [78.01274, 23.6916],
        [78.0218, 23.67289],
        [78.02133, 23.66338],
        [78.00596, 23.65151],
        [78.00936, 23.64084],
        [78.01814, 23.63739],
        [78.01932, 23.61441],
        [78.02588, 23.60657],
        [78.04515, 23.60711],
        [78.04873, 23.59815],
        [78.04701, 23.57348],
        [78.03425, 23.55711],
        [78.03783, 23.54121],
        [78.02765, 23.53163],
        [78.05836, 23.51146],
        [78.05017, 23.50792],
        [78.04911, 23.50139],
        [78.06504, 23.49717],
        [78.0638, 23.47751],
        [78.07351, 23.46817],
        [78.07927, 23.45252],
        [78.05536, 23.45746],
        [78.04555, 23.46302],
        [78.04408, 23.46884],
        [78.0307, 23.46719],
        [78.01218, 23.47245],
        [77.99874, 23.46705],
        [77.997, 23.45338],
        [77.98868, 23.45297],
        [77.9971, 23.43132],
        [77.99394, 23.42259],
        [77.99727, 23.41333],
        [78.01516, 23.40632],
        [78.02583, 23.40771],
        [78.03159, 23.4007],
        [78.04811, 23.40263],
        [78.04749, 23.39123],
        [78.05782, 23.38732],
        [78.05083, 23.37559],
        [78.05235, 23.36405],
        [78.04006, 23.36246],
        [78.02119, 23.34367],
        [78.0147, 23.35125],
        [78.00683, 23.35143],
        [78.00249, 23.36409],
        [77.98935, 23.36397],
        [77.96338, 23.37472],
        [77.95818, 23.37276],
        [77.95254, 23.39406],
        [77.95678, 23.39781],
        [77.95808, 23.42207],
        [77.93017, 23.42102],
        [77.9259, 23.43307],
        [77.91599, 23.43563],
        [77.91309, 23.44894],
        [77.89437, 23.44788],
        [77.89109, 23.44338],
        [77.88058, 23.44498],
        [77.87028, 23.43608],
        [77.86188, 23.4408],
        [77.84008, 23.44204],
        [77.83639, 23.45271],
        [77.8289, 23.4582],
        [77.81122, 23.45571],
        [77.78634, 23.48716],
        [77.77268, 23.48532],
        [77.77188, 23.50261],
        [77.76457, 23.50119],
        [77.75644, 23.50758],
        [77.76407, 23.5222],
        [77.7399, 23.52672],
        [77.7344, 23.53706],
        [77.72145, 23.53695],
        [77.72002, 23.53155],
        [77.71229, 23.54221],
        [77.71085, 23.5608],
        [77.72758, 23.57253],
        [77.73234, 23.58757],
        [77.76271, 23.59925],
        [77.76703, 23.59268],
        [77.78857, 23.60134],
        [77.79244, 23.6178],
        [77.80122, 23.61855],
        [77.80447, 23.63069],
        [77.81317, 23.6267],
        [77.8302, 23.62782],
        [77.83273, 23.64997],
        [77.82243, 23.65389],
        [77.8172, 23.6782],
        [77.82338, 23.69929],
        [77.80921, 23.71613],
        [77.80101, 23.74242],
        [77.82623, 23.73938],
        [77.85874, 23.72364]
      ]
    ]
  }
}
