{
  "type": "Feature",
  "id": "MP-AC-148",
  "properties": {
    "stateName": "MADHYA PRADESH",
    "stateCode": "MP",
    "districtName": null,
    "acNo": 148,
    "acName": "Shamshabad",
    "seatType": null,
    "pcNo": null,
    "pcName": null,
    "quality": "unverified",
    "sources": [
      "TBD"
    ]
  },
  "geometry": {
    "type": "Polygon",
    "coordinates": [
      [
        [77.76048, 23.99354],
        [77.76087, 23.98118],
        [77.78637, 23.98337],
        [77.79526, 23.9803],
        [77.80732, 23.94515],
        [77.82185, 23.94215],
        [77.81409, 23.92815],
        [77.82028, 23.91819],
        [77.85437, 23.9069],
        [77.84606, 23.87389],
        [77.80725, 23.88372],
        [77.81271, 23.87518],
        [77.82958, 23.86792],
        [77.84597, 23.84347],
        [77.81372, 23.78326],
        [77.80101, 23.74242],
        [77.80921, 23.71613],
        [77.82338, 23.69929],
        [77.8172, 23.6782],
        [77.82243, 23.65389],
        [77.83273, 23.64997],
        [77.8302, 23.62782],
        [77.81317, 23.6267],
        [77.80447, 23.63069],
        [77.80122, 23.61855],
        [77.79244, 23.6178],
        [77.78857, 23.60134],
        [77.76703, 23.59268],
        [77.76271, 23.59925],
        [77.73234, 23.58757],
        [77.72758, 23.57253],
        [77.71085, 23.5608],
        [77.71229, 23.54221],
        [77.72002, 23.53155],
        [77.71705, 23.5238],
        [77.70013, 23.52052],
        [77.70159, 23.53205],
        [77.69149, 23.53436],
        [77.68303, 23.53093],
        [77.68344, 23.5242],
        [77.67693, 23.51856],
        [77.66187, 23.5243],
        [77.66157, 23.53461],
        [77.65513, 23.53584],
        [77.65155, 23.54408],
        [77.64146, 23.54389],
        [77.63972, 23.54996],
        [77.62594, 23.55254],
        [77.62234, 23.54388],
        [77.6253, 23.52692],
        [77.64761, 23.50939],
        [77.65045, 23.50207],
        [77.64515, 23.49318],
        [77.65026, 23.48498],
        [77.64556, 23.47792],
        [77.63605, 23.47516],
        [77.63472, 23.46894],
        [77.62404, 23.46514],
        [77.60356, 23.47832],
        [77.60065, 23.48725],
        [77.56921, 23.49046],
        [77.56549, 23.50549],
        [77.5429, 23.50076],
        [77.53291, 23.50486],
        [77.51977, 23.50311],
        [77.51767, 23.50739],
        [77.51762, 23.51382],
        [77.50515, 23.52404],
        [77.50413, 23.54492],
        [77.51062, 23.54919],
        [77.50636, 23.56938],
        [77.55443, 23.59079],
        [77.56225, 23.60371],
        [77.55865, 23.61219],
        [77.56542, 23.61092],
        [77.57365, 23.64768],
        [77.60712, 23.6595],
        [77.62984, 23.65803],
        [77.64832, 23.69255],
        [77.64814, 23.71294],
        [77.64002, 23.70742],
        [77.63484, 23.7142],
        [77.62883, 23.70849],
        [77.61803, 23.71065],
        [77.61464, 23.71345],
        [77.61686, 23.72485],
        [77.60141, 23.72652],
        [77.61007, 23.74748],
        [77.59126, 23.7511],
        [77.57328, 23.76674],
        [77.5629, 23.76571],
        [77.56297, 23.76013],
        [77.55488, 23.75512],
        [77.54048, 23.7552],
        [77.52512, 23.7627],
        [77.51544, 23.76161],
        [77.49954, 23.77532],
        [77.47455, 23.75641],
        [77.45425, 23.76124],
        [77.45434, 23.77182],
        [77.44567, 23.77792],
        [77.43767, 23.77407],
        [77.4337, 23.78076],
        [77.4365, 23.78805],
        [77.44637, 23.79136],
        [77.44519, 23.79477],
        [77.42722, 23.80352],
        [77.41506, 23.79994],
        [77.40543, 23.81979],
        [77.4073, 23.82718],
        [77.40135, 23.82556],
        [77.38938, 23.83359],
        [77.39318, 23.83974],
        [77.39955, 23.83668],
        [77.40159, 23.84733],
        [77.39814, 23.85127],
        [77.41891, 23.85976],
        [77.44608, 23.88096],
        [77.47461, 23.92356],
        [77.49315, 23.93333],
        [77.50972, 23.93616],
        [77.53095, 23.95048],
        [77.54231, 23.95212],
        [77.54558, 23.97729],
        [77.56443, 23.99787],
        [77.57889, 23.99428],
        [77.5887, 23.98345],
        [77.60947, 23.97435],
        [77.62487, 23.97894],
        [77.63617, 23.96651],
        [77.67344, 23.97804],
        [77.67759, 23.9646],
        [77.68817, 23.96131],
        [77.70985, 23.97026],
        [77.70455, 23.98819],
        [77.71404, 24.01825],
        [77.72504, 24.02308],
        [77.76015, 24.01288],
        [77.76805, 24.00052],
        [77.76048, 23.99354]
      ]
    ]
  }
}
