{
  "type": "Feature",
  "id": "MP-AC-173",
  "properties": {
    "stateName": "MADHYA PRADESH",
    "stateCode": "MP",
    "districtName": null,
    "acNo": 173,
    "acName": "Khategaon",
    "seatType": null,
    "pcNo": null,
    "pcName": null,
    "quality": "unverified",
    "sources": [
      "TBD"
    ]
  },
  "geometry": {
    "type": "Polygon",
    "coordinates": [
      [
        [76.8498, 22.86827],
        [76.8573, 22.86758],
        [76.85196, 22.87368],
        [76.85649, 22.87665],
        [76.86114, 22.86674],
        [76.86454, 22.86952],
        [76.86812, 22.86403],
        [76.86791, 22.87097],
        [76.86288, 22.87395],
        [76.86856, 22.87512],
        [76.86864, 22.88387],
        [76.87711, 22.86411],
        [76.88106, 22.86962],
        [76.88506, 22.86831],
        [76.87789, 22.87865],
        [76.8822, 22.87748],
        [76.87943, 22.88209],
        [76.88404, 22.89062],
        [76.88716, 22.87585],
        [76.88832, 22.8807],
        [76.89509, 22.87992],
        [76.89495, 22.87646],
        [76.89837, 22.8896],
        [76.9028, 22.88802],
        [76.90091, 22.87782],
        [76.90615, 22.87071],
        [76.89579, 22.86694],
        [76.91664, 22.87445],
        [76.91475, 22.86205],
        [76.90742, 22.85909],
        [76.91589, 22.86175],
        [76.91613, 22.85682],
        [76.92009, 22.86512],
        [76.92482, 22.86445],
        [76.91415, 22.84054],
        [76.92121, 22.83071],
        [76.9107, 22.82973],
        [76.92942, 22.82228],
        [76.92981, 22.82872],
        [76.91941, 22.8412],
        [76.92722, 22.86018],
        [76.92709, 22.85277],
        [76.93167, 22.85368],
        [76.92817, 22.86487],
        [76.93631, 22.8611],
        [76.92904, 22.8674],
        [76.93461, 22.87289],
        [76.94098, 22.87305],
        [76.94433, 22.86268],
        [76.94302, 22.86982],
        [76.94902, 22.87743],
        [76.95172, 22.8712],
        [76.95641, 22.87384],
        [76.95198, 22.86162],
        [76.95534, 22.86029],
        [76.95809, 22.86862],
        [76.96164, 22.86358],
        [76.9673, 22.86453],
        [76.96784, 22.85925],
        [76.96789, 22.8636],
        [76.97881, 22.86602],
        [76.98471, 22.87442],
        [76.99346, 22.86899],
        [76.99201, 22.87763],
        [77.00305, 22.87695],
        [77.00686, 22.8594],
        [77.00368, 22.84412],
        [77.01041, 22.8319],
        [77.00571, 22.81422],
        [77.01124, 22.80676],
        [77.01124, 22.79238],
        [77.02305, 22.78472],
        [77.02919, 22.77079],
        [77.02809, 22.75728],
        [77.01813, 22.75232],
        [77.01709, 22.74604],
        [77.02149, 22.72942],
        [77.03679, 22.72758],
        [77.03943, 22.72317],
        [77.04033, 22.70444],
        [77.04496, 22.6978],
        [77.03907, 22.69259],
        [77.03314, 22.69421],
        [77.03081, 22.68589],
        [77.04442, 22.66483],
        [77.04599, 22.67171],
        [77.05545, 22.67822],
        [77.06899, 22.65778],
        [77.08958, 22.65136],
        [77.08666, 22.61942],
        [77.10122, 22.6143],
        [77.11615, 22.59782],
        [77.1261, 22.59764],
        [77.12632, 22.58578],
        [77.1323, 22.57689],
        [77.12237, 22.56332],
        [77.12974, 22.55542],
        [77.10079, 22.52746],
        [77.08019, 22.51001],
        [77.03235, 22.49463],
        [76.97777, 22.48954],
        [76.92997, 22.49036],
        [76.90399, 22.48367],
        [76.8617, 22.45786],
        [76.81932, 22.4445],
        [76.79539, 22.42925],
        [76.79593, 22.44179],
        [76.78033, 22.43805],
        [76.7873, 22.45586],
        [76.77941, 22.4748],
        [76.78535, 22.495],
        [76.78089, 22.53765],
        [76.76836, 22.53026],
        [76.75127, 22.54354],
        [76.73327, 22.54072],
        [76.70425, 22.56162],
        [76.70405, 22.59133],
        [76.72172, 22.61975],
        [76.70645, 22.63297],
        [76.69588, 22.63541],
        [76.68945, 22.6351],
        [76.68495, 22.62915],
        [76.6675, 22.6336],
        [76.66314, 22.62708],
        [76.62998, 22.6271],
        [76.618, 22.63686],
        [76.61844, 22.65521],
        [76.65595, 22.64648],
        [76.66122, 22.65554],
        [76.64498, 22.6706],
        [76.62662, 22.67299],
        [76.61499, 22.68894],
        [76.61381, 22.6999],
        [76.60539, 22.6994],
        [76.58645, 22.6881],
        [76.56134, 22.68991],
        [76.5488, 22.68455],
        [76.53687, 22.69461],
        [76.53747, 22.70357],
        [76.53202, 22.70535],
        [76.53282, 22.69793],
        [76.526, 22.69756],
        [76.52242, 22.71544],
        [76.52906, 22.71531],
        [76.52825, 22.72134],
        [76.54879, 22.72018],
        [76.55238, 22.72544],
        [76.56277, 22.72722],
        [76.53611, 22.72577],
        [76.53468, 22.73085],
        [76.5695, 22.75149],
        [76.54743, 22.74454],
        [76.54272, 22.74703],
        [76.53376, 22.73695],
        [76.53404, 22.74341],
        [76.5095, 22.74506],
        [76.53141, 22.78305],
        [76.52295, 22.7935],
        [76.52737, 22.80634],
        [76.52563, 22.79799],
        [76.5309, 22.80022],
        [76.53343, 22.79361],
        [76.54852, 22.79785],
        [76.55295, 22.79452],
        [76.55227, 22.78451],
        [76.55797, 22.78788],
        [76.56687, 22.78428],
        [76.55475, 22.77274],
        [76.56303, 22.77959],
        [76.57574, 22.77145],
        [76.57388, 22.76002],
        [76.56787, 22.76367],
        [76.57367, 22.75865],
        [76.59377, 22.77743],
        [76.62743, 22.7824],
        [76.63285, 22.78636],
        [76.62144, 22.78261],
        [76.61654, 22.78886],
        [76.62297, 22.78882],
        [76.62287, 22.79469],
        [76.63214, 22.79267],
        [76.62752, 22.7966],
        [76.64626, 22.79839],
        [76.64558, 22.8045],
        [76.65436, 22.79713],
        [76.65301, 22.78733],
        [76.66078, 22.78548],
        [76.6614, 22.78092],
        [76.66492, 22.78702],
        [76.68351, 22.78157],
        [76.68662, 22.79362],
        [76.69075, 22.78962],
        [76.7105, 22.79249],
        [76.70874, 22.80828],
        [76.69925, 22.8092],
        [76.70348, 22.81376],
        [76.69791, 22.81211],
        [76.69632, 22.81629],
        [76.70259, 22.81922],
        [76.71815, 22.82334],
        [76.73268, 22.82006],
        [76.72068, 22.81898],
        [76.73153, 22.81592],
        [76.71537, 22.81345],
        [76.72007, 22.81219],
        [76.7409, 22.81537],
        [76.74365, 22.81937],
        [76.73706, 22.81853],
        [76.74189, 22.82279],
        [76.75352, 22.82429],
        [76.76295, 22.81374],
        [76.7681, 22.81634],
        [76.77009, 22.81367],
        [76.77654, 22.81549],
        [76.7751, 22.81837],
        [76.77107, 22.81449],
        [76.77116, 22.81661],
        [76.76647, 22.81692],
        [76.76613, 22.81961],
        [76.77745, 22.8281],
        [76.78243, 22.82351],
        [76.785, 22.82712],
        [76.77945, 22.82875],
        [76.78787, 22.83318],
        [76.79586, 22.83132],
        [76.80798, 22.84485],
        [76.80267, 22.84514],
        [76.80432, 22.84967],
        [76.81844, 22.85239],
        [76.81585, 22.8611],
        [76.81978, 22.85824],
        [76.82497, 22.86265],
        [76.82844, 22.85805],
        [76.83061, 22.86381],
        [76.83364, 22.85572],
        [76.83264, 22.86465],
        [76.83899, 22.87172],
        [76.84135, 22.86499],
        [76.8565, 22.86232],
        [76.8498, 22.86827]
      ]
    ]
  }
}
