{
  "type": "Feature",
  "id": "MP-AC-181",
  "properties": {
    "stateName": "MADHYA PRADESH",
    "stateCode": "MP",
    "districtName": null,
    "acNo": 181,
    "acName": "Bhikangaon",
    "seatType": null,
    "pcNo": null,
    "pcName": null,
    "quality": "unverified",
    "sources": [
      "TBD"
    ]
  },
  "geometry": {
    "type": "Polygon",
    "coordinates": [
      [
        [75.83322, 21.3767],
        [75.8332, 21.3767],
        [75.83298, 21.3767],
        [75.83279, 21.37674],
        [75.8326, 21.3768],
        [75.8322, 21.377],
        [75.8316, 21.377],
        [75.83145, 21.377],
        [75.8313, 21.377],
        [75.8309, 21.3769],
        [75.8307, 21.377],
        [75.8306, 21.3772],
        [75.8306, 21.3774],
        [75.8309, 21.378],
        [75.8309, 21.3782],
        [75.8307, 21.3783],
        [75.8301, 21.3783],
        [75.8293, 21.3783],
        [75.8291, 21.3782],
        [75.8288, 21.3781],
        [75.8285, 21.378],
        [75.8282, 21.3779],
        [75.828, 21.3779],
        [75.8278, 21.3779],
        [75.8276, 21.3779],
        [75.8273, 21.3779],
        [75.8271, 21.3779],
        [75.8269, 21.3779],
        [75.8255, 21.3782],
        [75.8244, 21.3784],
        [75.8242, 21.3785],
        [75.8239, 21.3786],
        [75.8237, 21.3787],
        [75.8235, 21.3787],
        [75.8232, 21.3788],
        [75.823, 21.3788],
        [75.8227, 21.3788],
        [75.8225, 21.3788],
        [75.8223, 21.3788],
        [75.82229, 21.3788],
        [75.8213, 21.3788],
        [75.8201, 21.3787],
        [75.819, 21.3787],
        [75.8185, 21.3787],
        [75.8182, 21.3787],
        [75.8178, 21.3788],
        [75.8175, 21.3789],
        [75.8155, 21.3797],
        [75.8145, 21.38],
        [75.8143, 21.3799],
        [75.8142, 21.3796],
        [75.8141, 21.3793],
        [75.8138, 21.3792],
        [75.8136, 21.3791],
        [75.8131, 21.3791],
        [75.8129, 21.3793],
        [75.8124, 21.3796],
        [75.8114, 21.3802],
        [75.8112, 21.3803],
        [75.811, 21.3804],
        [75.8108, 21.3804],
        [75.8106, 21.3805],
        [75.8103, 21.3805],
        [75.8101, 21.3806],
        [75.8096, 21.381],
        [75.8089, 21.3815],
        [75.8084, 21.3817],
        [75.8075, 21.3823],
        [75.8073, 21.3824],
        [75.8071, 21.3824],
        [75.8069, 21.3825],
        [75.8066, 21.3826],
        [75.8063, 21.3827],
        [75.8061, 21.3829],
        [75.8059, 21.3831],
        [75.8056, 21.3835],
        [75.8054, 21.3838],
        [75.8052, 21.3839],
        [75.8049, 21.3839],
        [75.8045, 21.3839],
        [75.8043, 21.384],
        [75.804, 21.384],
        [75.8038, 21.3841],
        [75.8036, 21.3842],
        [75.8029, 21.3845],
        [75.8027, 21.3845],
        [75.8025, 21.3845],
        [75.8023, 21.3844],
        [75.8022, 21.3842],
        [75.8018, 21.3837],
        [75.8015, 21.3835],
        [75.8012, 21.3834],
        [75.8007, 21.3834],
        [75.8004, 21.3835],
        [75.8001, 21.3837],
        [75.7995, 21.3841],
        [75.799, 21.3845],
        [75.7988, 21.3845],
        [75.7985, 21.3845],
        [75.798, 21.3845],
        [75.7968, 21.3847],
        [75.7966, 21.3846],
        [75.7962, 21.3845],
        [75.7958, 21.3845],
        [75.7953, 21.3846],
        [75.795, 21.3846],
        [75.7947, 21.3847],
        [75.7945, 21.3847],
        [75.7942, 21.3847],
        [75.7939, 21.3846],
        [75.7937, 21.3845],
        [75.7934, 21.3845],
        [75.79327, 21.3845],
        [75.79307, 21.38454],
        [75.77736, 21.4277],
        [75.75718, 21.45568],
        [75.75559, 21.49142],
        [75.7293, 21.51053],
        [75.77958, 21.54713],
        [75.8561, 21.59211],
        [75.8739, 21.60948],
        [75.8701, 21.61949],
        [75.84859, 21.62205],
        [75.84162, 21.66034],
        [75.82146, 21.67533],
        [75.81168, 21.6941],
        [75.81076, 21.70158],
        [75.81843, 21.71203],
        [75.81878, 21.73647],
        [75.82169, 21.76128],
        [75.83515, 21.77081],
        [75.83656, 21.77753],
        [75.85095, 21.77477],
        [75.85379, 21.78189],
        [75.85209, 21.78827],
        [75.84101, 21.78745],
        [75.82936, 21.79331],
        [75.84408, 21.81483],
        [75.86426, 21.81515],
        [75.8651, 21.82078],
        [75.88353, 21.81974],
        [75.88687, 21.84556],
        [75.89569, 21.84728],
        [75.89749, 21.85247],
        [75.89502, 21.87719],
        [75.90624, 21.87456],
        [75.90657, 21.88228],
        [75.91621, 21.88959],
        [75.92008, 21.90964],
        [75.93185, 21.91153],
        [75.93172, 21.93904],
        [75.95488, 21.95475],
        [75.94675, 21.97006],
        [75.95974, 21.97712],
        [75.96342, 21.99513],
        [75.98743, 21.9955],
        [76.00577, 21.98742],
        [76.15278, 22.02868],
        [76.15355, 22.02228],
        [76.16515, 22.01486],
        [76.16112, 22.00025],
        [76.15587, 21.98743],
        [76.14871, 21.98818],
        [76.14756, 21.97889],
        [76.14226, 21.97713],
        [76.14839, 21.97262],
        [76.14614, 21.96916],
        [76.15679, 21.97091],
        [76.16029, 21.96758],
        [76.16024, 21.96426],
        [76.14971, 21.96131],
        [76.15499, 21.95128],
        [76.14833, 21.94673],
        [76.15392, 21.94148],
        [76.16917, 21.88605],
        [76.15481, 21.88778],
        [76.12581, 21.87085],
        [76.12159, 21.86361],
        [76.12423, 21.85467],
        [76.11547, 21.85811],
        [76.10064, 21.85486],
        [76.11106, 21.79539],
        [76.10599, 21.78954],
        [76.09315, 21.79164],
        [76.09268, 21.77051],
        [76.11547, 21.7702],
        [76.12665, 21.76008],
        [76.12422, 21.75005],
        [76.10847, 21.74992],
        [76.1008, 21.74532],
        [76.10159, 21.73072],
        [76.10707, 21.73082],
        [76.1049, 21.72335],
        [76.12494, 21.72082],
        [76.13859, 21.73279],
        [76.15525, 21.7325],
        [76.1697, 21.72096],
        [76.16742, 21.70281],
        [76.17122, 21.70041],
        [76.17253, 21.68493],
        [76.15818, 21.67424],
        [76.13999, 21.68154],
        [76.13264, 21.69169],
        [76.10775, 21.69081],
        [76.08742, 21.67221],
        [76.06984, 21.66338],
        [76.07883, 21.61482],
        [76.07692, 21.57364],
        [76.06859, 21.57024],
        [76.06137, 21.5731],
        [76.02474, 21.54946],
        [76.00814, 21.5547],
        [75.95861, 21.55391],
        [75.94873, 21.54839],
        [75.94774, 21.48929],
        [75.96439, 21.48415],
        [75.97519, 21.48981],
        [75.97853, 21.48668],
        [75.98974, 21.48868],
        [76.00685, 21.47247],
        [76.00911, 21.46167],
        [76.00315, 21.45062],
        [76.00739, 21.42214],
        [75.98657, 21.36891],
        [75.98645, 21.36897],
        [75.9862, 21.3691],
        [75.9859, 21.3692],
        [75.9856, 21.3695],
        [75.9854, 21.3697],
        [75.9852, 21.37],
        [75.979, 21.3754],
        [75.9775, 21.3767],
        [75.97555, 21.37855],
        [75.9721, 21.3818],
        [75.9708, 21.3828],
        [75.9656, 21.3876],
        [75.9644, 21.3885],
        [75.9637, 21.3892],
        [75.9636, 21.3894],
        [75.9635, 21.3895],
        [75.9633, 21.3897],
        [75.9631, 21.3898],
        [75.9629, 21.3899],
        [75.9626, 21.3899],
        [75.9624, 21.3899],
        [75.96226, 21.38983],
        [75.96194, 21.38978],
        [75.9606, 21.3897],
        [75.9586, 21.3897],
        [75.9549, 21.3898],
        [75.9546, 21.3898],
        [75.9543, 21.3898],
        [75.954, 21.3898],
        [75.9537, 21.3898],
        [75.9534, 21.3898],
        [75.9531, 21.3897],
        [75.9528, 21.3897],
        [75.9525, 21.3896],
        [75.9522, 21.3895],
        [75.9478, 21.3881],
        [75.9467, 21.38766],
        [75.9463, 21.3875],
        [75.9425, 21.3863],
        [75.9421, 21.3862],
        [75.9418, 21.3861],
        [75.9414, 21.3861],
        [75.9411, 21.3862],
        [75.93997, 21.38672],
        [75.9398, 21.3868],
        [75.9396, 21.3869],
        [75.9394, 21.3869],
        [75.9391, 21.387],
        [75.9389, 21.387],
        [75.9387, 21.387],
        [75.9385, 21.387],
        [75.9383, 21.387],
        [75.9381, 21.387],
        [75.9379, 21.3869],
        [75.9357, 21.3869],
        [75.9287, 21.3867],
        [75.9205, 21.3849],
        [75.9178, 21.3843],
        [75.9153, 21.3838],
        [75.9144, 21.3836],
        [75.9125, 21.3831],
        [75.9111, 21.3827],
        [75.9109, 21.3827],
        [75.91082, 21.3827],
        [75.9106, 21.3827],
        [75.9104, 21.3828],
        [75.9102, 21.383],
        [75.9098, 21.3833],
        [75.9084, 21.3844],
        [75.9075, 21.3855],
        [75.9064, 21.3868],
        [75.9048, 21.3886],
        [75.9043, 21.3896],
        [75.904, 21.3907],
        [75.90397, 21.39084],
        [75.9039, 21.3911],
        [75.9037, 21.3913],
        [75.9035, 21.3915],
        [75.90329, 21.39164],
        [75.90324, 21.3917],
        [75.90318, 21.39171],
        [75.903, 21.3918],
        [75.9027, 21.3919],
        [75.9024, 21.3919],
        [75.90215, 21.3919],
        [75.9021, 21.3919],
        [75.9018, 21.3918],
        [75.8995, 21.3916],
        [75.8979, 21.3916],
        [75.8975, 21.3916],
        [75.8966, 21.3916],
        [75.8954, 21.3915],
        [75.8951, 21.3915],
        [75.8949, 21.3914],
        [75.8946, 21.3914],
        [75.8943, 21.3914],
        [75.8941, 21.3914],
        [75.8938, 21.3915],
        [75.8935, 21.3916],
        [75.8933, 21.3917],
        [75.8931, 21.3918],
        [75.8926, 21.3923],
        [75.8919, 21.3928],
        [75.8911, 21.3932],
        [75.891, 21.3934],
        [75.8909, 21.3936],
        [75.8907, 21.3942],
        [75.8906, 21.3945],
        [75.8905, 21.3947],
        [75.8903, 21.3948],
        [75.89, 21.3948],
        [75.8888, 21.3948],
        [75.8874, 21.3947],
        [75.8865, 21.3948],
        [75.88629, 21.3948],
        [75.88613, 21.39483],
        [75.886, 21.3948],
        [75.8858, 21.3948],
        [75.8855, 21.3947],
        [75.8852, 21.3945],
        [75.8846, 21.3939],
        [75.8837, 21.3933],
        [75.8834, 21.3932],
        [75.8831, 21.3931],
        [75.8829, 21.393],
        [75.8826, 21.3929],
        [75.8822, 21.3929],
        [75.8819, 21.3929],
        [75.8816, 21.3929],
        [75.8813, 21.3929],
        [75.8811, 21.393],
        [75.8808, 21.393],
        [75.8805, 21.3931],
        [75.8802, 21.3931],
        [75.8799, 21.3932],
        [75.8797, 21.3933],
        [75.87964, 21.3933],
        [75.8794, 21.3933],
        [75.8791, 21.3932],
        [75.8788, 21.3932],
        [75.8785, 21.3931],
        [75.8782, 21.393],
        [75.8778, 21.3929],
        [75.8775, 21.3928],
        [75.8771, 21.3928],
        [75.8769, 21.3928],
        [75.8766, 21.3929],
        [75.8763, 21.3929],
        [75.8761, 21.3929],
        [75.8755, 21.3929],
        [75.8753, 21.3929],
        [75.875, 21.3929],
        [75.8746, 21.3928],
        [75.8744, 21.3928],
        [75.8741, 21.3927],
        [75.8739, 21.3926],
        [75.8737, 21.3925],
        [75.8728, 21.392],
        [75.8716, 21.3915],
        [75.8714, 21.3914],
        [75.8712, 21.3914],
        [75.8709, 21.3913],
        [75.8707, 21.3912],
        [75.8705, 21.3912],
        [75.8703, 21.3911],
        [75.8703, 21.39107],
        [75.8703, 21.3909],
        [75.8704, 21.3902],
        [75.8707, 21.3895],
        [75.8708, 21.3892],
        [75.8708, 21.3889],
        [75.8708, 21.3885],
        [75.8707, 21.3882],
        [75.8705, 21.388],
        [75.8704, 21.3878],
        [75.8703, 21.3877],
        [75.8703, 21.3875],
        [75.8703, 21.3873],
        [75.8702, 21.387],
        [75.87, 21.3868],
        [75.8698, 21.3866],
        [75.8695, 21.3865],
        [75.8693, 21.3864],
        [75.8691, 21.3863],
        [75.8688, 21.3862],
        [75.8684, 21.3855],
        [75.8681, 21.385],
        [75.8677, 21.3845],
        [75.8672, 21.3839],
        [75.8664, 21.383],
        [75.8659, 21.3827],
        [75.8656, 21.3826],
        [75.8654, 21.3825],
        [75.8652, 21.3824],
        [75.865, 21.3822],
        [75.8644, 21.3814],
        [75.8643, 21.3811],
        [75.864, 21.381],
        [75.8636, 21.381],
        [75.8634, 21.3811],
        [75.86334, 21.38116],
        [75.8632, 21.3813],
        [75.8632, 21.3815],
        [75.8632, 21.3817],
        [75.8632, 21.3819],
        [75.863, 21.3821],
        [75.8628, 21.3821],
        [75.8625, 21.3821],
        [75.8623, 21.3819],
        [75.8622, 21.3817],
        [75.8622, 21.3814],
        [75.8626, 21.3807],
        [75.8627, 21.3805],
        [75.8627, 21.3803],
        [75.86261, 21.38012],
        [75.86258, 21.38008],
        [75.8625, 21.38],
        [75.86225, 21.38],
        [75.8619, 21.38],
        [75.861, 21.3802],
        [75.8607, 21.3804],
        [75.8604, 21.3805],
        [75.8601, 21.3805],
        [75.86002, 21.38047],
        [75.8598, 21.3804],
        [75.8596, 21.3803],
        [75.8591, 21.3802],
        [75.8588, 21.3803],
        [75.8582, 21.3806],
        [75.8579, 21.3807],
        [75.8577, 21.3807],
        [75.8574, 21.3807],
        [75.8571, 21.3806],
        [75.8567, 21.3804],
        [75.8565, 21.3803],
        [75.856, 21.3804],
        [75.8558, 21.3806],
        [75.8557, 21.3808],
        [75.8559, 21.3815],
        [75.856, 21.3818],
        [75.856, 21.3821],
        [75.8557, 21.3824],
        [75.8554, 21.3825],
        [75.855, 21.3825],
        [75.8547, 21.3825],
        [75.8545, 21.3825],
        [75.8543, 21.3826],
        [75.8541, 21.3828],
        [75.8539, 21.3829],
        [75.8538, 21.3831],
        [75.8536, 21.3833],
        [75.8534, 21.3834],
        [75.8532, 21.3834],
        [75.8529, 21.3833],
        [75.8522, 21.3833],
        [75.8516, 21.3831],
        [75.8509, 21.3829],
        [75.8497, 21.3829],
        [75.8495, 21.3828],
        [75.8493, 21.3827],
        [75.8491, 21.3826],
        [75.849, 21.3824],
        [75.849, 21.3821],
        [75.8489, 21.3819],
        [75.8488, 21.3817],
        [75.8486, 21.3816],
        [75.8482, 21.3815],
        [75.8479, 21.3814],
        [75.8476, 21.3814],
        [75.8473, 21.3814],
        [75.8469, 21.3814],
        [75.8466, 21.3814],
        [75.8463, 21.3815],
        [75.846, 21.3815],
        [75.8455, 21.3817],
        [75.8451, 21.3818],
        [75.8448, 21.3818],
        [75.8444, 21.3819],
        [75.8441, 21.3818],
        [75.8436, 21.3818],
        [75.8434, 21.382],
        [75.8432, 21.3822],
        [75.8431, 21.3825],
        [75.8429, 21.3831],
        [75.8424, 21.3841],
        [75.8422, 21.3842],
        [75.842, 21.3843],
        [75.8418, 21.3844],
        [75.8415, 21.3845],
        [75.8413, 21.3845],
        [75.84103, 21.3845],
        [75.841, 21.3845],
        [75.8408, 21.3845],
        [75.8405, 21.3844],
        [75.8403, 21.3843],
        [75.8396, 21.3839],
        [75.8387, 21.3828],
        [75.8383, 21.3823],
        [75.8382, 21.3821],
        [75.838, 21.3819],
        [75.8378, 21.3818],
        [75.8376, 21.3818],
        [75.8374, 21.3816],
        [75.8369, 21.3811],
        [75.8366, 21.3809],
        [75.8363, 21.3808],
        [75.836, 21.3807],
        [75.8357, 21.3806],
        [75.8355, 21.3806],
        [75.8353, 21.3805],
        [75.8351, 21.3804],
        [75.8349, 21.3803],
        [75.8342, 21.3796],
        [75.8334, 21.3787],
        [75.8332, 21.3784],
        [75.8331, 21.3781],
        [75.8332, 21.3778],
        [75.8335, 21.3775],
        [75.8338, 21.3775],
        [75.8339, 21.3773],
        [75.8339, 21.3771],
        [75.8337, 21.3768],
        [75.8335, 21.3767],
        [75.83322, 21.3767]
      ]
    ]
  }
}
