{
  "type": "Feature",
  "id": "MP-AC-183",
  "properties": {
    "stateName": "MADHYA PRADESH",
    "stateCode": "MP",
    "districtName": null,
    "acNo": 183,
    "acName": "Maheshwar",
    "seatType": null,
    "pcNo": null,
    "pcName": null,
    "quality": "unverified",
    "sources": [
      "TBD"
    ]
  },
  "geometry": {
    "type": "Polygon",
    "coordinates": [
      [
        [76.00489, 22.42684],
        [76.01284, 22.44085],
        [76.00866, 22.44465],
        [76.02163, 22.44495],
        [76.03196, 22.43711],
        [76.03139, 22.44809],
        [76.04221, 22.45806],
        [76.04754, 22.45969],
        [76.05274, 22.4537],
        [76.06383, 22.44201],
        [76.06515, 22.41975],
        [76.06938, 22.41594],
        [76.06844, 22.40067],
        [76.05222, 22.40014],
        [76.04291, 22.38204],
        [76.05296, 22.36635],
        [76.05212, 22.35619],
        [76.02557, 22.3457],
        [76.0269, 22.33867],
        [76.01588, 22.34176],
        [76.01835, 22.32012],
        [76.014, 22.30635],
        [76.00623, 22.29897],
        [76.01101, 22.28492],
        [76.00314, 22.28206],
        [76.00271, 22.28757],
        [75.9883, 22.2835],
        [75.99103, 22.27334],
        [75.97861, 22.27151],
        [75.97009, 22.28414],
        [75.95812, 22.27857],
        [75.94778, 22.25727],
        [75.95339, 22.23934],
        [75.96101, 22.2408],
        [75.96321, 22.23696],
        [75.95904, 22.20856],
        [75.95276, 22.20074],
        [75.90421, 22.19527],
        [75.90362, 22.20475],
        [75.88405, 22.20397],
        [75.86266, 22.1979],
        [75.87287, 22.18261],
        [75.86389, 22.1779],
        [75.83766, 22.17984],
        [75.82155, 22.17486],
        [75.82115, 22.19972],
        [75.80898, 22.19734],
        [75.80241, 22.18568],
        [75.79416, 22.1856],
        [75.78544, 22.1873],
        [75.77634, 22.18334],
        [75.77232, 22.18838],
        [75.75722, 22.18038],
        [75.75384, 22.17103],
        [75.74153, 22.17133],
        [75.73454, 22.16364],
        [75.7223, 22.16066],
        [75.71733, 22.15183],
        [75.6923, 22.14496],
        [75.69796, 22.15471],
        [75.67361, 22.15791],
        [75.67118, 22.17581],
        [75.68193, 22.19146],
        [75.67968, 22.19381],
        [75.67252, 22.19434],
        [75.66563, 22.18238],
        [75.63991, 22.17206],
        [75.62824, 22.18155],
        [75.60664, 22.17822],
        [75.59684, 22.17149],
        [75.59132, 22.16063],
        [75.57506, 22.16351],
        [75.56676, 22.17557],
        [75.55305, 22.16741],
        [75.54707, 22.16919],
        [75.51309, 22.14959],
        [75.4982, 22.15579],
        [75.50978, 22.16269],
        [75.51101, 22.17316],
        [75.52046, 22.17326],
        [75.5156, 22.18617],
        [75.53558, 22.23514],
        [75.52772, 22.24994],
        [75.53299, 22.26342],
        [75.51734, 22.27992],
        [75.51836, 22.32615],
        [75.51376, 22.32896],
        [75.50596, 22.32346],
        [75.49004, 22.32616],
        [75.49672, 22.33983],
        [75.50486, 22.33639],
        [75.50888, 22.33934],
        [75.50971, 22.35077],
        [75.50335, 22.36758],
        [75.50845, 22.3737],
        [75.52274, 22.37509],
        [75.52746, 22.3649],
        [75.53805, 22.36506],
        [75.53637, 22.3567],
        [75.55391, 22.36371],
        [75.56437, 22.3757],
        [75.57406, 22.37793],
        [75.57975, 22.37026],
        [75.58791, 22.37144],
        [75.59273, 22.36087],
        [75.59826, 22.36456],
        [75.59897, 22.3597],
        [75.6103, 22.36363],
        [75.6055, 22.35103],
        [75.61073, 22.3467],
        [75.59973, 22.34754],
        [75.59969, 22.34083],
        [75.61564, 22.33774],
        [75.64126, 22.35607],
        [75.64453, 22.33559],
        [75.65352, 22.33221],
        [75.65121, 22.33936],
        [75.65478, 22.34262],
        [75.6747, 22.344],
        [75.67538, 22.34911],
        [75.69263, 22.35981],
        [75.70365, 22.35847],
        [75.72119, 22.3694],
        [75.73623, 22.35812],
        [75.75228, 22.35788],
        [75.77041, 22.36896],
        [75.77541, 22.36569],
        [75.78436, 22.37615],
        [75.79933, 22.38005],
        [75.79974, 22.38563],
        [75.81569, 22.3918],
        [75.82221, 22.40608],
        [75.83431, 22.40863],
        [75.84944, 22.39183],
        [75.84952, 22.38391],
        [75.86428, 22.38],
        [75.88122, 22.38341],
        [75.89327, 22.39137],
        [75.9095, 22.38812],
        [75.90865, 22.40901],
        [75.91424, 22.42055],
        [75.96127, 22.43044],
        [75.96893, 22.4285],
        [75.97171, 22.4196],
        [75.99382, 22.41358],
        [75.999, 22.41852],
        [76.00689, 22.42198],
        [76.00489, 22.42684]
      ]
    ]
  }
}
