{
  "type": "Feature",
  "id": "MP-AC-184",
  "properties": {
    "stateName": "MADHYA PRADESH",
    "stateCode": "MP",
    "districtName": null,
    "acNo": 184,
    "acName": "Kasrawad",
    "seatType": null,
    "pcNo": null,
    "pcName": null,
    "quality": "unverified",
    "sources": [
      "TBD"
    ]
  },
  "geometry": {
    "type": "Polygon",
    "coordinates": [
      [
        [75.69796, 22.15471],
        [75.6923, 22.14496],
        [75.71733, 22.15183],
        [75.7223, 22.16066],
        [75.73454, 22.16364],
        [75.74153, 22.17133],
        [75.75384, 22.17103],
        [75.75722, 22.18038],
        [75.77232, 22.18838],
        [75.77634, 22.18334],
        [75.78544, 22.1873],
        [75.79416, 22.1856],
        [75.78817, 22.16301],
        [75.78077, 22.16196],
        [75.77321, 22.12274],
        [75.78873, 22.11142],
        [75.78123, 22.08605],
        [75.78433, 22.07904],
        [75.81007, 22.07946],
        [75.80728, 22.06637],
        [75.82365, 22.06512],
        [75.82164, 22.07213],
        [75.82776, 22.07543],
        [75.84305, 22.07217],
        [75.84709, 22.06696],
        [75.84352, 22.05559],
        [75.87406, 22.05489],
        [75.87074, 22.04199],
        [75.89736, 22.03692],
        [75.89845, 22.02489],
        [75.94579, 22.03573],
        [75.94837, 22.02915],
        [75.94379, 22.0137],
        [75.92418, 22.00531],
        [75.91434, 21.99324],
        [75.94579, 21.99894],
        [75.96094, 21.99855],
        [75.96342, 21.99513],
        [75.95974, 21.97712],
        [75.94675, 21.97006],
        [75.95488, 21.95475],
        [75.93172, 21.93904],
        [75.93185, 21.91153],
        [75.92008, 21.90964],
        [75.91621, 21.88959],
        [75.90657, 21.88228],
        [75.90624, 21.87456],
        [75.89502, 21.87719],
        [75.89749, 21.85247],
        [75.89569, 21.84728],
        [75.88687, 21.84556],
        [75.88353, 21.81974],
        [75.8651, 21.82078],
        [75.86426, 21.81515],
        [75.84408, 21.81483],
        [75.83807, 21.82057],
        [75.84923, 21.8309],
        [75.84703, 21.84723],
        [75.80933, 21.86392],
        [75.81678, 21.87465],
        [75.81048, 21.88416],
        [75.79627, 21.89031],
        [75.79819, 21.90855],
        [75.78162, 21.91268],
        [75.77976, 21.93042],
        [75.77178, 21.9317],
        [75.76186, 21.95556],
        [75.74844, 21.95621],
        [75.74732, 21.96762],
        [75.73934, 21.97606],
        [75.75498, 21.98044],
        [75.75257, 21.98865],
        [75.72321, 21.98732],
        [75.72279, 21.99888],
        [75.6912, 22.00651],
        [75.68518, 21.99963],
        [75.689, 21.99231],
        [75.67218, 21.98033],
        [75.67633, 21.96903],
        [75.69209, 21.96959],
        [75.70922, 21.96013],
        [75.6995, 21.94924],
        [75.68194, 21.94665],
        [75.68569, 21.9281],
        [75.67995, 21.91903],
        [75.65529, 21.91143],
        [75.658, 21.90081],
        [75.65144, 21.89601],
        [75.6393, 21.89694],
        [75.6381, 21.90251],
        [75.64701, 21.90563],
        [75.64521, 21.91358],
        [75.63036, 21.91928],
        [75.6265, 21.92765],
        [75.59862, 21.93492],
        [75.58982, 21.92752],
        [75.57863, 21.94607],
        [75.56312, 21.94403],
        [75.56438, 21.93864],
        [75.54455, 21.93682],
        [75.53861, 21.9519],
        [75.53184, 21.95537],
        [75.51811, 21.95208],
        [75.51469, 21.94432],
        [75.50559, 21.94477],
        [75.49943, 21.94685],
        [75.48777, 21.96829],
        [75.47454, 21.96864],
        [75.46929, 21.96835],
        [75.47713, 21.95404],
        [75.47293, 21.9459],
        [75.45544, 21.9473],
        [75.43075, 21.9537],
        [75.42044, 21.96984],
        [75.40058, 21.97646],
        [75.39848, 21.98528],
        [75.4032, 22.00049],
        [75.41477, 22.00293],
        [75.44339, 22.0253],
        [75.41414, 22.02295],
        [75.41337, 22.05871],
        [75.45604, 22.05901],
        [75.45152, 22.07211],
        [75.42263, 22.06473],
        [75.39715, 22.06526],
        [75.38428, 22.0731],
        [75.40353, 22.07307],
        [75.39329, 22.08134],
        [75.39584, 22.08888],
        [75.38637, 22.0919],
        [75.38087, 22.10164],
        [75.35827, 22.09852],
        [75.35474, 22.11242],
        [75.34601, 22.11361],
        [75.34175, 22.12087],
        [75.32209, 22.12269],
        [75.31583, 22.13418],
        [75.36823, 22.1417],
        [75.39706, 22.13642],
        [75.43025, 22.14679],
        [75.4982, 22.15579],
        [75.51309, 22.14959],
        [75.54707, 22.16919],
        [75.55305, 22.16741],
        [75.56676, 22.17557],
        [75.57506, 22.16351],
        [75.59132, 22.16063],
        [75.59684, 22.17149],
        [75.60664, 22.17822],
        [75.62824, 22.18155],
        [75.63991, 22.17206],
        [75.66563, 22.18238],
        [75.67252, 22.19434],
        [75.67968, 22.19381],
        [75.68193, 22.19146],
        [75.67118, 22.17581],
        [75.67361, 22.15791],
        [75.69796, 22.15471]
      ]
    ]
  }
}
