{
  "type": "Feature",
  "id": "MP-AC-19",
  "properties": {
    "stateName": "MADHYA PRADESH",
    "stateCode": "MP",
    "districtName": null,
    "acNo": 19,
    "acName": "Dabra",
    "seatType": null,
    "pcNo": null,
    "pcName": null,
    "quality": "unverified",
    "sources": [
      "TBD"
    ]
  },
  "geometry": {
    "type": "Polygon",
    "coordinates": [
      [
        [78.63933, 26.08228],
        [78.63145, 26.07323],
        [78.64607, 26.06571],
        [78.6446, 26.06115],
        [78.62747, 26.04913],
        [78.6218, 26.05141],
        [78.60337, 26.04657],
        [78.5854, 26.00679],
        [78.56991, 25.99625],
        [78.55697, 25.99401],
        [78.54669, 25.98513],
        [78.54255, 25.97359],
        [78.51514, 25.96874],
        [78.50693, 25.96312],
        [78.48407, 25.96383],
        [78.48339, 25.94098],
        [78.47176, 25.9317],
        [78.47533, 25.91967],
        [78.47205, 25.91051],
        [78.45258, 25.90069],
        [78.43873, 25.885],
        [78.42064, 25.87853],
        [78.40137, 25.85922],
        [78.38845, 25.85624],
        [78.3932, 25.84458],
        [78.38853, 25.83736],
        [78.3628, 25.83218],
        [78.33634, 25.83625],
        [78.32797, 25.83332],
        [78.3078, 25.81247],
        [78.31448, 25.81286],
        [78.32636, 25.79818],
        [78.31888, 25.79273],
        [78.27676, 25.78219],
        [78.26328, 25.78328],
        [78.2528, 25.77087],
        [78.24762, 25.78508],
        [78.23844, 25.78439],
        [78.22286, 25.79307],
        [78.22091, 25.78033],
        [78.20959, 25.79197],
        [78.19959, 25.78906],
        [78.18564, 25.80527],
        [78.17736, 25.82818],
        [78.18687, 25.83067],
        [78.18837, 25.85353],
        [78.13853, 25.85882],
        [78.1275, 25.86731],
        [78.13626, 25.88737],
        [78.15057, 25.89353],
        [78.16935, 25.88747],
        [78.17364, 25.89056],
        [78.17117, 25.91105],
        [78.18714, 25.92107],
        [78.18792, 25.93359],
        [78.19349, 25.9398],
        [78.22316, 25.93078],
        [78.23432, 25.91961],
        [78.25623, 25.9215],
        [78.26094, 25.93128],
        [78.25201, 25.95008],
        [78.29031, 25.96089],
        [78.26267, 25.9699],
        [78.2859, 25.98875],
        [78.28216, 25.99264],
        [78.28402, 26.00233],
        [78.25528, 26.00146],
        [78.25253, 26.00615],
        [78.24213, 26.00754],
        [78.24728, 26.0152],
        [78.2236, 26.0496],
        [78.21834, 26.08435],
        [78.22844, 26.10715],
        [78.26514, 26.11867],
        [78.31755, 26.10376],
        [78.32758, 26.12279],
        [78.34919, 26.12289],
        [78.37023, 26.13309],
        [78.38681, 26.10015],
        [78.41287, 26.10411],
        [78.43191, 26.1287],
        [78.47175, 26.1187],
        [78.47764, 26.10104],
        [78.50008, 26.11219],
        [78.50399, 26.12287],
        [78.52667, 26.11836],
        [78.55156, 26.12272],
        [78.55582, 26.11603],
        [78.59979, 26.10881],
        [78.61188, 26.11081],
        [78.61068, 26.10689],
        [78.60759, 26.09855],
        [78.63933, 26.08228]
      ]
    ]
  }
}
