{
  "type": "Feature",
  "id": "MP-AC-20",
  "properties": {
    "stateName": "MADHYA PRADESH",
    "stateCode": "MP",
    "districtName": null,
    "acNo": 20,
    "acName": "Sewda",
    "seatType": null,
    "pcNo": null,
    "pcName": null,
    "quality": "unverified",
    "sources": [
      "TBD"
    ]
  },
  "geometry": {
    "type": "Polygon",
    "coordinates": [
      [
        [78.77501, 26.27285],
        [78.78004, 26.27207],
        [78.79052, 26.29037],
        [78.81084, 26.28973],
        [78.82484, 26.2825],
        [78.82764, 26.26228],
        [78.80981, 26.25546],
        [78.80391, 26.24851],
        [78.80098, 26.23206],
        [78.79129, 26.23094],
        [78.78997, 26.2236],
        [78.80907, 26.21349],
        [78.81437, 26.20244],
        [78.82473, 26.20595],
        [78.83714, 26.19792],
        [78.82619, 26.18737],
        [78.80812, 26.1828],
        [78.79867, 26.16664],
        [78.81637, 26.16091],
        [78.82694, 26.13737],
        [78.8209, 26.12875],
        [78.84546, 26.1116],
        [78.83574, 26.09128],
        [78.82799, 26.1008],
        [78.82181, 26.09275],
        [78.80617, 26.09442],
        [78.80037, 26.08656],
        [78.80184, 26.08087],
        [78.81151, 26.07613],
        [78.81129, 26.07233],
        [78.82954, 26.07185],
        [78.82996, 26.06869],
        [78.82696, 26.06253],
        [78.81533, 26.05688],
        [78.8021, 26.06128],
        [78.79693, 26.05527],
        [78.79175, 26.05578],
        [78.79138, 26.05283],
        [78.81141, 26.04902],
        [78.81718, 26.04274],
        [78.81267, 26.04037],
        [78.80257, 26.04411],
        [78.79817, 26.03811],
        [78.78632, 26.0437],
        [78.78811, 26.03072],
        [78.77407, 26.02085],
        [78.77443, 26.017],
        [78.77067, 26.00868],
        [78.74308, 26.00783],
        [78.73852, 26.01239],
        [78.74476, 26.02206],
        [78.74458, 26.03154],
        [78.73803, 26.03861],
        [78.72956, 26.03203],
        [78.72245, 26.03315],
        [78.72245, 26.02584],
        [78.71423, 26.02089],
        [78.7259, 26.01062],
        [78.74119, 26.00607],
        [78.7411, 25.9975],
        [78.73189, 25.99326],
        [78.7343, 25.98908],
        [78.72424, 25.97286],
        [78.72905, 25.94952],
        [78.71926, 25.94455],
        [78.70997, 25.95031],
        [78.71056, 25.95675],
        [78.70103, 25.95206],
        [78.70354, 25.94333],
        [78.7147, 25.93653],
        [78.71425, 25.92504],
        [78.70466, 25.92542],
        [78.6949, 25.91658],
        [78.67675, 25.92588],
        [78.66945, 25.92545],
        [78.66291, 25.94362],
        [78.65911, 25.94407],
        [78.64551, 25.93752],
        [78.66293, 25.92585],
        [78.65776, 25.91569],
        [78.63476, 25.90849],
        [78.61888, 25.91924],
        [78.61338, 25.91262],
        [78.6138, 25.90823],
        [78.628, 25.90212],
        [78.61938, 25.88647],
        [78.63246, 25.87948],
        [78.633, 25.87104],
        [78.62071, 25.84524],
        [78.62613, 25.83922],
        [78.62644, 25.82807],
        [78.64068, 25.82282],
        [78.66111, 25.82488],
        [78.65355, 25.8369],
        [78.6628, 25.84351],
        [78.67297, 25.83911],
        [78.68713, 25.82317],
        [78.67289, 25.81107],
        [78.66247, 25.81472],
        [78.65808, 25.80247],
        [78.66245, 25.79345],
        [78.62098, 25.79275],
        [78.57927, 25.80891],
        [78.5322, 25.79962],
        [78.49625, 25.7814],
        [78.47556, 25.79621],
        [78.46059, 25.79856],
        [78.42558, 25.81432],
        [78.38853, 25.83736],
        [78.3932, 25.84458],
        [78.38845, 25.85624],
        [78.40137, 25.85922],
        [78.42064, 25.87853],
        [78.43873, 25.885],
        [78.45258, 25.90069],
        [78.47205, 25.91051],
        [78.47533, 25.91967],
        [78.47176, 25.9317],
        [78.48339, 25.94098],
        [78.48407, 25.96383],
        [78.50693, 25.96312],
        [78.51514, 25.96874],
        [78.54255, 25.97359],
        [78.54669, 25.98513],
        [78.55697, 25.99401],
        [78.56991, 25.99625],
        [78.5854, 26.00679],
        [78.60337, 26.04657],
        [78.6218, 26.05141],
        [78.62747, 26.04913],
        [78.6446, 26.06115],
        [78.64607, 26.06571],
        [78.63145, 26.07323],
        [78.63933, 26.08228],
        [78.60759, 26.09855],
        [78.61068, 26.10689],
        [78.61188, 26.11081],
        [78.60877, 26.12922],
        [78.61552, 26.13357],
        [78.636, 26.12178],
        [78.64622, 26.12049],
        [78.65224, 26.1265],
        [78.63911, 26.12887],
        [78.63287, 26.15128],
        [78.62652, 26.15729],
        [78.63405, 26.1653],
        [78.64708, 26.16977],
        [78.6678, 26.16748],
        [78.67789, 26.17079],
        [78.68178, 26.1653],
        [78.69506, 26.16383],
        [78.70256, 26.17618],
        [78.69134, 26.19279],
        [78.6956, 26.21512],
        [78.72947, 26.22867],
        [78.74046, 26.22415],
        [78.74487, 26.23342],
        [78.75369, 26.23574],
        [78.75578, 26.24368],
        [78.74481, 26.25027],
        [78.75556, 26.26572],
        [78.76777, 26.26457],
        [78.77501, 26.27285]
      ]
    ]
  }
}
