{
  "type": "Feature",
  "id": "MP-AC-202",
  "properties": {
    "stateName": "MADHYA PRADESH",
    "stateCode": "MP",
    "districtName": null,
    "acNo": 202,
    "acName": "Badnawar",
    "seatType": null,
    "pcNo": null,
    "pcName": null,
    "quality": "unverified",
    "sources": [
      "TBD"
    ]
  },
  "geometry": {
    "type": "Polygon",
    "coordinates": [
      [
        [75.23795, 23.0858],
        [75.24358, 23.11096],
        [75.23943, 23.12658],
        [75.24209, 23.13501],
        [75.30048, 23.12705],
        [75.29687, 23.10978],
        [75.30978, 23.10586],
        [75.31965, 23.10839],
        [75.31555, 23.09575],
        [75.32453, 23.06882],
        [75.34709, 23.06855],
        [75.34533, 23.05915],
        [75.33549, 23.0585],
        [75.33467, 23.03942],
        [75.32077, 23.03793],
        [75.31289, 23.0439],
        [75.30168, 23.04473],
        [75.30701, 23.03019],
        [75.30178, 23.01902],
        [75.30026, 22.99439],
        [75.32653, 22.98605],
        [75.32521, 22.95688],
        [75.3058, 22.95546],
        [75.3069, 22.93118],
        [75.31862, 22.92996],
        [75.32649, 22.91451],
        [75.32327, 22.88191],
        [75.33484, 22.87335],
        [75.33013, 22.83991],
        [75.34125, 22.82955],
        [75.35194, 22.83045],
        [75.36285, 22.8457],
        [75.37057, 22.8465],
        [75.37156, 22.8684],
        [75.40559, 22.87124],
        [75.43716, 22.8677],
        [75.44207, 22.86688],
        [75.44177, 22.85406],
        [75.43798, 22.8443],
        [75.43319, 22.84471],
        [75.43506, 22.83105],
        [75.42301, 22.82855],
        [75.42512, 22.80957],
        [75.43605, 22.80916],
        [75.43487, 22.79891],
        [75.44318, 22.79551],
        [75.43811, 22.77366],
        [75.45683, 22.76919],
        [75.47416, 22.77297],
        [75.48382, 22.76904],
        [75.49099, 22.76244],
        [75.48489, 22.75808],
        [75.48449, 22.74922],
        [75.4294, 22.72779],
        [75.41722, 22.70246],
        [75.41629, 22.6852],
        [75.39823, 22.6883],
        [75.39627, 22.68368],
        [75.38273, 22.68343],
        [75.37951, 22.66506],
        [75.37253, 22.65949],
        [75.36446, 22.63834],
        [75.34705, 22.64025],
        [75.3337, 22.65093],
        [75.32461, 22.65101],
        [75.30116, 22.6431],
        [75.27137, 22.64736],
        [75.24111, 22.6372],
        [75.23721, 22.6477],
        [75.2487, 22.66702],
        [75.24072, 22.69258],
        [75.22242, 22.68945],
        [75.22473, 22.69339],
        [75.19968, 22.69681],
        [75.20298, 22.72262],
        [75.17253, 22.7262],
        [75.16761, 22.73017],
        [75.14573, 22.72769],
        [75.1265, 22.74473],
        [75.12068, 22.75447],
        [75.13282, 22.79192],
        [75.11434, 22.79226],
        [75.11765, 22.80527],
        [75.13622, 22.81163],
        [75.15257, 22.83649],
        [75.15437, 22.85134],
        [75.14709, 22.86232],
        [75.15105, 22.87127],
        [75.14868, 22.88768],
        [75.1576, 22.89985],
        [75.15326, 22.91608],
        [75.14234, 22.91417],
        [75.12389, 22.89881],
        [75.12223, 22.94615],
        [75.1175, 22.95573],
        [75.08735, 22.9831],
        [75.08261, 22.98136],
        [75.07769, 22.99598],
        [75.08353, 23.00561],
        [75.00881, 22.99363],
        [75.01234, 23.01419],
        [75.00698, 23.02438],
        [75.01532, 23.03754],
        [75.00269, 23.05885],
        [75.00737, 23.07795],
        [75.01592, 23.08643],
        [75.00497, 23.11043],
        [75.03268, 23.1134],
        [75.04818, 23.1067],
        [75.08235, 23.10475],
        [75.10711, 23.10964],
        [75.10918, 23.11516],
        [75.11439, 23.10927],
        [75.13726, 23.10488],
        [75.15403, 23.10485],
        [75.15718, 23.10926],
        [75.16753, 23.10591],
        [75.18704, 23.09192],
        [75.23795, 23.0858]
      ]
    ]
  }
}
