{
  "type": "Feature",
  "id": "MP-AC-215",
  "properties": {
    "stateName": "MADHYA PRADESH",
    "stateCode": "MP",
    "districtName": null,
    "acNo": 215,
    "acName": "Ghatiya",
    "seatType": null,
    "pcNo": null,
    "pcName": null,
    "quality": "unverified",
    "sources": [
      "TBD"
    ]
  },
  "geometry": {
    "type": "Polygon",
    "coordinates": [
      [
        [75.91651, 23.42777],
        [75.92132, 23.4214],
        [75.93527, 23.41603],
        [75.94235, 23.40061],
        [75.96863, 23.39928],
        [75.96683, 23.38583],
        [75.98078, 23.38493],
        [75.98914, 23.37893],
        [75.9919, 23.35845],
        [75.97911, 23.35039],
        [75.9732, 23.32487],
        [75.96201, 23.31975],
        [75.94784, 23.32036],
        [75.94277, 23.29754],
        [75.93196, 23.29743],
        [75.93176, 23.27594],
        [75.92701, 23.27429],
        [75.93223, 23.22265],
        [75.95011, 23.22593],
        [75.95391, 23.21552],
        [75.95363, 23.17859],
        [75.9474, 23.15707],
        [75.94409, 23.15008],
        [75.92939, 23.14436],
        [75.93263, 23.13193],
        [75.95905, 23.12541],
        [75.95783, 23.10351],
        [75.97948, 23.10315],
        [75.98135, 23.08736],
        [75.98926, 23.08778],
        [75.99173, 23.07284],
        [75.98195, 23.07076],
        [75.97985, 23.03898],
        [75.97295, 23.03824],
        [75.97014, 23.03283],
        [75.96425, 23.02338],
        [75.95343, 23.02205],
        [75.92985, 23.02952],
        [75.92063, 23.02467],
        [75.90739, 23.02743],
        [75.8984, 23.01692],
        [75.90074, 23.0025],
        [75.89712, 23.00193],
        [75.88774, 23.00834],
        [75.88497, 23.02489],
        [75.89645, 23.03109],
        [75.8714, 23.05608],
        [75.87108, 23.08518],
        [75.88267, 23.08725],
        [75.83949, 23.10104],
        [75.83825, 23.09527],
        [75.82915, 23.09811],
        [75.81171, 23.09435],
        [75.80989, 23.1153],
        [75.80466, 23.11451],
        [75.8027, 23.12396],
        [75.78403, 23.12734],
        [75.78081, 23.14488],
        [75.77274, 23.15118],
        [75.77095, 23.16988],
        [75.7854, 23.17379],
        [75.80067, 23.18545],
        [75.80314, 23.20345],
        [75.79331, 23.20038],
        [75.79453, 23.21044],
        [75.78888, 23.21468],
        [75.78316, 23.20821],
        [75.77018, 23.21099],
        [75.73904, 23.20005],
        [75.72638, 23.17137],
        [75.71867, 23.16414],
        [75.71237, 23.16471],
        [75.70061, 23.17941],
        [75.68623, 23.17909],
        [75.68561, 23.18775],
        [75.66166, 23.18261],
        [75.65259, 23.17207],
        [75.64263, 23.17679],
        [75.63476, 23.17018],
        [75.6314, 23.15745],
        [75.62111, 23.15751],
        [75.61817, 23.17035],
        [75.57184, 23.16563],
        [75.57893, 23.18857],
        [75.57609, 23.247],
        [75.5644, 23.24239],
        [75.5546, 23.25159],
        [75.53532, 23.2521],
        [75.52852, 23.26311],
        [75.50402, 23.27179],
        [75.4959, 23.26374],
        [75.48442, 23.26246],
        [75.47586, 23.27355],
        [75.45923, 23.28338],
        [75.44299, 23.28219],
        [75.4429, 23.30023],
        [75.43492, 23.30246],
        [75.44679, 23.32218],
        [75.43704, 23.32582],
        [75.44292, 23.34471],
        [75.43929, 23.36367],
        [75.43377, 23.36857],
        [75.43605, 23.37812],
        [75.42848, 23.3882],
        [75.44187, 23.39834],
        [75.46198, 23.40521],
        [75.46651, 23.39099],
        [75.47582, 23.39495],
        [75.47995, 23.41974],
        [75.50182, 23.42385],
        [75.52187, 23.44302],
        [75.53659, 23.44176],
        [75.54284, 23.44652],
        [75.55306, 23.44315],
        [75.55052, 23.43252],
        [75.56113, 23.43303],
        [75.57138, 23.44958],
        [75.60051, 23.44899],
        [75.61565, 23.43894],
        [75.61069, 23.42341],
        [75.60064, 23.41316],
        [75.60923, 23.40511],
        [75.6088, 23.38941],
        [75.62667, 23.39377],
        [75.64711, 23.37111],
        [75.65712, 23.36925],
        [75.66199, 23.37412],
        [75.68792, 23.37704],
        [75.69584, 23.38617],
        [75.71054, 23.38963],
        [75.71965, 23.38011],
        [75.73388, 23.38019],
        [75.74243, 23.3638],
        [75.74799, 23.36334],
        [75.80045, 23.38507],
        [75.83449, 23.41163],
        [75.84701, 23.42899],
        [75.86969, 23.43659],
        [75.87238, 23.44637],
        [75.85699, 23.45202],
        [75.8627, 23.46332],
        [75.8824, 23.46165],
        [75.89446, 23.45475],
        [75.90949, 23.45817],
        [75.91651, 23.42777]
      ]
    ]
  }
}
