{
  "type": "Feature",
  "id": "MP-AC-56",
  "properties": {
    "stateName": "MADHYA PRADESH",
    "stateCode": "MP",
    "districtName": null,
    "acNo": 56,
    "acName": "Jabera",
    "seatType": null,
    "pcNo": null,
    "pcName": null,
    "quality": "unverified",
    "sources": [
      "TBD"
    ]
  },
  "geometry": {
    "type": "Polygon",
    "coordinates": [
      [
        [79.64041, 23.85244],
        [79.65271, 23.85884],
        [79.68218, 23.85587],
        [79.71804, 23.86825],
        [79.71219, 23.85088],
        [79.71411, 23.84216],
        [79.72589, 23.83914],
        [79.74265, 23.84216],
        [79.75289, 23.82762],
        [79.75339, 23.81408],
        [79.78366, 23.80871],
        [79.76136, 23.7942],
        [79.7688, 23.77732],
        [79.78435, 23.76848],
        [79.77971, 23.74439],
        [79.7871, 23.73753],
        [79.80766, 23.75791],
        [79.80797, 23.74315],
        [79.81782, 23.73744],
        [79.82309, 23.72051],
        [79.83612, 23.723],
        [79.83692, 23.71688],
        [79.82733, 23.70757],
        [79.82769, 23.69536],
        [79.83941, 23.69404],
        [79.86622, 23.70025],
        [79.8679, 23.69127],
        [79.88714, 23.68342],
        [79.90589, 23.68218],
        [79.91435, 23.68652],
        [79.92827, 23.67916],
        [79.93587, 23.68204],
        [79.93931, 23.6722],
        [79.95024, 23.66811],
        [79.95528, 23.65701],
        [79.94352, 23.64422],
        [79.95148, 23.62227],
        [79.94085, 23.6242],
        [79.92721, 23.6087],
        [79.92941, 23.59494],
        [79.91743, 23.58673],
        [79.90331, 23.58539],
        [79.90122, 23.5754],
        [79.8931, 23.57298],
        [79.89318, 23.5665],
        [79.87531, 23.55302],
        [79.87392, 23.54084],
        [79.84779, 23.50399],
        [79.83693, 23.511],
        [79.81657, 23.51332],
        [79.81975, 23.50782],
        [79.81007, 23.49866],
        [79.81519, 23.49216],
        [79.8022, 23.46599],
        [79.7873, 23.45988],
        [79.79324, 23.45525],
        [79.7815, 23.44087],
        [79.77408, 23.43936],
        [79.77131, 23.44591],
        [79.76738, 23.44526],
        [79.75899, 23.4321],
        [79.74127, 23.42971],
        [79.73777, 23.43659],
        [79.73543, 23.42631],
        [79.72442, 23.42545],
        [79.72477, 23.41887],
        [79.73297, 23.41976],
        [79.73321, 23.40954],
        [79.71966, 23.39841],
        [79.72236, 23.39379],
        [79.71715, 23.39214],
        [79.71933, 23.38571],
        [79.71242, 23.37163],
        [79.70405, 23.37565],
        [79.70277, 23.36106],
        [79.67466, 23.34347],
        [79.67441, 23.33832],
        [79.61567, 23.30968],
        [79.55805, 23.27328],
        [79.53195, 23.25966],
        [79.53105, 23.26588],
        [79.51586, 23.26821],
        [79.49807, 23.26151],
        [79.48818, 23.26391],
        [79.49278, 23.2614],
        [79.48664, 23.24963],
        [79.42213, 23.19353],
        [79.37081, 23.16753],
        [79.36517, 23.16513],
        [79.36356, 23.17078],
        [79.35557, 23.17105],
        [79.35401, 23.15753],
        [79.33159, 23.15077],
        [79.3343, 23.15977],
        [79.31669, 23.17944],
        [79.32166, 23.18915],
        [79.3055, 23.22387],
        [79.30552, 23.23318],
        [79.29279, 23.22161],
        [79.26751, 23.21731],
        [79.27021, 23.23486],
        [79.26191, 23.24462],
        [79.24515, 23.25004],
        [79.23, 23.25122],
        [79.23254, 23.24079],
        [79.22728, 23.22574],
        [79.21381, 23.2293],
        [79.20713, 23.23897],
        [79.19761, 23.24149],
        [79.1899, 23.22295],
        [79.17474, 23.22509],
        [79.17238, 23.25571],
        [79.18181, 23.25868],
        [79.20327, 23.25459],
        [79.21293, 23.26131],
        [79.22842, 23.29097],
        [79.23205, 23.29123],
        [79.23134, 23.29833],
        [79.2173, 23.30724],
        [79.2101, 23.31919],
        [79.23887, 23.34037],
        [79.21706, 23.35011],
        [79.21693, 23.36731],
        [79.20977, 23.36101],
        [79.1917, 23.36603],
        [79.18529, 23.40416],
        [79.19978, 23.40711],
        [79.20193, 23.41556],
        [79.18062, 23.42557],
        [79.18942, 23.43726],
        [79.19928, 23.44086],
        [79.2121, 23.43744],
        [79.22103, 23.43716],
        [79.22808, 23.46172],
        [79.23851, 23.4586],
        [79.24653, 23.46711],
        [79.25827, 23.4627],
        [79.26265, 23.47009],
        [79.26054, 23.47611],
        [79.2667, 23.48193],
        [79.2747, 23.47777],
        [79.2868, 23.4788],
        [79.29821, 23.45487],
        [79.31349, 23.44929],
        [79.31816, 23.45018],
        [79.3147, 23.45723],
        [79.32107, 23.46118],
        [79.3262, 23.45393],
        [79.33738, 23.45995],
        [79.3367, 23.47005],
        [79.342, 23.47411],
        [79.3661, 23.45585],
        [79.36547, 23.4666],
        [79.37193, 23.47667],
        [79.36706, 23.48184],
        [79.36958, 23.48779],
        [79.3809, 23.49151],
        [79.40221, 23.48935],
        [79.40833, 23.50916],
        [79.40119, 23.51448],
        [79.40233, 23.51874],
        [79.38585, 23.5192],
        [79.39946, 23.54442],
        [79.38374, 23.55047],
        [79.41557, 23.57826],
        [79.40984, 23.58619],
        [79.43522, 23.58253],
        [79.4527, 23.59115],
        [79.45681, 23.58758],
        [79.474, 23.59285],
        [79.46989, 23.60273],
        [79.46388, 23.60358],
        [79.46287, 23.61334],
        [79.47676, 23.6267],
        [79.45256, 23.65016],
        [79.46556, 23.64349],
        [79.49312, 23.64052],
        [79.49687, 23.65065],
        [79.48255, 23.66518],
        [79.48555, 23.67379],
        [79.49795, 23.67684],
        [79.50081, 23.68327],
        [79.5197, 23.6758],
        [79.52453, 23.66858],
        [79.52988, 23.66818],
        [79.52028, 23.67959],
        [79.53929, 23.67779],
        [79.54508, 23.67322],
        [79.5636, 23.6766],
        [79.5605, 23.7043],
        [79.54218, 23.71609],
        [79.57662, 23.71906],
        [79.58211, 23.73625],
        [79.58742, 23.7341],
        [79.59053, 23.74716],
        [79.59365, 23.75097],
        [79.59912, 23.74895],
        [79.6099, 23.76223],
        [79.65983, 23.77264],
        [79.64656, 23.77397],
        [79.6525, 23.78931],
        [79.64589, 23.79916],
        [79.65692, 23.8006],
        [79.63829, 23.82445],
        [79.62307, 23.83105],
        [79.62526, 23.84],
        [79.63653, 23.84336],
        [79.64041, 23.85244]
      ]
    ]
  }
}
