{
  "type": "Feature",
  "id": "MP-AC-72",
  "properties": {
    "stateName": "MADHYA PRADESH",
    "stateCode": "MP",
    "districtName": null,
    "acNo": 72,
    "acName": "Deotalab",
    "seatType": null,
    "pcNo": null,
    "pcName": null,
    "quality": "unverified",
    "sources": [
      "TBD"
    ]
  },
  "geometry": {
    "type": "Polygon",
    "coordinates": [
      [
        [81.81837, 24.80576],
        [81.8229, 24.78913],
        [81.80969, 24.77581],
        [81.81505, 24.77297],
        [81.82866, 24.7806],
        [81.83352, 24.76671],
        [81.83209, 24.75125],
        [81.83578, 24.75006],
        [81.83817, 24.75611],
        [81.87261, 24.74156],
        [81.87833, 24.7332],
        [81.89029, 24.72899],
        [81.89672, 24.71872],
        [81.89112, 24.71065],
        [81.87531, 24.70376],
        [81.86577, 24.70466],
        [81.86688, 24.69747],
        [81.85864, 24.69042],
        [81.86311, 24.68698],
        [81.82866, 24.69437],
        [81.82491, 24.68835],
        [81.83419, 24.67213],
        [81.83519, 24.65813],
        [81.81708, 24.64721],
        [81.82488, 24.63642],
        [81.84919, 24.6363],
        [81.84852, 24.62615],
        [81.84219, 24.61973],
        [81.84767, 24.60121],
        [81.8651, 24.584],
        [81.87913, 24.57856],
        [81.87749, 24.57071],
        [81.88598, 24.56991],
        [81.89038, 24.56478],
        [81.92597, 24.5804],
        [81.92841, 24.5701],
        [81.92095, 24.56087],
        [81.89304, 24.5538],
        [81.89656, 24.52683],
        [81.88833, 24.53046],
        [81.84075, 24.51679],
        [81.83731, 24.52014],
        [81.81904, 24.51018],
        [81.80256, 24.50962],
        [81.79357, 24.51557],
        [81.78434, 24.51058],
        [81.78574, 24.50355],
        [81.77808, 24.50133],
        [81.74053, 24.50047],
        [81.73663, 24.51085],
        [81.72833, 24.51092],
        [81.69072, 24.49568],
        [81.68545, 24.49752],
        [81.682, 24.5078],
        [81.68869, 24.52592],
        [81.67567, 24.53936],
        [81.67141, 24.55984],
        [81.64914, 24.55075],
        [81.64951, 24.55433],
        [81.63314, 24.55323],
        [81.62607, 24.55725],
        [81.62246, 24.54421],
        [81.61514, 24.54919],
        [81.5842, 24.54459],
        [81.58003, 24.54787],
        [81.58794, 24.55983],
        [81.56977, 24.54928],
        [81.56304, 24.55114],
        [81.56228, 24.55751],
        [81.5495, 24.55631],
        [81.54435, 24.55094],
        [81.53234, 24.55164],
        [81.52973, 24.53449],
        [81.5236, 24.53225],
        [81.50983, 24.54801],
        [81.53004, 24.56576],
        [81.51923, 24.57021],
        [81.50434, 24.58947],
        [81.50506, 24.59852],
        [81.49375, 24.60901],
        [81.52075, 24.6374],
        [81.53687, 24.64409],
        [81.5694, 24.64811],
        [81.57021, 24.65448],
        [81.58774, 24.65487],
        [81.58737, 24.66022],
        [81.60245, 24.66238],
        [81.60807, 24.67189],
        [81.62523, 24.66102],
        [81.62915, 24.6625],
        [81.64019, 24.67684],
        [81.63886, 24.69538],
        [81.62118, 24.70301],
        [81.61297, 24.71315],
        [81.60921, 24.70138],
        [81.60446, 24.69946],
        [81.59859, 24.70429],
        [81.59832, 24.71139],
        [81.60826, 24.70875],
        [81.61128, 24.72107],
        [81.6327, 24.72548],
        [81.6503, 24.73543],
        [81.65802, 24.74506],
        [81.67566, 24.73577],
        [81.69095, 24.73977],
        [81.69314, 24.74584],
        [81.6837, 24.75754],
        [81.68189, 24.77092],
        [81.67493, 24.77149],
        [81.68879, 24.78482],
        [81.69129, 24.77255],
        [81.70639, 24.77195],
        [81.70821, 24.76649],
        [81.71984, 24.76339],
        [81.73492, 24.77182],
        [81.75003, 24.76728],
        [81.76436, 24.77383],
        [81.77627, 24.78995],
        [81.75251, 24.80734],
        [81.7551, 24.81377],
        [81.76417, 24.80956],
        [81.76591, 24.81449],
        [81.759, 24.81926],
        [81.78351, 24.82602],
        [81.78435, 24.83214],
        [81.79459, 24.83976],
        [81.79619, 24.84946],
        [81.83102, 24.83294],
        [81.8329, 24.82952],
        [81.81837, 24.80576]
      ]
    ]
  }
}
