{
  "type": "Feature",
  "id": "MP-AC-8",
  "properties": {
    "stateName": "MADHYA PRADESH",
    "stateCode": "MP",
    "districtName": null,
    "acNo": 8,
    "acName": "Ambah",
    "seatType": null,
    "pcNo": null,
    "pcName": null,
    "quality": "unverified",
    "sources": [
      "TBD"
    ]
  },
  "geometry": {
    "type": "Polygon",
    "coordinates": [
      [
        [78.1681, 26.8137],
        [78.16849, 26.81619],
        [78.1693, 26.8213],
        [78.1787, 26.8259],
        [78.1787, 26.8259],
        [78.2022, 26.8218],
        [78.22164, 26.83012],
        [78.223, 26.8307],
        [78.2243, 26.8308],
        [78.2254, 26.8307],
        [78.2266, 26.8306],
        [78.2287, 26.8301],
        [78.2307, 26.8296],
        [78.2338, 26.8286],
        [78.237, 26.8274],
        [78.2403, 26.8259],
        [78.2429, 26.8248],
        [78.245, 26.8237],
        [78.246, 26.823],
        [78.2472, 26.822],
        [78.2486, 26.8205],
        [78.2499, 26.8197],
        [78.2525, 26.818],
        [78.2552, 26.8164],
        [78.2584, 26.8148],
        [78.2608, 26.8139],
        [78.264, 26.8133],
        [78.2663, 26.8133],
        [78.2674, 26.8134],
        [78.2688, 26.8136],
        [78.27, 26.814],
        [78.2709, 26.8145],
        [78.272, 26.8152],
        [78.2725, 26.8157],
        [78.2728, 26.8164],
        [78.2736, 26.8182],
        [78.2747, 26.8228],
        [78.275, 26.824],
        [78.27509, 26.82464],
        [78.27509, 26.82464],
        [78.27511, 26.82467],
        [78.2751, 26.82477],
        [78.2751, 26.8272],
        [78.2751, 26.8283],
        [78.2744, 26.832],
        [78.2738, 26.836],
        [78.2734, 26.8388],
        [78.2731, 26.8415],
        [78.2731, 26.8423],
        [78.2733, 26.8431],
        [78.2739, 26.8442],
        [78.275, 26.8459],
        [78.2767, 26.8486],
        [78.2779, 26.8503],
        [78.2791, 26.8518],
        [78.2799, 26.8526],
        [78.281, 26.8533],
        [78.2819, 26.854],
        [78.2842, 26.8552],
        [78.2874, 26.8568],
        [78.2893, 26.8576],
        [78.2918, 26.8584],
        [78.2939, 26.8589],
        [78.2964, 26.8596],
        [78.2985, 26.8604],
        [78.3003, 26.8611],
        [78.3021, 26.8618],
        [78.30423, 26.86236],
        [78.3044, 26.8624],
        [78.3072, 26.8627],
        [78.3099, 26.8629],
        [78.3136, 26.8629],
        [78.3165, 26.8631],
        [78.3195, 26.8631],
        [78.322, 26.8632],
        [78.3233, 26.8634],
        [78.3244, 26.8633],
        [78.3266, 26.8628],
        [78.3288, 26.8624],
        [78.3303, 26.8623],
        [78.3314, 26.8623],
        [78.3322, 26.8625],
        [78.3338, 26.8631],
        [78.3382, 26.8649],
        [78.3416, 26.8662],
        [78.3431, 26.8664],
        [78.3469, 26.8668],
        [78.3495, 26.8672],
        [78.3505, 26.8674],
        [78.352, 26.8681],
        [78.354, 26.8687],
        [78.356, 26.8692],
        [78.3584, 26.8694],
        [78.3605, 26.8694],
        [78.3626, 26.8692],
        [78.3638, 26.8689],
        [78.3662, 26.8681],
        [78.3679, 26.8673],
        [78.3691, 26.8667],
        [78.3701, 26.8659],
        [78.3713, 26.865],
        [78.3723, 26.8638],
        [78.3732, 26.8623],
        [78.374, 26.8604],
        [78.37512, 26.85742],
        [78.3755, 26.8564],
        [78.3765, 26.8534],
        [78.3776, 26.8506],
        [78.3793, 26.8472],
        [78.3804, 26.8446],
        [78.3823, 26.8408],
        [78.3837, 26.8385],
        [78.3853, 26.8364],
        [78.3861, 26.8349],
        [78.3885, 26.8307],
        [78.391, 26.8265],
        [78.3926, 26.8236],
        [78.3934, 26.8226],
        [78.3944, 26.8217],
        [78.3955, 26.8211],
        [78.3966, 26.8206],
        [78.3974, 26.82],
        [78.3989, 26.8185],
        [78.3995, 26.8183],
        [78.4002, 26.8181],
        [78.4012, 26.8181],
        [78.4036, 26.8181],
        [78.4053, 26.8184],
        [78.4077, 26.8189],
        [78.4108, 26.8197],
        [78.4153, 26.821],
        [78.421, 26.8229],
        [78.42138, 26.82304],
        [78.425, 26.8244],
        [78.4262, 26.8248],
        [78.4277, 26.8252],
        [78.4305, 26.8257],
        [78.4317, 26.8258],
        [78.4327, 26.8259],
        [78.4336, 26.8259],
        [78.4344, 26.8257],
        [78.4351, 26.8252],
        [78.4376, 26.8229],
        [78.439, 26.8215],
        [78.44, 26.8203],
        [78.4407, 26.8194],
        [78.443, 26.8161],
        [78.4453, 26.813],
        [78.4473, 26.8097],
        [78.4495, 26.8057],
        [78.45111, 26.80274],
        [78.4513, 26.8024],
        [78.4528, 26.7988],
        [78.4531, 26.7982],
        [78.4549, 26.7958],
        [78.4569, 26.7932],
        [78.4588, 26.7907],
        [78.4607, 26.7889],
        [78.46166, 26.78832],
        [78.46167, 26.78831],
        [78.46169, 26.78831],
        [78.4617, 26.7883],
        [78.4628, 26.7878],
        [78.4641, 26.7874],
        [78.4656, 26.7872],
        [78.4671, 26.7871],
        [78.4695, 26.7869],
        [78.4728, 26.7871],
        [78.4758, 26.7873],
        [78.4777, 26.7872],
        [78.4789, 26.787],
        [78.4809, 26.7866],
        [78.4836, 26.7859],
        [78.486, 26.7851],
        [78.4887, 26.7842],
        [78.4923, 26.7831],
        [78.4967, 26.7819],
        [78.4987, 26.7816],
        [78.5022, 26.7815],
        [78.5071, 26.7813],
        [78.5125, 26.781],
        [78.5151, 26.7809],
        [78.5178, 26.7808],
        [78.5201, 26.7806],
        [78.5212, 26.7805],
        [78.522, 26.7802],
        [78.5229, 26.7797],
        [78.5243, 26.7787],
        [78.5264, 26.7773],
        [78.5296, 26.7753],
        [78.5334, 26.7728],
        [78.536, 26.7708],
        [78.5382, 26.7692],
        [78.5399, 26.7676],
        [78.5418, 26.7658],
        [78.5439, 26.7644],
        [78.5449, 26.7637],
        [78.54547, 26.7636],
        [78.54049, 26.75956],
        [78.534, 26.73992],
        [78.5386, 26.73231],
        [78.52573, 26.73841],
        [78.51306, 26.72121],
        [78.52458, 26.70793],
        [78.51958, 26.69336],
        [78.53068, 26.68935],
        [78.52324, 26.68635],
        [78.52537, 26.67502],
        [78.51044, 26.68628],
        [78.50659, 26.67807],
        [78.49421, 26.66972],
        [78.48779, 26.67109],
        [78.48533, 26.67862],
        [78.48283, 26.67107],
        [78.47135, 26.67981],
        [78.46817, 26.67212],
        [78.45906, 26.67278],
        [78.46382, 26.66941],
        [78.46121, 26.66243],
        [78.46793, 26.64922],
        [78.44091, 26.6453],
        [78.43304, 26.63094],
        [78.44065, 26.62408],
        [78.43631, 26.62123],
        [78.43316, 26.62533],
        [78.4264, 26.61618],
        [78.43383, 26.61126],
        [78.42266, 26.60972],
        [78.42188, 26.60213],
        [78.41415, 26.60191],
        [78.42184, 26.59427],
        [78.41828, 26.59007],
        [78.4103, 26.58929],
        [78.4024, 26.60222],
        [78.38229, 26.60395],
        [78.392, 26.62507],
        [78.36853, 26.60736],
        [78.35738, 26.62117],
        [78.37194, 26.64413],
        [78.36669, 26.66464],
        [78.37772, 26.68084],
        [78.37602, 26.69045],
        [78.35836, 26.68712],
        [78.34693, 26.70185],
        [78.34041, 26.69653],
        [78.32369, 26.69514],
        [78.32373, 26.7205],
        [78.29974, 26.72482],
        [78.29403, 26.72981],
        [78.28818, 26.72779],
        [78.2844, 26.74498],
        [78.26739, 26.74558],
        [78.2495, 26.72361],
        [78.26788, 26.71369],
        [78.2629, 26.69937],
        [78.25245, 26.69882],
        [78.24459, 26.69],
        [78.23958, 26.69021],
        [78.23686, 26.68052],
        [78.2204, 26.68037],
        [78.21934, 26.68857],
        [78.21155, 26.69585],
        [78.19884, 26.69716],
        [78.20421, 26.71096],
        [78.20164, 26.7164],
        [78.20918, 26.72487],
        [78.17597, 26.73967],
        [78.19654, 26.7744],
        [78.19325, 26.78281],
        [78.1858, 26.78561],
        [78.18614, 26.79184],
        [78.1864, 26.7965],
        [78.1681, 26.8137]
      ]
    ]
  }
}
