{
  "type": "Feature",
  "id": "MP-AC-96",
  "properties": {
    "stateName": "MADHYA PRADESH",
    "stateCode": "MP",
    "districtName": null,
    "acNo": 96,
    "acName": "Bargi",
    "seatType": null,
    "pcNo": null,
    "pcName": null,
    "quality": "unverified",
    "sources": [
      "TBD"
    ]
  },
  "geometry": {
    "type": "Polygon",
    "coordinates": [
      [
        [79.5683, 23.23907],
        [79.55755, 23.23975],
        [79.54963, 23.22857],
        [79.58699, 23.22199],
        [79.58809, 23.21209],
        [79.60318, 23.20435],
        [79.61251, 23.18816],
        [79.61691, 23.19172],
        [79.61705, 23.20197],
        [79.62749, 23.20284],
        [79.62114, 23.21286],
        [79.62668, 23.22262],
        [79.64858, 23.21101],
        [79.65011, 23.20614],
        [79.65854, 23.21242],
        [79.66589, 23.21115],
        [79.68185, 23.19059],
        [79.69074, 23.19104],
        [79.69698, 23.1976],
        [79.70899, 23.19637],
        [79.7162, 23.20239],
        [79.72584, 23.1995],
        [79.73181, 23.21348],
        [79.74178, 23.20539],
        [79.75636, 23.20862],
        [79.75704, 23.20202],
        [79.77094, 23.1996],
        [79.77831, 23.20028],
        [79.78254, 23.20623],
        [79.79518, 23.20463],
        [79.81246, 23.19138],
        [79.82221, 23.19556],
        [79.83486, 23.19031],
        [79.85062, 23.19348],
        [79.85072, 23.18538],
        [79.86309, 23.19137],
        [79.87307, 23.18977],
        [79.87626, 23.18003],
        [79.87257, 23.16574],
        [79.86153, 23.15542],
        [79.87777, 23.14412],
        [79.87178, 23.13911],
        [79.85165, 23.14406],
        [79.8423, 23.12556],
        [79.8416, 23.11837],
        [79.85006, 23.11268],
        [79.84703, 23.09507],
        [79.86677, 23.09775],
        [79.90996, 23.08707],
        [79.9176, 23.09796],
        [79.93281, 23.0922],
        [79.94486, 23.09547],
        [79.96894, 23.08716],
        [79.97142, 23.08245],
        [79.96242, 23.07403],
        [79.95789, 23.03168],
        [79.97371, 23.01216],
        [79.98225, 23.01392],
        [79.9933, 23.02534],
        [79.99076, 23.01377],
        [79.99922, 23.0162],
        [80.00602, 23.00577],
        [79.9916, 22.99675],
        [80.00546, 22.97922],
        [79.99897, 22.9793],
        [79.95118, 22.94618],
        [79.95443, 22.93668],
        [79.9743, 22.91734],
        [79.96909, 22.91554],
        [79.96816, 22.90847],
        [79.96893, 22.8895],
        [79.97543, 22.88547],
        [79.96217, 22.87099],
        [79.96658, 22.86618],
        [79.96376, 22.85207],
        [79.94021, 22.86073],
        [79.92489, 22.85713],
        [79.90651, 22.84532],
        [79.90196, 22.8639],
        [79.88626, 22.8605],
        [79.88272, 22.85063],
        [79.87027, 22.85578],
        [79.86381, 22.85214],
        [79.85434, 22.83361],
        [79.83947, 22.83108],
        [79.81847, 22.84845],
        [79.82033, 22.87125],
        [79.80021, 22.86318],
        [79.78453, 22.84651],
        [79.7651, 22.84496],
        [79.75903, 22.86086],
        [79.78133, 22.87935],
        [79.75038, 22.89899],
        [79.74426, 22.89681],
        [79.75143, 22.91352],
        [79.74899, 22.92075],
        [79.68529, 22.92367],
        [79.68673, 22.92979],
        [79.65648, 22.92339],
        [79.64878, 22.92633],
        [79.63954, 22.9444],
        [79.63197, 22.94389],
        [79.62253, 22.95549],
        [79.62266, 22.96767],
        [79.63844, 22.9709],
        [79.64324, 22.9786],
        [79.62794, 22.99302],
        [79.61515, 22.99251],
        [79.61627, 23.00351],
        [79.60532, 23.01091],
        [79.60867, 23.01936],
        [79.5904, 23.02349],
        [79.59885, 23.03479],
        [79.59379, 23.04426],
        [79.60001, 23.05283],
        [79.59646, 23.05905],
        [79.60792, 23.06819],
        [79.60863, 23.08768],
        [79.60208, 23.08369],
        [79.60011, 23.0917],
        [79.61375, 23.09046],
        [79.6077, 23.09815],
        [79.61554, 23.10517],
        [79.58106, 23.11225],
        [79.57148, 23.13439],
        [79.51566, 23.1435],
        [79.45845, 23.09792],
        [79.43562, 23.10824],
        [79.40161, 23.10048],
        [79.38308, 23.11297],
        [79.3627, 23.10594],
        [79.3474, 23.10745],
        [79.35768, 23.13054],
        [79.35134, 23.13857],
        [79.37255, 23.15608],
        [79.37081, 23.16753],
        [79.42213, 23.19353],
        [79.48664, 23.24963],
        [79.49278, 23.2614],
        [79.48818, 23.26391],
        [79.49807, 23.26151],
        [79.51586, 23.26821],
        [79.53105, 23.26588],
        [79.53195, 23.25966],
        [79.55805, 23.27328],
        [79.57075, 23.25852],
        [79.5683, 23.23907]
      ]
    ]
  }
}
